<?xml version="1.0" encoding="UTF-8"?>
<gpx xmlns:xsi="http://www.w3.org/2001/XMLSchema-instance" version="1.1" creator="The Outbound Collective, Inc. 1.1.1 -- https://www.theoutbound.com" xsi:schemaLocation="http://www.topografix.com/GPX/1/1 http://www.topografix.com/GPX/1/1/gpx.xsd">
  <metadata>
    <name/>
    <time>2026-02-19T21:52:30+00:00</time>
    <bound minlat="37.72181" minlon="-119.566045761" maxlat="37.734838088" maxlon="-119.53036"/>
  </metadata>
  <trk>
    <name/>
    <trkseg>
      <trkpt lat="37.734816965" lon="-119.566045761">
        <ele>1228.0</ele>
      </trkpt>
      <trkpt lat="37.734838088" lon="-119.566037978">
        <ele>1228.0</ele>
      </trkpt>
      <trkpt lat="37.73483" lon="-119.56604">
        <ele>1228.0</ele>
      </trkpt>
      <trkpt lat="37.73483" lon="-119.56604">
        <ele>1228.0</ele>
      </trkpt>
      <trkpt lat="37.73459" lon="-119.56569">
        <ele>1242.0</ele>
      </trkpt>
      <trkpt lat="37.73449" lon="-119.56544">
        <ele>1242.0</ele>
      </trkpt>
      <trkpt lat="37.73389" lon="-119.5644">
        <ele>1250.0</ele>
      </trkpt>
      <trkpt lat="37.73352" lon="-119.56367">
        <ele>1252.0</ele>
      </trkpt>
      <trkpt lat="37.73317" lon="-119.56318">
        <ele>1255.0</ele>
      </trkpt>
      <trkpt lat="37.7329" lon="-119.56272">
        <ele>1254.0</ele>
      </trkpt>
      <trkpt lat="37.73258" lon="-119.56234">
        <ele>1248.0</ele>
      </trkpt>
      <trkpt lat="37.73226" lon="-119.56201">
        <ele>1248.0</ele>
      </trkpt>
      <trkpt lat="37.73204" lon="-119.56181">
        <ele>1247.0</ele>
      </trkpt>
      <trkpt lat="37.73204" lon="-119.56181">
        <ele>1247.0</ele>
      </trkpt>
      <trkpt lat="37.732060914" lon="-119.561789086">
        <ele>1236.0</ele>
      </trkpt>
      <trkpt lat="37.732059211" lon="-119.561790789">
        <ele>1236.0</ele>
      </trkpt>
      <trkpt lat="37.7321" lon="-119.56175">
        <ele>1243.0</ele>
      </trkpt>
      <trkpt lat="37.73241" lon="-119.5616">
        <ele>1244.0</ele>
      </trkpt>
      <trkpt lat="37.73277" lon="-119.56151">
        <ele>1245.0</ele>
      </trkpt>
      <trkpt lat="37.73288" lon="-119.56141">
        <ele>1245.0</ele>
      </trkpt>
      <trkpt lat="37.73295" lon="-119.56143">
        <ele>1245.0</ele>
      </trkpt>
      <trkpt lat="37.732952555" lon="-119.561427592">
        <ele>1245.0</ele>
      </trkpt>
      <trkpt lat="37.732957332" lon="-119.561435554">
        <ele>1245.0</ele>
      </trkpt>
      <trkpt lat="37.732958025" lon="-119.561436708">
        <ele>1245.0</ele>
      </trkpt>
      <trkpt lat="37.732952555" lon="-119.561427592">
        <ele>1245.0</ele>
      </trkpt>
      <trkpt lat="37.732952555" lon="-119.561427592">
        <ele>1245.0</ele>
      </trkpt>
      <trkpt lat="37.7329" lon="-119.56134">
        <ele>1245.0</ele>
      </trkpt>
      <trkpt lat="37.7329" lon="-119.56134">
        <ele>1245.0</ele>
      </trkpt>
      <trkpt lat="37.73283" lon="-119.56121">
        <ele>1242.0</ele>
      </trkpt>
      <trkpt lat="37.73283" lon="-119.56121">
        <ele>1242.0</ele>
      </trkpt>
      <trkpt lat="37.73256" lon="-119.56083">
        <ele>1231.0</ele>
      </trkpt>
      <trkpt lat="37.73236" lon="-119.55994">
        <ele>1248.0</ele>
      </trkpt>
      <trkpt lat="37.73238" lon="-119.55974">
        <ele>1255.0</ele>
      </trkpt>
      <trkpt lat="37.73238" lon="-119.55974">
        <ele>1255.0</ele>
      </trkpt>
      <trkpt lat="37.73233" lon="-119.55953">
        <ele>1255.0</ele>
      </trkpt>
      <trkpt lat="37.73233" lon="-119.55953">
        <ele>1255.0</ele>
      </trkpt>
      <trkpt lat="37.73232" lon="-119.55929">
        <ele>1250.0</ele>
      </trkpt>
      <trkpt lat="37.73232" lon="-119.55929">
        <ele>1250.0</ele>
      </trkpt>
      <trkpt lat="37.732312568" lon="-119.559278265">
        <ele>1250.0</ele>
      </trkpt>
      <trkpt lat="37.732312342" lon="-119.559277909">
        <ele>1250.0</ele>
      </trkpt>
      <trkpt lat="37.73232" lon="-119.55929">
        <ele>1250.0</ele>
      </trkpt>
      <trkpt lat="37.73232" lon="-119.55929">
        <ele>1250.0</ele>
      </trkpt>
      <trkpt lat="37.73232" lon="-119.55929">
        <ele>1250.0</ele>
      </trkpt>
      <trkpt lat="37.7325" lon="-119.5593">
        <ele>1250.0</ele>
      </trkpt>
      <trkpt lat="37.7325" lon="-119.5593">
        <ele>1250.0</ele>
      </trkpt>
      <trkpt lat="37.732497377" lon="-119.559316613">
        <ele>1252.0</ele>
      </trkpt>
      <trkpt lat="37.732498077" lon="-119.55931218">
        <ele>1252.0</ele>
      </trkpt>
      <trkpt lat="37.7325" lon="-119.5593">
        <ele>1250.0</ele>
      </trkpt>
      <trkpt lat="37.7325" lon="-119.5593">
        <ele>1250.0</ele>
      </trkpt>
      <trkpt lat="37.73257" lon="-119.55876">
        <ele>1241.0</ele>
      </trkpt>
      <trkpt lat="37.73257" lon="-119.55876">
        <ele>1241.0</ele>
      </trkpt>
      <trkpt lat="37.732629669" lon="-119.558257077">
        <ele>1240.0</ele>
      </trkpt>
      <trkpt lat="37.732629669" lon="-119.558257077">
        <ele>1240.0</ele>
      </trkpt>
      <trkpt lat="37.73264" lon="-119.55817">
        <ele>1230.0</ele>
      </trkpt>
      <trkpt lat="37.73264" lon="-119.55817">
        <ele>1230.0</ele>
      </trkpt>
      <trkpt lat="37.73278" lon="-119.55782">
        <ele>1236.0</ele>
      </trkpt>
      <trkpt lat="37.73278" lon="-119.55782">
        <ele>1236.0</ele>
      </trkpt>
      <trkpt lat="37.732751022" lon="-119.557826101">
        <ele>1236.0</ele>
      </trkpt>
      <trkpt lat="37.732752239" lon="-119.557825844">
        <ele>1236.0</ele>
      </trkpt>
      <trkpt lat="37.7324" lon="-119.5579">
        <ele>1243.0</ele>
      </trkpt>
      <trkpt lat="37.73218" lon="-119.55798">
        <ele>1246.0</ele>
      </trkpt>
      <trkpt lat="37.73207" lon="-119.55805">
        <ele>1250.0</ele>
      </trkpt>
      <trkpt lat="37.73207" lon="-119.55805">
        <ele>1250.0</ele>
      </trkpt>
      <trkpt lat="37.73166" lon="-119.55828">
        <ele>1247.0</ele>
      </trkpt>
      <trkpt lat="37.73117" lon="-119.55838">
        <ele>1246.0</ele>
      </trkpt>
      <trkpt lat="37.73094" lon="-119.55829">
        <ele>1243.0</ele>
      </trkpt>
      <trkpt lat="37.73067" lon="-119.55806">
        <ele>1251.0</ele>
      </trkpt>
      <trkpt lat="37.73006" lon="-119.5579">
        <ele>1271.0</ele>
      </trkpt>
      <trkpt lat="37.72977" lon="-119.55787">
        <ele>1273.0</ele>
      </trkpt>
      <trkpt lat="37.72939" lon="-119.55791">
        <ele>1275.0</ele>
      </trkpt>
      <trkpt lat="37.72898" lon="-119.558">
        <ele>1276.0</ele>
      </trkpt>
      <trkpt lat="37.72795" lon="-119.55835">
        <ele>1291.0</ele>
      </trkpt>
      <trkpt lat="37.72709" lon="-119.55848">
        <ele>1287.0</ele>
      </trkpt>
      <trkpt lat="37.72697" lon="-119.55847">
        <ele>1302.0</ele>
      </trkpt>
      <trkpt lat="37.72684" lon="-119.55852">
        <ele>1288.0</ele>
      </trkpt>
      <trkpt lat="37.72676" lon="-119.55852">
        <ele>1289.0</ele>
      </trkpt>
      <trkpt lat="37.72671" lon="-119.5583">
        <ele>1293.0</ele>
      </trkpt>
      <trkpt lat="37.72658" lon="-119.55817">
        <ele>1303.0</ele>
      </trkpt>
      <trkpt lat="37.72655" lon="-119.55808">
        <ele>1303.0</ele>
      </trkpt>
      <trkpt lat="37.72652" lon="-119.55764">
        <ele>1298.0</ele>
      </trkpt>
      <trkpt lat="37.72646" lon="-119.55745">
        <ele>1301.0</ele>
      </trkpt>
      <trkpt lat="37.72631" lon="-119.55714">
        <ele>1304.0</ele>
      </trkpt>
      <trkpt lat="37.72624" lon="-119.55695">
        <ele>1295.0</ele>
      </trkpt>
      <trkpt lat="37.72619" lon="-119.55667">
        <ele>1298.0</ele>
      </trkpt>
      <trkpt lat="37.72624" lon="-119.5564">
        <ele>1302.0</ele>
      </trkpt>
      <trkpt lat="37.72623" lon="-119.55618">
        <ele>1309.0</ele>
      </trkpt>
      <trkpt lat="37.72606" lon="-119.55582">
        <ele>1313.0</ele>
      </trkpt>
      <trkpt lat="37.72601" lon="-119.55554">
        <ele>1316.0</ele>
      </trkpt>
      <trkpt lat="37.72607" lon="-119.55521">
        <ele>1317.0</ele>
      </trkpt>
      <trkpt lat="37.72621" lon="-119.55495">
        <ele>1318.0</ele>
      </trkpt>
      <trkpt lat="37.7263" lon="-119.55485">
        <ele>1333.0</ele>
      </trkpt>
      <trkpt lat="37.72645" lon="-119.55426">
        <ele>1340.0</ele>
      </trkpt>
      <trkpt lat="37.72639" lon="-119.55396">
        <ele>1348.0</ele>
      </trkpt>
      <trkpt lat="37.72624" lon="-119.55354">
        <ele>1343.0</ele>
      </trkpt>
      <trkpt lat="37.72621" lon="-119.55322">
        <ele>1350.0</ele>
      </trkpt>
      <trkpt lat="37.72621" lon="-119.55322">
        <ele>1350.0</ele>
      </trkpt>
      <trkpt lat="37.72622" lon="-119.55293">
        <ele>1357.0</ele>
      </trkpt>
      <trkpt lat="37.726225618" lon="-119.552901908">
        <ele>1360.0</ele>
      </trkpt>
      <trkpt lat="37.726227265" lon="-119.552893675">
        <ele>1360.0</ele>
      </trkpt>
      <trkpt lat="37.72625" lon="-119.55278">
        <ele>1360.0</ele>
      </trkpt>
      <trkpt lat="37.72632" lon="-119.55212">
        <ele>1375.0</ele>
      </trkpt>
      <trkpt lat="37.72631" lon="-119.55196">
        <ele>1372.0</ele>
      </trkpt>
      <trkpt lat="37.72626" lon="-119.55173">
        <ele>1371.0</ele>
      </trkpt>
      <trkpt lat="37.72615" lon="-119.55164">
        <ele>1364.0</ele>
      </trkpt>
      <trkpt lat="37.72615" lon="-119.55164">
        <ele>1364.0</ele>
      </trkpt>
      <trkpt lat="37.72589" lon="-119.55151">
        <ele>1367.0</ele>
      </trkpt>
      <trkpt lat="37.72589" lon="-119.55151">
        <ele>1367.0</ele>
      </trkpt>
      <trkpt lat="37.72573" lon="-119.55134">
        <ele>1367.0</ele>
      </trkpt>
      <trkpt lat="37.72594" lon="-119.55117">
        <ele>1373.0</ele>
      </trkpt>
      <trkpt lat="37.72602" lon="-119.55101">
        <ele>1370.0</ele>
      </trkpt>
      <trkpt lat="37.72606" lon="-119.5506">
        <ele>1381.0</ele>
      </trkpt>
      <trkpt lat="37.72601" lon="-119.54998">
        <ele>1391.0</ele>
      </trkpt>
      <trkpt lat="37.72601" lon="-119.54998">
        <ele>1391.0</ele>
      </trkpt>
      <trkpt lat="37.72601" lon="-119.54998">
        <ele>1391.0</ele>
      </trkpt>
      <trkpt lat="37.72603" lon="-119.54981">
        <ele>1398.0</ele>
      </trkpt>
      <trkpt lat="37.72619" lon="-119.54926">
        <ele>1420.0</ele>
      </trkpt>
      <trkpt lat="37.72623" lon="-119.54879">
        <ele>1432.0</ele>
      </trkpt>
      <trkpt lat="37.72623" lon="-119.54879">
        <ele>1432.0</ele>
      </trkpt>
      <trkpt lat="37.72625" lon="-119.5479">
        <ele>1453.0</ele>
      </trkpt>
      <trkpt lat="37.7263" lon="-119.54764">
        <ele>1430.0</ele>
      </trkpt>
      <trkpt lat="37.72622" lon="-119.54702">
        <ele>1485.0</ele>
      </trkpt>
      <trkpt lat="37.72624" lon="-119.54673">
        <ele>1502.0</ele>
      </trkpt>
      <trkpt lat="37.7264" lon="-119.5463">
        <ele>1489.0</ele>
      </trkpt>
      <trkpt lat="37.7264" lon="-119.5463">
        <ele>1489.0</ele>
      </trkpt>
      <trkpt lat="37.72651" lon="-119.54611">
        <ele>1515.0</ele>
      </trkpt>
      <trkpt lat="37.72674" lon="-119.54587">
        <ele>1507.0</ele>
      </trkpt>
      <trkpt lat="37.72677" lon="-119.54565">
        <ele>1522.0</ele>
      </trkpt>
      <trkpt lat="37.72685" lon="-119.54561">
        <ele>1498.0</ele>
      </trkpt>
      <trkpt lat="37.72682" lon="-119.54555">
        <ele>1498.0</ele>
      </trkpt>
      <trkpt lat="37.72674" lon="-119.54557">
        <ele>1522.0</ele>
      </trkpt>
      <trkpt lat="37.72686" lon="-119.5454">
        <ele>1511.0</ele>
      </trkpt>
      <trkpt lat="37.72682" lon="-119.54532">
        <ele>1511.0</ele>
      </trkpt>
      <trkpt lat="37.72686" lon="-119.54525">
        <ele>1511.0</ele>
      </trkpt>
      <trkpt lat="37.72681" lon="-119.54523">
        <ele>1511.0</ele>
      </trkpt>
      <trkpt lat="37.72686" lon="-119.54509">
        <ele>1520.0</ele>
      </trkpt>
      <trkpt lat="37.72682" lon="-119.54494">
        <ele>1520.0</ele>
      </trkpt>
      <trkpt lat="37.72675" lon="-119.54484">
        <ele>1554.0</ele>
      </trkpt>
      <trkpt lat="37.72675" lon="-119.5447">
        <ele>1554.0</ele>
      </trkpt>
      <trkpt lat="37.72664" lon="-119.54466">
        <ele>1554.0</ele>
      </trkpt>
      <trkpt lat="37.72669" lon="-119.54455">
        <ele>1561.0</ele>
      </trkpt>
      <trkpt lat="37.7267" lon="-119.54445">
        <ele>1561.0</ele>
      </trkpt>
      <trkpt lat="37.72664" lon="-119.54433">
        <ele>1561.0</ele>
      </trkpt>
      <trkpt lat="37.72658" lon="-119.54387">
        <ele>1571.0</ele>
      </trkpt>
      <trkpt lat="37.72663" lon="-119.54342">
        <ele>1575.0</ele>
      </trkpt>
      <trkpt lat="37.7266" lon="-119.54334">
        <ele>1575.0</ele>
      </trkpt>
      <trkpt lat="37.72661" lon="-119.54304">
        <ele>1577.0</ele>
      </trkpt>
      <trkpt lat="37.72677" lon="-119.54291">
        <ele>1577.0</ele>
      </trkpt>
      <trkpt lat="37.72677" lon="-119.54291">
        <ele>1577.0</ele>
      </trkpt>
      <trkpt lat="37.72688" lon="-119.54291">
        <ele>1562.0</ele>
      </trkpt>
      <trkpt lat="37.72699" lon="-119.54302">
        <ele>1562.0</ele>
      </trkpt>
      <trkpt lat="37.7272" lon="-119.54334">
        <ele>1545.0</ele>
      </trkpt>
      <trkpt lat="37.72725" lon="-119.54337">
        <ele>1545.0</ele>
      </trkpt>
      <trkpt lat="37.72729" lon="-119.54334">
        <ele>1545.0</ele>
      </trkpt>
      <trkpt lat="37.72729" lon="-119.54322">
        <ele>1545.0</ele>
      </trkpt>
      <trkpt lat="37.72723" lon="-119.54305">
        <ele>1549.0</ele>
      </trkpt>
      <trkpt lat="37.7273" lon="-119.54283">
        <ele>1552.0</ele>
      </trkpt>
      <trkpt lat="37.72714" lon="-119.54212">
        <ele>1551.0</ele>
      </trkpt>
      <trkpt lat="37.72714" lon="-119.54212">
        <ele>1551.0</ele>
      </trkpt>
      <trkpt lat="37.72714" lon="-119.54212">
        <ele>1551.0</ele>
      </trkpt>
      <trkpt lat="37.72698" lon="-119.54184">
        <ele>1558.0</ele>
      </trkpt>
      <trkpt lat="37.72687" lon="-119.54173">
        <ele>1561.0</ele>
      </trkpt>
      <trkpt lat="37.72672" lon="-119.54164">
        <ele>1567.0</ele>
      </trkpt>
      <trkpt lat="37.72661" lon="-119.54163">
        <ele>1567.0</ele>
      </trkpt>
      <trkpt lat="37.72653" lon="-119.54167">
        <ele>1567.0</ele>
      </trkpt>
      <trkpt lat="37.72648" lon="-119.54182">
        <ele>1583.0</ele>
      </trkpt>
      <trkpt lat="37.72644" lon="-119.54183">
        <ele>1583.0</ele>
      </trkpt>
      <trkpt lat="37.72627" lon="-119.54152">
        <ele>1576.0</ele>
      </trkpt>
      <trkpt lat="37.72626" lon="-119.54148">
        <ele>1576.0</ele>
      </trkpt>
      <trkpt lat="37.72626" lon="-119.54148">
        <ele>1576.0</ele>
      </trkpt>
      <trkpt lat="37.72618913" lon="-119.541557313">
        <ele>1591.0</ele>
      </trkpt>
      <trkpt lat="37.72626" lon="-119.54148">
        <ele>1576.0</ele>
      </trkpt>
      <trkpt lat="37.72626" lon="-119.54148">
        <ele>1576.0</ele>
      </trkpt>
      <trkpt lat="37.7262" lon="-119.54124">
        <ele>1587.0</ele>
      </trkpt>
      <trkpt lat="37.72621" lon="-119.54108">
        <ele>1587.0</ele>
      </trkpt>
      <trkpt lat="37.72616" lon="-119.54094">
        <ele>1586.0</ele>
      </trkpt>
      <trkpt lat="37.72625" lon="-119.54082">
        <ele>1586.0</ele>
      </trkpt>
      <trkpt lat="37.7263" lon="-119.5407">
        <ele>1580.0</ele>
      </trkpt>
      <trkpt lat="37.72629" lon="-119.54056">
        <ele>1586.0</ele>
      </trkpt>
      <trkpt lat="37.72635" lon="-119.54042">
        <ele>1586.0</ele>
      </trkpt>
      <trkpt lat="37.72635" lon="-119.54042">
        <ele>1586.0</ele>
      </trkpt>
      <trkpt lat="37.72652" lon="-119.54025">
        <ele>1592.0</ele>
      </trkpt>
      <trkpt lat="37.72652" lon="-119.54025">
        <ele>1592.0</ele>
      </trkpt>
      <trkpt lat="37.72661" lon="-119.54">
        <ele>1589.0</ele>
      </trkpt>
      <trkpt lat="37.72656" lon="-119.53953">
        <ele>1601.0</ele>
      </trkpt>
      <trkpt lat="37.72662" lon="-119.53939">
        <ele>1601.0</ele>
      </trkpt>
      <trkpt lat="37.7268" lon="-119.53919">
        <ele>1607.0</ele>
      </trkpt>
      <trkpt lat="37.72701" lon="-119.53898">
        <ele>1609.0</ele>
      </trkpt>
      <trkpt lat="37.72733" lon="-119.53856">
        <ele>1611.0</ele>
      </trkpt>
      <trkpt lat="37.72748" lon="-119.53842">
        <ele>1621.0</ele>
      </trkpt>
      <trkpt lat="37.72764" lon="-119.53837">
        <ele>1624.0</ele>
      </trkpt>
      <trkpt lat="37.72773" lon="-119.53824">
        <ele>1624.0</ele>
      </trkpt>
      <trkpt lat="37.72776" lon="-119.53813">
        <ele>1624.0</ele>
      </trkpt>
      <trkpt lat="37.72772" lon="-119.53799">
        <ele>1624.0</ele>
      </trkpt>
      <trkpt lat="37.72767" lon="-119.53795">
        <ele>1624.0</ele>
      </trkpt>
      <trkpt lat="37.72744" lon="-119.53794">
        <ele>1623.0</ele>
      </trkpt>
      <trkpt lat="37.72708" lon="-119.5378">
        <ele>1624.0</ele>
      </trkpt>
      <trkpt lat="37.72656" lon="-119.53747">
        <ele>1628.0</ele>
      </trkpt>
      <trkpt lat="37.72644" lon="-119.53732">
        <ele>1627.0</ele>
      </trkpt>
      <trkpt lat="37.72659" lon="-119.5371">
        <ele>1632.0</ele>
      </trkpt>
      <trkpt lat="37.72665" lon="-119.5368">
        <ele>1642.0</ele>
      </trkpt>
      <trkpt lat="37.72663" lon="-119.53658">
        <ele>1642.0</ele>
      </trkpt>
      <trkpt lat="37.72667" lon="-119.53639">
        <ele>1643.0</ele>
      </trkpt>
      <trkpt lat="37.72667" lon="-119.53625">
        <ele>1645.0</ele>
      </trkpt>
      <trkpt lat="37.72653" lon="-119.53611">
        <ele>1645.0</ele>
      </trkpt>
      <trkpt lat="37.72652" lon="-119.53579">
        <ele>1642.0</ele>
      </trkpt>
      <trkpt lat="37.72642" lon="-119.53566">
        <ele>1651.0</ele>
      </trkpt>
      <trkpt lat="37.72619" lon="-119.53564">
        <ele>1641.0</ele>
      </trkpt>
      <trkpt lat="37.72611" lon="-119.53557">
        <ele>1641.0</ele>
      </trkpt>
      <trkpt lat="37.72605" lon="-119.53539">
        <ele>1651.0</ele>
      </trkpt>
      <trkpt lat="37.72611" lon="-119.53532">
        <ele>1651.0</ele>
      </trkpt>
      <trkpt lat="37.72626" lon="-119.53532">
        <ele>1657.0</ele>
      </trkpt>
      <trkpt lat="37.72619" lon="-119.53517">
        <ele>1651.0</ele>
      </trkpt>
      <trkpt lat="37.7263" lon="-119.53513">
        <ele>1664.0</ele>
      </trkpt>
      <trkpt lat="37.72621" lon="-119.53498">
        <ele>1663.0</ele>
      </trkpt>
      <trkpt lat="37.72632" lon="-119.53495">
        <ele>1664.0</ele>
      </trkpt>
      <trkpt lat="37.72642" lon="-119.535">
        <ele>1664.0</ele>
      </trkpt>
      <trkpt lat="37.72654" lon="-119.53502">
        <ele>1669.0</ele>
      </trkpt>
      <trkpt lat="37.72675" lon="-119.53485">
        <ele>1675.0</ele>
      </trkpt>
      <trkpt lat="37.72673" lon="-119.53468">
        <ele>1675.0</ele>
      </trkpt>
      <trkpt lat="37.72656" lon="-119.53441">
        <ele>1684.0</ele>
      </trkpt>
      <trkpt lat="37.72653" lon="-119.53418">
        <ele>1695.0</ele>
      </trkpt>
      <trkpt lat="37.72649" lon="-119.53404">
        <ele>1690.0</ele>
      </trkpt>
      <trkpt lat="37.72637" lon="-119.53397">
        <ele>1703.0</ele>
      </trkpt>
      <trkpt lat="37.72634" lon="-119.53392">
        <ele>1703.0</ele>
      </trkpt>
      <trkpt lat="37.72624" lon="-119.53396">
        <ele>1706.0</ele>
      </trkpt>
      <trkpt lat="37.72614" lon="-119.53384">
        <ele>1706.0</ele>
      </trkpt>
      <trkpt lat="37.72626" lon="-119.53375">
        <ele>1723.0</ele>
      </trkpt>
      <trkpt lat="37.72616" lon="-119.53363">
        <ele>1729.0</ele>
      </trkpt>
      <trkpt lat="37.72625" lon="-119.53364">
        <ele>1729.0</ele>
      </trkpt>
      <trkpt lat="37.7262" lon="-119.53353">
        <ele>1729.0</ele>
      </trkpt>
      <trkpt lat="37.72634" lon="-119.53347">
        <ele>1760.0</ele>
      </trkpt>
      <trkpt lat="37.72627" lon="-119.53336">
        <ele>1760.0</ele>
      </trkpt>
      <trkpt lat="37.72637" lon="-119.53333">
        <ele>1760.0</ele>
      </trkpt>
      <trkpt lat="37.72643" lon="-119.53327">
        <ele>1760.0</ele>
      </trkpt>
      <trkpt lat="37.72635" lon="-119.53318">
        <ele>1791.0</ele>
      </trkpt>
      <trkpt lat="37.72645" lon="-119.53313">
        <ele>1791.0</ele>
      </trkpt>
      <trkpt lat="37.72635" lon="-119.53305">
        <ele>1791.0</ele>
      </trkpt>
      <trkpt lat="37.72645" lon="-119.533">
        <ele>1791.0</ele>
      </trkpt>
      <trkpt lat="37.72639" lon="-119.53293">
        <ele>1791.0</ele>
      </trkpt>
      <trkpt lat="37.72643" lon="-119.53278">
        <ele>1820.0</ele>
      </trkpt>
      <trkpt lat="37.72638" lon="-119.53272">
        <ele>1820.0</ele>
      </trkpt>
      <trkpt lat="37.72649" lon="-119.53264">
        <ele>1820.0</ele>
      </trkpt>
      <trkpt lat="37.72634" lon="-119.5325">
        <ele>1840.0</ele>
      </trkpt>
      <trkpt lat="37.72644" lon="-119.53242">
        <ele>1840.0</ele>
      </trkpt>
      <trkpt lat="37.72633" lon="-119.53234">
        <ele>1853.0</ele>
      </trkpt>
      <trkpt lat="37.72636" lon="-119.53211">
        <ele>1853.0</ele>
      </trkpt>
      <trkpt lat="37.7262" lon="-119.53194">
        <ele>1841.0</ele>
      </trkpt>
      <trkpt lat="37.72615" lon="-119.53181">
        <ele>1841.0</ele>
      </trkpt>
      <trkpt lat="37.72624" lon="-119.53174">
        <ele>1840.0</ele>
      </trkpt>
      <trkpt lat="37.72626" lon="-119.53156">
        <ele>1854.0</ele>
      </trkpt>
      <trkpt lat="37.72622" lon="-119.53125">
        <ele>1830.0</ele>
      </trkpt>
      <trkpt lat="37.72622" lon="-119.53125">
        <ele>1830.0</ele>
      </trkpt>
      <trkpt lat="37.72621" lon="-119.53121">
        <ele>1830.0</ele>
      </trkpt>
      <trkpt lat="37.72615" lon="-119.53116">
        <ele>1830.0</ele>
      </trkpt>
      <trkpt lat="37.72622" lon="-119.53105">
        <ele>1830.0</ele>
      </trkpt>
      <trkpt lat="37.72614" lon="-119.53084">
        <ele>1831.0</ele>
      </trkpt>
      <trkpt lat="37.72626" lon="-119.53081">
        <ele>1834.0</ele>
      </trkpt>
      <trkpt lat="37.72621" lon="-119.53072">
        <ele>1831.0</ele>
      </trkpt>
      <trkpt lat="37.72635" lon="-119.53068">
        <ele>1832.0</ele>
      </trkpt>
      <trkpt lat="37.72625" lon="-119.53051">
        <ele>1832.0</ele>
      </trkpt>
      <trkpt lat="37.72614" lon="-119.53045">
        <ele>1832.0</ele>
      </trkpt>
      <trkpt lat="37.72614" lon="-119.53036">
        <ele>1834.0</ele>
      </trkpt>
      <trkpt lat="37.72614" lon="-119.53036">
        <ele>1834.0</ele>
      </trkpt>
      <trkpt lat="37.726228156" lon="-119.53036">
        <ele>1834.0</ele>
      </trkpt>
      <trkpt lat="37.72622556" lon="-119.53036">
        <ele>1834.0</ele>
      </trkpt>
      <trkpt lat="37.72614" lon="-119.53036">
        <ele>1834.0</ele>
      </trkpt>
      <trkpt lat="37.72614" lon="-119.53036">
        <ele>1834.0</ele>
      </trkpt>
      <trkpt lat="37.72594" lon="-119.53045">
        <ele>1832.0</ele>
      </trkpt>
      <trkpt lat="37.72586" lon="-119.53074">
        <ele>1829.0</ele>
      </trkpt>
      <trkpt lat="37.72574" lon="-119.53101">
        <ele>1827.0</ele>
      </trkpt>
      <trkpt lat="37.72571" lon="-119.53125">
        <ele>1827.0</ele>
      </trkpt>
      <trkpt lat="37.72571" lon="-119.53125">
        <ele>1827.0</ele>
      </trkpt>
      <trkpt lat="37.72562" lon="-119.53157">
        <ele>1823.0</ele>
      </trkpt>
      <trkpt lat="37.72549" lon="-119.5318">
        <ele>1823.0</ele>
      </trkpt>
      <trkpt lat="37.72529" lon="-119.53233">
        <ele>1817.0</ele>
      </trkpt>
      <trkpt lat="37.72486" lon="-119.533">
        <ele>1815.0</ele>
      </trkpt>
      <trkpt lat="37.72482" lon="-119.53301">
        <ele>1815.0</ele>
      </trkpt>
      <trkpt lat="37.72482" lon="-119.53301">
        <ele>1815.0</ele>
      </trkpt>
      <trkpt lat="37.72462" lon="-119.53306">
        <ele>1815.0</ele>
      </trkpt>
      <trkpt lat="37.72462" lon="-119.53306">
        <ele>1815.0</ele>
      </trkpt>
      <trkpt lat="37.72421" lon="-119.53346">
        <ele>1824.0</ele>
      </trkpt>
      <trkpt lat="37.72383" lon="-119.5336">
        <ele>1827.0</ele>
      </trkpt>
      <trkpt lat="37.72374" lon="-119.53369">
        <ele>1835.0</ele>
      </trkpt>
      <trkpt lat="37.72361" lon="-119.53396">
        <ele>1830.0</ele>
      </trkpt>
      <trkpt lat="37.72347" lon="-119.53414">
        <ele>1825.0</ele>
      </trkpt>
      <trkpt lat="37.72323" lon="-119.53432">
        <ele>1820.0</ele>
      </trkpt>
      <trkpt lat="37.72304" lon="-119.53453">
        <ele>1823.0</ele>
      </trkpt>
      <trkpt lat="37.72285" lon="-119.5346">
        <ele>1825.0</ele>
      </trkpt>
      <trkpt lat="37.72261" lon="-119.53477">
        <ele>1836.0</ele>
      </trkpt>
      <trkpt lat="37.72259" lon="-119.53488">
        <ele>1838.0</ele>
      </trkpt>
      <trkpt lat="37.72246" lon="-119.53506">
        <ele>1838.0</ele>
      </trkpt>
      <trkpt lat="37.7224" lon="-119.53521">
        <ele>1838.0</ele>
      </trkpt>
      <trkpt lat="37.7224" lon="-119.53521">
        <ele>1838.0</ele>
      </trkpt>
      <trkpt lat="37.72234" lon="-119.53562">
        <ele>1849.0</ele>
      </trkpt>
      <trkpt lat="37.72224" lon="-119.53595">
        <ele>1853.0</ele>
      </trkpt>
      <trkpt lat="37.72214" lon="-119.53616">
        <ele>1854.0</ele>
      </trkpt>
      <trkpt lat="37.72198" lon="-119.53673">
        <ele>1858.0</ele>
      </trkpt>
      <trkpt lat="37.72185" lon="-119.537">
        <ele>1853.0</ele>
      </trkpt>
      <trkpt lat="37.72181" lon="-119.53716">
        <ele>1845.0</ele>
      </trkpt>
      <trkpt lat="37.72183" lon="-119.53756">
        <ele>1839.0</ele>
      </trkpt>
      <trkpt lat="37.72199" lon="-119.53843">
        <ele>1820.0</ele>
      </trkpt>
      <trkpt lat="37.722" lon="-119.53865">
        <ele>1818.0</ele>
      </trkpt>
      <trkpt lat="37.72198" lon="-119.53884">
        <ele>1817.0</ele>
      </trkpt>
      <trkpt lat="37.72204" lon="-119.53911">
        <ele>1821.0</ele>
      </trkpt>
      <trkpt lat="37.72215" lon="-119.5393">
        <ele>1804.0</ele>
      </trkpt>
      <trkpt lat="37.7222" lon="-119.53945">
        <ele>1811.0</ele>
      </trkpt>
      <trkpt lat="37.72229" lon="-119.53991">
        <ele>1816.0</ele>
      </trkpt>
      <trkpt lat="37.72223" lon="-119.54025">
        <ele>1818.0</ele>
      </trkpt>
      <trkpt lat="37.72218" lon="-119.54039">
        <ele>1818.0</ele>
      </trkpt>
      <trkpt lat="37.72212" lon="-119.54074">
        <ele>1821.0</ele>
      </trkpt>
      <trkpt lat="37.72214" lon="-119.54093">
        <ele>1821.0</ele>
      </trkpt>
      <trkpt lat="37.7222" lon="-119.54097">
        <ele>1821.0</ele>
      </trkpt>
      <trkpt lat="37.72228" lon="-119.54071">
        <ele>1821.0</ele>
      </trkpt>
      <trkpt lat="37.72238" lon="-119.54057">
        <ele>1787.0</ele>
      </trkpt>
      <trkpt lat="37.72261" lon="-119.53988">
        <ele>1794.0</ele>
      </trkpt>
      <trkpt lat="37.72267" lon="-119.53974">
        <ele>1779.0</ele>
      </trkpt>
      <trkpt lat="37.7227" lon="-119.53972">
        <ele>1779.0</ele>
      </trkpt>
      <trkpt lat="37.72277" lon="-119.5399">
        <ele>1776.0</ele>
      </trkpt>
      <trkpt lat="37.7228" lon="-119.54005">
        <ele>1776.0</ele>
      </trkpt>
      <trkpt lat="37.72278" lon="-119.54021">
        <ele>1770.0</ele>
      </trkpt>
      <trkpt lat="37.7226" lon="-119.54077">
        <ele>1783.0</ele>
      </trkpt>
      <trkpt lat="37.72256" lon="-119.54104">
        <ele>1784.0</ele>
      </trkpt>
      <trkpt lat="37.72263" lon="-119.5415">
        <ele>1788.0</ele>
      </trkpt>
      <trkpt lat="37.72275" lon="-119.5419">
        <ele>1769.0</ele>
      </trkpt>
      <trkpt lat="37.72286" lon="-119.54215">
        <ele>1775.0</ele>
      </trkpt>
      <trkpt lat="37.72286" lon="-119.54229">
        <ele>1775.0</ele>
      </trkpt>
      <trkpt lat="37.72289" lon="-119.5424">
        <ele>1780.0</ele>
      </trkpt>
      <trkpt lat="37.72305" lon="-119.54265">
        <ele>1756.0</ele>
      </trkpt>
      <trkpt lat="37.72314" lon="-119.54294">
        <ele>1755.0</ele>
      </trkpt>
      <trkpt lat="37.72329" lon="-119.54316">
        <ele>1731.0</ele>
      </trkpt>
      <trkpt lat="37.72341" lon="-119.5434">
        <ele>1733.0</ele>
      </trkpt>
      <trkpt lat="37.72351" lon="-119.54374">
        <ele>1722.0</ele>
      </trkpt>
      <trkpt lat="37.72377" lon="-119.5442">
        <ele>1724.0</ele>
      </trkpt>
      <trkpt lat="37.72381" lon="-119.54439">
        <ele>1733.0</ele>
      </trkpt>
      <trkpt lat="37.72386" lon="-119.54442">
        <ele>1733.0</ele>
      </trkpt>
      <trkpt lat="37.72383" lon="-119.54393">
        <ele>1718.0</ele>
      </trkpt>
      <trkpt lat="37.72379" lon="-119.54372">
        <ele>1713.0</ele>
      </trkpt>
      <trkpt lat="37.72379" lon="-119.54336">
        <ele>1713.0</ele>
      </trkpt>
      <trkpt lat="37.7241" lon="-119.54392">
        <ele>1706.0</ele>
      </trkpt>
      <trkpt lat="37.72415" lon="-119.54418">
        <ele>1709.0</ele>
      </trkpt>
      <trkpt lat="37.7242" lon="-119.54431">
        <ele>1714.0</ele>
      </trkpt>
      <trkpt lat="37.72428" lon="-119.54442">
        <ele>1714.0</ele>
      </trkpt>
      <trkpt lat="37.72442" lon="-119.54497">
        <ele>1700.0</ele>
      </trkpt>
      <trkpt lat="37.72449" lon="-119.54497">
        <ele>1700.0</ele>
      </trkpt>
      <trkpt lat="37.72464" lon="-119.54481">
        <ele>1683.0</ele>
      </trkpt>
      <trkpt lat="37.72469" lon="-119.54515">
        <ele>1688.0</ele>
      </trkpt>
      <trkpt lat="37.72475" lon="-119.54533">
        <ele>1688.0</ele>
      </trkpt>
      <trkpt lat="37.72482" lon="-119.54537">
        <ele>1688.0</ele>
      </trkpt>
      <trkpt lat="37.724860223" lon="-119.545306792">
        <ele>1688.0</ele>
      </trkpt>
      <trkpt lat="37.724859995" lon="-119.545307151">
        <ele>1688.0</ele>
      </trkpt>
      <trkpt lat="37.72496" lon="-119.54515">
        <ele>1677.0</ele>
      </trkpt>
      <trkpt lat="37.72501756" lon="-119.544944429">
        <ele>1676.0</ele>
      </trkpt>
      <trkpt lat="37.72501756" lon="-119.544944429">
        <ele>1676.0</ele>
      </trkpt>
      <trkpt lat="37.72503" lon="-119.5449">
        <ele>1676.0</ele>
      </trkpt>
      <trkpt lat="37.72503" lon="-119.5449">
        <ele>1676.0</ele>
      </trkpt>
      <trkpt lat="37.72507" lon="-119.54521">
        <ele>1677.0</ele>
      </trkpt>
      <trkpt lat="37.72507" lon="-119.54551">
        <ele>1674.0</ele>
      </trkpt>
      <trkpt lat="37.72497" lon="-119.5457">
        <ele>1669.0</ele>
      </trkpt>
      <trkpt lat="37.72487" lon="-119.54578">
        <ele>1669.0</ele>
      </trkpt>
      <trkpt lat="37.72482" lon="-119.54609">
        <ele>1673.0</ele>
      </trkpt>
      <trkpt lat="37.72476" lon="-119.54622">
        <ele>1673.0</ele>
      </trkpt>
      <trkpt lat="37.72467" lon="-119.54634">
        <ele>1666.0</ele>
      </trkpt>
      <trkpt lat="37.72461" lon="-119.54639">
        <ele>1666.0</ele>
      </trkpt>
      <trkpt lat="37.72456" lon="-119.54639">
        <ele>1679.0</ele>
      </trkpt>
      <trkpt lat="37.72421" lon="-119.54609">
        <ele>1700.0</ele>
      </trkpt>
      <trkpt lat="37.72411" lon="-119.54604">
        <ele>1700.0</ele>
      </trkpt>
      <trkpt lat="37.72394" lon="-119.54602">
        <ele>1724.0</ele>
      </trkpt>
      <trkpt lat="37.72382" lon="-119.54606">
        <ele>1724.0</ele>
      </trkpt>
      <trkpt lat="37.7236" lon="-119.54622">
        <ele>1765.0</ele>
      </trkpt>
      <trkpt lat="37.72357" lon="-119.54629">
        <ele>1757.0</ele>
      </trkpt>
      <trkpt lat="37.72374" lon="-119.54623">
        <ele>1765.0</ele>
      </trkpt>
      <trkpt lat="37.72391" lon="-119.54627">
        <ele>1724.0</ele>
      </trkpt>
      <trkpt lat="37.72402" lon="-119.54636">
        <ele>1724.0</ele>
      </trkpt>
      <trkpt lat="37.72399" lon="-119.54638">
        <ele>1724.0</ele>
      </trkpt>
      <trkpt lat="37.7239" lon="-119.54635">
        <ele>1724.0</ele>
      </trkpt>
      <trkpt lat="37.72381" lon="-119.54636">
        <ele>1724.0</ele>
      </trkpt>
      <trkpt lat="37.72367" lon="-119.54643">
        <ele>1757.0</ele>
      </trkpt>
      <trkpt lat="37.72358" lon="-119.5466">
        <ele>1721.0</ele>
      </trkpt>
      <trkpt lat="37.72364" lon="-119.54662">
        <ele>1721.0</ele>
      </trkpt>
      <trkpt lat="37.72377" lon="-119.54657">
        <ele>1720.0</ele>
      </trkpt>
      <trkpt lat="37.72381" lon="-119.54659">
        <ele>1720.0</ele>
      </trkpt>
      <trkpt lat="37.72379" lon="-119.54665">
        <ele>1720.0</ele>
      </trkpt>
      <trkpt lat="37.72359" lon="-119.54682">
        <ele>1690.0</ele>
      </trkpt>
      <trkpt lat="37.7235" lon="-119.54695">
        <ele>1690.0</ele>
      </trkpt>
      <trkpt lat="37.72391" lon="-119.54687">
        <ele>1697.0</ele>
      </trkpt>
      <trkpt lat="37.72389" lon="-119.54693">
        <ele>1697.0</ele>
      </trkpt>
      <trkpt lat="37.72364" lon="-119.54708">
        <ele>1690.0</ele>
      </trkpt>
      <trkpt lat="37.72354" lon="-119.54724">
        <ele>1666.0</ele>
      </trkpt>
      <trkpt lat="37.72365" lon="-119.54733">
        <ele>1666.0</ele>
      </trkpt>
      <trkpt lat="37.72359" lon="-119.54738">
        <ele>1669.0</ele>
      </trkpt>
      <trkpt lat="37.72356" lon="-119.54757">
        <ele>1669.0</ele>
      </trkpt>
      <trkpt lat="37.72357" lon="-119.54776">
        <ele>1680.0</ele>
      </trkpt>
      <trkpt lat="37.72352" lon="-119.54795">
        <ele>1664.0</ele>
      </trkpt>
      <trkpt lat="37.72348" lon="-119.54807">
        <ele>1664.0</ele>
      </trkpt>
      <trkpt lat="37.72339" lon="-119.54812">
        <ele>1709.0</ele>
      </trkpt>
      <trkpt lat="37.72353" lon="-119.54823">
        <ele>1659.0</ele>
      </trkpt>
      <trkpt lat="37.72335" lon="-119.54834">
        <ele>1698.0</ele>
      </trkpt>
      <trkpt lat="37.72327" lon="-119.54844">
        <ele>1698.0</ele>
      </trkpt>
      <trkpt lat="37.7232" lon="-119.54864">
        <ele>1689.0</ele>
      </trkpt>
      <trkpt lat="37.72303" lon="-119.549">
        <ele>1709.0</ele>
      </trkpt>
      <trkpt lat="37.72292" lon="-119.54915">
        <ele>1679.0</ele>
      </trkpt>
      <trkpt lat="37.72279" lon="-119.54925">
        <ele>1717.0</ele>
      </trkpt>
      <trkpt lat="37.72269" lon="-119.54936">
        <ele>1688.0</ele>
      </trkpt>
      <trkpt lat="37.72262" lon="-119.54949">
        <ele>1782.0</ele>
      </trkpt>
      <trkpt lat="37.72259" lon="-119.54959">
        <ele>1702.0</ele>
      </trkpt>
      <trkpt lat="37.722597111" lon="-119.549611333">
        <ele>1702.0</ele>
      </trkpt>
      <trkpt lat="37.72259336" lon="-119.54960008">
        <ele>1702.0</ele>
      </trkpt>
      <trkpt lat="37.72261" lon="-119.54965">
        <ele>1702.0</ele>
      </trkpt>
      <trkpt lat="37.72282" lon="-119.54949">
        <ele>1688.0</ele>
      </trkpt>
      <trkpt lat="37.72326" lon="-119.54927">
        <ele>1653.0</ele>
      </trkpt>
      <trkpt lat="37.72362" lon="-119.54895">
        <ele>1640.0</ele>
      </trkpt>
      <trkpt lat="37.7238" lon="-119.54869">
        <ele>1625.0</ele>
      </trkpt>
      <trkpt lat="37.72403" lon="-119.54845">
        <ele>1619.0</ele>
      </trkpt>
      <trkpt lat="37.72419" lon="-119.54837">
        <ele>1619.0</ele>
      </trkpt>
      <trkpt lat="37.72436" lon="-119.54836">
        <ele>1578.0</ele>
      </trkpt>
      <trkpt lat="37.72437" lon="-119.5484">
        <ele>1578.0</ele>
      </trkpt>
      <trkpt lat="37.72426" lon="-119.54848">
        <ele>1604.0</ele>
      </trkpt>
      <trkpt lat="37.72412" lon="-119.54869">
        <ele>1604.0</ele>
      </trkpt>
      <trkpt lat="37.72405" lon="-119.54888">
        <ele>1583.0</ele>
      </trkpt>
      <trkpt lat="37.72406" lon="-119.549">
        <ele>1583.0</ele>
      </trkpt>
      <trkpt lat="37.72414" lon="-119.54902">
        <ele>1583.0</ele>
      </trkpt>
      <trkpt lat="37.72427" lon="-119.54894">
        <ele>1583.0</ele>
      </trkpt>
      <trkpt lat="37.72448" lon="-119.54875">
        <ele>1561.0</ele>
      </trkpt>
      <trkpt lat="37.72466" lon="-119.54864">
        <ele>1529.0</ele>
      </trkpt>
      <trkpt lat="37.72495" lon="-119.54835">
        <ele>1538.0</ele>
      </trkpt>
      <trkpt lat="37.725" lon="-119.54835">
        <ele>1538.0</ele>
      </trkpt>
      <trkpt lat="37.72464" lon="-119.5493">
        <ele>1517.0</ele>
      </trkpt>
      <trkpt lat="37.72463" lon="-119.54946">
        <ele>1486.0</ele>
      </trkpt>
      <trkpt lat="37.72469" lon="-119.54947">
        <ele>1486.0</ele>
      </trkpt>
      <trkpt lat="37.72475" lon="-119.54943">
        <ele>1486.0</ele>
      </trkpt>
      <trkpt lat="37.72492" lon="-119.54925">
        <ele>1487.0</ele>
      </trkpt>
      <trkpt lat="37.72523" lon="-119.54899">
        <ele>1483.0</ele>
      </trkpt>
      <trkpt lat="37.72538" lon="-119.54879">
        <ele>1483.0</ele>
      </trkpt>
      <trkpt lat="37.72554" lon="-119.54864">
        <ele>1469.0</ele>
      </trkpt>
      <trkpt lat="37.7256" lon="-119.54863">
        <ele>1469.0</ele>
      </trkpt>
      <trkpt lat="37.72561" lon="-119.5487">
        <ele>1469.0</ele>
      </trkpt>
      <trkpt lat="37.72558" lon="-119.54878">
        <ele>1457.0</ele>
      </trkpt>
      <trkpt lat="37.72521" lon="-119.54948">
        <ele>1455.0</ele>
      </trkpt>
      <trkpt lat="37.72518" lon="-119.54959">
        <ele>1445.0</ele>
      </trkpt>
      <trkpt lat="37.72521" lon="-119.54969">
        <ele>1445.0</ele>
      </trkpt>
      <trkpt lat="37.72529" lon="-119.54969">
        <ele>1445.0</ele>
      </trkpt>
      <trkpt lat="37.72537" lon="-119.5496">
        <ele>1445.0</ele>
      </trkpt>
      <trkpt lat="37.7255" lon="-119.5494">
        <ele>1433.0</ele>
      </trkpt>
      <trkpt lat="37.72595" lon="-119.54912">
        <ele>1439.0</ele>
      </trkpt>
      <trkpt lat="37.72623" lon="-119.54879">
        <ele>1432.0</ele>
      </trkpt>
      <trkpt lat="37.72623" lon="-119.54879">
        <ele>1432.0</ele>
      </trkpt>
      <trkpt lat="37.726215461" lon="-119.548960832">
        <ele>1432.0</ele>
      </trkpt>
      <trkpt lat="37.726216284" lon="-119.54895116">
        <ele>1432.0</ele>
      </trkpt>
      <trkpt lat="37.72619" lon="-119.54926">
        <ele>1420.0</ele>
      </trkpt>
      <trkpt lat="37.72603" lon="-119.54981">
        <ele>1398.0</ele>
      </trkpt>
      <trkpt lat="37.72601" lon="-119.54998">
        <ele>1391.0</ele>
      </trkpt>
      <trkpt lat="37.72601" lon="-119.54998">
        <ele>1391.0</ele>
      </trkpt>
      <trkpt lat="37.72601" lon="-119.54998">
        <ele>1391.0</ele>
      </trkpt>
      <trkpt lat="37.72606" lon="-119.5506">
        <ele>1381.0</ele>
      </trkpt>
      <trkpt lat="37.72602" lon="-119.55101">
        <ele>1370.0</ele>
      </trkpt>
      <trkpt lat="37.72594" lon="-119.55117">
        <ele>1373.0</ele>
      </trkpt>
      <trkpt lat="37.72573" lon="-119.55134">
        <ele>1367.0</ele>
      </trkpt>
      <trkpt lat="37.72589" lon="-119.55151">
        <ele>1367.0</ele>
      </trkpt>
      <trkpt lat="37.72589" lon="-119.55151">
        <ele>1367.0</ele>
      </trkpt>
      <trkpt lat="37.72615" lon="-119.55164">
        <ele>1364.0</ele>
      </trkpt>
      <trkpt lat="37.72615" lon="-119.55164">
        <ele>1364.0</ele>
      </trkpt>
      <trkpt lat="37.72626" lon="-119.55173">
        <ele>1371.0</ele>
      </trkpt>
      <trkpt lat="37.72631" lon="-119.55196">
        <ele>1372.0</ele>
      </trkpt>
      <trkpt lat="37.72632" lon="-119.55212">
        <ele>1375.0</ele>
      </trkpt>
      <trkpt lat="37.72625" lon="-119.55278">
        <ele>1360.0</ele>
      </trkpt>
      <trkpt lat="37.72622" lon="-119.55293">
        <ele>1357.0</ele>
      </trkpt>
      <trkpt lat="37.72621" lon="-119.55322">
        <ele>1350.0</ele>
      </trkpt>
      <trkpt lat="37.72621" lon="-119.55322">
        <ele>1350.0</ele>
      </trkpt>
      <trkpt lat="37.72624" lon="-119.55354">
        <ele>1343.0</ele>
      </trkpt>
      <trkpt lat="37.72639" lon="-119.55396">
        <ele>1348.0</ele>
      </trkpt>
      <trkpt lat="37.72645" lon="-119.55426">
        <ele>1340.0</ele>
      </trkpt>
      <trkpt lat="37.7263" lon="-119.55485">
        <ele>1333.0</ele>
      </trkpt>
      <trkpt lat="37.72621" lon="-119.55495">
        <ele>1318.0</ele>
      </trkpt>
      <trkpt lat="37.72607" lon="-119.55521">
        <ele>1317.0</ele>
      </trkpt>
      <trkpt lat="37.72601" lon="-119.55554">
        <ele>1316.0</ele>
      </trkpt>
      <trkpt lat="37.72606" lon="-119.55582">
        <ele>1313.0</ele>
      </trkpt>
      <trkpt lat="37.72623" lon="-119.55618">
        <ele>1309.0</ele>
      </trkpt>
      <trkpt lat="37.72624" lon="-119.5564">
        <ele>1302.0</ele>
      </trkpt>
      <trkpt lat="37.72619" lon="-119.55667">
        <ele>1298.0</ele>
      </trkpt>
      <trkpt lat="37.72624" lon="-119.55695">
        <ele>1295.0</ele>
      </trkpt>
      <trkpt lat="37.72631" lon="-119.55714">
        <ele>1304.0</ele>
      </trkpt>
      <trkpt lat="37.72646" lon="-119.55745">
        <ele>1301.0</ele>
      </trkpt>
      <trkpt lat="37.72652" lon="-119.55764">
        <ele>1298.0</ele>
      </trkpt>
      <trkpt lat="37.72655" lon="-119.55808">
        <ele>1303.0</ele>
      </trkpt>
      <trkpt lat="37.72658" lon="-119.55817">
        <ele>1303.0</ele>
      </trkpt>
      <trkpt lat="37.72671" lon="-119.5583">
        <ele>1293.0</ele>
      </trkpt>
      <trkpt lat="37.72676" lon="-119.55852">
        <ele>1289.0</ele>
      </trkpt>
      <trkpt lat="37.72684" lon="-119.55852">
        <ele>1288.0</ele>
      </trkpt>
      <trkpt lat="37.72697" lon="-119.55847">
        <ele>1302.0</ele>
      </trkpt>
      <trkpt lat="37.72709" lon="-119.55848">
        <ele>1287.0</ele>
      </trkpt>
      <trkpt lat="37.72795" lon="-119.55835">
        <ele>1291.0</ele>
      </trkpt>
      <trkpt lat="37.728789123" lon="-119.558064861">
        <ele>1276.0</ele>
      </trkpt>
      <trkpt lat="37.72879089" lon="-119.558064261">
        <ele>1276.0</ele>
      </trkpt>
      <trkpt lat="37.72898" lon="-119.558">
        <ele>1276.0</ele>
      </trkpt>
      <trkpt lat="37.72939" lon="-119.55791">
        <ele>1275.0</ele>
      </trkpt>
      <trkpt lat="37.72977" lon="-119.55787">
        <ele>1273.0</ele>
      </trkpt>
      <trkpt lat="37.73006" lon="-119.5579">
        <ele>1271.0</ele>
      </trkpt>
      <trkpt lat="37.73067" lon="-119.55806">
        <ele>1251.0</ele>
      </trkpt>
      <trkpt lat="37.73094" lon="-119.55829">
        <ele>1243.0</ele>
      </trkpt>
      <trkpt lat="37.73117" lon="-119.55838">
        <ele>1246.0</ele>
      </trkpt>
      <trkpt lat="37.73166" lon="-119.55828">
        <ele>1247.0</ele>
      </trkpt>
      <trkpt lat="37.73207" lon="-119.55805">
        <ele>1250.0</ele>
      </trkpt>
      <trkpt lat="37.73207" lon="-119.55805">
        <ele>1250.0</ele>
      </trkpt>
      <trkpt lat="37.73218" lon="-119.55798">
        <ele>1246.0</ele>
      </trkpt>
      <trkpt lat="37.7324" lon="-119.5579">
        <ele>1243.0</ele>
      </trkpt>
      <trkpt lat="37.73278" lon="-119.55782">
        <ele>1236.0</ele>
      </trkpt>
      <trkpt lat="37.73278" lon="-119.55782">
        <ele>1236.0</ele>
      </trkpt>
      <trkpt lat="37.73264" lon="-119.55817">
        <ele>1230.0</ele>
      </trkpt>
      <trkpt lat="37.73264" lon="-119.55817">
        <ele>1230.0</ele>
      </trkpt>
      <trkpt lat="37.732629669" lon="-119.558257077">
        <ele>1240.0</ele>
      </trkpt>
      <trkpt lat="37.732629669" lon="-119.558257077">
        <ele>1240.0</ele>
      </trkpt>
      <trkpt lat="37.73257" lon="-119.55876">
        <ele>1241.0</ele>
      </trkpt>
      <trkpt lat="37.73257" lon="-119.55876">
        <ele>1241.0</ele>
      </trkpt>
      <trkpt lat="37.7325" lon="-119.5593">
        <ele>1250.0</ele>
      </trkpt>
      <trkpt lat="37.7325" lon="-119.5593">
        <ele>1250.0</ele>
      </trkpt>
      <trkpt lat="37.73232" lon="-119.55929">
        <ele>1250.0</ele>
      </trkpt>
      <trkpt lat="37.73232" lon="-119.55929">
        <ele>1250.0</ele>
      </trkpt>
      <trkpt lat="37.73232" lon="-119.55929">
        <ele>1250.0</ele>
      </trkpt>
      <trkpt lat="37.73233" lon="-119.55953">
        <ele>1255.0</ele>
      </trkpt>
      <trkpt lat="37.73233" lon="-119.55953">
        <ele>1255.0</ele>
      </trkpt>
      <trkpt lat="37.73238" lon="-119.55974">
        <ele>1255.0</ele>
      </trkpt>
      <trkpt lat="37.73238" lon="-119.55974">
        <ele>1255.0</ele>
      </trkpt>
      <trkpt lat="37.73236" lon="-119.55994">
        <ele>1248.0</ele>
      </trkpt>
      <trkpt lat="37.73256" lon="-119.56083">
        <ele>1231.0</ele>
      </trkpt>
      <trkpt lat="37.73283" lon="-119.56121">
        <ele>1242.0</ele>
      </trkpt>
      <trkpt lat="37.73283" lon="-119.56121">
        <ele>1242.0</ele>
      </trkpt>
      <trkpt lat="37.7329" lon="-119.56134">
        <ele>1245.0</ele>
      </trkpt>
      <trkpt lat="37.7329" lon="-119.56134">
        <ele>1245.0</ele>
      </trkpt>
      <trkpt lat="37.732952555" lon="-119.561427592">
        <ele>1245.0</ele>
      </trkpt>
      <trkpt lat="37.732952555" lon="-119.561427592">
        <ele>1245.0</ele>
      </trkpt>
      <trkpt lat="37.732966219" lon="-119.561450365">
        <ele>1245.0</ele>
      </trkpt>
      <trkpt lat="37.732967726" lon="-119.561452877">
        <ele>1245.0</ele>
      </trkpt>
      <trkpt lat="37.732952555" lon="-119.561427592">
        <ele>1245.0</ele>
      </trkpt>
      <trkpt lat="37.73295" lon="-119.56143">
        <ele>1245.0</ele>
      </trkpt>
      <trkpt lat="37.73288" lon="-119.56141">
        <ele>1245.0</ele>
      </trkpt>
      <trkpt lat="37.73277" lon="-119.56151">
        <ele>1245.0</ele>
      </trkpt>
      <trkpt lat="37.73241" lon="-119.5616">
        <ele>1244.0</ele>
      </trkpt>
      <trkpt lat="37.7321" lon="-119.56175">
        <ele>1243.0</ele>
      </trkpt>
      <trkpt lat="37.73204" lon="-119.56181">
        <ele>1247.0</ele>
      </trkpt>
      <trkpt lat="37.73204" lon="-119.56181">
        <ele>1247.0</ele>
      </trkpt>
      <trkpt lat="37.732053241" lon="-119.561822037">
        <ele>1247.0</ele>
      </trkpt>
      <trkpt lat="37.732041901" lon="-119.561811728">
        <ele>1247.0</ele>
      </trkpt>
      <trkpt lat="37.73226" lon="-119.56201">
        <ele>1248.0</ele>
      </trkpt>
      <trkpt lat="37.73258" lon="-119.56234">
        <ele>1248.0</ele>
      </trkpt>
      <trkpt lat="37.7329" lon="-119.56272">
        <ele>1254.0</ele>
      </trkpt>
      <trkpt lat="37.73317" lon="-119.56318">
        <ele>1255.0</ele>
      </trkpt>
      <trkpt lat="37.73352" lon="-119.56367">
        <ele>1252.0</ele>
      </trkpt>
      <trkpt lat="37.73389" lon="-119.5644">
        <ele>1250.0</ele>
      </trkpt>
      <trkpt lat="37.73449" lon="-119.56544">
        <ele>1242.0</ele>
      </trkpt>
      <trkpt lat="37.73459" lon="-119.56569">
        <ele>1242.0</ele>
      </trkpt>
      <trkpt lat="37.73483" lon="-119.56604">
        <ele>1228.0</ele>
      </trkpt>
    </trkseg>
  </trk>
</gpx>
