<?xml version="1.0" encoding="UTF-8"?>
<gpx xmlns:xsi="http://www.w3.org/2001/XMLSchema-instance" version="1.1" creator="The Outbound Collective, Inc. 1.1.1 -- https://www.theoutbound.com" xsi:schemaLocation="http://www.topografix.com/GPX/1/1 http://www.topografix.com/GPX/1/1/gpx.xsd">
  <metadata>
    <name/>
    <time>2026-02-19T21:58:41+00:00</time>
    <bound minlat="36.4200696926167" minlon="-116.812200823518" maxlat="36.42088" maxlon="-116.810148954391"/>
  </metadata>
  <trk>
    <name/>
    <trkseg>
      <trkpt lat="36.420773082701" lon="-116.810148954391">
        <ele>188.0</ele>
      </trkpt>
      <trkpt lat="36.420784300414" lon="-116.810149794204">
        <ele>188.0</ele>
      </trkpt>
      <trkpt lat="36.42078" lon="-116.81021">
        <ele>188.0</ele>
      </trkpt>
      <trkpt lat="36.42078" lon="-116.81021">
        <ele>188.0</ele>
      </trkpt>
      <trkpt lat="36.42078" lon="-116.81021">
        <ele>188.0</ele>
      </trkpt>
      <trkpt lat="36.42081" lon="-116.81053">
        <ele>190.0</ele>
      </trkpt>
      <trkpt lat="36.42088" lon="-116.81098">
        <ele>195.0</ele>
      </trkpt>
      <trkpt lat="36.42084" lon="-116.81109">
        <ele>195.0</ele>
      </trkpt>
      <trkpt lat="36.42068" lon="-116.81121">
        <ele>195.0</ele>
      </trkpt>
      <trkpt lat="36.4206" lon="-116.81132">
        <ele>193.0</ele>
      </trkpt>
      <trkpt lat="36.42059" lon="-116.81144">
        <ele>193.0</ele>
      </trkpt>
      <trkpt lat="36.42065" lon="-116.81164">
        <ele>193.0</ele>
      </trkpt>
      <trkpt lat="36.42064" lon="-116.81176">
        <ele>193.0</ele>
      </trkpt>
      <trkpt lat="36.42052" lon="-116.81191">
        <ele>193.0</ele>
      </trkpt>
      <trkpt lat="36.4202593147484" lon="-116.812078359225">
        <ele>193.0</ele>
      </trkpt>
      <trkpt lat="36.4202593147484" lon="-116.812078359225">
        <ele>193.0</ele>
      </trkpt>
      <trkpt lat="36.4200696926167" lon="-116.812200823518">
        <ele>186.0</ele>
      </trkpt>
      <trkpt lat="36.4200696926167" lon="-116.812200823518">
        <ele>186.0</ele>
      </trkpt>
      <trkpt lat="36.4202593147484" lon="-116.812078359225">
        <ele>193.0</ele>
      </trkpt>
      <trkpt lat="36.4202593147484" lon="-116.812078359225">
        <ele>193.0</ele>
      </trkpt>
      <trkpt lat="36.42052" lon="-116.81191">
        <ele>193.0</ele>
      </trkpt>
      <trkpt lat="36.42064" lon="-116.81176">
        <ele>193.0</ele>
      </trkpt>
      <trkpt lat="36.42065" lon="-116.81164">
        <ele>193.0</ele>
      </trkpt>
      <trkpt lat="36.42059" lon="-116.81144">
        <ele>193.0</ele>
      </trkpt>
      <trkpt lat="36.4206" lon="-116.81132">
        <ele>193.0</ele>
      </trkpt>
      <trkpt lat="36.42068" lon="-116.81121">
        <ele>195.0</ele>
      </trkpt>
      <trkpt lat="36.42084" lon="-116.81109">
        <ele>195.0</ele>
      </trkpt>
      <trkpt lat="36.42088" lon="-116.81098">
        <ele>195.0</ele>
      </trkpt>
      <trkpt lat="36.42081" lon="-116.81053">
        <ele>190.0</ele>
      </trkpt>
      <trkpt lat="36.42078" lon="-116.81021">
        <ele>188.0</ele>
      </trkpt>
      <trkpt lat="36.42078" lon="-116.81021">
        <ele>188.0</ele>
      </trkpt>
    </trkseg>
  </trk>
</gpx>
