<?xml version="1.0" encoding="UTF-8"?>
<gpx xmlns:xsi="http://www.w3.org/2001/XMLSchema-instance" version="1.1" creator="The Outbound Collective, Inc. 1.1.1 -- https://www.theoutbound.com" xsi:schemaLocation="http://www.topografix.com/GPX/1/1 http://www.topografix.com/GPX/1/1/gpx.xsd">
  <metadata>
    <name/>
    <time>2026-02-19T21:49:35+00:00</time>
    <bound minlat="37.01095" minlon="-121.93585" maxlat="37.03294" maxlon="-121.91641"/>
  </metadata>
  <trk>
    <name/>
    <trkseg>
      <trkpt lat="37.011497285936" lon="-121.935147643089">
        <ele>93.0</ele>
      </trkpt>
      <trkpt lat="37.0114923325845" lon="-121.935149330338">
        <ele>93.0</ele>
      </trkpt>
      <trkpt lat="37.0115" lon="-121.93518">
        <ele>93.0</ele>
      </trkpt>
      <trkpt lat="37.0122" lon="-121.93582">
        <ele>96.0</ele>
      </trkpt>
      <trkpt lat="37.01238" lon="-121.93585">
        <ele>96.0</ele>
      </trkpt>
      <trkpt lat="37.01294" lon="-121.93566">
        <ele>105.0</ele>
      </trkpt>
      <trkpt lat="37.01312" lon="-121.93567">
        <ele>105.0</ele>
      </trkpt>
      <trkpt lat="37.0134229306017" lon="-121.935458653069">
        <ele>105.0</ele>
      </trkpt>
      <trkpt lat="37.0134229306017" lon="-121.935458653069">
        <ele>105.0</ele>
      </trkpt>
      <trkpt lat="37.01355" lon="-121.93537">
        <ele>106.0</ele>
      </trkpt>
      <trkpt lat="37.01398" lon="-121.93529">
        <ele>100.0</ele>
      </trkpt>
      <trkpt lat="37.01479" lon="-121.93488">
        <ele>98.0</ele>
      </trkpt>
      <trkpt lat="37.01484" lon="-121.93465">
        <ele>100.0</ele>
      </trkpt>
      <trkpt lat="37.01503" lon="-121.93457">
        <ele>113.0</ele>
      </trkpt>
      <trkpt lat="37.01548" lon="-121.93404">
        <ele>118.0</ele>
      </trkpt>
      <trkpt lat="37.0158" lon="-121.93384">
        <ele>122.0</ele>
      </trkpt>
      <trkpt lat="37.01623" lon="-121.93378">
        <ele>116.0</ele>
      </trkpt>
      <trkpt lat="37.01648" lon="-121.93365">
        <ele>118.0</ele>
      </trkpt>
      <trkpt lat="37.01658" lon="-121.93355">
        <ele>117.0</ele>
      </trkpt>
      <trkpt lat="37.01662" lon="-121.93307">
        <ele>128.0</ele>
      </trkpt>
      <trkpt lat="37.01687" lon="-121.93273">
        <ele>137.0</ele>
      </trkpt>
      <trkpt lat="37.0174" lon="-121.93242">
        <ele>126.0</ele>
      </trkpt>
      <trkpt lat="37.01752" lon="-121.93228">
        <ele>135.0</ele>
      </trkpt>
      <trkpt lat="37.01764" lon="-121.93221">
        <ele>124.0</ele>
      </trkpt>
      <trkpt lat="37.01763" lon="-121.93215">
        <ele>135.0</ele>
      </trkpt>
      <trkpt lat="37.01756" lon="-121.93207">
        <ele>142.0</ele>
      </trkpt>
      <trkpt lat="37.0175" lon="-121.93191">
        <ele>142.0</ele>
      </trkpt>
      <trkpt lat="37.01754" lon="-121.93187">
        <ele>142.0</ele>
      </trkpt>
      <trkpt lat="37.01773" lon="-121.93176">
        <ele>138.0</ele>
      </trkpt>
      <trkpt lat="37.0179" lon="-121.93154">
        <ele>138.0</ele>
      </trkpt>
      <trkpt lat="37.01819" lon="-121.93133">
        <ele>132.0</ele>
      </trkpt>
      <trkpt lat="37.01883" lon="-121.93101">
        <ele>119.0</ele>
      </trkpt>
      <trkpt lat="37.01945" lon="-121.9304">
        <ele>128.0</ele>
      </trkpt>
      <trkpt lat="37.01961" lon="-121.93031">
        <ele>119.0</ele>
      </trkpt>
      <trkpt lat="37.01998" lon="-121.93018">
        <ele>116.0</ele>
      </trkpt>
      <trkpt lat="37.0201" lon="-121.9301">
        <ele>120.0</ele>
      </trkpt>
      <trkpt lat="37.0201" lon="-121.9301">
        <ele>120.0</ele>
      </trkpt>
      <trkpt lat="37.02043" lon="-121.92987">
        <ele>111.0</ele>
      </trkpt>
      <trkpt lat="37.02082" lon="-121.92972">
        <ele>112.0</ele>
      </trkpt>
      <trkpt lat="37.02113" lon="-121.92954">
        <ele>123.0</ele>
      </trkpt>
      <trkpt lat="37.02122" lon="-121.92951">
        <ele>123.0</ele>
      </trkpt>
      <trkpt lat="37.0212" lon="-121.92953">
        <ele>123.0</ele>
      </trkpt>
      <trkpt lat="37.02143" lon="-121.9295">
        <ele>124.0</ele>
      </trkpt>
      <trkpt lat="37.0217" lon="-121.92941">
        <ele>127.0</ele>
      </trkpt>
      <trkpt lat="37.02237" lon="-121.92885">
        <ele>133.0</ele>
      </trkpt>
      <trkpt lat="37.02262" lon="-121.92879">
        <ele>133.0</ele>
      </trkpt>
      <trkpt lat="37.02291" lon="-121.92859">
        <ele>133.0</ele>
      </trkpt>
      <trkpt lat="37.02318" lon="-121.92851">
        <ele>134.0</ele>
      </trkpt>
      <trkpt lat="37.02339" lon="-121.9283">
        <ele>140.0</ele>
      </trkpt>
      <trkpt lat="37.02438" lon="-121.92783">
        <ele>144.0</ele>
      </trkpt>
      <trkpt lat="37.0247" lon="-121.92759">
        <ele>152.0</ele>
      </trkpt>
      <trkpt lat="37.02491" lon="-121.92755">
        <ele>152.0</ele>
      </trkpt>
      <trkpt lat="37.02544" lon="-121.92753">
        <ele>144.0</ele>
      </trkpt>
      <trkpt lat="37.0258" lon="-121.92749">
        <ele>147.0</ele>
      </trkpt>
      <trkpt lat="37.02617" lon="-121.92753">
        <ele>148.0</ele>
      </trkpt>
      <trkpt lat="37.02628" lon="-121.92761">
        <ele>150.0</ele>
      </trkpt>
      <trkpt lat="37.02637" lon="-121.92762">
        <ele>150.0</ele>
      </trkpt>
      <trkpt lat="37.02661" lon="-121.92755">
        <ele>151.0</ele>
      </trkpt>
      <trkpt lat="37.02661" lon="-121.92755">
        <ele>151.0</ele>
      </trkpt>
      <trkpt lat="37.02661" lon="-121.92755">
        <ele>151.0</ele>
      </trkpt>
      <trkpt lat="37.02687" lon="-121.92734">
        <ele>154.0</ele>
      </trkpt>
      <trkpt lat="37.02722" lon="-121.92692">
        <ele>152.0</ele>
      </trkpt>
      <trkpt lat="37.02744" lon="-121.9266">
        <ele>154.0</ele>
      </trkpt>
      <trkpt lat="37.02755" lon="-121.92638">
        <ele>163.0</ele>
      </trkpt>
      <trkpt lat="37.02763" lon="-121.92627">
        <ele>163.0</ele>
      </trkpt>
      <trkpt lat="37.02763" lon="-121.92627">
        <ele>163.0</ele>
      </trkpt>
      <trkpt lat="37.02769" lon="-121.9262">
        <ele>166.0</ele>
      </trkpt>
      <trkpt lat="37.02784" lon="-121.92613">
        <ele>166.0</ele>
      </trkpt>
      <trkpt lat="37.02796" lon="-121.926">
        <ele>163.0</ele>
      </trkpt>
      <trkpt lat="37.02792" lon="-121.92627">
        <ele>157.0</ele>
      </trkpt>
      <trkpt lat="37.02792" lon="-121.92627">
        <ele>157.0</ele>
      </trkpt>
      <trkpt lat="37.02779" lon="-121.92682">
        <ele>148.0</ele>
      </trkpt>
      <trkpt lat="37.02768" lon="-121.927">
        <ele>148.0</ele>
      </trkpt>
      <trkpt lat="37.0278" lon="-121.92689">
        <ele>148.0</ele>
      </trkpt>
      <trkpt lat="37.02797" lon="-121.92654">
        <ele>153.0</ele>
      </trkpt>
      <trkpt lat="37.02814" lon="-121.92636">
        <ele>157.0</ele>
      </trkpt>
      <trkpt lat="37.02818" lon="-121.92627">
        <ele>157.0</ele>
      </trkpt>
      <trkpt lat="37.02818" lon="-121.92627">
        <ele>157.0</ele>
      </trkpt>
      <trkpt lat="37.02825" lon="-121.92607">
        <ele>161.0</ele>
      </trkpt>
      <trkpt lat="37.02833" lon="-121.92555">
        <ele>168.0</ele>
      </trkpt>
      <trkpt lat="37.02845" lon="-121.92583">
        <ele>167.0</ele>
      </trkpt>
      <trkpt lat="37.0285" lon="-121.92609">
        <ele>172.0</ele>
      </trkpt>
      <trkpt lat="37.02849" lon="-121.92627">
        <ele>170.0</ele>
      </trkpt>
      <trkpt lat="37.02849" lon="-121.92627">
        <ele>170.0</ele>
      </trkpt>
      <trkpt lat="37.02844" lon="-121.9268">
        <ele>157.0</ele>
      </trkpt>
      <trkpt lat="37.02848" lon="-121.92689">
        <ele>164.0</ele>
      </trkpt>
      <trkpt lat="37.02854" lon="-121.92691">
        <ele>164.0</ele>
      </trkpt>
      <trkpt lat="37.02865" lon="-121.92681">
        <ele>164.0</ele>
      </trkpt>
      <trkpt lat="37.02873" lon="-121.92665">
        <ele>168.0</ele>
      </trkpt>
      <trkpt lat="37.02885" lon="-121.92657">
        <ele>180.0</ele>
      </trkpt>
      <trkpt lat="37.02884" lon="-121.92627">
        <ele>183.0</ele>
      </trkpt>
      <trkpt lat="37.02884" lon="-121.92627">
        <ele>183.0</ele>
      </trkpt>
      <trkpt lat="37.02885" lon="-121.9256">
        <ele>188.0</ele>
      </trkpt>
      <trkpt lat="37.02892" lon="-121.92582">
        <ele>186.0</ele>
      </trkpt>
      <trkpt lat="37.02903" lon="-121.92602">
        <ele>191.0</ele>
      </trkpt>
      <trkpt lat="37.0292" lon="-121.92612">
        <ele>191.0</ele>
      </trkpt>
      <trkpt lat="37.02958" lon="-121.92627">
        <ele>196.0</ele>
      </trkpt>
      <trkpt lat="37.02958" lon="-121.92627">
        <ele>196.0</ele>
      </trkpt>
      <trkpt lat="37.02995" lon="-121.92641">
        <ele>215.0</ele>
      </trkpt>
      <trkpt lat="37.02997" lon="-121.92635">
        <ele>215.0</ele>
      </trkpt>
      <trkpt lat="37.02993" lon="-121.92627">
        <ele>215.0</ele>
      </trkpt>
      <trkpt lat="37.02993" lon="-121.92627">
        <ele>215.0</ele>
      </trkpt>
      <trkpt lat="37.02973" lon="-121.92597">
        <ele>219.0</ele>
      </trkpt>
      <trkpt lat="37.0296" lon="-121.92542">
        <ele>220.0</ele>
      </trkpt>
      <trkpt lat="37.0296055186146" lon="-121.925248922946">
        <ele>220.0</ele>
      </trkpt>
      <trkpt lat="37.0296055186146" lon="-121.925248922946">
        <ele>220.0</ele>
      </trkpt>
      <trkpt lat="37.02961" lon="-121.92511">
        <ele>218.0</ele>
      </trkpt>
      <trkpt lat="37.02952" lon="-121.92466">
        <ele>212.0</ele>
      </trkpt>
      <trkpt lat="37.02958" lon="-121.92388">
        <ele>219.0</ele>
      </trkpt>
      <trkpt lat="37.02961" lon="-121.92382">
        <ele>230.0</ele>
      </trkpt>
      <trkpt lat="37.02968" lon="-121.92378">
        <ele>230.0</ele>
      </trkpt>
      <trkpt lat="37.0298" lon="-121.92384">
        <ele>230.0</ele>
      </trkpt>
      <trkpt lat="37.02989" lon="-121.92383">
        <ele>244.0</ele>
      </trkpt>
      <trkpt lat="37.02998" lon="-121.92378">
        <ele>244.0</ele>
      </trkpt>
      <trkpt lat="37.03007" lon="-121.9236">
        <ele>246.0</ele>
      </trkpt>
      <trkpt lat="37.03016" lon="-121.92314">
        <ele>253.0</ele>
      </trkpt>
      <trkpt lat="37.03026" lon="-121.92298">
        <ele>253.0</ele>
      </trkpt>
      <trkpt lat="37.03039" lon="-121.92285">
        <ele>250.0</ele>
      </trkpt>
      <trkpt lat="37.03044" lon="-121.92264">
        <ele>256.0</ele>
      </trkpt>
      <trkpt lat="37.03044" lon="-121.92233">
        <ele>254.0</ele>
      </trkpt>
      <trkpt lat="37.03048" lon="-121.92207">
        <ele>256.0</ele>
      </trkpt>
      <trkpt lat="37.03043" lon="-121.92185">
        <ele>256.0</ele>
      </trkpt>
      <trkpt lat="37.03036" lon="-121.92174">
        <ele>251.0</ele>
      </trkpt>
      <trkpt lat="37.03026" lon="-121.92168">
        <ele>251.0</ele>
      </trkpt>
      <trkpt lat="37.03016" lon="-121.92156">
        <ele>251.0</ele>
      </trkpt>
      <trkpt lat="37.03015" lon="-121.9215">
        <ele>253.0</ele>
      </trkpt>
      <trkpt lat="37.0302" lon="-121.92137">
        <ele>253.0</ele>
      </trkpt>
      <trkpt lat="37.0303" lon="-121.92127">
        <ele>253.0</ele>
      </trkpt>
      <trkpt lat="37.03066" lon="-121.92102">
        <ele>257.0</ele>
      </trkpt>
      <trkpt lat="37.03097" lon="-121.92099">
        <ele>266.0</ele>
      </trkpt>
      <trkpt lat="37.03116" lon="-121.92109">
        <ele>273.0</ele>
      </trkpt>
      <trkpt lat="37.03131" lon="-121.92105">
        <ele>275.0</ele>
      </trkpt>
      <trkpt lat="37.03137" lon="-121.921">
        <ele>275.0</ele>
      </trkpt>
      <trkpt lat="37.03143" lon="-121.92088">
        <ele>273.0</ele>
      </trkpt>
      <trkpt lat="37.03151" lon="-121.92076">
        <ele>273.0</ele>
      </trkpt>
      <trkpt lat="37.03163" lon="-121.92047">
        <ele>274.0</ele>
      </trkpt>
      <trkpt lat="37.03166" lon="-121.92008">
        <ele>278.0</ele>
      </trkpt>
      <trkpt lat="37.03164" lon="-121.91965">
        <ele>284.0</ele>
      </trkpt>
      <trkpt lat="37.03167" lon="-121.91933">
        <ele>286.0</ele>
      </trkpt>
      <trkpt lat="37.03165" lon="-121.91911">
        <ele>286.0</ele>
      </trkpt>
      <trkpt lat="37.03165" lon="-121.91876">
        <ele>287.0</ele>
      </trkpt>
      <trkpt lat="37.03171" lon="-121.91858">
        <ele>288.0</ele>
      </trkpt>
      <trkpt lat="37.03188" lon="-121.91841">
        <ele>298.0</ele>
      </trkpt>
      <trkpt lat="37.03204" lon="-121.91832">
        <ele>298.0</ele>
      </trkpt>
      <trkpt lat="37.03206" lon="-121.91826">
        <ele>298.0</ele>
      </trkpt>
      <trkpt lat="37.03201" lon="-121.91804">
        <ele>300.0</ele>
      </trkpt>
      <trkpt lat="37.03203" lon="-121.91799">
        <ele>300.0</ele>
      </trkpt>
      <trkpt lat="37.03212" lon="-121.9181">
        <ele>305.0</ele>
      </trkpt>
      <trkpt lat="37.03229" lon="-121.91849">
        <ele>303.0</ele>
      </trkpt>
      <trkpt lat="37.03231" lon="-121.91857">
        <ele>303.0</ele>
      </trkpt>
      <trkpt lat="37.03226" lon="-121.91878">
        <ele>303.0</ele>
      </trkpt>
      <trkpt lat="37.03214" lon="-121.91893">
        <ele>303.0</ele>
      </trkpt>
      <trkpt lat="37.03211" lon="-121.91903">
        <ele>302.0</ele>
      </trkpt>
      <trkpt lat="37.03246" lon="-121.91996">
        <ele>301.0</ele>
      </trkpt>
      <trkpt lat="37.03254" lon="-121.92003">
        <ele>301.0</ele>
      </trkpt>
      <trkpt lat="37.03261" lon="-121.92003">
        <ele>301.0</ele>
      </trkpt>
      <trkpt lat="37.0327" lon="-121.91998">
        <ele>309.0</ele>
      </trkpt>
      <trkpt lat="37.0327400000031" lon="-121.919939999997">
        <ele>309.0</ele>
      </trkpt>
      <trkpt lat="37.0327400000031" lon="-121.919939999997">
        <ele>309.0</ele>
      </trkpt>
      <trkpt lat="37.03277" lon="-121.91991">
        <ele>309.0</ele>
      </trkpt>
      <trkpt lat="37.03287" lon="-121.91974">
        <ele>312.0</ele>
      </trkpt>
      <trkpt lat="37.03294" lon="-121.91953">
        <ele>317.0</ele>
      </trkpt>
      <trkpt lat="37.03292" lon="-121.91932">
        <ele>317.0</ele>
      </trkpt>
      <trkpt lat="37.03271" lon="-121.91871">
        <ele>319.0</ele>
      </trkpt>
      <trkpt lat="37.03274" lon="-121.91809">
        <ele>317.0</ele>
      </trkpt>
      <trkpt lat="37.03274" lon="-121.91809">
        <ele>317.0</ele>
      </trkpt>
      <trkpt lat="37.03272" lon="-121.91768">
        <ele>317.0</ele>
      </trkpt>
      <trkpt lat="37.03272" lon="-121.91768">
        <ele>317.0</ele>
      </trkpt>
      <trkpt lat="37.03275" lon="-121.91743">
        <ele>321.0</ele>
      </trkpt>
      <trkpt lat="37.03283" lon="-121.91724">
        <ele>323.0</ele>
      </trkpt>
      <trkpt lat="37.0328" lon="-121.91718">
        <ele>323.0</ele>
      </trkpt>
      <trkpt lat="37.0328" lon="-121.91718">
        <ele>323.0</ele>
      </trkpt>
      <trkpt lat="37.0328" lon="-121.91718">
        <ele>323.0</ele>
      </trkpt>
      <trkpt lat="37.03269" lon="-121.91719">
        <ele>323.0</ele>
      </trkpt>
      <trkpt lat="37.03264" lon="-121.91712">
        <ele>323.0</ele>
      </trkpt>
      <trkpt lat="37.03253" lon="-121.91707">
        <ele>328.0</ele>
      </trkpt>
      <trkpt lat="37.03216" lon="-121.91661">
        <ele>325.0</ele>
      </trkpt>
      <trkpt lat="37.0316" lon="-121.91658">
        <ele>314.0</ele>
      </trkpt>
      <trkpt lat="37.03127" lon="-121.91645">
        <ele>322.0</ele>
      </trkpt>
      <trkpt lat="37.03101" lon="-121.91645">
        <ele>326.0</ele>
      </trkpt>
      <trkpt lat="37.03087" lon="-121.91641">
        <ele>327.0</ele>
      </trkpt>
      <trkpt lat="37.03073" lon="-121.91645">
        <ele>327.0</ele>
      </trkpt>
      <trkpt lat="37.03068" lon="-121.91644">
        <ele>323.0</ele>
      </trkpt>
      <trkpt lat="37.03066" lon="-121.91661">
        <ele>321.0</ele>
      </trkpt>
      <trkpt lat="37.03058" lon="-121.91662">
        <ele>321.0</ele>
      </trkpt>
      <trkpt lat="37.03066" lon="-121.91678">
        <ele>321.0</ele>
      </trkpt>
      <trkpt lat="37.03063" lon="-121.917">
        <ele>317.0</ele>
      </trkpt>
      <trkpt lat="37.03053" lon="-121.91715">
        <ele>310.0</ele>
      </trkpt>
      <trkpt lat="37.0304" lon="-121.91723">
        <ele>311.0</ele>
      </trkpt>
      <trkpt lat="37.03018" lon="-121.91726">
        <ele>311.0</ele>
      </trkpt>
      <trkpt lat="37.03012" lon="-121.91722">
        <ele>315.0</ele>
      </trkpt>
      <trkpt lat="37.02992" lon="-121.91695">
        <ele>320.0</ele>
      </trkpt>
      <trkpt lat="37.0297" lon="-121.91687">
        <ele>319.0</ele>
      </trkpt>
      <trkpt lat="37.02949" lon="-121.91694">
        <ele>317.0</ele>
      </trkpt>
      <trkpt lat="37.0294" lon="-121.91724">
        <ele>316.0</ele>
      </trkpt>
      <trkpt lat="37.02925" lon="-121.91724">
        <ele>313.0</ele>
      </trkpt>
      <trkpt lat="37.0292" lon="-121.91719">
        <ele>313.0</ele>
      </trkpt>
      <trkpt lat="37.02882" lon="-121.91739">
        <ele>313.0</ele>
      </trkpt>
      <trkpt lat="37.02824" lon="-121.91755">
        <ele>310.0</ele>
      </trkpt>
      <trkpt lat="37.02796" lon="-121.91784">
        <ele>305.0</ele>
      </trkpt>
      <trkpt lat="37.02783" lon="-121.91808">
        <ele>296.0</ele>
      </trkpt>
      <trkpt lat="37.02785" lon="-121.91845">
        <ele>297.0</ele>
      </trkpt>
      <trkpt lat="37.02783" lon="-121.91858">
        <ele>297.0</ele>
      </trkpt>
      <trkpt lat="37.0278" lon="-121.91863">
        <ele>297.0</ele>
      </trkpt>
      <trkpt lat="37.02779" lon="-121.91879">
        <ele>297.0</ele>
      </trkpt>
      <trkpt lat="37.02761" lon="-121.91907">
        <ele>287.0</ele>
      </trkpt>
      <trkpt lat="37.02764" lon="-121.91922">
        <ele>294.0</ele>
      </trkpt>
      <trkpt lat="37.02738" lon="-121.91934">
        <ele>288.0</ele>
      </trkpt>
      <trkpt lat="37.0271" lon="-121.91956">
        <ele>287.0</ele>
      </trkpt>
      <trkpt lat="37.02688" lon="-121.91958">
        <ele>288.0</ele>
      </trkpt>
      <trkpt lat="37.0266" lon="-121.91978">
        <ele>286.0</ele>
      </trkpt>
      <trkpt lat="37.02643" lon="-121.92011">
        <ele>280.0</ele>
      </trkpt>
      <trkpt lat="37.02619" lon="-121.92074">
        <ele>285.0</ele>
      </trkpt>
      <trkpt lat="37.02621" lon="-121.92086">
        <ele>285.0</ele>
      </trkpt>
      <trkpt lat="37.02614" lon="-121.92106">
        <ele>284.0</ele>
      </trkpt>
      <trkpt lat="37.02593" lon="-121.92126">
        <ele>284.0</ele>
      </trkpt>
      <trkpt lat="37.02576" lon="-121.92155">
        <ele>285.0</ele>
      </trkpt>
      <trkpt lat="37.02551" lon="-121.92186">
        <ele>283.0</ele>
      </trkpt>
      <trkpt lat="37.02526" lon="-121.92191">
        <ele>278.0</ele>
      </trkpt>
      <trkpt lat="37.02551" lon="-121.92244">
        <ele>281.0</ele>
      </trkpt>
      <trkpt lat="37.02546" lon="-121.92293">
        <ele>280.0</ele>
      </trkpt>
      <trkpt lat="37.02539" lon="-121.92303">
        <ele>277.0</ele>
      </trkpt>
      <trkpt lat="37.02533" lon="-121.92334">
        <ele>278.0</ele>
      </trkpt>
      <trkpt lat="37.02528" lon="-121.92344">
        <ele>278.0</ele>
      </trkpt>
      <trkpt lat="37.02499" lon="-121.92368">
        <ele>272.0</ele>
      </trkpt>
      <trkpt lat="37.02488" lon="-121.92371">
        <ele>272.0</ele>
      </trkpt>
      <trkpt lat="37.02465" lon="-121.92398">
        <ele>267.0</ele>
      </trkpt>
      <trkpt lat="37.02467" lon="-121.92407">
        <ele>260.0</ele>
      </trkpt>
      <trkpt lat="37.02453" lon="-121.92403">
        <ele>251.0</ele>
      </trkpt>
      <trkpt lat="37.0244" lon="-121.92406">
        <ele>251.0</ele>
      </trkpt>
      <trkpt lat="37.02409" lon="-121.92399">
        <ele>242.0</ele>
      </trkpt>
      <trkpt lat="37.02394" lon="-121.92414">
        <ele>251.0</ele>
      </trkpt>
      <trkpt lat="37.02375" lon="-121.92424">
        <ele>255.0</ele>
      </trkpt>
      <trkpt lat="37.02345" lon="-121.92458">
        <ele>256.0</ele>
      </trkpt>
      <trkpt lat="37.02261" lon="-121.92471">
        <ele>248.0</ele>
      </trkpt>
      <trkpt lat="37.02244" lon="-121.9249">
        <ele>245.0</ele>
      </trkpt>
      <trkpt lat="37.02245" lon="-121.9254">
        <ele>244.0</ele>
      </trkpt>
      <trkpt lat="37.02223" lon="-121.92564">
        <ele>242.0</ele>
      </trkpt>
      <trkpt lat="37.0219" lon="-121.92581">
        <ele>240.0</ele>
      </trkpt>
      <trkpt lat="37.0216" lon="-121.9259">
        <ele>238.0</ele>
      </trkpt>
      <trkpt lat="37.02144" lon="-121.92598">
        <ele>240.0</ele>
      </trkpt>
      <trkpt lat="37.02138" lon="-121.92606">
        <ele>240.0</ele>
      </trkpt>
      <trkpt lat="37.02122" lon="-121.92613">
        <ele>239.0</ele>
      </trkpt>
      <trkpt lat="37.02074" lon="-121.92616">
        <ele>239.0</ele>
      </trkpt>
      <trkpt lat="37.02059" lon="-121.9262">
        <ele>241.0</ele>
      </trkpt>
      <trkpt lat="37.02048" lon="-121.92627">
        <ele>240.0</ele>
      </trkpt>
      <trkpt lat="37.02048" lon="-121.92627">
        <ele>240.0</ele>
      </trkpt>
      <trkpt lat="37.02027" lon="-121.92641">
        <ele>244.0</ele>
      </trkpt>
      <trkpt lat="37.0202" lon="-121.9264">
        <ele>244.0</ele>
      </trkpt>
      <trkpt lat="37.0201" lon="-121.92649">
        <ele>241.0</ele>
      </trkpt>
      <trkpt lat="37.0201" lon="-121.92649">
        <ele>241.0</ele>
      </trkpt>
      <trkpt lat="37.0199188075816" lon="-121.926623924831">
        <ele>242.0</ele>
      </trkpt>
      <trkpt lat="37.0199188075816" lon="-121.926623924831">
        <ele>242.0</ele>
      </trkpt>
      <trkpt lat="37.01987" lon="-121.92666">
        <ele>242.0</ele>
      </trkpt>
      <trkpt lat="37.01974" lon="-121.92664">
        <ele>240.0</ele>
      </trkpt>
      <trkpt lat="37.01953" lon="-121.92684">
        <ele>237.0</ele>
      </trkpt>
      <trkpt lat="37.01926" lon="-121.92718">
        <ele>239.0</ele>
      </trkpt>
      <trkpt lat="37.01896" lon="-121.9274">
        <ele>239.0</ele>
      </trkpt>
      <trkpt lat="37.01881" lon="-121.92746">
        <ele>239.0</ele>
      </trkpt>
      <trkpt lat="37.01874" lon="-121.92761">
        <ele>238.0</ele>
      </trkpt>
      <trkpt lat="37.01869" lon="-121.92765">
        <ele>237.0</ele>
      </trkpt>
      <trkpt lat="37.01866" lon="-121.92788">
        <ele>237.0</ele>
      </trkpt>
      <trkpt lat="37.01857" lon="-121.92799">
        <ele>235.0</ele>
      </trkpt>
      <trkpt lat="37.01852" lon="-121.92812">
        <ele>235.0</ele>
      </trkpt>
      <trkpt lat="37.01839" lon="-121.92815">
        <ele>227.0</ele>
      </trkpt>
      <trkpt lat="37.01828" lon="-121.92826">
        <ele>222.0</ele>
      </trkpt>
      <trkpt lat="37.01823" lon="-121.92835">
        <ele>222.0</ele>
      </trkpt>
      <trkpt lat="37.01819" lon="-121.92853">
        <ele>217.0</ele>
      </trkpt>
      <trkpt lat="37.01802" lon="-121.92881">
        <ele>217.0</ele>
      </trkpt>
      <trkpt lat="37.01788" lon="-121.92895">
        <ele>221.0</ele>
      </trkpt>
      <trkpt lat="37.01755" lon="-121.92908">
        <ele>224.0</ele>
      </trkpt>
      <trkpt lat="37.01748" lon="-121.9292">
        <ele>224.0</ele>
      </trkpt>
      <trkpt lat="37.01735" lon="-121.92925">
        <ele>220.0</ele>
      </trkpt>
      <trkpt lat="37.01733" lon="-121.92934">
        <ele>217.0</ele>
      </trkpt>
      <trkpt lat="37.01688" lon="-121.92963">
        <ele>212.0</ele>
      </trkpt>
      <trkpt lat="37.0168203435794" lon="-121.929635423311">
        <ele>212.0</ele>
      </trkpt>
      <trkpt lat="37.0168203435794" lon="-121.929635423311">
        <ele>212.0</ele>
      </trkpt>
      <trkpt lat="37.01677" lon="-121.92964">
        <ele>212.0</ele>
      </trkpt>
      <trkpt lat="37.01665" lon="-121.92972">
        <ele>212.0</ele>
      </trkpt>
      <trkpt lat="37.01665" lon="-121.92972">
        <ele>212.0</ele>
      </trkpt>
      <trkpt lat="37.01665" lon="-121.92972">
        <ele>212.0</ele>
      </trkpt>
      <trkpt lat="37.01656" lon="-121.9297">
        <ele>212.0</ele>
      </trkpt>
      <trkpt lat="37.01656" lon="-121.9297">
        <ele>212.0</ele>
      </trkpt>
      <trkpt lat="37.01656" lon="-121.9297">
        <ele>212.0</ele>
      </trkpt>
      <trkpt lat="37.01648" lon="-121.92964">
        <ele>213.0</ele>
      </trkpt>
      <trkpt lat="37.01637" lon="-121.92948">
        <ele>214.0</ele>
      </trkpt>
      <trkpt lat="37.01634" lon="-121.92933">
        <ele>214.0</ele>
      </trkpt>
      <trkpt lat="37.01625" lon="-121.92921">
        <ele>206.0</ele>
      </trkpt>
      <trkpt lat="37.01627" lon="-121.92914">
        <ele>212.0</ele>
      </trkpt>
      <trkpt lat="37.01626" lon="-121.92908">
        <ele>212.0</ele>
      </trkpt>
      <trkpt lat="37.01619" lon="-121.92901">
        <ele>203.0</ele>
      </trkpt>
      <trkpt lat="37.01623" lon="-121.92898">
        <ele>203.0</ele>
      </trkpt>
      <trkpt lat="37.01622" lon="-121.92895">
        <ele>203.0</ele>
      </trkpt>
      <trkpt lat="37.01629" lon="-121.92889">
        <ele>211.0</ele>
      </trkpt>
      <trkpt lat="37.01633" lon="-121.92875">
        <ele>207.0</ele>
      </trkpt>
      <trkpt lat="37.0164" lon="-121.92867">
        <ele>207.0</ele>
      </trkpt>
      <trkpt lat="37.01657" lon="-121.92864">
        <ele>209.0</ele>
      </trkpt>
      <trkpt lat="37.01672" lon="-121.92849">
        <ele>209.0</ele>
      </trkpt>
      <trkpt lat="37.01692" lon="-121.92845">
        <ele>205.0</ele>
      </trkpt>
      <trkpt lat="37.0171" lon="-121.92832">
        <ele>209.0</ele>
      </trkpt>
      <trkpt lat="37.01715" lon="-121.9282">
        <ele>209.0</ele>
      </trkpt>
      <trkpt lat="37.01724" lon="-121.92816">
        <ele>205.0</ele>
      </trkpt>
      <trkpt lat="37.01735" lon="-121.92817">
        <ele>205.0</ele>
      </trkpt>
      <trkpt lat="37.0175" lon="-121.92803">
        <ele>211.0</ele>
      </trkpt>
      <trkpt lat="37.01753" lon="-121.92793">
        <ele>211.0</ele>
      </trkpt>
      <trkpt lat="37.01744" lon="-121.92757">
        <ele>207.0</ele>
      </trkpt>
      <trkpt lat="37.01749" lon="-121.92732">
        <ele>202.0</ele>
      </trkpt>
      <trkpt lat="37.01767" lon="-121.92715">
        <ele>212.0</ele>
      </trkpt>
      <trkpt lat="37.01784" lon="-121.92681">
        <ele>209.0</ele>
      </trkpt>
      <trkpt lat="37.01789" lon="-121.92666">
        <ele>204.0</ele>
      </trkpt>
      <trkpt lat="37.01799" lon="-121.92655">
        <ele>210.0</ele>
      </trkpt>
      <trkpt lat="37.01803" lon="-121.92645">
        <ele>204.0</ele>
      </trkpt>
      <trkpt lat="37.01814" lon="-121.92627">
        <ele>204.0</ele>
      </trkpt>
      <trkpt lat="37.01814" lon="-121.92627">
        <ele>204.0</ele>
      </trkpt>
      <trkpt lat="37.01826" lon="-121.92608">
        <ele>210.0</ele>
      </trkpt>
      <trkpt lat="37.01841" lon="-121.92603">
        <ele>210.0</ele>
      </trkpt>
      <trkpt lat="37.01851" lon="-121.92604">
        <ele>215.0</ele>
      </trkpt>
      <trkpt lat="37.0187" lon="-121.92601">
        <ele>215.0</ele>
      </trkpt>
      <trkpt lat="37.01881" lon="-121.92587">
        <ele>213.0</ele>
      </trkpt>
      <trkpt lat="37.01907" lon="-121.92571">
        <ele>215.0</ele>
      </trkpt>
      <trkpt lat="37.0191" lon="-121.92558">
        <ele>211.0</ele>
      </trkpt>
      <trkpt lat="37.01905" lon="-121.92545">
        <ele>211.0</ele>
      </trkpt>
      <trkpt lat="37.0189122724473" lon="-121.9252755451">
        <ele>201.0</ele>
      </trkpt>
      <trkpt lat="37.0189122724473" lon="-121.9252755451">
        <ele>201.0</ele>
      </trkpt>
      <trkpt lat="37.0189" lon="-121.92526">
        <ele>201.0</ele>
      </trkpt>
      <trkpt lat="37.01877" lon="-121.92531">
        <ele>201.0</ele>
      </trkpt>
      <trkpt lat="37.01849" lon="-121.92523">
        <ele>193.0</ele>
      </trkpt>
      <trkpt lat="37.01823" lon="-121.92544">
        <ele>196.0</ele>
      </trkpt>
      <trkpt lat="37.01824" lon="-121.92553">
        <ele>196.0</ele>
      </trkpt>
      <trkpt lat="37.01816" lon="-121.92566">
        <ele>182.0</ele>
      </trkpt>
      <trkpt lat="37.018" lon="-121.92581">
        <ele>193.0</ele>
      </trkpt>
      <trkpt lat="37.01794" lon="-121.92594">
        <ele>193.0</ele>
      </trkpt>
      <trkpt lat="37.01771" lon="-121.9261">
        <ele>191.0</ele>
      </trkpt>
      <trkpt lat="37.01761" lon="-121.92627">
        <ele>188.0</ele>
      </trkpt>
      <trkpt lat="37.01761" lon="-121.92627">
        <ele>188.0</ele>
      </trkpt>
      <trkpt lat="37.01748" lon="-121.92633">
        <ele>188.0</ele>
      </trkpt>
      <trkpt lat="37.01742" lon="-121.92647">
        <ele>188.0</ele>
      </trkpt>
      <trkpt lat="37.01726" lon="-121.92655">
        <ele>178.0</ele>
      </trkpt>
      <trkpt lat="37.01723" lon="-121.92664">
        <ele>178.0</ele>
      </trkpt>
      <trkpt lat="37.01719" lon="-121.92671">
        <ele>178.0</ele>
      </trkpt>
      <trkpt lat="37.01706" lon="-121.92675">
        <ele>166.0</ele>
      </trkpt>
      <trkpt lat="37.017" lon="-121.92683">
        <ele>171.0</ele>
      </trkpt>
      <trkpt lat="37.01689" lon="-121.92685">
        <ele>171.0</ele>
      </trkpt>
      <trkpt lat="37.01686" lon="-121.92689">
        <ele>171.0</ele>
      </trkpt>
      <trkpt lat="37.01688" lon="-121.92712">
        <ele>177.0</ele>
      </trkpt>
      <trkpt lat="37.01684" lon="-121.92731">
        <ele>177.0</ele>
      </trkpt>
      <trkpt lat="37.01679" lon="-121.9274">
        <ele>175.0</ele>
      </trkpt>
      <trkpt lat="37.01669" lon="-121.92743">
        <ele>175.0</ele>
      </trkpt>
      <trkpt lat="37.01652" lon="-121.92737">
        <ele>168.0</ele>
      </trkpt>
      <trkpt lat="37.01645" lon="-121.92747">
        <ele>168.0</ele>
      </trkpt>
      <trkpt lat="37.0163" lon="-121.92758">
        <ele>168.0</ele>
      </trkpt>
      <trkpt lat="37.01629" lon="-121.92765">
        <ele>175.0</ele>
      </trkpt>
      <trkpt lat="37.0162" lon="-121.92771">
        <ele>172.0</ele>
      </trkpt>
      <trkpt lat="37.01601" lon="-121.92768">
        <ele>172.0</ele>
      </trkpt>
      <trkpt lat="37.01594" lon="-121.92773">
        <ele>169.0</ele>
      </trkpt>
      <trkpt lat="37.01575" lon="-121.9276">
        <ele>162.0</ele>
      </trkpt>
      <trkpt lat="37.01575" lon="-121.9276">
        <ele>162.0</ele>
      </trkpt>
      <trkpt lat="37.01575" lon="-121.9276">
        <ele>162.0</ele>
      </trkpt>
      <trkpt lat="37.01567" lon="-121.92759">
        <ele>162.0</ele>
      </trkpt>
      <trkpt lat="37.01567" lon="-121.92759">
        <ele>162.0</ele>
      </trkpt>
      <trkpt lat="37.01567" lon="-121.92759">
        <ele>162.0</ele>
      </trkpt>
      <trkpt lat="37.01555" lon="-121.92762">
        <ele>162.0</ele>
      </trkpt>
      <trkpt lat="37.01549" lon="-121.9277">
        <ele>165.0</ele>
      </trkpt>
      <trkpt lat="37.01538" lon="-121.92771">
        <ele>159.0</ele>
      </trkpt>
      <trkpt lat="37.01515" lon="-121.92793">
        <ele>159.0</ele>
      </trkpt>
      <trkpt lat="37.0149" lon="-121.92802">
        <ele>151.0</ele>
      </trkpt>
      <trkpt lat="37.01485" lon="-121.92809">
        <ele>150.0</ele>
      </trkpt>
      <trkpt lat="37.01488" lon="-121.92815">
        <ele>151.0</ele>
      </trkpt>
      <trkpt lat="37.01481" lon="-121.92826">
        <ele>151.0</ele>
      </trkpt>
      <trkpt lat="37.0147" lon="-121.92834">
        <ele>151.0</ele>
      </trkpt>
      <trkpt lat="37.0147" lon="-121.92834">
        <ele>151.0</ele>
      </trkpt>
      <trkpt lat="37.0147" lon="-121.92834">
        <ele>151.0</ele>
      </trkpt>
      <trkpt lat="37.0146525409693" lon="-121.928346779862">
        <ele>151.0</ele>
      </trkpt>
      <trkpt lat="37.0146525409693" lon="-121.928346779862">
        <ele>151.0</ele>
      </trkpt>
      <trkpt lat="37.01463" lon="-121.92835">
        <ele>151.0</ele>
      </trkpt>
      <trkpt lat="37.01458" lon="-121.9284">
        <ele>152.0</ele>
      </trkpt>
      <trkpt lat="37.01454" lon="-121.92867">
        <ele>149.0</ele>
      </trkpt>
      <trkpt lat="37.01444" lon="-121.92882">
        <ele>147.0</ele>
      </trkpt>
      <trkpt lat="37.01428" lon="-121.92889">
        <ele>143.0</ele>
      </trkpt>
      <trkpt lat="37.01418" lon="-121.92898">
        <ele>143.0</ele>
      </trkpt>
      <trkpt lat="37.01409" lon="-121.92923">
        <ele>142.0</ele>
      </trkpt>
      <trkpt lat="37.01396" lon="-121.9293">
        <ele>140.0</ele>
      </trkpt>
      <trkpt lat="37.01389" lon="-121.92943">
        <ele>140.0</ele>
      </trkpt>
      <trkpt lat="37.0135" lon="-121.92983">
        <ele>141.0</ele>
      </trkpt>
      <trkpt lat="37.01344" lon="-121.92995">
        <ele>138.0</ele>
      </trkpt>
      <trkpt lat="37.01308" lon="-121.93031">
        <ele>134.0</ele>
      </trkpt>
      <trkpt lat="37.01282" lon="-121.93063">
        <ele>134.0</ele>
      </trkpt>
      <trkpt lat="37.01269" lon="-121.93085">
        <ele>135.0</ele>
      </trkpt>
      <trkpt lat="37.01249" lon="-121.93094">
        <ele>133.0</ele>
      </trkpt>
      <trkpt lat="37.01236" lon="-121.93125">
        <ele>133.0</ele>
      </trkpt>
      <trkpt lat="37.01236" lon="-121.93125">
        <ele>133.0</ele>
      </trkpt>
      <trkpt lat="37.01236" lon="-121.93125">
        <ele>133.0</ele>
      </trkpt>
      <trkpt lat="37.0124" lon="-121.93146">
        <ele>132.0</ele>
      </trkpt>
      <trkpt lat="37.01232" lon="-121.93153">
        <ele>131.0</ele>
      </trkpt>
      <trkpt lat="37.01231" lon="-121.93169">
        <ele>131.0</ele>
      </trkpt>
      <trkpt lat="37.01227" lon="-121.9318">
        <ele>131.0</ele>
      </trkpt>
      <trkpt lat="37.01191" lon="-121.93196">
        <ele>128.0</ele>
      </trkpt>
      <trkpt lat="37.01171" lon="-121.93211">
        <ele>114.0</ele>
      </trkpt>
      <trkpt lat="37.01191" lon="-121.93196">
        <ele>128.0</ele>
      </trkpt>
      <trkpt lat="37.01171" lon="-121.93211">
        <ele>114.0</ele>
      </trkpt>
      <trkpt lat="37.01167" lon="-121.93219">
        <ele>114.0</ele>
      </trkpt>
      <trkpt lat="37.01177" lon="-121.93249">
        <ele>111.0</ele>
      </trkpt>
      <trkpt lat="37.01192" lon="-121.93278">
        <ele>120.0</ele>
      </trkpt>
      <trkpt lat="37.01191" lon="-121.93289">
        <ele>120.0</ele>
      </trkpt>
      <trkpt lat="37.01173" lon="-121.93313">
        <ele>110.0</ele>
      </trkpt>
      <trkpt lat="37.01173" lon="-121.93323">
        <ele>112.0</ele>
      </trkpt>
      <trkpt lat="37.01166" lon="-121.93333">
        <ele>112.0</ele>
      </trkpt>
      <trkpt lat="37.01165" lon="-121.93341">
        <ele>112.0</ele>
      </trkpt>
      <trkpt lat="37.01171" lon="-121.93378">
        <ele>117.0</ele>
      </trkpt>
      <trkpt lat="37.01167" lon="-121.93382">
        <ele>117.0</ele>
      </trkpt>
      <trkpt lat="37.0115825100994" lon="-121.933802501006">
        <ele>117.0</ele>
      </trkpt>
      <trkpt lat="37.0115824927143" lon="-121.933802497529">
        <ele>117.0</ele>
      </trkpt>
      <trkpt lat="37.0114992388859" lon="-121.933719238886">
        <ele>110.0</ele>
      </trkpt>
      <trkpt lat="37.011485185234" lon="-121.933724444298">
        <ele>110.0</ele>
      </trkpt>
      <trkpt lat="37.01146" lon="-121.9338">
        <ele>112.0</ele>
      </trkpt>
      <trkpt lat="37.01146" lon="-121.9338">
        <ele>112.0</ele>
      </trkpt>
      <trkpt lat="37.01134" lon="-121.93379">
        <ele>112.0</ele>
      </trkpt>
      <trkpt lat="37.01127" lon="-121.93374">
        <ele>110.0</ele>
      </trkpt>
      <trkpt lat="37.01119" lon="-121.93361">
        <ele>104.0</ele>
      </trkpt>
      <trkpt lat="37.01117" lon="-121.93325">
        <ele>100.0</ele>
      </trkpt>
      <trkpt lat="37.01111" lon="-121.93316">
        <ele>98.0</ele>
      </trkpt>
      <trkpt lat="37.01105" lon="-121.93322">
        <ele>100.0</ele>
      </trkpt>
      <trkpt lat="37.01105" lon="-121.9335">
        <ele>104.0</ele>
      </trkpt>
      <trkpt lat="37.0109787745464" lon="-121.933663818543">
        <ele>104.0</ele>
      </trkpt>
      <trkpt lat="37.0109787745464" lon="-121.933663818543">
        <ele>104.0</ele>
      </trkpt>
      <trkpt lat="37.01095" lon="-121.93373">
        <ele>104.0</ele>
      </trkpt>
      <trkpt lat="37.01096" lon="-121.93399">
        <ele>103.0</ele>
      </trkpt>
      <trkpt lat="37.0110272514019" lon="-121.934144678224">
        <ele>103.0</ele>
      </trkpt>
      <trkpt lat="37.0110272514019" lon="-121.934144678224">
        <ele>103.0</ele>
      </trkpt>
      <trkpt lat="37.01106" lon="-121.93422">
        <ele>103.0</ele>
      </trkpt>
      <trkpt lat="37.01111" lon="-121.93443">
        <ele>99.0</ele>
      </trkpt>
      <trkpt lat="37.01111" lon="-121.93443">
        <ele>99.0</ele>
      </trkpt>
      <trkpt lat="37.01123" lon="-121.93465">
        <ele>95.0</ele>
      </trkpt>
      <trkpt lat="37.0113172362037" lon="-121.934682139654">
        <ele>100.0</ele>
      </trkpt>
      <trkpt lat="37.0113172362037" lon="-121.934682139654">
        <ele>100.0</ele>
      </trkpt>
      <trkpt lat="37.01142" lon="-121.93472">
        <ele>100.0</ele>
      </trkpt>
      <trkpt lat="37.01158" lon="-121.93489">
        <ele>103.0</ele>
      </trkpt>
      <trkpt lat="37.01175" lon="-121.93501">
        <ele>103.0</ele>
      </trkpt>
      <trkpt lat="37.0118" lon="-121.93507">
        <ele>103.0</ele>
      </trkpt>
      <trkpt lat="37.0117641709343" lon="-121.935186441552">
        <ele>98.0</ele>
      </trkpt>
      <trkpt lat="37.0117641709343" lon="-121.935186441552">
        <ele>98.0</ele>
      </trkpt>
      <trkpt lat="37.0117545664084" lon="-121.935182075841">
        <ele>98.0</ele>
      </trkpt>
      <trkpt lat="37.0116729119725" lon="-121.935174465179">
        <ele>98.0</ele>
      </trkpt>
      <trkpt lat="37.0115144202013" lon="-121.935153007507">
        <ele>93.0</ele>
      </trkpt>
    </trkseg>
  </trk>
</gpx>
