<?xml version="1.0" encoding="UTF-8"?>
<gpx xmlns:xsi="http://www.w3.org/2001/XMLSchema-instance" version="1.1" creator="The Outbound Collective, Inc. 1.1.1 -- https://www.theoutbound.com" xsi:schemaLocation="http://www.topografix.com/GPX/1/1 http://www.topografix.com/GPX/1/1/gpx.xsd">
  <metadata>
    <name/>
    <time>2026-02-19T21:52:58+00:00</time>
    <bound minlat="38.722209012" minlon="-120.05238" maxlat="38.834852189" maxlon="-119.99885"/>
  </metadata>
  <trk>
    <name/>
    <trkseg>
      <trkpt lat="38.789695927" lon="-120.000164509">
        <ele>2229.0</ele>
      </trkpt>
      <trkpt lat="38.789436686" lon="-120.000113547">
        <ele>2236.0</ele>
      </trkpt>
      <trkpt lat="38.789221348" lon="-120.000397861">
        <ele>2226.0</ele>
      </trkpt>
      <trkpt lat="38.788985103" lon="-120.000545382">
        <ele>2221.0</ele>
      </trkpt>
      <trkpt lat="38.788669411" lon="-120.000765324">
        <ele>2218.0</ele>
      </trkpt>
      <trkpt lat="38.78866918" lon="-120.000761861">
        <ele>2218.0</ele>
      </trkpt>
      <trkpt lat="38.7886" lon="-120.00077">
        <ele>2218.0</ele>
      </trkpt>
      <trkpt lat="38.788545345" lon="-120.000813724">
        <ele>2218.0</ele>
      </trkpt>
      <trkpt lat="38.788545345" lon="-120.000813724">
        <ele>2218.0</ele>
      </trkpt>
      <trkpt lat="38.7885" lon="-120.00085">
        <ele>2218.0</ele>
      </trkpt>
      <trkpt lat="38.78835" lon="-120.00108">
        <ele>2218.0</ele>
      </trkpt>
      <trkpt lat="38.78835" lon="-120.00108">
        <ele>2218.0</ele>
      </trkpt>
      <trkpt lat="38.78825" lon="-120.00127">
        <ele>2213.0</ele>
      </trkpt>
      <trkpt lat="38.78801" lon="-120.0014">
        <ele>2217.0</ele>
      </trkpt>
      <trkpt lat="38.7878" lon="-120.00155">
        <ele>2217.0</ele>
      </trkpt>
      <trkpt lat="38.78761" lon="-120.00159">
        <ele>2221.0</ele>
      </trkpt>
      <trkpt lat="38.78721" lon="-120.00176">
        <ele>2226.0</ele>
      </trkpt>
      <trkpt lat="38.78707" lon="-120.00178">
        <ele>2227.0</ele>
      </trkpt>
      <trkpt lat="38.786931851" lon="-120.001771369">
        <ele>2227.0</ele>
      </trkpt>
      <trkpt lat="38.78691" lon="-120.00177">
        <ele>2227.0</ele>
      </trkpt>
      <trkpt lat="38.78664" lon="-120.00185">
        <ele>2225.0</ele>
      </trkpt>
      <trkpt lat="38.78648" lon="-120.00203">
        <ele>2230.0</ele>
      </trkpt>
      <trkpt lat="38.78642" lon="-120.00207">
        <ele>2230.0</ele>
      </trkpt>
      <trkpt lat="38.7863" lon="-120.00207">
        <ele>2230.0</ele>
      </trkpt>
      <trkpt lat="38.78624" lon="-120.002">
        <ele>2236.0</ele>
      </trkpt>
      <trkpt lat="38.7862" lon="-120.00187">
        <ele>2236.0</ele>
      </trkpt>
      <trkpt lat="38.78613" lon="-120.00185">
        <ele>2236.0</ele>
      </trkpt>
      <trkpt lat="38.78588" lon="-120.00205">
        <ele>2242.0</ele>
      </trkpt>
      <trkpt lat="38.78553" lon="-120.00199">
        <ele>2248.0</ele>
      </trkpt>
      <trkpt lat="38.78548" lon="-120.00193">
        <ele>2248.0</ele>
      </trkpt>
      <trkpt lat="38.78548" lon="-120.00171">
        <ele>2254.0</ele>
      </trkpt>
      <trkpt lat="38.78546" lon="-120.00165">
        <ele>2254.0</ele>
      </trkpt>
      <trkpt lat="38.78543" lon="-120.00164">
        <ele>2254.0</ele>
      </trkpt>
      <trkpt lat="38.7852" lon="-120.00174">
        <ele>2258.0</ele>
      </trkpt>
      <trkpt lat="38.7846" lon="-120.00178">
        <ele>2263.0</ele>
      </trkpt>
      <trkpt lat="38.78468" lon="-120.00161">
        <ele>2263.0</ele>
      </trkpt>
      <trkpt lat="38.78466" lon="-120.00157">
        <ele>2263.0</ele>
      </trkpt>
      <trkpt lat="38.78456" lon="-120.00154">
        <ele>2268.0</ele>
      </trkpt>
      <trkpt lat="38.78454" lon="-120.00151">
        <ele>2272.0</ele>
      </trkpt>
      <trkpt lat="38.78471" lon="-120.00128">
        <ele>2265.0</ele>
      </trkpt>
      <trkpt lat="38.78471" lon="-120.0012">
        <ele>2268.0</ele>
      </trkpt>
      <trkpt lat="38.78466" lon="-120.00117">
        <ele>2268.0</ele>
      </trkpt>
      <trkpt lat="38.78454" lon="-120.00116">
        <ele>2276.0</ele>
      </trkpt>
      <trkpt lat="38.78433" lon="-120.00101">
        <ele>2276.0</ele>
      </trkpt>
      <trkpt lat="38.78413" lon="-120.00092">
        <ele>2285.0</ele>
      </trkpt>
      <trkpt lat="38.78394" lon="-120.00093">
        <ele>2284.0</ele>
      </trkpt>
      <trkpt lat="38.78376" lon="-120.00089">
        <ele>2284.0</ele>
      </trkpt>
      <trkpt lat="38.78331" lon="-120.00062">
        <ele>2291.0</ele>
      </trkpt>
      <trkpt lat="38.78308" lon="-120.00054">
        <ele>2289.0</ele>
      </trkpt>
      <trkpt lat="38.78262" lon="-120.00018">
        <ele>2290.0</ele>
      </trkpt>
      <trkpt lat="38.78236" lon="-120.00001">
        <ele>2293.0</ele>
      </trkpt>
      <trkpt lat="38.78236" lon="-120.00001">
        <ele>2293.0</ele>
      </trkpt>
      <trkpt lat="38.78236" lon="-120.00001">
        <ele>2293.0</ele>
      </trkpt>
      <trkpt lat="38.78227" lon="-120.00001">
        <ele>2293.0</ele>
      </trkpt>
      <trkpt lat="38.78227" lon="-120.00001">
        <ele>2293.0</ele>
      </trkpt>
      <trkpt lat="38.78203" lon="-120.00006">
        <ele>2292.0</ele>
      </trkpt>
      <trkpt lat="38.78156" lon="-119.99993">
        <ele>2292.0</ele>
      </trkpt>
      <trkpt lat="38.78134" lon="-119.99993">
        <ele>2293.0</ele>
      </trkpt>
      <trkpt lat="38.78112" lon="-119.99999">
        <ele>2291.0</ele>
      </trkpt>
      <trkpt lat="38.78107" lon="-120.00003">
        <ele>2291.0</ele>
      </trkpt>
      <trkpt lat="38.781" lon="-120.00017">
        <ele>2292.0</ele>
      </trkpt>
      <trkpt lat="38.78092" lon="-120.00021">
        <ele>2293.0</ele>
      </trkpt>
      <trkpt lat="38.7806" lon="-120.0001">
        <ele>2292.0</ele>
      </trkpt>
      <trkpt lat="38.779856152" lon="-120.000090463">
        <ele>2297.0</ele>
      </trkpt>
      <trkpt lat="38.779856152" lon="-120.000090463">
        <ele>2297.0</ele>
      </trkpt>
      <trkpt lat="38.77826" lon="-120.00007">
        <ele>2299.0</ele>
      </trkpt>
      <trkpt lat="38.77729" lon="-119.99997">
        <ele>2302.0</ele>
      </trkpt>
      <trkpt lat="38.77686" lon="-119.99988">
        <ele>2304.0</ele>
      </trkpt>
      <trkpt lat="38.77668" lon="-119.99972">
        <ele>2305.0</ele>
      </trkpt>
      <trkpt lat="38.77655" lon="-119.99954">
        <ele>2307.0</ele>
      </trkpt>
      <trkpt lat="38.77645" lon="-119.99948">
        <ele>2308.0</ele>
      </trkpt>
      <trkpt lat="38.77618" lon="-119.99948">
        <ele>2315.0</ele>
      </trkpt>
      <trkpt lat="38.77587" lon="-119.99941">
        <ele>2320.0</ele>
      </trkpt>
      <trkpt lat="38.77575" lon="-119.99937">
        <ele>2320.0</ele>
      </trkpt>
      <trkpt lat="38.77552" lon="-119.9992">
        <ele>2326.0</ele>
      </trkpt>
      <trkpt lat="38.77538" lon="-119.99914">
        <ele>2334.0</ele>
      </trkpt>
      <trkpt lat="38.77526" lon="-119.99912">
        <ele>2334.0</ele>
      </trkpt>
      <trkpt lat="38.77504" lon="-119.99923">
        <ele>2333.0</ele>
      </trkpt>
      <trkpt lat="38.77489" lon="-119.99925">
        <ele>2333.0</ele>
      </trkpt>
      <trkpt lat="38.77463" lon="-119.99924">
        <ele>2337.0</ele>
      </trkpt>
      <trkpt lat="38.77417" lon="-119.99906">
        <ele>2343.0</ele>
      </trkpt>
      <trkpt lat="38.77401" lon="-119.99895">
        <ele>2345.0</ele>
      </trkpt>
      <trkpt lat="38.77384" lon="-119.99889">
        <ele>2345.0</ele>
      </trkpt>
      <trkpt lat="38.77357" lon="-119.99894">
        <ele>2350.0</ele>
      </trkpt>
      <trkpt lat="38.77336" lon="-119.99892">
        <ele>2355.0</ele>
      </trkpt>
      <trkpt lat="38.77313" lon="-119.99898">
        <ele>2362.0</ele>
      </trkpt>
      <trkpt lat="38.77271" lon="-119.99885">
        <ele>2368.0</ele>
      </trkpt>
      <trkpt lat="38.77207" lon="-119.99904">
        <ele>2375.0</ele>
      </trkpt>
      <trkpt lat="38.77182" lon="-119.99906">
        <ele>2375.0</ele>
      </trkpt>
      <trkpt lat="38.77154" lon="-119.99917">
        <ele>2375.0</ele>
      </trkpt>
      <trkpt lat="38.77122" lon="-119.99918">
        <ele>2385.0</ele>
      </trkpt>
      <trkpt lat="38.77122" lon="-119.99918">
        <ele>2385.0</ele>
      </trkpt>
      <trkpt lat="38.7709" lon="-119.99913">
        <ele>2389.0</ele>
      </trkpt>
      <trkpt lat="38.77064" lon="-119.99905">
        <ele>2386.0</ele>
      </trkpt>
      <trkpt lat="38.77001" lon="-119.99914">
        <ele>2390.0</ele>
      </trkpt>
      <trkpt lat="38.76942" lon="-119.9993">
        <ele>2398.0</ele>
      </trkpt>
      <trkpt lat="38.76908" lon="-119.99944">
        <ele>2403.0</ele>
      </trkpt>
      <trkpt lat="38.76877" lon="-119.99963">
        <ele>2412.0</ele>
      </trkpt>
      <trkpt lat="38.76852" lon="-119.9997">
        <ele>2414.0</ele>
      </trkpt>
      <trkpt lat="38.76829" lon="-119.99997">
        <ele>2416.0</ele>
      </trkpt>
      <trkpt lat="38.76809" lon="-120.00006">
        <ele>2416.0</ele>
      </trkpt>
      <trkpt lat="38.7679" lon="-120.00004">
        <ele>2421.0</ele>
      </trkpt>
      <trkpt lat="38.76773" lon="-120.00008">
        <ele>2421.0</ele>
      </trkpt>
      <trkpt lat="38.76745" lon="-120.00003">
        <ele>2426.0</ele>
      </trkpt>
      <trkpt lat="38.7672" lon="-120.00002">
        <ele>2428.0</ele>
      </trkpt>
      <trkpt lat="38.76692" lon="-120.00012">
        <ele>2429.0</ele>
      </trkpt>
      <trkpt lat="38.76558" lon="-120.00025">
        <ele>2446.0</ele>
      </trkpt>
      <trkpt lat="38.76515" lon="-120.00038">
        <ele>2447.0</ele>
      </trkpt>
      <trkpt lat="38.76492" lon="-120.00037">
        <ele>2446.0</ele>
      </trkpt>
      <trkpt lat="38.76469" lon="-120.0005">
        <ele>2452.0</ele>
      </trkpt>
      <trkpt lat="38.76441" lon="-120.00059">
        <ele>2454.0</ele>
      </trkpt>
      <trkpt lat="38.7639" lon="-120.00119">
        <ele>2459.0</ele>
      </trkpt>
      <trkpt lat="38.76376" lon="-120.0015">
        <ele>2463.0</ele>
      </trkpt>
      <trkpt lat="38.76357" lon="-120.00169">
        <ele>2468.0</ele>
      </trkpt>
      <trkpt lat="38.76351" lon="-120.00179">
        <ele>2468.0</ele>
      </trkpt>
      <trkpt lat="38.76326" lon="-120.00262">
        <ele>2475.0</ele>
      </trkpt>
      <trkpt lat="38.7632" lon="-120.0027">
        <ele>2473.0</ele>
      </trkpt>
      <trkpt lat="38.76307" lon="-120.0028">
        <ele>2465.0</ele>
      </trkpt>
      <trkpt lat="38.76303" lon="-120.00288">
        <ele>2465.0</ele>
      </trkpt>
      <trkpt lat="38.76304" lon="-120.00294">
        <ele>2458.0</ele>
      </trkpt>
      <trkpt lat="38.76338" lon="-120.00339">
        <ele>2458.0</ele>
      </trkpt>
      <trkpt lat="38.76342" lon="-120.00346">
        <ele>2458.0</ele>
      </trkpt>
      <trkpt lat="38.76339" lon="-120.00352">
        <ele>2450.0</ele>
      </trkpt>
      <trkpt lat="38.76329" lon="-120.00352">
        <ele>2450.0</ele>
      </trkpt>
      <trkpt lat="38.763207713" lon="-120.003495314">
        <ele>2450.0</ele>
      </trkpt>
      <trkpt lat="38.763207713" lon="-120.003495314">
        <ele>2450.0</ele>
      </trkpt>
      <trkpt lat="38.76309" lon="-120.00346">
        <ele>2449.0</ele>
      </trkpt>
      <trkpt lat="38.76231" lon="-120.00333">
        <ele>2437.0</ele>
      </trkpt>
      <trkpt lat="38.76188" lon="-120.00327">
        <ele>2435.0</ele>
      </trkpt>
      <trkpt lat="38.76152" lon="-120.00326">
        <ele>2424.0</ele>
      </trkpt>
      <trkpt lat="38.76137" lon="-120.00322">
        <ele>2424.0</ele>
      </trkpt>
      <trkpt lat="38.76022" lon="-120.00346">
        <ele>2427.0</ele>
      </trkpt>
      <trkpt lat="38.76022" lon="-120.00346">
        <ele>2427.0</ele>
      </trkpt>
      <trkpt lat="38.75979" lon="-120.00352">
        <ele>2417.0</ele>
      </trkpt>
      <trkpt lat="38.75941" lon="-120.0035">
        <ele>2422.0</ele>
      </trkpt>
      <trkpt lat="38.75903" lon="-120.00343">
        <ele>2434.0</ele>
      </trkpt>
      <trkpt lat="38.75877" lon="-120.00334">
        <ele>2437.0</ele>
      </trkpt>
      <trkpt lat="38.75863" lon="-120.00334">
        <ele>2443.0</ele>
      </trkpt>
      <trkpt lat="38.75833" lon="-120.00347">
        <ele>2442.0</ele>
      </trkpt>
      <trkpt lat="38.75788" lon="-120.00361">
        <ele>2440.0</ele>
      </trkpt>
      <trkpt lat="38.75784" lon="-120.00356">
        <ele>2440.0</ele>
      </trkpt>
      <trkpt lat="38.75782" lon="-120.00349">
        <ele>2440.0</ele>
      </trkpt>
      <trkpt lat="38.75781" lon="-120.00311">
        <ele>2449.0</ele>
      </trkpt>
      <trkpt lat="38.75774" lon="-120.00306">
        <ele>2449.0</ele>
      </trkpt>
      <trkpt lat="38.75769" lon="-120.00308">
        <ele>2449.0</ele>
      </trkpt>
      <trkpt lat="38.75756" lon="-120.0032">
        <ele>2446.0</ele>
      </trkpt>
      <trkpt lat="38.75737" lon="-120.00327">
        <ele>2446.0</ele>
      </trkpt>
      <trkpt lat="38.75727" lon="-120.00334">
        <ele>2452.0</ele>
      </trkpt>
      <trkpt lat="38.7572" lon="-120.00334">
        <ele>2452.0</ele>
      </trkpt>
      <trkpt lat="38.75706" lon="-120.00326">
        <ele>2452.0</ele>
      </trkpt>
      <trkpt lat="38.75693" lon="-120.00324">
        <ele>2452.0</ele>
      </trkpt>
      <trkpt lat="38.75646" lon="-120.00346">
        <ele>2456.0</ele>
      </trkpt>
      <trkpt lat="38.75616" lon="-120.00351">
        <ele>2457.0</ele>
      </trkpt>
      <trkpt lat="38.75603" lon="-120.00347">
        <ele>2456.0</ele>
      </trkpt>
      <trkpt lat="38.75595" lon="-120.00341">
        <ele>2456.0</ele>
      </trkpt>
      <trkpt lat="38.75563" lon="-120.00288">
        <ele>2456.0</ele>
      </trkpt>
      <trkpt lat="38.75553" lon="-120.0028">
        <ele>2456.0</ele>
      </trkpt>
      <trkpt lat="38.75529" lon="-120.00267">
        <ele>2457.0</ele>
      </trkpt>
      <trkpt lat="38.75459" lon="-120.00263">
        <ele>2467.0</ele>
      </trkpt>
      <trkpt lat="38.75438" lon="-120.0027">
        <ele>2467.0</ele>
      </trkpt>
      <trkpt lat="38.75408" lon="-120.00275">
        <ele>2473.0</ele>
      </trkpt>
      <trkpt lat="38.75408" lon="-120.00275">
        <ele>2473.0</ele>
      </trkpt>
      <trkpt lat="38.75408" lon="-120.00275">
        <ele>2473.0</ele>
      </trkpt>
      <trkpt lat="38.75408" lon="-120.00275">
        <ele>2473.0</ele>
      </trkpt>
      <trkpt lat="38.75386" lon="-120.0028">
        <ele>2476.0</ele>
      </trkpt>
      <trkpt lat="38.75302" lon="-120.00287">
        <ele>2479.0</ele>
      </trkpt>
      <trkpt lat="38.75258" lon="-120.00298">
        <ele>2477.0</ele>
      </trkpt>
      <trkpt lat="38.75227" lon="-120.00313">
        <ele>2476.0</ele>
      </trkpt>
      <trkpt lat="38.75211" lon="-120.00325">
        <ele>2469.0</ele>
      </trkpt>
      <trkpt lat="38.752019587" lon="-120.003288426">
        <ele>2466.0</ele>
      </trkpt>
      <trkpt lat="38.752019587" lon="-120.003288426">
        <ele>2466.0</ele>
      </trkpt>
      <trkpt lat="38.75171" lon="-120.00342">
        <ele>2466.0</ele>
      </trkpt>
      <trkpt lat="38.75171" lon="-120.00342">
        <ele>2466.0</ele>
      </trkpt>
      <trkpt lat="38.75171" lon="-120.00342">
        <ele>2466.0</ele>
      </trkpt>
      <trkpt lat="38.75124" lon="-120.00338">
        <ele>2472.0</ele>
      </trkpt>
      <trkpt lat="38.75089" lon="-120.00345">
        <ele>2478.0</ele>
      </trkpt>
      <trkpt lat="38.75066" lon="-120.00357">
        <ele>2475.0</ele>
      </trkpt>
      <trkpt lat="38.75053" lon="-120.00359">
        <ele>2475.0</ele>
      </trkpt>
      <trkpt lat="38.7501" lon="-120.00361">
        <ele>2474.0</ele>
      </trkpt>
      <trkpt lat="38.74971" lon="-120.00354">
        <ele>2475.0</ele>
      </trkpt>
      <trkpt lat="38.74959" lon="-120.00357">
        <ele>2475.0</ele>
      </trkpt>
      <trkpt lat="38.74918" lon="-120.00397">
        <ele>2481.0</ele>
      </trkpt>
      <trkpt lat="38.74879" lon="-120.0041">
        <ele>2481.0</ele>
      </trkpt>
      <trkpt lat="38.7486" lon="-120.00409">
        <ele>2479.0</ele>
      </trkpt>
      <trkpt lat="38.74829" lon="-120.00395">
        <ele>2489.0</ele>
      </trkpt>
      <trkpt lat="38.7476" lon="-120.00375">
        <ele>2502.0</ele>
      </trkpt>
      <trkpt lat="38.74738" lon="-120.00386">
        <ele>2486.0</ele>
      </trkpt>
      <trkpt lat="38.74724" lon="-120.00389">
        <ele>2499.0</ele>
      </trkpt>
      <trkpt lat="38.74688" lon="-120.00387">
        <ele>2504.0</ele>
      </trkpt>
      <trkpt lat="38.74676" lon="-120.00392">
        <ele>2511.0</ele>
      </trkpt>
      <trkpt lat="38.74645" lon="-120.00413">
        <ele>2512.0</ele>
      </trkpt>
      <trkpt lat="38.7462" lon="-120.00422">
        <ele>2519.0</ele>
      </trkpt>
      <trkpt lat="38.74608" lon="-120.00435">
        <ele>2510.0</ele>
      </trkpt>
      <trkpt lat="38.74568" lon="-120.00461">
        <ele>2511.0</ele>
      </trkpt>
      <trkpt lat="38.7452" lon="-120.00484">
        <ele>2516.0</ele>
      </trkpt>
      <trkpt lat="38.74436" lon="-120.00502">
        <ele>2514.0</ele>
      </trkpt>
      <trkpt lat="38.74418" lon="-120.00503">
        <ele>2520.0</ele>
      </trkpt>
      <trkpt lat="38.74385" lon="-120.00498">
        <ele>2524.0</ele>
      </trkpt>
      <trkpt lat="38.74361" lon="-120.00484">
        <ele>2532.0</ele>
      </trkpt>
      <trkpt lat="38.74313" lon="-120.00476">
        <ele>2534.0</ele>
      </trkpt>
      <trkpt lat="38.7428" lon="-120.00461">
        <ele>2535.0</ele>
      </trkpt>
      <trkpt lat="38.74239" lon="-120.00457">
        <ele>2541.0</ele>
      </trkpt>
      <trkpt lat="38.74211" lon="-120.00447">
        <ele>2544.0</ele>
      </trkpt>
      <trkpt lat="38.74182" lon="-120.00451">
        <ele>2544.0</ele>
      </trkpt>
      <trkpt lat="38.74131" lon="-120.00441">
        <ele>2557.0</ele>
      </trkpt>
      <trkpt lat="38.74074" lon="-120.00444">
        <ele>2566.0</ele>
      </trkpt>
      <trkpt lat="38.73983" lon="-120.00439">
        <ele>2569.0</ele>
      </trkpt>
      <trkpt lat="38.73955" lon="-120.00449">
        <ele>2572.0</ele>
      </trkpt>
      <trkpt lat="38.7392" lon="-120.00451">
        <ele>2572.0</ele>
      </trkpt>
      <trkpt lat="38.73893" lon="-120.0045">
        <ele>2572.0</ele>
      </trkpt>
      <trkpt lat="38.73854" lon="-120.00438">
        <ele>2570.0</ele>
      </trkpt>
      <trkpt lat="38.7382" lon="-120.0044">
        <ele>2571.0</ele>
      </trkpt>
      <trkpt lat="38.73767" lon="-120.00431">
        <ele>2568.0</ele>
      </trkpt>
      <trkpt lat="38.73717" lon="-120.00441">
        <ele>2567.0</ele>
      </trkpt>
      <trkpt lat="38.73695" lon="-120.00449">
        <ele>2564.0</ele>
      </trkpt>
      <trkpt lat="38.73695" lon="-120.00449">
        <ele>2564.0</ele>
      </trkpt>
      <trkpt lat="38.73679" lon="-120.00454">
        <ele>2564.0</ele>
      </trkpt>
      <trkpt lat="38.73649" lon="-120.00457">
        <ele>2561.0</ele>
      </trkpt>
      <trkpt lat="38.73625" lon="-120.00454">
        <ele>2558.0</ele>
      </trkpt>
      <trkpt lat="38.73596" lon="-120.00442">
        <ele>2557.0</ele>
      </trkpt>
      <trkpt lat="38.73548" lon="-120.00441">
        <ele>2558.0</ele>
      </trkpt>
      <trkpt lat="38.73494" lon="-120.00403">
        <ele>2564.0</ele>
      </trkpt>
      <trkpt lat="38.73476" lon="-120.00398">
        <ele>2564.0</ele>
      </trkpt>
      <trkpt lat="38.73411" lon="-120.004">
        <ele>2557.0</ele>
      </trkpt>
      <trkpt lat="38.73397" lon="-120.00397">
        <ele>2557.0</ele>
      </trkpt>
      <trkpt lat="38.73355" lon="-120.00363">
        <ele>2557.0</ele>
      </trkpt>
      <trkpt lat="38.7333" lon="-120.00359">
        <ele>2556.0</ele>
      </trkpt>
      <trkpt lat="38.73267" lon="-120.00383">
        <ele>2560.0</ele>
      </trkpt>
      <trkpt lat="38.73215" lon="-120.00392">
        <ele>2565.0</ele>
      </trkpt>
      <trkpt lat="38.73196" lon="-120.00398">
        <ele>2566.0</ele>
      </trkpt>
      <trkpt lat="38.73171" lon="-120.00399">
        <ele>2565.0</ele>
      </trkpt>
      <trkpt lat="38.73166" lon="-120.00404">
        <ele>2567.0</ele>
      </trkpt>
      <trkpt lat="38.73163" lon="-120.00415">
        <ele>2567.0</ele>
      </trkpt>
      <trkpt lat="38.7316" lon="-120.00496">
        <ele>2577.0</ele>
      </trkpt>
      <trkpt lat="38.73163" lon="-120.00514">
        <ele>2581.0</ele>
      </trkpt>
      <trkpt lat="38.731756066" lon="-120.005602242">
        <ele>2583.0</ele>
      </trkpt>
      <trkpt lat="38.731756066" lon="-120.005602242">
        <ele>2583.0</ele>
      </trkpt>
      <trkpt lat="38.73184" lon="-120.00591">
        <ele>2581.0</ele>
      </trkpt>
      <trkpt lat="38.73187" lon="-120.00607">
        <ele>2585.0</ele>
      </trkpt>
      <trkpt lat="38.73186" lon="-120.00622">
        <ele>2585.0</ele>
      </trkpt>
      <trkpt lat="38.73179" lon="-120.00635">
        <ele>2588.0</ele>
      </trkpt>
      <trkpt lat="38.7316" lon="-120.00652">
        <ele>2588.0</ele>
      </trkpt>
      <trkpt lat="38.73144" lon="-120.00672">
        <ele>2588.0</ele>
      </trkpt>
      <trkpt lat="38.73107" lon="-120.00699">
        <ele>2591.0</ele>
      </trkpt>
      <trkpt lat="38.73097" lon="-120.00703">
        <ele>2594.0</ele>
      </trkpt>
      <trkpt lat="38.73072" lon="-120.00703">
        <ele>2594.0</ele>
      </trkpt>
      <trkpt lat="38.73049" lon="-120.00712">
        <ele>2593.0</ele>
      </trkpt>
      <trkpt lat="38.73003" lon="-120.00709">
        <ele>2593.0</ele>
      </trkpt>
      <trkpt lat="38.7298" lon="-120.00711">
        <ele>2589.0</ele>
      </trkpt>
      <trkpt lat="38.72915" lon="-120.00739">
        <ele>2583.0</ele>
      </trkpt>
      <trkpt lat="38.72894" lon="-120.00755">
        <ele>2574.0</ele>
      </trkpt>
      <trkpt lat="38.72859" lon="-120.00787">
        <ele>2565.0</ele>
      </trkpt>
      <trkpt lat="38.72848" lon="-120.00794">
        <ele>2567.0</ele>
      </trkpt>
      <trkpt lat="38.72796" lon="-120.00807">
        <ele>2564.0</ele>
      </trkpt>
      <trkpt lat="38.72766" lon="-120.00827">
        <ele>2567.0</ele>
      </trkpt>
      <trkpt lat="38.72752" lon="-120.00833">
        <ele>2568.0</ele>
      </trkpt>
      <trkpt lat="38.72718" lon="-120.0084">
        <ele>2570.0</ele>
      </trkpt>
      <trkpt lat="38.72691" lon="-120.00854">
        <ele>2574.0</ele>
      </trkpt>
      <trkpt lat="38.72675" lon="-120.00868">
        <ele>2573.0</ele>
      </trkpt>
      <trkpt lat="38.72658" lon="-120.0089">
        <ele>2577.0</ele>
      </trkpt>
      <trkpt lat="38.72616" lon="-120.00913">
        <ele>2577.0</ele>
      </trkpt>
      <trkpt lat="38.72591" lon="-120.00923">
        <ele>2577.0</ele>
      </trkpt>
      <trkpt lat="38.72563" lon="-120.00952">
        <ele>2578.0</ele>
      </trkpt>
      <trkpt lat="38.72555" lon="-120.00956">
        <ele>2578.0</ele>
      </trkpt>
      <trkpt lat="38.72523" lon="-120.00966">
        <ele>2579.0</ele>
      </trkpt>
      <trkpt lat="38.72483" lon="-120.00991">
        <ele>2587.0</ele>
      </trkpt>
      <trkpt lat="38.72464" lon="-120.00994">
        <ele>2587.0</ele>
      </trkpt>
      <trkpt lat="38.72454" lon="-120.00998">
        <ele>2593.0</ele>
      </trkpt>
      <trkpt lat="38.72435" lon="-120.01013">
        <ele>2593.0</ele>
      </trkpt>
      <trkpt lat="38.72373" lon="-120.01043">
        <ele>2579.0</ele>
      </trkpt>
      <trkpt lat="38.72336" lon="-120.01066">
        <ele>2571.0</ele>
      </trkpt>
      <trkpt lat="38.72304" lon="-120.01099">
        <ele>2561.0</ele>
      </trkpt>
      <trkpt lat="38.72269" lon="-120.01119">
        <ele>2561.0</ele>
      </trkpt>
      <trkpt lat="38.72261" lon="-120.01128">
        <ele>2560.0</ele>
      </trkpt>
      <trkpt lat="38.72253" lon="-120.01145">
        <ele>2560.0</ele>
      </trkpt>
      <trkpt lat="38.72245" lon="-120.01168">
        <ele>2559.0</ele>
      </trkpt>
      <trkpt lat="38.7223" lon="-120.01198">
        <ele>2556.0</ele>
      </trkpt>
      <trkpt lat="38.72224" lon="-120.01217">
        <ele>2556.0</ele>
      </trkpt>
      <trkpt lat="38.72224" lon="-120.01217">
        <ele>2556.0</ele>
      </trkpt>
      <trkpt lat="38.722209012" lon="-120.012131265">
        <ele>2556.0</ele>
      </trkpt>
      <trkpt lat="38.722209012" lon="-120.012131265">
        <ele>2556.0</ele>
      </trkpt>
      <trkpt lat="38.72224" lon="-120.01217">
        <ele>2556.0</ele>
      </trkpt>
      <trkpt lat="38.72224" lon="-120.01217">
        <ele>2556.0</ele>
      </trkpt>
      <trkpt lat="38.72253" lon="-120.01222">
        <ele>2556.0</ele>
      </trkpt>
      <trkpt lat="38.72269" lon="-120.01218">
        <ele>2556.0</ele>
      </trkpt>
      <trkpt lat="38.72279" lon="-120.01209">
        <ele>2556.0</ele>
      </trkpt>
      <trkpt lat="38.72291" lon="-120.01214">
        <ele>2556.0</ele>
      </trkpt>
      <trkpt lat="38.72314" lon="-120.01242">
        <ele>2554.0</ele>
      </trkpt>
      <trkpt lat="38.72336" lon="-120.01275">
        <ele>2552.0</ele>
      </trkpt>
      <trkpt lat="38.72343" lon="-120.01298">
        <ele>2551.0</ele>
      </trkpt>
      <trkpt lat="38.72348" lon="-120.01331">
        <ele>2550.0</ele>
      </trkpt>
      <trkpt lat="38.72365" lon="-120.01371">
        <ele>2551.0</ele>
      </trkpt>
      <trkpt lat="38.72365" lon="-120.01389">
        <ele>2551.0</ele>
      </trkpt>
      <trkpt lat="38.72369" lon="-120.0141">
        <ele>2551.0</ele>
      </trkpt>
      <trkpt lat="38.72382" lon="-120.01433">
        <ele>2551.0</ele>
      </trkpt>
      <trkpt lat="38.72416" lon="-120.01465">
        <ele>2549.0</ele>
      </trkpt>
      <trkpt lat="38.72416" lon="-120.01465">
        <ele>2549.0</ele>
      </trkpt>
      <trkpt lat="38.72446" lon="-120.01499">
        <ele>2550.0</ele>
      </trkpt>
      <trkpt lat="38.72461" lon="-120.01509">
        <ele>2553.0</ele>
      </trkpt>
      <trkpt lat="38.72528" lon="-120.0154">
        <ele>2550.0</ele>
      </trkpt>
      <trkpt lat="38.7256" lon="-120.01562">
        <ele>2548.0</ele>
      </trkpt>
      <trkpt lat="38.72636" lon="-120.01647">
        <ele>2550.0</ele>
      </trkpt>
      <trkpt lat="38.72646" lon="-120.01668">
        <ele>2549.0</ele>
      </trkpt>
      <trkpt lat="38.72706" lon="-120.01711">
        <ele>2544.0</ele>
      </trkpt>
      <trkpt lat="38.72727" lon="-120.01735">
        <ele>2545.0</ele>
      </trkpt>
      <trkpt lat="38.72755" lon="-120.0178">
        <ele>2546.0</ele>
      </trkpt>
      <trkpt lat="38.72809" lon="-120.01849">
        <ele>2546.0</ele>
      </trkpt>
      <trkpt lat="38.72809" lon="-120.01849">
        <ele>2546.0</ele>
      </trkpt>
      <trkpt lat="38.72809" lon="-120.01849">
        <ele>2546.0</ele>
      </trkpt>
      <trkpt lat="38.72833" lon="-120.01876">
        <ele>2547.0</ele>
      </trkpt>
      <trkpt lat="38.72875" lon="-120.01903">
        <ele>2543.0</ele>
      </trkpt>
      <trkpt lat="38.72889" lon="-120.01923">
        <ele>2543.0</ele>
      </trkpt>
      <trkpt lat="38.72902" lon="-120.01934">
        <ele>2542.0</ele>
      </trkpt>
      <trkpt lat="38.72905" lon="-120.0195">
        <ele>2543.0</ele>
      </trkpt>
      <trkpt lat="38.72919" lon="-120.01974">
        <ele>2542.0</ele>
      </trkpt>
      <trkpt lat="38.7295" lon="-120.02008">
        <ele>2546.0</ele>
      </trkpt>
      <trkpt lat="38.72975" lon="-120.02077">
        <ele>2547.0</ele>
      </trkpt>
      <trkpt lat="38.73024" lon="-120.02117">
        <ele>2551.0</ele>
      </trkpt>
      <trkpt lat="38.73024" lon="-120.02117">
        <ele>2551.0</ele>
      </trkpt>
      <trkpt lat="38.730430112" lon="-120.02127968">
        <ele>2551.0</ele>
      </trkpt>
      <trkpt lat="38.73043" lon="-120.02128">
        <ele>2551.0</ele>
      </trkpt>
      <trkpt lat="38.730329417" lon="-120.021486195">
        <ele>2550.0</ele>
      </trkpt>
      <trkpt lat="38.730329417" lon="-120.021486195">
        <ele>2550.0</ele>
      </trkpt>
      <trkpt lat="38.73043" lon="-120.02128">
        <ele>2551.0</ele>
      </trkpt>
      <trkpt lat="38.730430112" lon="-120.02127968">
        <ele>2551.0</ele>
      </trkpt>
      <trkpt lat="38.7305" lon="-120.02132">
        <ele>2551.0</ele>
      </trkpt>
      <trkpt lat="38.73066" lon="-120.02151">
        <ele>2551.0</ele>
      </trkpt>
      <trkpt lat="38.73093" lon="-120.02165">
        <ele>2552.0</ele>
      </trkpt>
      <trkpt lat="38.73097" lon="-120.0218">
        <ele>2552.0</ele>
      </trkpt>
      <trkpt lat="38.73135" lon="-120.02181">
        <ele>2550.0</ele>
      </trkpt>
      <trkpt lat="38.73183" lon="-120.02161">
        <ele>2548.0</ele>
      </trkpt>
      <trkpt lat="38.7321" lon="-120.02144">
        <ele>2547.0</ele>
      </trkpt>
      <trkpt lat="38.7323" lon="-120.02144">
        <ele>2547.0</ele>
      </trkpt>
      <trkpt lat="38.73249" lon="-120.02127">
        <ele>2549.0</ele>
      </trkpt>
      <trkpt lat="38.73268" lon="-120.02124">
        <ele>2546.0</ele>
      </trkpt>
      <trkpt lat="38.73284" lon="-120.02125">
        <ele>2546.0</ele>
      </trkpt>
      <trkpt lat="38.73298" lon="-120.02133">
        <ele>2546.0</ele>
      </trkpt>
      <trkpt lat="38.7331" lon="-120.02145">
        <ele>2546.0</ele>
      </trkpt>
      <trkpt lat="38.73318" lon="-120.0216">
        <ele>2548.0</ele>
      </trkpt>
      <trkpt lat="38.73348" lon="-120.02172">
        <ele>2544.0</ele>
      </trkpt>
      <trkpt lat="38.73354" lon="-120.02193">
        <ele>2546.0</ele>
      </trkpt>
      <trkpt lat="38.73355" lon="-120.02208">
        <ele>2546.0</ele>
      </trkpt>
      <trkpt lat="38.73382" lon="-120.02252">
        <ele>2544.0</ele>
      </trkpt>
      <trkpt lat="38.73382" lon="-120.02265">
        <ele>2547.0</ele>
      </trkpt>
      <trkpt lat="38.73388" lon="-120.02274">
        <ele>2547.0</ele>
      </trkpt>
      <trkpt lat="38.7344" lon="-120.02303">
        <ele>2536.0</ele>
      </trkpt>
      <trkpt lat="38.73494" lon="-120.02377">
        <ele>2534.0</ele>
      </trkpt>
      <trkpt lat="38.73497" lon="-120.02384">
        <ele>2534.0</ele>
      </trkpt>
      <trkpt lat="38.73494" lon="-120.02398">
        <ele>2534.0</ele>
      </trkpt>
      <trkpt lat="38.735" lon="-120.02413">
        <ele>2537.0</ele>
      </trkpt>
      <trkpt lat="38.73517" lon="-120.02428">
        <ele>2536.0</ele>
      </trkpt>
      <trkpt lat="38.73541" lon="-120.02438">
        <ele>2540.0</ele>
      </trkpt>
      <trkpt lat="38.73555" lon="-120.02461">
        <ele>2543.0</ele>
      </trkpt>
      <trkpt lat="38.73578" lon="-120.02488">
        <ele>2543.0</ele>
      </trkpt>
      <trkpt lat="38.73608" lon="-120.02549">
        <ele>2547.0</ele>
      </trkpt>
      <trkpt lat="38.73652" lon="-120.02608">
        <ele>2556.0</ele>
      </trkpt>
      <trkpt lat="38.73664" lon="-120.02635">
        <ele>2556.0</ele>
      </trkpt>
      <trkpt lat="38.7366" lon="-120.02657">
        <ele>2560.0</ele>
      </trkpt>
      <trkpt lat="38.736624905" lon="-120.026654054">
        <ele>2560.0</ele>
      </trkpt>
      <trkpt lat="38.736624905" lon="-120.026654054">
        <ele>2560.0</ele>
      </trkpt>
      <trkpt lat="38.73668" lon="-120.02684">
        <ele>2562.0</ele>
      </trkpt>
      <trkpt lat="38.73659" lon="-120.02696">
        <ele>2562.0</ele>
      </trkpt>
      <trkpt lat="38.73666" lon="-120.02732">
        <ele>2561.0</ele>
      </trkpt>
      <trkpt lat="38.73652" lon="-120.02758">
        <ele>2570.0</ele>
      </trkpt>
      <trkpt lat="38.73658" lon="-120.02793">
        <ele>2569.0</ele>
      </trkpt>
      <trkpt lat="38.73652" lon="-120.02829">
        <ele>2578.0</ele>
      </trkpt>
      <trkpt lat="38.73659" lon="-120.02857">
        <ele>2578.0</ele>
      </trkpt>
      <trkpt lat="38.73675" lon="-120.02894">
        <ele>2582.0</ele>
      </trkpt>
      <trkpt lat="38.73695" lon="-120.02915">
        <ele>2584.0</ele>
      </trkpt>
      <trkpt lat="38.73695" lon="-120.02915">
        <ele>2584.0</ele>
      </trkpt>
      <trkpt lat="38.73712" lon="-120.0292">
        <ele>2580.0</ele>
      </trkpt>
      <trkpt lat="38.73718" lon="-120.02928">
        <ele>2580.0</ele>
      </trkpt>
      <trkpt lat="38.73715" lon="-120.02937">
        <ele>2584.0</ele>
      </trkpt>
      <trkpt lat="38.73706" lon="-120.0294">
        <ele>2588.0</ele>
      </trkpt>
      <trkpt lat="38.73699" lon="-120.02936">
        <ele>2588.0</ele>
      </trkpt>
      <trkpt lat="38.73695" lon="-120.02938">
        <ele>2588.0</ele>
      </trkpt>
      <trkpt lat="38.73695" lon="-120.02938">
        <ele>2588.0</ele>
      </trkpt>
      <trkpt lat="38.73691" lon="-120.02939">
        <ele>2588.0</ele>
      </trkpt>
      <trkpt lat="38.73684" lon="-120.02949">
        <ele>2588.0</ele>
      </trkpt>
      <trkpt lat="38.73688" lon="-120.0296">
        <ele>2591.0</ele>
      </trkpt>
      <trkpt lat="38.73695" lon="-120.02971">
        <ele>2591.0</ele>
      </trkpt>
      <trkpt lat="38.73695" lon="-120.02971">
        <ele>2591.0</ele>
      </trkpt>
      <trkpt lat="38.73705" lon="-120.02992">
        <ele>2596.0</ele>
      </trkpt>
      <trkpt lat="38.73722" lon="-120.03006">
        <ele>2591.0</ele>
      </trkpt>
      <trkpt lat="38.73752" lon="-120.03038">
        <ele>2596.0</ele>
      </trkpt>
      <trkpt lat="38.73776" lon="-120.03047">
        <ele>2603.0</ele>
      </trkpt>
      <trkpt lat="38.73787" lon="-120.03065">
        <ele>2603.0</ele>
      </trkpt>
      <trkpt lat="38.73803" lon="-120.03083">
        <ele>2610.0</ele>
      </trkpt>
      <trkpt lat="38.73807" lon="-120.03118">
        <ele>2620.0</ele>
      </trkpt>
      <trkpt lat="38.7382" lon="-120.03144">
        <ele>2622.0</ele>
      </trkpt>
      <trkpt lat="38.73848" lon="-120.03164">
        <ele>2620.0</ele>
      </trkpt>
      <trkpt lat="38.73865" lon="-120.03182">
        <ele>2627.0</ele>
      </trkpt>
      <trkpt lat="38.73877" lon="-120.03205">
        <ele>2623.0</ele>
      </trkpt>
      <trkpt lat="38.73895" lon="-120.03229">
        <ele>2630.0</ele>
      </trkpt>
      <trkpt lat="38.73932" lon="-120.03252">
        <ele>2634.0</ele>
      </trkpt>
      <trkpt lat="38.73949" lon="-120.03275">
        <ele>2641.0</ele>
      </trkpt>
      <trkpt lat="38.73977" lon="-120.03272">
        <ele>2641.0</ele>
      </trkpt>
      <trkpt lat="38.74008" lon="-120.03274">
        <ele>2646.0</ele>
      </trkpt>
      <trkpt lat="38.74023" lon="-120.03281">
        <ele>2650.0</ele>
      </trkpt>
      <trkpt lat="38.74031" lon="-120.0329">
        <ele>2650.0</ele>
      </trkpt>
      <trkpt lat="38.74027" lon="-120.03298">
        <ele>2656.0</ele>
      </trkpt>
      <trkpt lat="38.73998" lon="-120.03318">
        <ele>2651.0</ele>
      </trkpt>
      <trkpt lat="38.73984" lon="-120.03336">
        <ele>2655.0</ele>
      </trkpt>
      <trkpt lat="38.73985" lon="-120.03358">
        <ele>2660.0</ele>
      </trkpt>
      <trkpt lat="38.74" lon="-120.03392">
        <ele>2661.0</ele>
      </trkpt>
      <trkpt lat="38.74" lon="-120.03392">
        <ele>2661.0</ele>
      </trkpt>
      <trkpt lat="38.7402" lon="-120.03393">
        <ele>2662.0</ele>
      </trkpt>
      <trkpt lat="38.74072" lon="-120.03383">
        <ele>2658.0</ele>
      </trkpt>
      <trkpt lat="38.74088" lon="-120.03388">
        <ele>2658.0</ele>
      </trkpt>
      <trkpt lat="38.74096" lon="-120.03405">
        <ele>2652.0</ele>
      </trkpt>
      <trkpt lat="38.7415" lon="-120.03404">
        <ele>2646.0</ele>
      </trkpt>
      <trkpt lat="38.74178" lon="-120.03409">
        <ele>2645.0</ele>
      </trkpt>
      <trkpt lat="38.74193" lon="-120.03405">
        <ele>2645.0</ele>
      </trkpt>
      <trkpt lat="38.74231" lon="-120.03425">
        <ele>2642.0</ele>
      </trkpt>
      <trkpt lat="38.74258" lon="-120.0343">
        <ele>2644.0</ele>
      </trkpt>
      <trkpt lat="38.74287" lon="-120.03448">
        <ele>2640.0</ele>
      </trkpt>
      <trkpt lat="38.74301" lon="-120.03441">
        <ele>2642.0</ele>
      </trkpt>
      <trkpt lat="38.74315" lon="-120.03427">
        <ele>2645.0</ele>
      </trkpt>
      <trkpt lat="38.74334" lon="-120.0342">
        <ele>2647.0</ele>
      </trkpt>
      <trkpt lat="38.74348" lon="-120.03419">
        <ele>2644.0</ele>
      </trkpt>
      <trkpt lat="38.74356" lon="-120.03428">
        <ele>2644.0</ele>
      </trkpt>
      <trkpt lat="38.7438" lon="-120.03419">
        <ele>2637.0</ele>
      </trkpt>
      <trkpt lat="38.74394" lon="-120.03423">
        <ele>2637.0</ele>
      </trkpt>
      <trkpt lat="38.74408" lon="-120.03415">
        <ele>2628.0</ele>
      </trkpt>
      <trkpt lat="38.74412" lon="-120.03428">
        <ele>2628.0</ele>
      </trkpt>
      <trkpt lat="38.74426" lon="-120.0343">
        <ele>2628.0</ele>
      </trkpt>
      <trkpt lat="38.7443" lon="-120.03437">
        <ele>2629.0</ele>
      </trkpt>
      <trkpt lat="38.74447" lon="-120.03438">
        <ele>2624.0</ele>
      </trkpt>
      <trkpt lat="38.74443" lon="-120.03445">
        <ele>2624.0</ele>
      </trkpt>
      <trkpt lat="38.74447" lon="-120.03438">
        <ele>2624.0</ele>
      </trkpt>
      <trkpt lat="38.74443" lon="-120.03445">
        <ele>2624.0</ele>
      </trkpt>
      <trkpt lat="38.74448" lon="-120.0345">
        <ele>2624.0</ele>
      </trkpt>
      <trkpt lat="38.74423" lon="-120.03481">
        <ele>2630.0</ele>
      </trkpt>
      <trkpt lat="38.74395" lon="-120.03498">
        <ele>2635.0</ele>
      </trkpt>
      <trkpt lat="38.74367" lon="-120.0353">
        <ele>2638.0</ele>
      </trkpt>
      <trkpt lat="38.74349" lon="-120.03557">
        <ele>2640.0</ele>
      </trkpt>
      <trkpt lat="38.743" lon="-120.03619">
        <ele>2645.0</ele>
      </trkpt>
      <trkpt lat="38.74302" lon="-120.03642">
        <ele>2646.0</ele>
      </trkpt>
      <trkpt lat="38.74286" lon="-120.03662">
        <ele>2650.0</ele>
      </trkpt>
      <trkpt lat="38.74286" lon="-120.03662">
        <ele>2650.0</ele>
      </trkpt>
      <trkpt lat="38.74277" lon="-120.03674">
        <ele>2650.0</ele>
      </trkpt>
      <trkpt lat="38.7427" lon="-120.03696">
        <ele>2652.0</ele>
      </trkpt>
      <trkpt lat="38.74269" lon="-120.03717">
        <ele>2655.0</ele>
      </trkpt>
      <trkpt lat="38.74271" lon="-120.03755">
        <ele>2658.0</ele>
      </trkpt>
      <trkpt lat="38.74251" lon="-120.03788">
        <ele>2659.0</ele>
      </trkpt>
      <trkpt lat="38.74246" lon="-120.03821">
        <ele>2662.0</ele>
      </trkpt>
      <trkpt lat="38.74234" lon="-120.03862">
        <ele>2661.0</ele>
      </trkpt>
      <trkpt lat="38.74209" lon="-120.03893">
        <ele>2661.0</ele>
      </trkpt>
      <trkpt lat="38.74203" lon="-120.03964">
        <ele>2663.0</ele>
      </trkpt>
      <trkpt lat="38.7419" lon="-120.03986">
        <ele>2663.0</ele>
      </trkpt>
      <trkpt lat="38.74181" lon="-120.04014">
        <ele>2662.0</ele>
      </trkpt>
      <trkpt lat="38.74169" lon="-120.04036">
        <ele>2670.0</ele>
      </trkpt>
      <trkpt lat="38.74163" lon="-120.04083">
        <ele>2668.0</ele>
      </trkpt>
      <trkpt lat="38.74167" lon="-120.04094">
        <ele>2668.0</ele>
      </trkpt>
      <trkpt lat="38.74164" lon="-120.0412">
        <ele>2669.0</ele>
      </trkpt>
      <trkpt lat="38.74159" lon="-120.04137">
        <ele>2667.0</ele>
      </trkpt>
      <trkpt lat="38.74163" lon="-120.04161">
        <ele>2666.0</ele>
      </trkpt>
      <trkpt lat="38.74148" lon="-120.04223">
        <ele>2675.0</ele>
      </trkpt>
      <trkpt lat="38.74115" lon="-120.04269">
        <ele>2687.0</ele>
      </trkpt>
      <trkpt lat="38.74128" lon="-120.04295">
        <ele>2680.0</ele>
      </trkpt>
      <trkpt lat="38.74126" lon="-120.04319">
        <ele>2680.0</ele>
      </trkpt>
      <trkpt lat="38.7413" lon="-120.04332">
        <ele>2683.0</ele>
      </trkpt>
      <trkpt lat="38.7413" lon="-120.04347">
        <ele>2683.0</ele>
      </trkpt>
      <trkpt lat="38.74135" lon="-120.04361">
        <ele>2685.0</ele>
      </trkpt>
      <trkpt lat="38.74154" lon="-120.04382">
        <ele>2682.0</ele>
      </trkpt>
      <trkpt lat="38.74157" lon="-120.04395">
        <ele>2682.0</ele>
      </trkpt>
      <trkpt lat="38.74157" lon="-120.0442">
        <ele>2687.0</ele>
      </trkpt>
      <trkpt lat="38.74163" lon="-120.04431">
        <ele>2692.0</ele>
      </trkpt>
      <trkpt lat="38.74179" lon="-120.04443">
        <ele>2692.0</ele>
      </trkpt>
      <trkpt lat="38.7418" lon="-120.04453">
        <ele>2692.0</ele>
      </trkpt>
      <trkpt lat="38.74175" lon="-120.04471">
        <ele>2697.0</ele>
      </trkpt>
      <trkpt lat="38.74165" lon="-120.04484">
        <ele>2697.0</ele>
      </trkpt>
      <trkpt lat="38.74165" lon="-120.04499">
        <ele>2700.0</ele>
      </trkpt>
      <trkpt lat="38.7417" lon="-120.04506">
        <ele>2700.0</ele>
      </trkpt>
      <trkpt lat="38.74169" lon="-120.04527">
        <ele>2705.0</ele>
      </trkpt>
      <trkpt lat="38.74176" lon="-120.04538">
        <ele>2705.0</ele>
      </trkpt>
      <trkpt lat="38.74183" lon="-120.04544">
        <ele>2703.0</ele>
      </trkpt>
      <trkpt lat="38.74221" lon="-120.04555">
        <ele>2696.0</ele>
      </trkpt>
      <trkpt lat="38.7424" lon="-120.04564">
        <ele>2690.0</ele>
      </trkpt>
      <trkpt lat="38.74247" lon="-120.04571">
        <ele>2698.0</ele>
      </trkpt>
      <trkpt lat="38.74256" lon="-120.0457">
        <ele>2698.0</ele>
      </trkpt>
      <trkpt lat="38.74263" lon="-120.04574">
        <ele>2698.0</ele>
      </trkpt>
      <trkpt lat="38.7427" lon="-120.04581">
        <ele>2696.0</ele>
      </trkpt>
      <trkpt lat="38.74292" lon="-120.04613">
        <ele>2700.0</ele>
      </trkpt>
      <trkpt lat="38.74293" lon="-120.04623">
        <ele>2700.0</ele>
      </trkpt>
      <trkpt lat="38.74303" lon="-120.04636">
        <ele>2705.0</ele>
      </trkpt>
      <trkpt lat="38.74326" lon="-120.04655">
        <ele>2704.0</ele>
      </trkpt>
      <trkpt lat="38.74363" lon="-120.0467">
        <ele>2701.0</ele>
      </trkpt>
      <trkpt lat="38.74385" lon="-120.04682">
        <ele>2701.0</ele>
      </trkpt>
      <trkpt lat="38.74435" lon="-120.04726">
        <ele>2694.0</ele>
      </trkpt>
      <trkpt lat="38.74447" lon="-120.04745">
        <ele>2697.0</ele>
      </trkpt>
      <trkpt lat="38.7448" lon="-120.04748">
        <ele>2697.0</ele>
      </trkpt>
      <trkpt lat="38.7451" lon="-120.04747">
        <ele>2701.0</ele>
      </trkpt>
      <trkpt lat="38.74539" lon="-120.04741">
        <ele>2701.0</ele>
      </trkpt>
      <trkpt lat="38.74548" lon="-120.04744">
        <ele>2701.0</ele>
      </trkpt>
      <trkpt lat="38.74562" lon="-120.04756">
        <ele>2701.0</ele>
      </trkpt>
      <trkpt lat="38.74568" lon="-120.04769">
        <ele>2707.0</ele>
      </trkpt>
      <trkpt lat="38.74593" lon="-120.04788">
        <ele>2704.0</ele>
      </trkpt>
      <trkpt lat="38.74629" lon="-120.04803">
        <ele>2706.0</ele>
      </trkpt>
      <trkpt lat="38.74655" lon="-120.0482">
        <ele>2715.0</ele>
      </trkpt>
      <trkpt lat="38.7468" lon="-120.04819">
        <ele>2704.0</ele>
      </trkpt>
      <trkpt lat="38.746908961" lon="-120.048210755">
        <ele>2716.0</ele>
      </trkpt>
      <trkpt lat="38.746908961" lon="-120.048210755">
        <ele>2716.0</ele>
      </trkpt>
      <trkpt lat="38.74701" lon="-120.04823">
        <ele>2716.0</ele>
      </trkpt>
      <trkpt lat="38.74722" lon="-120.04816">
        <ele>2709.0</ele>
      </trkpt>
      <trkpt lat="38.74776" lon="-120.04776">
        <ele>2725.0</ele>
      </trkpt>
      <trkpt lat="38.74785" lon="-120.04789">
        <ele>2725.0</ele>
      </trkpt>
      <trkpt lat="38.74802" lon="-120.04797">
        <ele>2736.0</ele>
      </trkpt>
      <trkpt lat="38.74847" lon="-120.04828">
        <ele>2738.0</ele>
      </trkpt>
      <trkpt lat="38.74879" lon="-120.04858">
        <ele>2735.0</ele>
      </trkpt>
      <trkpt lat="38.749" lon="-120.04871">
        <ele>2735.0</ele>
      </trkpt>
      <trkpt lat="38.74921" lon="-120.04873">
        <ele>2731.0</ele>
      </trkpt>
      <trkpt lat="38.74944" lon="-120.0489">
        <ele>2738.0</ele>
      </trkpt>
      <trkpt lat="38.74978" lon="-120.04903">
        <ele>2745.0</ele>
      </trkpt>
      <trkpt lat="38.74999" lon="-120.04934">
        <ele>2749.0</ele>
      </trkpt>
      <trkpt lat="38.75033" lon="-120.0496">
        <ele>2749.0</ele>
      </trkpt>
      <trkpt lat="38.75117" lon="-120.05016">
        <ele>2743.0</ele>
      </trkpt>
      <trkpt lat="38.75126" lon="-120.05027">
        <ele>2743.0</ele>
      </trkpt>
      <trkpt lat="38.75131" lon="-120.05049">
        <ele>2744.0</ele>
      </trkpt>
      <trkpt lat="38.75129" lon="-120.05129">
        <ele>2747.0</ele>
      </trkpt>
      <trkpt lat="38.75149" lon="-120.05151">
        <ele>2747.0</ele>
      </trkpt>
      <trkpt lat="38.75164" lon="-120.05164">
        <ele>2745.0</ele>
      </trkpt>
      <trkpt lat="38.75199" lon="-120.05186">
        <ele>2743.0</ele>
      </trkpt>
      <trkpt lat="38.75216" lon="-120.05185">
        <ele>2743.0</ele>
      </trkpt>
      <trkpt lat="38.75231" lon="-120.05175">
        <ele>2742.0</ele>
      </trkpt>
      <trkpt lat="38.7526" lon="-120.05167">
        <ele>2742.0</ele>
      </trkpt>
      <trkpt lat="38.752729237" lon="-120.051732962">
        <ele>2743.0</ele>
      </trkpt>
      <trkpt lat="38.752729237" lon="-120.051732962">
        <ele>2743.0</ele>
      </trkpt>
      <trkpt lat="38.75338" lon="-120.05205">
        <ele>2734.0</ele>
      </trkpt>
      <trkpt lat="38.75354" lon="-120.05202">
        <ele>2730.0</ele>
      </trkpt>
      <trkpt lat="38.75368" lon="-120.05207">
        <ele>2730.0</ele>
      </trkpt>
      <trkpt lat="38.75385" lon="-120.05219">
        <ele>2724.0</ele>
      </trkpt>
      <trkpt lat="38.75408" lon="-120.0521">
        <ele>2721.0</ele>
      </trkpt>
      <trkpt lat="38.75408" lon="-120.0521">
        <ele>2721.0</ele>
      </trkpt>
      <trkpt lat="38.75423" lon="-120.05201">
        <ele>2724.0</ele>
      </trkpt>
      <trkpt lat="38.75444" lon="-120.05173">
        <ele>2724.0</ele>
      </trkpt>
      <trkpt lat="38.75463" lon="-120.05177">
        <ele>2722.0</ele>
      </trkpt>
      <trkpt lat="38.75535" lon="-120.05229">
        <ele>2718.0</ele>
      </trkpt>
      <trkpt lat="38.75553" lon="-120.05237">
        <ele>2724.0</ele>
      </trkpt>
      <trkpt lat="38.7557" lon="-120.05238">
        <ele>2729.0</ele>
      </trkpt>
      <trkpt lat="38.75646" lon="-120.05186">
        <ele>2733.0</ele>
      </trkpt>
      <trkpt lat="38.75659" lon="-120.05164">
        <ele>2734.0</ele>
      </trkpt>
      <trkpt lat="38.75693" lon="-120.05154">
        <ele>2736.0</ele>
      </trkpt>
      <trkpt lat="38.75711" lon="-120.05135">
        <ele>2739.0</ele>
      </trkpt>
      <trkpt lat="38.75724" lon="-120.05111">
        <ele>2739.0</ele>
      </trkpt>
      <trkpt lat="38.75733" lon="-120.05107">
        <ele>2739.0</ele>
      </trkpt>
      <trkpt lat="38.75743" lon="-120.05122">
        <ele>2739.0</ele>
      </trkpt>
      <trkpt lat="38.75766" lon="-120.05135">
        <ele>2736.0</ele>
      </trkpt>
      <trkpt lat="38.75781" lon="-120.05124">
        <ele>2737.0</ele>
      </trkpt>
      <trkpt lat="38.75792" lon="-120.05089">
        <ele>2734.0</ele>
      </trkpt>
      <trkpt lat="38.75804" lon="-120.05068">
        <ele>2733.0</ele>
      </trkpt>
      <trkpt lat="38.75861" lon="-120.05009">
        <ele>2727.0</ele>
      </trkpt>
      <trkpt lat="38.75868" lon="-120.04993">
        <ele>2727.0</ele>
      </trkpt>
      <trkpt lat="38.75887" lon="-120.04974">
        <ele>2722.0</ele>
      </trkpt>
      <trkpt lat="38.75918" lon="-120.04966">
        <ele>2719.0</ele>
      </trkpt>
      <trkpt lat="38.75927" lon="-120.04955">
        <ele>2714.0</ele>
      </trkpt>
      <trkpt lat="38.75937" lon="-120.04949">
        <ele>2712.0</ele>
      </trkpt>
      <trkpt lat="38.75941" lon="-120.04929">
        <ele>2708.0</ele>
      </trkpt>
      <trkpt lat="38.75958" lon="-120.04926">
        <ele>2708.0</ele>
      </trkpt>
      <trkpt lat="38.75976" lon="-120.04902">
        <ele>2699.0</ele>
      </trkpt>
      <trkpt lat="38.75958" lon="-120.04926">
        <ele>2708.0</ele>
      </trkpt>
      <trkpt lat="38.75976" lon="-120.04902">
        <ele>2699.0</ele>
      </trkpt>
      <trkpt lat="38.75981" lon="-120.04885">
        <ele>2699.0</ele>
      </trkpt>
      <trkpt lat="38.75992" lon="-120.04882">
        <ele>2693.0</ele>
      </trkpt>
      <trkpt lat="38.76024" lon="-120.0489">
        <ele>2686.0</ele>
      </trkpt>
      <trkpt lat="38.76036" lon="-120.04912">
        <ele>2690.0</ele>
      </trkpt>
      <trkpt lat="38.7605" lon="-120.04923">
        <ele>2685.0</ele>
      </trkpt>
      <trkpt lat="38.76062" lon="-120.04939">
        <ele>2689.0</ele>
      </trkpt>
      <trkpt lat="38.76065" lon="-120.04958">
        <ele>2689.0</ele>
      </trkpt>
      <trkpt lat="38.76077" lon="-120.04968">
        <ele>2686.0</ele>
      </trkpt>
      <trkpt lat="38.76089" lon="-120.04965">
        <ele>2686.0</ele>
      </trkpt>
      <trkpt lat="38.761" lon="-120.04959">
        <ele>2679.0</ele>
      </trkpt>
      <trkpt lat="38.76116" lon="-120.04965">
        <ele>2679.0</ele>
      </trkpt>
      <trkpt lat="38.76136" lon="-120.04993">
        <ele>2672.0</ele>
      </trkpt>
      <trkpt lat="38.76153" lon="-120.04994">
        <ele>2663.0</ele>
      </trkpt>
      <trkpt lat="38.76183" lon="-120.04971">
        <ele>2656.0</ele>
      </trkpt>
      <trkpt lat="38.76197" lon="-120.04969">
        <ele>2656.0</ele>
      </trkpt>
      <trkpt lat="38.76222" lon="-120.04955">
        <ele>2651.0</ele>
      </trkpt>
      <trkpt lat="38.76228" lon="-120.04925">
        <ele>2650.0</ele>
      </trkpt>
      <trkpt lat="38.76251" lon="-120.04896">
        <ele>2649.0</ele>
      </trkpt>
      <trkpt lat="38.76253" lon="-120.04881">
        <ele>2649.0</ele>
      </trkpt>
      <trkpt lat="38.76275" lon="-120.04866">
        <ele>2647.0</ele>
      </trkpt>
      <trkpt lat="38.76279" lon="-120.04848">
        <ele>2647.0</ele>
      </trkpt>
      <trkpt lat="38.76291" lon="-120.04825">
        <ele>2646.0</ele>
      </trkpt>
      <trkpt lat="38.76301" lon="-120.04789">
        <ele>2642.0</ele>
      </trkpt>
      <trkpt lat="38.76318" lon="-120.04763">
        <ele>2643.0</ele>
      </trkpt>
      <trkpt lat="38.76358" lon="-120.04735">
        <ele>2646.0</ele>
      </trkpt>
      <trkpt lat="38.76368" lon="-120.04723">
        <ele>2646.0</ele>
      </trkpt>
      <trkpt lat="38.76384" lon="-120.04723">
        <ele>2646.0</ele>
      </trkpt>
      <trkpt lat="38.76397" lon="-120.04713">
        <ele>2646.0</ele>
      </trkpt>
      <trkpt lat="38.7641" lon="-120.04715">
        <ele>2647.0</ele>
      </trkpt>
      <trkpt lat="38.76421" lon="-120.04711">
        <ele>2647.0</ele>
      </trkpt>
      <trkpt lat="38.76442" lon="-120.0472">
        <ele>2649.0</ele>
      </trkpt>
      <trkpt lat="38.76514" lon="-120.04769">
        <ele>2655.0</ele>
      </trkpt>
      <trkpt lat="38.76528" lon="-120.04771">
        <ele>2655.0</ele>
      </trkpt>
      <trkpt lat="38.76554" lon="-120.04786">
        <ele>2654.0</ele>
      </trkpt>
      <trkpt lat="38.76567" lon="-120.04785">
        <ele>2654.0</ele>
      </trkpt>
      <trkpt lat="38.76578" lon="-120.04788">
        <ele>2653.0</ele>
      </trkpt>
      <trkpt lat="38.76603" lon="-120.04812">
        <ele>2651.0</ele>
      </trkpt>
      <trkpt lat="38.76689" lon="-120.04831">
        <ele>2650.0</ele>
      </trkpt>
      <trkpt lat="38.76717" lon="-120.04825">
        <ele>2651.0</ele>
      </trkpt>
      <trkpt lat="38.76762" lon="-120.04825">
        <ele>2656.0</ele>
      </trkpt>
      <trkpt lat="38.76785" lon="-120.04834">
        <ele>2655.0</ele>
      </trkpt>
      <trkpt lat="38.76811" lon="-120.04854">
        <ele>2656.0</ele>
      </trkpt>
      <trkpt lat="38.76829" lon="-120.04859">
        <ele>2652.0</ele>
      </trkpt>
      <trkpt lat="38.76838" lon="-120.04873">
        <ele>2652.0</ele>
      </trkpt>
      <trkpt lat="38.76849" lon="-120.04882">
        <ele>2648.0</ele>
      </trkpt>
      <trkpt lat="38.76909" lon="-120.04849">
        <ele>2646.0</ele>
      </trkpt>
      <trkpt lat="38.76923" lon="-120.04859">
        <ele>2646.0</ele>
      </trkpt>
      <trkpt lat="38.76934" lon="-120.04872">
        <ele>2646.0</ele>
      </trkpt>
      <trkpt lat="38.76944" lon="-120.04893">
        <ele>2646.0</ele>
      </trkpt>
      <trkpt lat="38.76944" lon="-120.04893">
        <ele>2646.0</ele>
      </trkpt>
      <trkpt lat="38.76944" lon="-120.04893">
        <ele>2646.0</ele>
      </trkpt>
      <trkpt lat="38.76964" lon="-120.04917">
        <ele>2647.0</ele>
      </trkpt>
      <trkpt lat="38.76985" lon="-120.04929">
        <ele>2647.0</ele>
      </trkpt>
      <trkpt lat="38.77003" lon="-120.04947">
        <ele>2648.0</ele>
      </trkpt>
      <trkpt lat="38.77012" lon="-120.04963">
        <ele>2647.0</ele>
      </trkpt>
      <trkpt lat="38.77027" lon="-120.04979">
        <ele>2648.0</ele>
      </trkpt>
      <trkpt lat="38.77046" lon="-120.04986">
        <ele>2649.0</ele>
      </trkpt>
      <trkpt lat="38.77059" lon="-120.04995">
        <ele>2649.0</ele>
      </trkpt>
      <trkpt lat="38.77075" lon="-120.0502">
        <ele>2647.0</ele>
      </trkpt>
      <trkpt lat="38.77082" lon="-120.05019">
        <ele>2647.0</ele>
      </trkpt>
      <trkpt lat="38.77094" lon="-120.05007">
        <ele>2648.0</ele>
      </trkpt>
      <trkpt lat="38.77122" lon="-120.04987">
        <ele>2653.0</ele>
      </trkpt>
      <trkpt lat="38.77122" lon="-120.04987">
        <ele>2653.0</ele>
      </trkpt>
      <trkpt lat="38.77148" lon="-120.04977">
        <ele>2655.0</ele>
      </trkpt>
      <trkpt lat="38.77169" lon="-120.04996">
        <ele>2655.0</ele>
      </trkpt>
      <trkpt lat="38.77181" lon="-120.04997">
        <ele>2653.0</ele>
      </trkpt>
      <trkpt lat="38.77194" lon="-120.04993">
        <ele>2653.0</ele>
      </trkpt>
      <trkpt lat="38.77209" lon="-120.04998">
        <ele>2650.0</ele>
      </trkpt>
      <trkpt lat="38.77224" lon="-120.05008">
        <ele>2650.0</ele>
      </trkpt>
      <trkpt lat="38.77245" lon="-120.05032">
        <ele>2649.0</ele>
      </trkpt>
      <trkpt lat="38.77265" lon="-120.05047">
        <ele>2647.0</ele>
      </trkpt>
      <trkpt lat="38.77297" lon="-120.05064">
        <ele>2645.0</ele>
      </trkpt>
      <trkpt lat="38.77363" lon="-120.0507">
        <ele>2644.0</ele>
      </trkpt>
      <trkpt lat="38.77421" lon="-120.05086">
        <ele>2644.0</ele>
      </trkpt>
      <trkpt lat="38.77452" lon="-120.05105">
        <ele>2643.0</ele>
      </trkpt>
      <trkpt lat="38.77482" lon="-120.05114">
        <ele>2642.0</ele>
      </trkpt>
      <trkpt lat="38.77513" lon="-120.05132">
        <ele>2639.0</ele>
      </trkpt>
      <trkpt lat="38.77531" lon="-120.0515">
        <ele>2636.0</ele>
      </trkpt>
      <trkpt lat="38.77578" lon="-120.05163">
        <ele>2640.0</ele>
      </trkpt>
      <trkpt lat="38.77607" lon="-120.05154">
        <ele>2643.0</ele>
      </trkpt>
      <trkpt lat="38.77633" lon="-120.05154">
        <ele>2644.0</ele>
      </trkpt>
      <trkpt lat="38.77645" lon="-120.05158">
        <ele>2644.0</ele>
      </trkpt>
      <trkpt lat="38.7766" lon="-120.05159">
        <ele>2643.0</ele>
      </trkpt>
      <trkpt lat="38.77673" lon="-120.05166">
        <ele>2643.0</ele>
      </trkpt>
      <trkpt lat="38.77726" lon="-120.05165">
        <ele>2642.0</ele>
      </trkpt>
      <trkpt lat="38.77738" lon="-120.05169">
        <ele>2637.0</ele>
      </trkpt>
      <trkpt lat="38.77756" lon="-120.0519">
        <ele>2634.0</ele>
      </trkpt>
      <trkpt lat="38.77781" lon="-120.05195">
        <ele>2630.0</ele>
      </trkpt>
      <trkpt lat="38.77803" lon="-120.05192">
        <ele>2625.0</ele>
      </trkpt>
      <trkpt lat="38.77829" lon="-120.05181">
        <ele>2622.0</ele>
      </trkpt>
      <trkpt lat="38.77855" lon="-120.05183">
        <ele>2616.0</ele>
      </trkpt>
      <trkpt lat="38.77872" lon="-120.05191">
        <ele>2616.0</ele>
      </trkpt>
      <trkpt lat="38.77889" lon="-120.05188">
        <ele>2606.0</ele>
      </trkpt>
      <trkpt lat="38.77907" lon="-120.05193">
        <ele>2599.0</ele>
      </trkpt>
      <trkpt lat="38.77961" lon="-120.05181">
        <ele>2603.0</ele>
      </trkpt>
      <trkpt lat="38.77961" lon="-120.05181">
        <ele>2603.0</ele>
      </trkpt>
      <trkpt lat="38.77961" lon="-120.05181">
        <ele>2603.0</ele>
      </trkpt>
      <trkpt lat="38.77961" lon="-120.05181">
        <ele>2603.0</ele>
      </trkpt>
      <trkpt lat="38.77961" lon="-120.05181">
        <ele>2603.0</ele>
      </trkpt>
      <trkpt lat="38.77971" lon="-120.05164">
        <ele>2605.0</ele>
      </trkpt>
      <trkpt lat="38.77977" lon="-120.05143">
        <ele>2606.0</ele>
      </trkpt>
      <trkpt lat="38.77983" lon="-120.05113">
        <ele>2606.0</ele>
      </trkpt>
      <trkpt lat="38.77984" lon="-120.05084">
        <ele>2608.0</ele>
      </trkpt>
      <trkpt lat="38.77957" lon="-120.04981">
        <ele>2625.0</ele>
      </trkpt>
      <trkpt lat="38.77952" lon="-120.0496">
        <ele>2625.0</ele>
      </trkpt>
      <trkpt lat="38.77953" lon="-120.04942">
        <ele>2626.0</ele>
      </trkpt>
      <trkpt lat="38.77962" lon="-120.04909">
        <ele>2627.0</ele>
      </trkpt>
      <trkpt lat="38.77965" lon="-120.0486">
        <ele>2627.0</ele>
      </trkpt>
      <trkpt lat="38.77975" lon="-120.04798">
        <ele>2623.0</ele>
      </trkpt>
      <trkpt lat="38.77995" lon="-120.04707">
        <ele>2611.0</ele>
      </trkpt>
      <trkpt lat="38.78017" lon="-120.04695">
        <ele>2620.0</ele>
      </trkpt>
      <trkpt lat="38.7804" lon="-120.04669">
        <ele>2620.0</ele>
      </trkpt>
      <trkpt lat="38.78053" lon="-120.04651">
        <ele>2627.0</ele>
      </trkpt>
      <trkpt lat="38.78057" lon="-120.04619">
        <ele>2624.0</ele>
      </trkpt>
      <trkpt lat="38.7807" lon="-120.04597">
        <ele>2629.0</ele>
      </trkpt>
      <trkpt lat="38.78099" lon="-120.04573">
        <ele>2634.0</ele>
      </trkpt>
      <trkpt lat="38.78115" lon="-120.04556">
        <ele>2632.0</ele>
      </trkpt>
      <trkpt lat="38.78155" lon="-120.04483">
        <ele>2640.0</ele>
      </trkpt>
      <trkpt lat="38.78172" lon="-120.04464">
        <ele>2640.0</ele>
      </trkpt>
      <trkpt lat="38.78215" lon="-120.04445">
        <ele>2654.0</ele>
      </trkpt>
      <trkpt lat="38.78289" lon="-120.0439">
        <ele>2663.0</ele>
      </trkpt>
      <trkpt lat="38.78327" lon="-120.04379">
        <ele>2673.0</ele>
      </trkpt>
      <trkpt lat="38.78346" lon="-120.04357">
        <ele>2672.0</ele>
      </trkpt>
      <trkpt lat="38.7836" lon="-120.04345">
        <ele>2674.0</ele>
      </trkpt>
      <trkpt lat="38.78404" lon="-120.04328">
        <ele>2678.0</ele>
      </trkpt>
      <trkpt lat="38.78429" lon="-120.04312">
        <ele>2674.0</ele>
      </trkpt>
      <trkpt lat="38.78508" lon="-120.04242">
        <ele>2675.0</ele>
      </trkpt>
      <trkpt lat="38.78549" lon="-120.04196">
        <ele>2666.0</ele>
      </trkpt>
      <trkpt lat="38.78568" lon="-120.0419">
        <ele>2666.0</ele>
      </trkpt>
      <trkpt lat="38.78589" lon="-120.04208">
        <ele>2663.0</ele>
      </trkpt>
      <trkpt lat="38.78593" lon="-120.04231">
        <ele>2662.0</ele>
      </trkpt>
      <trkpt lat="38.78591" lon="-120.04302">
        <ele>2662.0</ele>
      </trkpt>
      <trkpt lat="38.78602" lon="-120.04327">
        <ele>2644.0</ele>
      </trkpt>
      <trkpt lat="38.786" lon="-120.04351">
        <ele>2642.0</ele>
      </trkpt>
      <trkpt lat="38.78613" lon="-120.04364">
        <ele>2642.0</ele>
      </trkpt>
      <trkpt lat="38.78615" lon="-120.04384">
        <ele>2641.0</ele>
      </trkpt>
      <trkpt lat="38.78624" lon="-120.04397">
        <ele>2641.0</ele>
      </trkpt>
      <trkpt lat="38.7864" lon="-120.04411">
        <ele>2630.0</ele>
      </trkpt>
      <trkpt lat="38.78658" lon="-120.04452">
        <ele>2624.0</ele>
      </trkpt>
      <trkpt lat="38.78661" lon="-120.04478">
        <ele>2625.0</ele>
      </trkpt>
      <trkpt lat="38.78669" lon="-120.04491">
        <ele>2627.0</ele>
      </trkpt>
      <trkpt lat="38.78686" lon="-120.04488">
        <ele>2624.0</ele>
      </trkpt>
      <trkpt lat="38.78701" lon="-120.0449">
        <ele>2624.0</ele>
      </trkpt>
      <trkpt lat="38.78712" lon="-120.0448">
        <ele>2614.0</ele>
      </trkpt>
      <trkpt lat="38.7872" lon="-120.04461">
        <ele>2614.0</ele>
      </trkpt>
      <trkpt lat="38.78735" lon="-120.04443">
        <ele>2610.0</ele>
      </trkpt>
      <trkpt lat="38.78724" lon="-120.04427">
        <ele>2606.0</ele>
      </trkpt>
      <trkpt lat="38.78747" lon="-120.04407">
        <ele>2599.0</ele>
      </trkpt>
      <trkpt lat="38.78758" lon="-120.04403">
        <ele>2599.0</ele>
      </trkpt>
      <trkpt lat="38.78777" lon="-120.04389">
        <ele>2588.0</ele>
      </trkpt>
      <trkpt lat="38.78782" lon="-120.04381">
        <ele>2588.0</ele>
      </trkpt>
      <trkpt lat="38.78762" lon="-120.04367">
        <ele>2584.0</ele>
      </trkpt>
      <trkpt lat="38.78772" lon="-120.04353">
        <ele>2580.0</ele>
      </trkpt>
      <trkpt lat="38.788" lon="-120.04352">
        <ele>2580.0</ele>
      </trkpt>
      <trkpt lat="38.78797" lon="-120.0433">
        <ele>2572.0</ele>
      </trkpt>
      <trkpt lat="38.78818" lon="-120.04319">
        <ele>2567.0</ele>
      </trkpt>
      <trkpt lat="38.78821" lon="-120.04297">
        <ele>2564.0</ele>
      </trkpt>
      <trkpt lat="38.7883" lon="-120.04282">
        <ele>2562.0</ele>
      </trkpt>
      <trkpt lat="38.78822" lon="-120.0425">
        <ele>2560.0</ele>
      </trkpt>
      <trkpt lat="38.7882" lon="-120.04203">
        <ele>2557.0</ele>
      </trkpt>
      <trkpt lat="38.78829" lon="-120.04185">
        <ele>2557.0</ele>
      </trkpt>
      <trkpt lat="38.78828" lon="-120.04163">
        <ele>2555.0</ele>
      </trkpt>
      <trkpt lat="38.78835" lon="-120.04145">
        <ele>2555.0</ele>
      </trkpt>
      <trkpt lat="38.78835" lon="-120.04145">
        <ele>2555.0</ele>
      </trkpt>
      <trkpt lat="38.78837" lon="-120.0414">
        <ele>2555.0</ele>
      </trkpt>
      <trkpt lat="38.78835" lon="-120.04114">
        <ele>2554.0</ele>
      </trkpt>
      <trkpt lat="38.7884" lon="-120.04084">
        <ele>2550.0</ele>
      </trkpt>
      <trkpt lat="38.78837" lon="-120.0403">
        <ele>2542.0</ele>
      </trkpt>
      <trkpt lat="38.78843" lon="-120.03977">
        <ele>2537.0</ele>
      </trkpt>
      <trkpt lat="38.78855" lon="-120.03961">
        <ele>2518.0</ele>
      </trkpt>
      <trkpt lat="38.78858" lon="-120.03937">
        <ele>2518.0</ele>
      </trkpt>
      <trkpt lat="38.78885" lon="-120.0392">
        <ele>2507.0</ele>
      </trkpt>
      <trkpt lat="38.78896" lon="-120.03888">
        <ele>2511.0</ele>
      </trkpt>
      <trkpt lat="38.78918" lon="-120.03848">
        <ele>2500.0</ele>
      </trkpt>
      <trkpt lat="38.78924" lon="-120.03803">
        <ele>2495.0</ele>
      </trkpt>
      <trkpt lat="38.78935" lon="-120.03764">
        <ele>2486.0</ele>
      </trkpt>
      <trkpt lat="38.78933" lon="-120.03754">
        <ele>2489.0</ele>
      </trkpt>
      <trkpt lat="38.78924" lon="-120.03745">
        <ele>2490.0</ele>
      </trkpt>
      <trkpt lat="38.78918" lon="-120.03729">
        <ele>2489.0</ele>
      </trkpt>
      <trkpt lat="38.78926" lon="-120.0371">
        <ele>2489.0</ele>
      </trkpt>
      <trkpt lat="38.78943" lon="-120.03692">
        <ele>2492.0</ele>
      </trkpt>
      <trkpt lat="38.78963" lon="-120.0369">
        <ele>2494.0</ele>
      </trkpt>
      <trkpt lat="38.78993" lon="-120.037">
        <ele>2498.0</ele>
      </trkpt>
      <trkpt lat="38.79031" lon="-120.03681">
        <ele>2496.0</ele>
      </trkpt>
      <trkpt lat="38.7904" lon="-120.03684">
        <ele>2496.0</ele>
      </trkpt>
      <trkpt lat="38.79057" lon="-120.03674">
        <ele>2501.0</ele>
      </trkpt>
      <trkpt lat="38.79071" lon="-120.03686">
        <ele>2485.0</ele>
      </trkpt>
      <trkpt lat="38.79094" lon="-120.03687">
        <ele>2485.0</ele>
      </trkpt>
      <trkpt lat="38.79151" lon="-120.03669">
        <ele>2481.0</ele>
      </trkpt>
      <trkpt lat="38.79197" lon="-120.03662">
        <ele>2473.0</ele>
      </trkpt>
      <trkpt lat="38.79197" lon="-120.03662">
        <ele>2473.0</ele>
      </trkpt>
      <trkpt lat="38.79226" lon="-120.03658">
        <ele>2464.0</ele>
      </trkpt>
      <trkpt lat="38.79246" lon="-120.03649">
        <ele>2466.0</ele>
      </trkpt>
      <trkpt lat="38.79261" lon="-120.03649">
        <ele>2466.0</ele>
      </trkpt>
      <trkpt lat="38.79279" lon="-120.03644">
        <ele>2457.0</ele>
      </trkpt>
      <trkpt lat="38.79305" lon="-120.03648">
        <ele>2451.0</ele>
      </trkpt>
      <trkpt lat="38.79327" lon="-120.03643">
        <ele>2445.0</ele>
      </trkpt>
      <trkpt lat="38.79347" lon="-120.03634">
        <ele>2445.0</ele>
      </trkpt>
      <trkpt lat="38.79361" lon="-120.03612">
        <ele>2446.0</ele>
      </trkpt>
      <trkpt lat="38.79372" lon="-120.03603">
        <ele>2446.0</ele>
      </trkpt>
      <trkpt lat="38.79381" lon="-120.03597">
        <ele>2444.0</ele>
      </trkpt>
      <trkpt lat="38.79393" lon="-120.03598">
        <ele>2437.0</ele>
      </trkpt>
      <trkpt lat="38.794" lon="-120.03594">
        <ele>2444.0</ele>
      </trkpt>
      <trkpt lat="38.79402" lon="-120.03588">
        <ele>2444.0</ele>
      </trkpt>
      <trkpt lat="38.79427" lon="-120.03588">
        <ele>2437.0</ele>
      </trkpt>
      <trkpt lat="38.79453" lon="-120.03599">
        <ele>2430.0</ele>
      </trkpt>
      <trkpt lat="38.79495" lon="-120.03596">
        <ele>2428.0</ele>
      </trkpt>
      <trkpt lat="38.79508" lon="-120.03584">
        <ele>2428.0</ele>
      </trkpt>
      <trkpt lat="38.79517" lon="-120.03558">
        <ele>2423.0</ele>
      </trkpt>
      <trkpt lat="38.79541" lon="-120.03548">
        <ele>2423.0</ele>
      </trkpt>
      <trkpt lat="38.7955" lon="-120.0355">
        <ele>2416.0</ele>
      </trkpt>
      <trkpt lat="38.79582" lon="-120.03584">
        <ele>2406.0</ele>
      </trkpt>
      <trkpt lat="38.796" lon="-120.03611">
        <ele>2394.0</ele>
      </trkpt>
      <trkpt lat="38.79609" lon="-120.03588">
        <ele>2396.0</ele>
      </trkpt>
      <trkpt lat="38.79621" lon="-120.03578">
        <ele>2396.0</ele>
      </trkpt>
      <trkpt lat="38.79644" lon="-120.03574">
        <ele>2387.0</ele>
      </trkpt>
      <trkpt lat="38.79661" lon="-120.03557">
        <ele>2383.0</ele>
      </trkpt>
      <trkpt lat="38.79678" lon="-120.03508">
        <ele>2388.0</ele>
      </trkpt>
      <trkpt lat="38.79694" lon="-120.03484">
        <ele>2377.0</ele>
      </trkpt>
      <trkpt lat="38.79703" lon="-120.03478">
        <ele>2377.0</ele>
      </trkpt>
      <trkpt lat="38.7972" lon="-120.03487">
        <ele>2368.0</ele>
      </trkpt>
      <trkpt lat="38.79725" lon="-120.03477">
        <ele>2366.0</ele>
      </trkpt>
      <trkpt lat="38.79725" lon="-120.03452">
        <ele>2366.0</ele>
      </trkpt>
      <trkpt lat="38.79719" lon="-120.03436">
        <ele>2366.0</ele>
      </trkpt>
      <trkpt lat="38.79718" lon="-120.03423">
        <ele>2366.0</ele>
      </trkpt>
      <trkpt lat="38.79724" lon="-120.03413">
        <ele>2366.0</ele>
      </trkpt>
      <trkpt lat="38.79739" lon="-120.03427">
        <ele>2358.0</ele>
      </trkpt>
      <trkpt lat="38.7974" lon="-120.03435">
        <ele>2360.0</ele>
      </trkpt>
      <trkpt lat="38.79762" lon="-120.03493">
        <ele>2363.0</ele>
      </trkpt>
      <trkpt lat="38.79762" lon="-120.03518">
        <ele>2363.0</ele>
      </trkpt>
      <trkpt lat="38.79772" lon="-120.03543">
        <ele>2355.0</ele>
      </trkpt>
      <trkpt lat="38.79773" lon="-120.03573">
        <ele>2353.0</ele>
      </trkpt>
      <trkpt lat="38.79806" lon="-120.03603">
        <ele>2341.0</ele>
      </trkpt>
      <trkpt lat="38.79812" lon="-120.03617">
        <ele>2341.0</ele>
      </trkpt>
      <trkpt lat="38.7982" lon="-120.03628">
        <ele>2334.0</ele>
      </trkpt>
      <trkpt lat="38.7983" lon="-120.03634">
        <ele>2334.0</ele>
      </trkpt>
      <trkpt lat="38.79851" lon="-120.03636">
        <ele>2328.0</ele>
      </trkpt>
      <trkpt lat="38.7986" lon="-120.03642">
        <ele>2328.0</ele>
      </trkpt>
      <trkpt lat="38.79866" lon="-120.03658">
        <ele>2332.0</ele>
      </trkpt>
      <trkpt lat="38.79871" lon="-120.03662">
        <ele>2332.0</ele>
      </trkpt>
      <trkpt lat="38.79871" lon="-120.03662">
        <ele>2332.0</ele>
      </trkpt>
      <trkpt lat="38.799" lon="-120.03686">
        <ele>2327.0</ele>
      </trkpt>
      <trkpt lat="38.79925" lon="-120.03691">
        <ele>2321.0</ele>
      </trkpt>
      <trkpt lat="38.79946" lon="-120.03709">
        <ele>2320.0</ele>
      </trkpt>
      <trkpt lat="38.79971" lon="-120.03723">
        <ele>2315.0</ele>
      </trkpt>
      <trkpt lat="38.79987" lon="-120.0373">
        <ele>2307.0</ele>
      </trkpt>
      <trkpt lat="38.80014" lon="-120.03728">
        <ele>2303.0</ele>
      </trkpt>
      <trkpt lat="38.80034" lon="-120.03739">
        <ele>2308.0</ele>
      </trkpt>
      <trkpt lat="38.80041" lon="-120.03734">
        <ele>2303.0</ele>
      </trkpt>
      <trkpt lat="38.80052" lon="-120.03709">
        <ele>2302.0</ele>
      </trkpt>
      <trkpt lat="38.80061" lon="-120.03702">
        <ele>2297.0</ele>
      </trkpt>
      <trkpt lat="38.80075" lon="-120.03687">
        <ele>2299.0</ele>
      </trkpt>
      <trkpt lat="38.80099" lon="-120.03671">
        <ele>2298.0</ele>
      </trkpt>
      <trkpt lat="38.8012" lon="-120.03662">
        <ele>2298.0</ele>
      </trkpt>
      <trkpt lat="38.8012" lon="-120.03662">
        <ele>2298.0</ele>
      </trkpt>
      <trkpt lat="38.80126" lon="-120.03659">
        <ele>2302.0</ele>
      </trkpt>
      <trkpt lat="38.80139" lon="-120.0364">
        <ele>2299.0</ele>
      </trkpt>
      <trkpt lat="38.80152" lon="-120.03626">
        <ele>2299.0</ele>
      </trkpt>
      <trkpt lat="38.80158" lon="-120.03605">
        <ele>2299.0</ele>
      </trkpt>
      <trkpt lat="38.80173" lon="-120.03573">
        <ele>2296.0</ele>
      </trkpt>
      <trkpt lat="38.80173" lon="-120.03553">
        <ele>2296.0</ele>
      </trkpt>
      <trkpt lat="38.80189" lon="-120.03507">
        <ele>2300.0</ele>
      </trkpt>
      <trkpt lat="38.80194" lon="-120.03459">
        <ele>2298.0</ele>
      </trkpt>
      <trkpt lat="38.80196" lon="-120.03393">
        <ele>2292.0</ele>
      </trkpt>
      <trkpt lat="38.80203" lon="-120.03355">
        <ele>2291.0</ele>
      </trkpt>
      <trkpt lat="38.80203" lon="-120.03319">
        <ele>2288.0</ele>
      </trkpt>
      <trkpt lat="38.801999551" lon="-120.032988273">
        <ele>2288.0</ele>
      </trkpt>
      <trkpt lat="38.801999551" lon="-120.032988273">
        <ele>2288.0</ele>
      </trkpt>
      <trkpt lat="38.80195" lon="-120.03266">
        <ele>2285.0</ele>
      </trkpt>
      <trkpt lat="38.80197" lon="-120.03224">
        <ele>2281.0</ele>
      </trkpt>
      <trkpt lat="38.80205" lon="-120.03201">
        <ele>2280.0</ele>
      </trkpt>
      <trkpt lat="38.80217" lon="-120.03186">
        <ele>2285.0</ele>
      </trkpt>
      <trkpt lat="38.80217" lon="-120.03186">
        <ele>2285.0</ele>
      </trkpt>
      <trkpt lat="38.80217" lon="-120.03186">
        <ele>2285.0</ele>
      </trkpt>
      <trkpt lat="38.80234" lon="-120.03185">
        <ele>2285.0</ele>
      </trkpt>
      <trkpt lat="38.80255" lon="-120.03178">
        <ele>2289.0</ele>
      </trkpt>
      <trkpt lat="38.80269" lon="-120.03184">
        <ele>2292.0</ele>
      </trkpt>
      <trkpt lat="38.80284" lon="-120.03176">
        <ele>2290.0</ele>
      </trkpt>
      <trkpt lat="38.80296" lon="-120.03173">
        <ele>2288.0</ele>
      </trkpt>
      <trkpt lat="38.80308" lon="-120.03179">
        <ele>2288.0</ele>
      </trkpt>
      <trkpt lat="38.80339" lon="-120.03171">
        <ele>2288.0</ele>
      </trkpt>
      <trkpt lat="38.80349" lon="-120.03181">
        <ele>2294.0</ele>
      </trkpt>
      <trkpt lat="38.80365" lon="-120.03185">
        <ele>2294.0</ele>
      </trkpt>
      <trkpt lat="38.80377" lon="-120.03196">
        <ele>2295.0</ele>
      </trkpt>
      <trkpt lat="38.80406" lon="-120.032">
        <ele>2297.0</ele>
      </trkpt>
      <trkpt lat="38.80406" lon="-120.032">
        <ele>2297.0</ele>
      </trkpt>
      <trkpt lat="38.80406" lon="-120.032">
        <ele>2297.0</ele>
      </trkpt>
      <trkpt lat="38.80417" lon="-120.03226">
        <ele>2299.0</ele>
      </trkpt>
      <trkpt lat="38.80428" lon="-120.03239">
        <ele>2305.0</ele>
      </trkpt>
      <trkpt lat="38.80441" lon="-120.03245">
        <ele>2307.0</ele>
      </trkpt>
      <trkpt lat="38.80455" lon="-120.03248">
        <ele>2307.0</ele>
      </trkpt>
      <trkpt lat="38.80467" lon="-120.03255">
        <ele>2306.0</ele>
      </trkpt>
      <trkpt lat="38.80492" lon="-120.03283">
        <ele>2312.0</ele>
      </trkpt>
      <trkpt lat="38.80521" lon="-120.03293">
        <ele>2320.0</ele>
      </trkpt>
      <trkpt lat="38.80532" lon="-120.03293">
        <ele>2320.0</ele>
      </trkpt>
      <trkpt lat="38.80547" lon="-120.03283">
        <ele>2317.0</ele>
      </trkpt>
      <trkpt lat="38.80547" lon="-120.03283">
        <ele>2317.0</ele>
      </trkpt>
      <trkpt lat="38.80555" lon="-120.03281">
        <ele>2317.0</ele>
      </trkpt>
      <trkpt lat="38.80568" lon="-120.03285">
        <ele>2317.0</ele>
      </trkpt>
      <trkpt lat="38.80598" lon="-120.03308">
        <ele>2320.0</ele>
      </trkpt>
      <trkpt lat="38.80609" lon="-120.0331">
        <ele>2320.0</ele>
      </trkpt>
      <trkpt lat="38.80622" lon="-120.03311">
        <ele>2320.0</ele>
      </trkpt>
      <trkpt lat="38.80679" lon="-120.03296">
        <ele>2313.0</ele>
      </trkpt>
      <trkpt lat="38.80687" lon="-120.03296">
        <ele>2308.0</ele>
      </trkpt>
      <trkpt lat="38.80727" lon="-120.03319">
        <ele>2304.0</ele>
      </trkpt>
      <trkpt lat="38.80727" lon="-120.03319">
        <ele>2304.0</ele>
      </trkpt>
      <trkpt lat="38.80745" lon="-120.03316">
        <ele>2301.0</ele>
      </trkpt>
      <trkpt lat="38.80775" lon="-120.03291">
        <ele>2298.0</ele>
      </trkpt>
      <trkpt lat="38.808" lon="-120.03278">
        <ele>2297.0</ele>
      </trkpt>
      <trkpt lat="38.80819" lon="-120.03274">
        <ele>2297.0</ele>
      </trkpt>
      <trkpt lat="38.808222141" lon="-120.032743573">
        <ele>2292.0</ele>
      </trkpt>
      <trkpt lat="38.808222141" lon="-120.032743573">
        <ele>2292.0</ele>
      </trkpt>
      <trkpt lat="38.80846" lon="-120.03277">
        <ele>2292.0</ele>
      </trkpt>
      <trkpt lat="38.80882" lon="-120.03269">
        <ele>2279.0</ele>
      </trkpt>
      <trkpt lat="38.80887" lon="-120.03273">
        <ele>2279.0</ele>
      </trkpt>
      <trkpt lat="38.80901" lon="-120.03302">
        <ele>2284.0</ele>
      </trkpt>
      <trkpt lat="38.80917" lon="-120.03321">
        <ele>2285.0</ele>
      </trkpt>
      <trkpt lat="38.80925" lon="-120.03325">
        <ele>2285.0</ele>
      </trkpt>
      <trkpt lat="38.80941" lon="-120.033269999">
        <ele>2282.0</ele>
      </trkpt>
      <trkpt lat="38.80941" lon="-120.033269999">
        <ele>2282.0</ele>
      </trkpt>
      <trkpt lat="38.80941" lon="-120.03327">
        <ele>2282.0</ele>
      </trkpt>
      <trkpt lat="38.80974" lon="-120.03363">
        <ele>2278.0</ele>
      </trkpt>
      <trkpt lat="38.8101" lon="-120.03368">
        <ele>2273.0</ele>
      </trkpt>
      <trkpt lat="38.8104" lon="-120.03387">
        <ele>2275.0</ele>
      </trkpt>
      <trkpt lat="38.81046" lon="-120.03396">
        <ele>2272.0</ele>
      </trkpt>
      <trkpt lat="38.81055" lon="-120.03426">
        <ele>2276.0</ele>
      </trkpt>
      <trkpt lat="38.81071" lon="-120.03444">
        <ele>2274.0</ele>
      </trkpt>
      <trkpt lat="38.81101" lon="-120.0345">
        <ele>2269.0</ele>
      </trkpt>
      <trkpt lat="38.81133" lon="-120.0347">
        <ele>2269.0</ele>
      </trkpt>
      <trkpt lat="38.81167" lon="-120.03472">
        <ele>2265.0</ele>
      </trkpt>
      <trkpt lat="38.81174" lon="-120.03471">
        <ele>2265.0</ele>
      </trkpt>
      <trkpt lat="38.8119" lon="-120.03459">
        <ele>2263.0</ele>
      </trkpt>
      <trkpt lat="38.81207" lon="-120.0345">
        <ele>2257.0</ele>
      </trkpt>
      <trkpt lat="38.81234" lon="-120.03443">
        <ele>2255.0</ele>
      </trkpt>
      <trkpt lat="38.81245" lon="-120.03437">
        <ele>2256.0</ele>
      </trkpt>
      <trkpt lat="38.81245" lon="-120.03437">
        <ele>2256.0</ele>
      </trkpt>
      <trkpt lat="38.81256" lon="-120.03442">
        <ele>2256.0</ele>
      </trkpt>
      <trkpt lat="38.81266" lon="-120.03443">
        <ele>2254.0</ele>
      </trkpt>
      <trkpt lat="38.8129" lon="-120.03437">
        <ele>2254.0</ele>
      </trkpt>
      <trkpt lat="38.81327" lon="-120.03439">
        <ele>2256.0</ele>
      </trkpt>
      <trkpt lat="38.81346" lon="-120.03447">
        <ele>2256.0</ele>
      </trkpt>
      <trkpt lat="38.81369" lon="-120.03448">
        <ele>2257.0</ele>
      </trkpt>
      <trkpt lat="38.81384" lon="-120.03443">
        <ele>2259.0</ele>
      </trkpt>
      <trkpt lat="38.81435" lon="-120.03435">
        <ele>2255.0</ele>
      </trkpt>
      <trkpt lat="38.81471" lon="-120.03423">
        <ele>2252.0</ele>
      </trkpt>
      <trkpt lat="38.81483" lon="-120.03412">
        <ele>2252.0</ele>
      </trkpt>
      <trkpt lat="38.81483" lon="-120.03412">
        <ele>2252.0</ele>
      </trkpt>
      <trkpt lat="38.81483" lon="-120.03412">
        <ele>2252.0</ele>
      </trkpt>
      <trkpt lat="38.8147" lon="-120.03404">
        <ele>2252.0</ele>
      </trkpt>
      <trkpt lat="38.8147" lon="-120.03404">
        <ele>2252.0</ele>
      </trkpt>
      <trkpt lat="38.8147" lon="-120.03404">
        <ele>2252.0</ele>
      </trkpt>
      <trkpt lat="38.81479" lon="-120.03398">
        <ele>2251.0</ele>
      </trkpt>
      <trkpt lat="38.81485" lon="-120.03386">
        <ele>2251.0</ele>
      </trkpt>
      <trkpt lat="38.81494" lon="-120.03356">
        <ele>2252.0</ele>
      </trkpt>
      <trkpt lat="38.81494" lon="-120.03356">
        <ele>2252.0</ele>
      </trkpt>
      <trkpt lat="38.81602" lon="-120.03383">
        <ele>2243.0</ele>
      </trkpt>
      <trkpt lat="38.81602" lon="-120.03383">
        <ele>2243.0</ele>
      </trkpt>
      <trkpt lat="38.81733" lon="-120.03421">
        <ele>2244.0</ele>
      </trkpt>
      <trkpt lat="38.81782" lon="-120.03441">
        <ele>2241.0</ele>
      </trkpt>
      <trkpt lat="38.81827" lon="-120.03466">
        <ele>2238.0</ele>
      </trkpt>
      <trkpt lat="38.81869" lon="-120.03496">
        <ele>2240.0</ele>
      </trkpt>
      <trkpt lat="38.81917" lon="-120.03538">
        <ele>2242.0</ele>
      </trkpt>
      <trkpt lat="38.82034" lon="-120.03662">
        <ele>2231.0</ele>
      </trkpt>
      <trkpt lat="38.82034" lon="-120.03662">
        <ele>2231.0</ele>
      </trkpt>
      <trkpt lat="38.82195" lon="-120.03837">
        <ele>2217.0</ele>
      </trkpt>
      <trkpt lat="38.82219" lon="-120.03868">
        <ele>2217.0</ele>
      </trkpt>
      <trkpt lat="38.82219" lon="-120.03868">
        <ele>2217.0</ele>
      </trkpt>
      <trkpt lat="38.82259" lon="-120.03923">
        <ele>2213.0</ele>
      </trkpt>
      <trkpt lat="38.82259" lon="-120.03923">
        <ele>2213.0</ele>
      </trkpt>
      <trkpt lat="38.82294" lon="-120.03979">
        <ele>2212.0</ele>
      </trkpt>
      <trkpt lat="38.82294" lon="-120.03979">
        <ele>2212.0</ele>
      </trkpt>
      <trkpt lat="38.82314" lon="-120.04016">
        <ele>2207.0</ele>
      </trkpt>
      <trkpt lat="38.82314" lon="-120.04016">
        <ele>2207.0</ele>
      </trkpt>
      <trkpt lat="38.82323" lon="-120.04009">
        <ele>2210.0</ele>
      </trkpt>
      <trkpt lat="38.82327" lon="-120.03993">
        <ele>2210.0</ele>
      </trkpt>
      <trkpt lat="38.82315" lon="-120.03949">
        <ele>2213.0</ele>
      </trkpt>
      <trkpt lat="38.82326" lon="-120.03916">
        <ele>2216.0</ele>
      </trkpt>
      <trkpt lat="38.82339" lon="-120.03908">
        <ele>2216.0</ele>
      </trkpt>
      <trkpt lat="38.82359" lon="-120.03909">
        <ele>2218.0</ele>
      </trkpt>
      <trkpt lat="38.82413" lon="-120.03881">
        <ele>2223.0</ele>
      </trkpt>
      <trkpt lat="38.82436" lon="-120.03883">
        <ele>2223.0</ele>
      </trkpt>
      <trkpt lat="38.82455" lon="-120.03894">
        <ele>2223.0</ele>
      </trkpt>
      <trkpt lat="38.8248" lon="-120.03898">
        <ele>2223.0</ele>
      </trkpt>
      <trkpt lat="38.825134189" lon="-120.038884516">
        <ele>2223.0</ele>
      </trkpt>
      <trkpt lat="38.825134189" lon="-120.038884516">
        <ele>2223.0</ele>
      </trkpt>
      <trkpt lat="38.82515" lon="-120.03888">
        <ele>2229.0</ele>
      </trkpt>
      <trkpt lat="38.8254" lon="-120.03873">
        <ele>2232.0</ele>
      </trkpt>
      <trkpt lat="38.82548" lon="-120.03858">
        <ele>2240.0</ele>
      </trkpt>
      <trkpt lat="38.82564" lon="-120.03865">
        <ele>2240.0</ele>
      </trkpt>
      <trkpt lat="38.8258" lon="-120.03852">
        <ele>2245.0</ele>
      </trkpt>
      <trkpt lat="38.82603" lon="-120.03878">
        <ele>2248.0</ele>
      </trkpt>
      <trkpt lat="38.82628" lon="-120.03875">
        <ele>2251.0</ele>
      </trkpt>
      <trkpt lat="38.82644" lon="-120.03891">
        <ele>2248.0</ele>
      </trkpt>
      <trkpt lat="38.82662" lon="-120.03894">
        <ele>2250.0</ele>
      </trkpt>
      <trkpt lat="38.8268" lon="-120.03922">
        <ele>2251.0</ele>
      </trkpt>
      <trkpt lat="38.82681" lon="-120.03959">
        <ele>2259.0</ele>
      </trkpt>
      <trkpt lat="38.82692" lon="-120.04019">
        <ele>2260.0</ele>
      </trkpt>
      <trkpt lat="38.82683" lon="-120.04054">
        <ele>2260.0</ele>
      </trkpt>
      <trkpt lat="38.82683" lon="-120.04071">
        <ele>2260.0</ele>
      </trkpt>
      <trkpt lat="38.82692" lon="-120.04103">
        <ele>2262.0</ele>
      </trkpt>
      <trkpt lat="38.82698" lon="-120.04135">
        <ele>2262.0</ele>
      </trkpt>
      <trkpt lat="38.82718" lon="-120.04178">
        <ele>2266.0</ele>
      </trkpt>
      <trkpt lat="38.82721" lon="-120.04203">
        <ele>2262.0</ele>
      </trkpt>
      <trkpt lat="38.82742" lon="-120.04235">
        <ele>2269.0</ele>
      </trkpt>
      <trkpt lat="38.82764" lon="-120.04298">
        <ele>2275.0</ele>
      </trkpt>
      <trkpt lat="38.82777" lon="-120.04301">
        <ele>2275.0</ele>
      </trkpt>
      <trkpt lat="38.82785" lon="-120.04293">
        <ele>2275.0</ele>
      </trkpt>
      <trkpt lat="38.82791" lon="-120.0428">
        <ele>2275.0</ele>
      </trkpt>
      <trkpt lat="38.82797" lon="-120.04253">
        <ele>2285.0</ele>
      </trkpt>
      <trkpt lat="38.82795" lon="-120.04227">
        <ele>2284.0</ele>
      </trkpt>
      <trkpt lat="38.82798" lon="-120.04212">
        <ele>2284.0</ele>
      </trkpt>
      <trkpt lat="38.82788" lon="-120.04176">
        <ele>2279.0</ele>
      </trkpt>
      <trkpt lat="38.82792" lon="-120.04142">
        <ele>2285.0</ele>
      </trkpt>
      <trkpt lat="38.82807" lon="-120.04112">
        <ele>2283.0</ele>
      </trkpt>
      <trkpt lat="38.82819" lon="-120.04105">
        <ele>2283.0</ele>
      </trkpt>
      <trkpt lat="38.82825" lon="-120.04109">
        <ele>2291.0</ele>
      </trkpt>
      <trkpt lat="38.8283" lon="-120.04129">
        <ele>2293.0</ele>
      </trkpt>
      <trkpt lat="38.82839" lon="-120.04128">
        <ele>2293.0</ele>
      </trkpt>
      <trkpt lat="38.82848" lon="-120.04122">
        <ele>2294.0</ele>
      </trkpt>
      <trkpt lat="38.82862" lon="-120.04119">
        <ele>2294.0</ele>
      </trkpt>
      <trkpt lat="38.82873" lon="-120.04104">
        <ele>2294.0</ele>
      </trkpt>
      <trkpt lat="38.8288" lon="-120.0409">
        <ele>2294.0</ele>
      </trkpt>
      <trkpt lat="38.82894" lon="-120.04074">
        <ele>2294.0</ele>
      </trkpt>
      <trkpt lat="38.82901" lon="-120.04052">
        <ele>2291.0</ele>
      </trkpt>
      <trkpt lat="38.82909" lon="-120.04044">
        <ele>2297.0</ele>
      </trkpt>
      <trkpt lat="38.82927" lon="-120.04042">
        <ele>2297.0</ele>
      </trkpt>
      <trkpt lat="38.82959" lon="-120.04029">
        <ele>2309.0</ele>
      </trkpt>
      <trkpt lat="38.82978" lon="-120.0403">
        <ele>2309.0</ele>
      </trkpt>
      <trkpt lat="38.82994" lon="-120.04023">
        <ele>2311.0</ele>
      </trkpt>
      <trkpt lat="38.83019" lon="-120.04022">
        <ele>2309.0</ele>
      </trkpt>
      <trkpt lat="38.83036" lon="-120.04025">
        <ele>2309.0</ele>
      </trkpt>
      <trkpt lat="38.83053" lon="-120.04023">
        <ele>2308.0</ele>
      </trkpt>
      <trkpt lat="38.83069" lon="-120.04025">
        <ele>2308.0</ele>
      </trkpt>
      <trkpt lat="38.83115" lon="-120.0402">
        <ele>2312.0</ele>
      </trkpt>
      <trkpt lat="38.83129" lon="-120.04031">
        <ele>2312.0</ele>
      </trkpt>
      <trkpt lat="38.83183" lon="-120.04041">
        <ele>2309.0</ele>
      </trkpt>
      <trkpt lat="38.83225" lon="-120.04078">
        <ele>2316.0</ele>
      </trkpt>
      <trkpt lat="38.83239" lon="-120.04094">
        <ele>2314.0</ele>
      </trkpt>
      <trkpt lat="38.83256" lon="-120.04124">
        <ele>2321.0</ele>
      </trkpt>
      <trkpt lat="38.83265" lon="-120.04163">
        <ele>2335.0</ele>
      </trkpt>
      <trkpt lat="38.832777989" lon="-120.042119369">
        <ele>2343.0</ele>
      </trkpt>
      <trkpt lat="38.832777989" lon="-120.042119369">
        <ele>2343.0</ele>
      </trkpt>
      <trkpt lat="38.83282" lon="-120.04228">
        <ele>2343.0</ele>
      </trkpt>
      <trkpt lat="38.83276" lon="-120.04248">
        <ele>2345.0</ele>
      </trkpt>
      <trkpt lat="38.83272" lon="-120.04278">
        <ele>2346.0</ele>
      </trkpt>
      <trkpt lat="38.83274" lon="-120.04312">
        <ele>2341.0</ele>
      </trkpt>
      <trkpt lat="38.83282" lon="-120.04336">
        <ele>2338.0</ele>
      </trkpt>
      <trkpt lat="38.83294" lon="-120.04282">
        <ele>2330.0</ele>
      </trkpt>
      <trkpt lat="38.83344" lon="-120.04218">
        <ele>2321.0</ele>
      </trkpt>
      <trkpt lat="38.83362" lon="-120.04204">
        <ele>2310.0</ele>
      </trkpt>
      <trkpt lat="38.8337" lon="-120.04201">
        <ele>2310.0</ele>
      </trkpt>
      <trkpt lat="38.83388" lon="-120.04206">
        <ele>2301.0</ele>
      </trkpt>
      <trkpt lat="38.83398" lon="-120.04215">
        <ele>2303.0</ele>
      </trkpt>
      <trkpt lat="38.83398" lon="-120.04215">
        <ele>2303.0</ele>
      </trkpt>
      <trkpt lat="38.83414" lon="-120.04235">
        <ele>2297.0</ele>
      </trkpt>
      <trkpt lat="38.83419" lon="-120.0426">
        <ele>2297.0</ele>
      </trkpt>
      <trkpt lat="38.83423" lon="-120.0427">
        <ele>2296.0</ele>
      </trkpt>
      <trkpt lat="38.83444" lon="-120.04287">
        <ele>2285.0</ele>
      </trkpt>
      <trkpt lat="38.83449" lon="-120.04306">
        <ele>2282.0</ele>
      </trkpt>
      <trkpt lat="38.83441" lon="-120.04328">
        <ele>2280.0</ele>
      </trkpt>
      <trkpt lat="38.83428" lon="-120.04345">
        <ele>2291.0</ele>
      </trkpt>
      <trkpt lat="38.83426" lon="-120.04357">
        <ele>2287.0</ele>
      </trkpt>
      <trkpt lat="38.83439" lon="-120.04377">
        <ele>2273.0</ele>
      </trkpt>
      <trkpt lat="38.83439" lon="-120.04377">
        <ele>2273.0</ele>
      </trkpt>
      <trkpt lat="38.83451" lon="-120.04384">
        <ele>2273.0</ele>
      </trkpt>
      <trkpt lat="38.83451" lon="-120.04384">
        <ele>2273.0</ele>
      </trkpt>
      <trkpt lat="38.834536894" lon="-120.043951418">
        <ele>2273.0</ele>
      </trkpt>
      <trkpt lat="38.834536894" lon="-120.043951418">
        <ele>2273.0</ele>
      </trkpt>
      <trkpt lat="38.83458" lon="-120.04413">
        <ele>2270.0</ele>
      </trkpt>
      <trkpt lat="38.83458" lon="-120.04413">
        <ele>2270.0</ele>
      </trkpt>
      <trkpt lat="38.83458" lon="-120.04413">
        <ele>2270.0</ele>
      </trkpt>
      <trkpt lat="38.83464" lon="-120.04423">
        <ele>2266.0</ele>
      </trkpt>
      <trkpt lat="38.83464" lon="-120.04423">
        <ele>2266.0</ele>
      </trkpt>
      <trkpt lat="38.834827665" lon="-120.04423">
        <ele>2266.0</ele>
      </trkpt>
      <trkpt lat="38.834852189" lon="-120.044340491">
        <ele>2268.0</ele>
      </trkpt>
    </trkseg>
  </trk>
</gpx>
