<?xml version="1.0" encoding="UTF-8"?>
<gpx xmlns:xsi="http://www.w3.org/2001/XMLSchema-instance" version="1.1" creator="The Outbound Collective, Inc. 1.1.1 -- https://www.theoutbound.com" xsi:schemaLocation="http://www.topografix.com/GPX/1/1 http://www.topografix.com/GPX/1/1/gpx.xsd">
  <metadata>
    <name/>
    <time>2026-02-19T21:53:01+00:00</time>
    <bound minlat="38.834566718" minlon="-120.12886" maxlat="38.86469" maxlon="-120.04396"/>
  </metadata>
  <trk>
    <name/>
    <trkseg>
      <trkpt lat="38.834576281" lon="-120.04407227">
        <ele>2270.0</ele>
      </trkpt>
      <trkpt lat="38.834566718" lon="-120.044074975">
        <ele>2270.0</ele>
      </trkpt>
      <trkpt lat="38.83458" lon="-120.04413">
        <ele>2270.0</ele>
      </trkpt>
      <trkpt lat="38.83458" lon="-120.04413">
        <ele>2270.0</ele>
      </trkpt>
      <trkpt lat="38.83458" lon="-120.04413">
        <ele>2270.0</ele>
      </trkpt>
      <trkpt lat="38.83464" lon="-120.04423">
        <ele>2266.0</ele>
      </trkpt>
      <trkpt lat="38.83464" lon="-120.04423">
        <ele>2266.0</ele>
      </trkpt>
      <trkpt lat="38.83483" lon="-120.04423">
        <ele>2266.0</ele>
      </trkpt>
      <trkpt lat="38.83485" lon="-120.04434">
        <ele>2268.0</ele>
      </trkpt>
      <trkpt lat="38.83485" lon="-120.04434">
        <ele>2268.0</ele>
      </trkpt>
      <trkpt lat="38.83491" lon="-120.04467">
        <ele>2269.0</ele>
      </trkpt>
      <trkpt lat="38.83508" lon="-120.04475">
        <ele>2269.0</ele>
      </trkpt>
      <trkpt lat="38.83524" lon="-120.04475">
        <ele>2269.0</ele>
      </trkpt>
      <trkpt lat="38.83529" lon="-120.04473">
        <ele>2269.0</ele>
      </trkpt>
      <trkpt lat="38.83529" lon="-120.04473">
        <ele>2269.0</ele>
      </trkpt>
      <trkpt lat="38.83536" lon="-120.04469">
        <ele>2269.0</ele>
      </trkpt>
      <trkpt lat="38.83536" lon="-120.04469">
        <ele>2269.0</ele>
      </trkpt>
      <trkpt lat="38.83542" lon="-120.0446">
        <ele>2269.0</ele>
      </trkpt>
      <trkpt lat="38.83536" lon="-120.04437">
        <ele>2268.0</ele>
      </trkpt>
      <trkpt lat="38.83536" lon="-120.04437">
        <ele>2268.0</ele>
      </trkpt>
      <trkpt lat="38.83546281" lon="-120.044182523">
        <ele>2269.0</ele>
      </trkpt>
      <trkpt lat="38.835462771" lon="-120.044182593">
        <ele>2269.0</ele>
      </trkpt>
      <trkpt lat="38.83553" lon="-120.04406">
        <ele>2269.0</ele>
      </trkpt>
      <trkpt lat="38.83562" lon="-120.04398">
        <ele>2266.0</ele>
      </trkpt>
      <trkpt lat="38.83562" lon="-120.04398">
        <ele>2266.0</ele>
      </trkpt>
      <trkpt lat="38.83568" lon="-120.04396">
        <ele>2266.0</ele>
      </trkpt>
      <trkpt lat="38.83577" lon="-120.044">
        <ele>2271.0</ele>
      </trkpt>
      <trkpt lat="38.83577" lon="-120.044">
        <ele>2271.0</ele>
      </trkpt>
      <trkpt lat="38.83579" lon="-120.04406">
        <ele>2274.0</ele>
      </trkpt>
      <trkpt lat="38.83571" lon="-120.04458">
        <ele>2275.0</ele>
      </trkpt>
      <trkpt lat="38.83572" lon="-120.04485">
        <ele>2274.0</ele>
      </trkpt>
      <trkpt lat="38.83582" lon="-120.04532">
        <ele>2268.0</ele>
      </trkpt>
      <trkpt lat="38.83597" lon="-120.04562">
        <ele>2272.0</ele>
      </trkpt>
      <trkpt lat="38.83638" lon="-120.04631">
        <ele>2267.0</ele>
      </trkpt>
      <trkpt lat="38.83672" lon="-120.04724">
        <ele>2268.0</ele>
      </trkpt>
      <trkpt lat="38.836772194" lon="-120.047506189">
        <ele>2267.0</ele>
      </trkpt>
      <trkpt lat="38.836772174" lon="-120.047506088">
        <ele>2267.0</ele>
      </trkpt>
      <trkpt lat="38.83682" lon="-120.04775">
        <ele>2278.0</ele>
      </trkpt>
      <trkpt lat="38.83699" lon="-120.04804">
        <ele>2273.0</ele>
      </trkpt>
      <trkpt lat="38.83752" lon="-120.04975">
        <ele>2275.0</ele>
      </trkpt>
      <trkpt lat="38.83763" lon="-120.05005">
        <ele>2269.0</ele>
      </trkpt>
      <trkpt lat="38.83775" lon="-120.05028">
        <ele>2275.0</ele>
      </trkpt>
      <trkpt lat="38.83828" lon="-120.05108">
        <ele>2275.0</ele>
      </trkpt>
      <trkpt lat="38.83862" lon="-120.05147">
        <ele>2278.0</ele>
      </trkpt>
      <trkpt lat="38.83897" lon="-120.05179">
        <ele>2282.0</ele>
      </trkpt>
      <trkpt lat="38.83917" lon="-120.05191">
        <ele>2278.0</ele>
      </trkpt>
      <trkpt lat="38.83949" lon="-120.05221">
        <ele>2276.0</ele>
      </trkpt>
      <trkpt lat="38.83971" lon="-120.05246">
        <ele>2274.0</ele>
      </trkpt>
      <trkpt lat="38.83971" lon="-120.05246">
        <ele>2274.0</ele>
      </trkpt>
      <trkpt lat="38.83983" lon="-120.0526">
        <ele>2274.0</ele>
      </trkpt>
      <trkpt lat="38.84017" lon="-120.05289">
        <ele>2280.0</ele>
      </trkpt>
      <trkpt lat="38.84034" lon="-120.05298">
        <ele>2271.0</ele>
      </trkpt>
      <trkpt lat="38.840960329" lon="-120.053449029">
        <ele>2284.0</ele>
      </trkpt>
      <trkpt lat="38.840965444" lon="-120.053452897">
        <ele>2284.0</ele>
      </trkpt>
      <trkpt lat="38.84116" lon="-120.0536">
        <ele>2284.0</ele>
      </trkpt>
      <trkpt lat="38.84132" lon="-120.05376">
        <ele>2287.0</ele>
      </trkpt>
      <trkpt lat="38.84199" lon="-120.05488">
        <ele>2279.0</ele>
      </trkpt>
      <trkpt lat="38.84275" lon="-120.05625">
        <ele>2284.0</ele>
      </trkpt>
      <trkpt lat="38.84304" lon="-120.05697">
        <ele>2279.0</ele>
      </trkpt>
      <trkpt lat="38.84345" lon="-120.05828">
        <ele>2267.0</ele>
      </trkpt>
      <trkpt lat="38.84358" lon="-120.05844">
        <ele>2282.0</ele>
      </trkpt>
      <trkpt lat="38.84358" lon="-120.05844">
        <ele>2282.0</ele>
      </trkpt>
      <trkpt lat="38.84358" lon="-120.05844">
        <ele>2282.0</ele>
      </trkpt>
      <trkpt lat="38.84369" lon="-120.05852">
        <ele>2276.0</ele>
      </trkpt>
      <trkpt lat="38.84369" lon="-120.05828">
        <ele>2282.0</ele>
      </trkpt>
      <trkpt lat="38.84363" lon="-120.05794">
        <ele>2287.0</ele>
      </trkpt>
      <trkpt lat="38.84403" lon="-120.05859">
        <ele>2308.0</ele>
      </trkpt>
      <trkpt lat="38.84403" lon="-120.05859">
        <ele>2308.0</ele>
      </trkpt>
      <trkpt lat="38.84423" lon="-120.05891">
        <ele>2304.0</ele>
      </trkpt>
      <trkpt lat="38.8452" lon="-120.06073">
        <ele>2322.0</ele>
      </trkpt>
      <trkpt lat="38.84526" lon="-120.06103">
        <ele>2318.0</ele>
      </trkpt>
      <trkpt lat="38.84527" lon="-120.06122">
        <ele>2318.0</ele>
      </trkpt>
      <trkpt lat="38.84531" lon="-120.06147">
        <ele>2313.0</ele>
      </trkpt>
      <trkpt lat="38.84545" lon="-120.0621">
        <ele>2320.0</ele>
      </trkpt>
      <trkpt lat="38.84561" lon="-120.0633">
        <ele>2305.0</ele>
      </trkpt>
      <trkpt lat="38.845580214" lon="-120.063371487">
        <ele>2305.0</ele>
      </trkpt>
      <trkpt lat="38.845579967" lon="-120.063372078">
        <ele>2305.0</ele>
      </trkpt>
      <trkpt lat="38.84556" lon="-120.06342">
        <ele>2305.0</ele>
      </trkpt>
      <trkpt lat="38.84553" lon="-120.06358">
        <ele>2304.0</ele>
      </trkpt>
      <trkpt lat="38.8456" lon="-120.06407">
        <ele>2301.0</ele>
      </trkpt>
      <trkpt lat="38.84557" lon="-120.06454">
        <ele>2299.0</ele>
      </trkpt>
      <trkpt lat="38.84557" lon="-120.06454">
        <ele>2299.0</ele>
      </trkpt>
      <trkpt lat="38.84557" lon="-120.06454">
        <ele>2299.0</ele>
      </trkpt>
      <trkpt lat="38.84561" lon="-120.06479">
        <ele>2298.0</ele>
      </trkpt>
      <trkpt lat="38.84559" lon="-120.06527">
        <ele>2295.0</ele>
      </trkpt>
      <trkpt lat="38.84546" lon="-120.06566">
        <ele>2293.0</ele>
      </trkpt>
      <trkpt lat="38.84547" lon="-120.06681">
        <ele>2288.0</ele>
      </trkpt>
      <trkpt lat="38.84556" lon="-120.06722">
        <ele>2290.0</ele>
      </trkpt>
      <trkpt lat="38.84569" lon="-120.06755">
        <ele>2288.0</ele>
      </trkpt>
      <trkpt lat="38.84573" lon="-120.06773">
        <ele>2295.0</ele>
      </trkpt>
      <trkpt lat="38.84572" lon="-120.06803">
        <ele>2297.0</ele>
      </trkpt>
      <trkpt lat="38.84576" lon="-120.06835">
        <ele>2300.0</ele>
      </trkpt>
      <trkpt lat="38.84562" lon="-120.06898">
        <ele>2298.0</ele>
      </trkpt>
      <trkpt lat="38.84548" lon="-120.06909">
        <ele>2301.0</ele>
      </trkpt>
      <trkpt lat="38.84532" lon="-120.06916">
        <ele>2293.0</ele>
      </trkpt>
      <trkpt lat="38.8452" lon="-120.06927">
        <ele>2293.0</ele>
      </trkpt>
      <trkpt lat="38.84511" lon="-120.0693">
        <ele>2289.0</ele>
      </trkpt>
      <trkpt lat="38.84489" lon="-120.06929">
        <ele>2289.0</ele>
      </trkpt>
      <trkpt lat="38.84479" lon="-120.06932">
        <ele>2289.0</ele>
      </trkpt>
      <trkpt lat="38.84451" lon="-120.06928">
        <ele>2282.0</ele>
      </trkpt>
      <trkpt lat="38.84438" lon="-120.06932">
        <ele>2285.0</ele>
      </trkpt>
      <trkpt lat="38.8443" lon="-120.06938">
        <ele>2280.0</ele>
      </trkpt>
      <trkpt lat="38.84421" lon="-120.06953">
        <ele>2280.0</ele>
      </trkpt>
      <trkpt lat="38.84394" lon="-120.0698">
        <ele>2284.0</ele>
      </trkpt>
      <trkpt lat="38.8439" lon="-120.06989">
        <ele>2287.0</ele>
      </trkpt>
      <trkpt lat="38.84388" lon="-120.06999">
        <ele>2287.0</ele>
      </trkpt>
      <trkpt lat="38.84406" lon="-120.07033">
        <ele>2295.0</ele>
      </trkpt>
      <trkpt lat="38.84408" lon="-120.07041">
        <ele>2295.0</ele>
      </trkpt>
      <trkpt lat="38.84404" lon="-120.07055">
        <ele>2295.0</ele>
      </trkpt>
      <trkpt lat="38.84406" lon="-120.0708">
        <ele>2293.0</ele>
      </trkpt>
      <trkpt lat="38.8441" lon="-120.07098">
        <ele>2290.0</ele>
      </trkpt>
      <trkpt lat="38.84418" lon="-120.07116">
        <ele>2290.0</ele>
      </trkpt>
      <trkpt lat="38.84432" lon="-120.07137">
        <ele>2292.0</ele>
      </trkpt>
      <trkpt lat="38.8445" lon="-120.07157">
        <ele>2289.0</ele>
      </trkpt>
      <trkpt lat="38.844558665" lon="-120.071767327">
        <ele>2289.0</ele>
      </trkpt>
      <trkpt lat="38.844563979" lon="-120.071785203">
        <ele>2289.0</ele>
      </trkpt>
      <trkpt lat="38.84461" lon="-120.07194">
        <ele>2292.0</ele>
      </trkpt>
      <trkpt lat="38.84476" lon="-120.07229">
        <ele>2288.0</ele>
      </trkpt>
      <trkpt lat="38.84529" lon="-120.07304">
        <ele>2288.0</ele>
      </trkpt>
      <trkpt lat="38.84541" lon="-120.0734">
        <ele>2281.0</ele>
      </trkpt>
      <trkpt lat="38.84552" lon="-120.07356">
        <ele>2285.0</ele>
      </trkpt>
      <trkpt lat="38.84585" lon="-120.07386">
        <ele>2289.0</ele>
      </trkpt>
      <trkpt lat="38.84598" lon="-120.07403">
        <ele>2293.0</ele>
      </trkpt>
      <trkpt lat="38.84611" lon="-120.0744">
        <ele>2290.0</ele>
      </trkpt>
      <trkpt lat="38.84616" lon="-120.07476">
        <ele>2286.0</ele>
      </trkpt>
      <trkpt lat="38.84635" lon="-120.07556">
        <ele>2286.0</ele>
      </trkpt>
      <trkpt lat="38.84667" lon="-120.07619">
        <ele>2288.0</ele>
      </trkpt>
      <trkpt lat="38.8471" lon="-120.07689">
        <ele>2287.0</ele>
      </trkpt>
      <trkpt lat="38.84732" lon="-120.07713">
        <ele>2286.0</ele>
      </trkpt>
      <trkpt lat="38.84745" lon="-120.07732">
        <ele>2289.0</ele>
      </trkpt>
      <trkpt lat="38.84748" lon="-120.07743">
        <ele>2289.0</ele>
      </trkpt>
      <trkpt lat="38.84749" lon="-120.07753">
        <ele>2289.0</ele>
      </trkpt>
      <trkpt lat="38.8474" lon="-120.07789">
        <ele>2287.0</ele>
      </trkpt>
      <trkpt lat="38.84741" lon="-120.07826">
        <ele>2282.0</ele>
      </trkpt>
      <trkpt lat="38.84738" lon="-120.07835">
        <ele>2282.0</ele>
      </trkpt>
      <trkpt lat="38.84728" lon="-120.07848">
        <ele>2275.0</ele>
      </trkpt>
      <trkpt lat="38.84726" lon="-120.07859">
        <ele>2275.0</ele>
      </trkpt>
      <trkpt lat="38.84726" lon="-120.07859">
        <ele>2275.0</ele>
      </trkpt>
      <trkpt lat="38.84734" lon="-120.07884">
        <ele>2273.0</ele>
      </trkpt>
      <trkpt lat="38.8476" lon="-120.07915">
        <ele>2279.0</ele>
      </trkpt>
      <trkpt lat="38.84766" lon="-120.07928">
        <ele>2287.0</ele>
      </trkpt>
      <trkpt lat="38.84768" lon="-120.07943">
        <ele>2288.0</ele>
      </trkpt>
      <trkpt lat="38.84758" lon="-120.07969">
        <ele>2279.0</ele>
      </trkpt>
      <trkpt lat="38.84735" lon="-120.0799">
        <ele>2279.0</ele>
      </trkpt>
      <trkpt lat="38.84732" lon="-120.08008">
        <ele>2279.0</ele>
      </trkpt>
      <trkpt lat="38.84735" lon="-120.08015">
        <ele>2280.0</ele>
      </trkpt>
      <trkpt lat="38.84743" lon="-120.08023">
        <ele>2285.0</ele>
      </trkpt>
      <trkpt lat="38.84758" lon="-120.08032">
        <ele>2285.0</ele>
      </trkpt>
      <trkpt lat="38.84779" lon="-120.08057">
        <ele>2293.0</ele>
      </trkpt>
      <trkpt lat="38.84779" lon="-120.08057">
        <ele>2293.0</ele>
      </trkpt>
      <trkpt lat="38.84797" lon="-120.08078">
        <ele>2299.0</ele>
      </trkpt>
      <trkpt lat="38.84806" lon="-120.08117">
        <ele>2296.0</ele>
      </trkpt>
      <trkpt lat="38.84805" lon="-120.08134">
        <ele>2295.0</ele>
      </trkpt>
      <trkpt lat="38.84797" lon="-120.0818">
        <ele>2296.0</ele>
      </trkpt>
      <trkpt lat="38.847957624" lon="-120.081991829">
        <ele>2299.0</ele>
      </trkpt>
      <trkpt lat="38.847957604" lon="-120.081992131">
        <ele>2299.0</ele>
      </trkpt>
      <trkpt lat="38.84793" lon="-120.08242">
        <ele>2306.0</ele>
      </trkpt>
      <trkpt lat="38.84784" lon="-120.08267">
        <ele>2302.0</ele>
      </trkpt>
      <trkpt lat="38.84758" lon="-120.08303">
        <ele>2302.0</ele>
      </trkpt>
      <trkpt lat="38.8474" lon="-120.08356">
        <ele>2315.0</ele>
      </trkpt>
      <trkpt lat="38.84738" lon="-120.08389">
        <ele>2320.0</ele>
      </trkpt>
      <trkpt lat="38.84726" lon="-120.08406">
        <ele>2320.0</ele>
      </trkpt>
      <trkpt lat="38.84719" lon="-120.08434">
        <ele>2326.0</ele>
      </trkpt>
      <trkpt lat="38.84703" lon="-120.0846">
        <ele>2324.0</ele>
      </trkpt>
      <trkpt lat="38.84691" lon="-120.08514">
        <ele>2332.0</ele>
      </trkpt>
      <trkpt lat="38.84696" lon="-120.08559">
        <ele>2334.0</ele>
      </trkpt>
      <trkpt lat="38.84691" lon="-120.08628">
        <ele>2342.0</ele>
      </trkpt>
      <trkpt lat="38.84696" lon="-120.08649">
        <ele>2342.0</ele>
      </trkpt>
      <trkpt lat="38.84706" lon="-120.08667">
        <ele>2343.0</ele>
      </trkpt>
      <trkpt lat="38.84721" lon="-120.08687">
        <ele>2351.0</ele>
      </trkpt>
      <trkpt lat="38.84721" lon="-120.08708">
        <ele>2351.0</ele>
      </trkpt>
      <trkpt lat="38.84714" lon="-120.08735">
        <ele>2351.0</ele>
      </trkpt>
      <trkpt lat="38.84715" lon="-120.08745">
        <ele>2352.0</ele>
      </trkpt>
      <trkpt lat="38.84722" lon="-120.0875">
        <ele>2352.0</ele>
      </trkpt>
      <trkpt lat="38.84722" lon="-120.0875">
        <ele>2352.0</ele>
      </trkpt>
      <trkpt lat="38.84733" lon="-120.08757">
        <ele>2352.0</ele>
      </trkpt>
      <trkpt lat="38.84736" lon="-120.08764">
        <ele>2351.0</ele>
      </trkpt>
      <trkpt lat="38.84735" lon="-120.08776">
        <ele>2351.0</ele>
      </trkpt>
      <trkpt lat="38.84738" lon="-120.0879">
        <ele>2358.0</ele>
      </trkpt>
      <trkpt lat="38.84751" lon="-120.08818">
        <ele>2357.0</ele>
      </trkpt>
      <trkpt lat="38.84783" lon="-120.08862">
        <ele>2359.0</ele>
      </trkpt>
      <trkpt lat="38.84798" lon="-120.08924">
        <ele>2363.0</ele>
      </trkpt>
      <trkpt lat="38.84801" lon="-120.08953">
        <ele>2364.0</ele>
      </trkpt>
      <trkpt lat="38.84807" lon="-120.0897">
        <ele>2366.0</ele>
      </trkpt>
      <trkpt lat="38.8484" lon="-120.09023">
        <ele>2371.0</ele>
      </trkpt>
      <trkpt lat="38.84852" lon="-120.09049">
        <ele>2379.0</ele>
      </trkpt>
      <trkpt lat="38.84871" lon="-120.09076">
        <ele>2378.0</ele>
      </trkpt>
      <trkpt lat="38.84892" lon="-120.09115">
        <ele>2385.0</ele>
      </trkpt>
      <trkpt lat="38.84912" lon="-120.09162">
        <ele>2390.0</ele>
      </trkpt>
      <trkpt lat="38.84921" lon="-120.09196">
        <ele>2387.0</ele>
      </trkpt>
      <trkpt lat="38.849302835" lon="-120.092182803">
        <ele>2385.0</ele>
      </trkpt>
      <trkpt lat="38.849302603" lon="-120.092182247">
        <ele>2385.0</ele>
      </trkpt>
      <trkpt lat="38.84936" lon="-120.09232">
        <ele>2391.0</ele>
      </trkpt>
      <trkpt lat="38.84939" lon="-120.09248">
        <ele>2391.0</ele>
      </trkpt>
      <trkpt lat="38.84946" lon="-120.09306">
        <ele>2392.0</ele>
      </trkpt>
      <trkpt lat="38.84945" lon="-120.09322">
        <ele>2393.0</ele>
      </trkpt>
      <trkpt lat="38.84938" lon="-120.09335">
        <ele>2393.0</ele>
      </trkpt>
      <trkpt lat="38.84925" lon="-120.09352">
        <ele>2386.0</ele>
      </trkpt>
      <trkpt lat="38.849" lon="-120.09444">
        <ele>2392.0</ele>
      </trkpt>
      <trkpt lat="38.84896" lon="-120.09453">
        <ele>2392.0</ele>
      </trkpt>
      <trkpt lat="38.84884" lon="-120.09469">
        <ele>2397.0</ele>
      </trkpt>
      <trkpt lat="38.84869" lon="-120.09478">
        <ele>2396.0</ele>
      </trkpt>
      <trkpt lat="38.84864" lon="-120.09487">
        <ele>2399.0</ele>
      </trkpt>
      <trkpt lat="38.84878" lon="-120.09539">
        <ele>2406.0</ele>
      </trkpt>
      <trkpt lat="38.84878" lon="-120.09539">
        <ele>2406.0</ele>
      </trkpt>
      <trkpt lat="38.84884" lon="-120.09574">
        <ele>2409.0</ele>
      </trkpt>
      <trkpt lat="38.84894" lon="-120.09599">
        <ele>2410.0</ele>
      </trkpt>
      <trkpt lat="38.84901" lon="-120.09612">
        <ele>2410.0</ele>
      </trkpt>
      <trkpt lat="38.84943" lon="-120.09662">
        <ele>2419.0</ele>
      </trkpt>
      <trkpt lat="38.84952" lon="-120.09685">
        <ele>2418.0</ele>
      </trkpt>
      <trkpt lat="38.84959" lon="-120.09713">
        <ele>2426.0</ele>
      </trkpt>
      <trkpt lat="38.84965" lon="-120.09724">
        <ele>2426.0</ele>
      </trkpt>
      <trkpt lat="38.84979" lon="-120.09741">
        <ele>2425.0</ele>
      </trkpt>
      <trkpt lat="38.84992" lon="-120.09766">
        <ele>2432.0</ele>
      </trkpt>
      <trkpt lat="38.85017" lon="-120.09797">
        <ele>2437.0</ele>
      </trkpt>
      <trkpt lat="38.85033" lon="-120.09838">
        <ele>2436.0</ele>
      </trkpt>
      <trkpt lat="38.85051" lon="-120.09866">
        <ele>2439.0</ele>
      </trkpt>
      <trkpt lat="38.85071" lon="-120.09888">
        <ele>2447.0</ele>
      </trkpt>
      <trkpt lat="38.85091" lon="-120.09919">
        <ele>2443.0</ele>
      </trkpt>
      <trkpt lat="38.85109" lon="-120.09937">
        <ele>2450.0</ele>
      </trkpt>
      <trkpt lat="38.85151" lon="-120.10016">
        <ele>2451.0</ele>
      </trkpt>
      <trkpt lat="38.85161" lon="-120.10053">
        <ele>2462.0</ele>
      </trkpt>
      <trkpt lat="38.85174" lon="-120.10089">
        <ele>2460.0</ele>
      </trkpt>
      <trkpt lat="38.85201" lon="-120.10144">
        <ele>2469.0</ele>
      </trkpt>
      <trkpt lat="38.85209" lon="-120.10167">
        <ele>2478.0</ele>
      </trkpt>
      <trkpt lat="38.85214" lon="-120.10187">
        <ele>2477.0</ele>
      </trkpt>
      <trkpt lat="38.85215" lon="-120.10203">
        <ele>2477.0</ele>
      </trkpt>
      <trkpt lat="38.8521" lon="-120.10229">
        <ele>2481.0</ele>
      </trkpt>
      <trkpt lat="38.85212" lon="-120.1024">
        <ele>2486.0</ele>
      </trkpt>
      <trkpt lat="38.85219" lon="-120.10238">
        <ele>2486.0</ele>
      </trkpt>
      <trkpt lat="38.85239" lon="-120.102">
        <ele>2489.0</ele>
      </trkpt>
      <trkpt lat="38.85246" lon="-120.10157">
        <ele>2490.0</ele>
      </trkpt>
      <trkpt lat="38.85251" lon="-120.10153">
        <ele>2490.0</ele>
      </trkpt>
      <trkpt lat="38.85257" lon="-120.10176">
        <ele>2490.0</ele>
      </trkpt>
      <trkpt lat="38.852683748" lon="-120.102442491">
        <ele>2504.0</ele>
      </trkpt>
      <trkpt lat="38.852683601" lon="-120.102441608">
        <ele>2504.0</ele>
      </trkpt>
      <trkpt lat="38.8527" lon="-120.10254">
        <ele>2504.0</ele>
      </trkpt>
      <trkpt lat="38.8527" lon="-120.10254">
        <ele>2504.0</ele>
      </trkpt>
      <trkpt lat="38.85278" lon="-120.10282">
        <ele>2504.0</ele>
      </trkpt>
      <trkpt lat="38.85293" lon="-120.10304">
        <ele>2514.0</ele>
      </trkpt>
      <trkpt lat="38.85293" lon="-120.10304">
        <ele>2514.0</ele>
      </trkpt>
      <trkpt lat="38.85305" lon="-120.10357">
        <ele>2517.0</ele>
      </trkpt>
      <trkpt lat="38.85317" lon="-120.10434">
        <ele>2524.0</ele>
      </trkpt>
      <trkpt lat="38.85353" lon="-120.1056">
        <ele>2531.0</ele>
      </trkpt>
      <trkpt lat="38.85419" lon="-120.10671">
        <ele>2536.0</ele>
      </trkpt>
      <trkpt lat="38.85468" lon="-120.10805">
        <ele>2538.0</ele>
      </trkpt>
      <trkpt lat="38.85472" lon="-120.10839">
        <ele>2538.0</ele>
      </trkpt>
      <trkpt lat="38.85481" lon="-120.10874">
        <ele>2538.0</ele>
      </trkpt>
      <trkpt lat="38.85497" lon="-120.10899">
        <ele>2542.0</ele>
      </trkpt>
      <trkpt lat="38.85497" lon="-120.10899">
        <ele>2542.0</ele>
      </trkpt>
      <trkpt lat="38.85501" lon="-120.10906">
        <ele>2540.0</ele>
      </trkpt>
      <trkpt lat="38.85566" lon="-120.10957">
        <ele>2542.0</ele>
      </trkpt>
      <trkpt lat="38.85588" lon="-120.10985">
        <ele>2542.0</ele>
      </trkpt>
      <trkpt lat="38.85595" lon="-120.11014">
        <ele>2545.0</ele>
      </trkpt>
      <trkpt lat="38.855957098" lon="-120.110242927">
        <ele>2545.0</ele>
      </trkpt>
      <trkpt lat="38.855956636" lon="-120.110236225">
        <ele>2545.0</ele>
      </trkpt>
      <trkpt lat="38.85597" lon="-120.11043">
        <ele>2545.0</ele>
      </trkpt>
      <trkpt lat="38.85589" lon="-120.1112">
        <ele>2545.0</ele>
      </trkpt>
      <trkpt lat="38.85608" lon="-120.11172">
        <ele>2545.0</ele>
      </trkpt>
      <trkpt lat="38.85608" lon="-120.11172">
        <ele>2545.0</ele>
      </trkpt>
      <trkpt lat="38.85628" lon="-120.11259">
        <ele>2542.0</ele>
      </trkpt>
      <trkpt lat="38.85636" lon="-120.1127">
        <ele>2545.0</ele>
      </trkpt>
      <trkpt lat="38.85644" lon="-120.11288">
        <ele>2545.0</ele>
      </trkpt>
      <trkpt lat="38.856460256" lon="-120.112987066">
        <ele>2547.0</ele>
      </trkpt>
      <trkpt lat="38.856460201" lon="-120.112986775">
        <ele>2547.0</ele>
      </trkpt>
      <trkpt lat="38.85651" lon="-120.11325">
        <ele>2548.0</ele>
      </trkpt>
      <trkpt lat="38.856510001" lon="-120.113250003">
        <ele>2548.0</ele>
      </trkpt>
      <trkpt lat="38.856510001" lon="-120.113250003">
        <ele>2548.0</ele>
      </trkpt>
      <trkpt lat="38.85663" lon="-120.1141">
        <ele>2538.0</ele>
      </trkpt>
      <trkpt lat="38.85661" lon="-120.11467">
        <ele>2539.0</ele>
      </trkpt>
      <trkpt lat="38.85676" lon="-120.11531">
        <ele>2542.0</ele>
      </trkpt>
      <trkpt lat="38.85682" lon="-120.11546">
        <ele>2538.0</ele>
      </trkpt>
      <trkpt lat="38.85682" lon="-120.11546">
        <ele>2538.0</ele>
      </trkpt>
      <trkpt lat="38.85694" lon="-120.11575">
        <ele>2541.0</ele>
      </trkpt>
      <trkpt lat="38.85704" lon="-120.11586">
        <ele>2541.0</ele>
      </trkpt>
      <trkpt lat="38.85717" lon="-120.11617">
        <ele>2535.0</ele>
      </trkpt>
      <trkpt lat="38.85717" lon="-120.11714">
        <ele>2547.0</ele>
      </trkpt>
      <trkpt lat="38.85713" lon="-120.11754">
        <ele>2547.0</ele>
      </trkpt>
      <trkpt lat="38.85719" lon="-120.1179">
        <ele>2547.0</ele>
      </trkpt>
      <trkpt lat="38.85729" lon="-120.11815">
        <ele>2547.0</ele>
      </trkpt>
      <trkpt lat="38.85764" lon="-120.11869">
        <ele>2545.0</ele>
      </trkpt>
      <trkpt lat="38.857660398" lon="-120.118709324">
        <ele>2545.0</ele>
      </trkpt>
      <trkpt lat="38.85783" lon="-120.11887">
        <ele>2545.0</ele>
      </trkpt>
      <trkpt lat="38.85802" lon="-120.11912">
        <ele>2543.0</ele>
      </trkpt>
      <trkpt lat="38.85823" lon="-120.11951">
        <ele>2540.0</ele>
      </trkpt>
      <trkpt lat="38.85862" lon="-120.11968">
        <ele>2538.0</ele>
      </trkpt>
      <trkpt lat="38.85898" lon="-120.11996">
        <ele>2535.0</ele>
      </trkpt>
      <trkpt lat="38.85909" lon="-120.12011">
        <ele>2535.0</ele>
      </trkpt>
      <trkpt lat="38.85915" lon="-120.12033">
        <ele>2534.0</ele>
      </trkpt>
      <trkpt lat="38.85932" lon="-120.12069">
        <ele>2533.0</ele>
      </trkpt>
      <trkpt lat="38.85978" lon="-120.12118">
        <ele>2532.0</ele>
      </trkpt>
      <trkpt lat="38.85978" lon="-120.12118">
        <ele>2532.0</ele>
      </trkpt>
      <trkpt lat="38.85982" lon="-120.12123">
        <ele>2532.0</ele>
      </trkpt>
      <trkpt lat="38.8599" lon="-120.12148">
        <ele>2530.0</ele>
      </trkpt>
      <trkpt lat="38.85988" lon="-120.12182">
        <ele>2529.0</ele>
      </trkpt>
      <trkpt lat="38.85992" lon="-120.12217">
        <ele>2528.0</ele>
      </trkpt>
      <trkpt lat="38.86009" lon="-120.12255">
        <ele>2529.0</ele>
      </trkpt>
      <trkpt lat="38.8601" lon="-120.12273">
        <ele>2530.0</ele>
      </trkpt>
      <trkpt lat="38.86003" lon="-120.1229">
        <ele>2530.0</ele>
      </trkpt>
      <trkpt lat="38.86003" lon="-120.123">
        <ele>2531.0</ele>
      </trkpt>
      <trkpt lat="38.860068801" lon="-120.123116403">
        <ele>2531.0</ele>
      </trkpt>
      <trkpt lat="38.860068575" lon="-120.123115724">
        <ele>2531.0</ele>
      </trkpt>
      <trkpt lat="38.86035" lon="-120.12396">
        <ele>2532.0</ele>
      </trkpt>
      <trkpt lat="38.8605" lon="-120.12422">
        <ele>2530.0</ele>
      </trkpt>
      <trkpt lat="38.86066" lon="-120.12441">
        <ele>2529.0</ele>
      </trkpt>
      <trkpt lat="38.86081" lon="-120.12451">
        <ele>2530.0</ele>
      </trkpt>
      <trkpt lat="38.86081" lon="-120.12451">
        <ele>2530.0</ele>
      </trkpt>
      <trkpt lat="38.86112" lon="-120.12472">
        <ele>2530.0</ele>
      </trkpt>
      <trkpt lat="38.86136" lon="-120.12475">
        <ele>2531.0</ele>
      </trkpt>
      <trkpt lat="38.86152" lon="-120.1248">
        <ele>2531.0</ele>
      </trkpt>
      <trkpt lat="38.86179" lon="-120.12494">
        <ele>2528.0</ele>
      </trkpt>
      <trkpt lat="38.86198" lon="-120.12507">
        <ele>2530.0</ele>
      </trkpt>
      <trkpt lat="38.86243" lon="-120.12575">
        <ele>2518.0</ele>
      </trkpt>
      <trkpt lat="38.86268" lon="-120.12589">
        <ele>2518.0</ele>
      </trkpt>
      <trkpt lat="38.86283" lon="-120.12606">
        <ele>2518.0</ele>
      </trkpt>
      <trkpt lat="38.86304" lon="-120.1264">
        <ele>2516.0</ele>
      </trkpt>
      <trkpt lat="38.86345" lon="-120.12687">
        <ele>2510.0</ele>
      </trkpt>
      <trkpt lat="38.86346" lon="-120.127">
        <ele>2510.0</ele>
      </trkpt>
      <trkpt lat="38.86337" lon="-120.12711">
        <ele>2510.0</ele>
      </trkpt>
      <trkpt lat="38.86337" lon="-120.12717">
        <ele>2510.0</ele>
      </trkpt>
      <trkpt lat="38.86369" lon="-120.1277">
        <ele>2498.0</ele>
      </trkpt>
      <trkpt lat="38.86382" lon="-120.12786">
        <ele>2499.0</ele>
      </trkpt>
      <trkpt lat="38.86397" lon="-120.12797">
        <ele>2491.0</ele>
      </trkpt>
      <trkpt lat="38.86427" lon="-120.12805">
        <ele>2495.0</ele>
      </trkpt>
      <trkpt lat="38.86435" lon="-120.12812">
        <ele>2496.0</ele>
      </trkpt>
      <trkpt lat="38.86453" lon="-120.12834">
        <ele>2491.0</ele>
      </trkpt>
      <trkpt lat="38.86469" lon="-120.12886">
        <ele>2484.0</ele>
      </trkpt>
      <trkpt lat="38.86469" lon="-120.12886">
        <ele>2484.0</ele>
      </trkpt>
      <trkpt lat="38.86434" lon="-120.12853">
        <ele>2487.0</ele>
      </trkpt>
      <trkpt lat="38.864" lon="-120.1285">
        <ele>2484.0</ele>
      </trkpt>
      <trkpt lat="38.86334" lon="-120.12815">
        <ele>2489.0</ele>
      </trkpt>
      <trkpt lat="38.86321" lon="-120.12811">
        <ele>2489.0</ele>
      </trkpt>
      <trkpt lat="38.863085008" lon="-120.128113906">
        <ele>2488.0</ele>
      </trkpt>
      <trkpt lat="38.863067178" lon="-120.128114463">
        <ele>2488.0</ele>
      </trkpt>
      <trkpt lat="38.86257" lon="-120.12813">
        <ele>2485.0</ele>
      </trkpt>
      <trkpt lat="38.86234" lon="-120.12809">
        <ele>2486.0</ele>
      </trkpt>
      <trkpt lat="38.86213" lon="-120.12799">
        <ele>2486.0</ele>
      </trkpt>
      <trkpt lat="38.86189" lon="-120.12781">
        <ele>2493.0</ele>
      </trkpt>
      <trkpt lat="38.86169" lon="-120.12772">
        <ele>2494.0</ele>
      </trkpt>
      <trkpt lat="38.86142" lon="-120.12769">
        <ele>2494.0</ele>
      </trkpt>
      <trkpt lat="38.8606" lon="-120.12776">
        <ele>2495.0</ele>
      </trkpt>
      <trkpt lat="38.86042" lon="-120.12785">
        <ele>2495.0</ele>
      </trkpt>
      <trkpt lat="38.86023" lon="-120.12802">
        <ele>2484.0</ele>
      </trkpt>
      <trkpt lat="38.86004" lon="-120.12805">
        <ele>2487.0</ele>
      </trkpt>
      <trkpt lat="38.85978" lon="-120.12804">
        <ele>2490.0</ele>
      </trkpt>
      <trkpt lat="38.85955" lon="-120.12796">
        <ele>2488.0</ele>
      </trkpt>
      <trkpt lat="38.85937" lon="-120.12795">
        <ele>2488.0</ele>
      </trkpt>
      <trkpt lat="38.85909" lon="-120.12803">
        <ele>2487.0</ele>
      </trkpt>
      <trkpt lat="38.85871" lon="-120.12781">
        <ele>2486.0</ele>
      </trkpt>
      <trkpt lat="38.85856" lon="-120.1278">
        <ele>2486.0</ele>
      </trkpt>
      <trkpt lat="38.85843" lon="-120.12785">
        <ele>2483.0</ele>
      </trkpt>
      <trkpt lat="38.85828" lon="-120.12783">
        <ele>2483.0</ele>
      </trkpt>
      <trkpt lat="38.85799" lon="-120.12791">
        <ele>2481.0</ele>
      </trkpt>
      <trkpt lat="38.85778" lon="-120.12788">
        <ele>2481.0</ele>
      </trkpt>
      <trkpt lat="38.85751" lon="-120.12767">
        <ele>2479.0</ele>
      </trkpt>
      <trkpt lat="38.85718" lon="-120.12756">
        <ele>2481.0</ele>
      </trkpt>
      <trkpt lat="38.85703" lon="-120.12746">
        <ele>2480.0</ele>
      </trkpt>
      <trkpt lat="38.85682" lon="-120.12719">
        <ele>2482.0</ele>
      </trkpt>
      <trkpt lat="38.85682" lon="-120.12719">
        <ele>2482.0</ele>
      </trkpt>
      <trkpt lat="38.85661" lon="-120.12698">
        <ele>2483.0</ele>
      </trkpt>
      <trkpt lat="38.85661" lon="-120.12698">
        <ele>2483.0</ele>
      </trkpt>
      <trkpt lat="38.85661" lon="-120.12698">
        <ele>2483.0</ele>
      </trkpt>
      <trkpt lat="38.85653" lon="-120.12687">
        <ele>2483.0</ele>
      </trkpt>
      <trkpt lat="38.85634" lon="-120.12648">
        <ele>2489.0</ele>
      </trkpt>
      <trkpt lat="38.85634" lon="-120.12648">
        <ele>2489.0</ele>
      </trkpt>
      <trkpt lat="38.85634" lon="-120.12648">
        <ele>2489.0</ele>
      </trkpt>
      <trkpt lat="38.85613" lon="-120.12632">
        <ele>2490.0</ele>
      </trkpt>
      <trkpt lat="38.85599" lon="-120.12616">
        <ele>2492.0</ele>
      </trkpt>
      <trkpt lat="38.85584" lon="-120.12605">
        <ele>2495.0</ele>
      </trkpt>
      <trkpt lat="38.85549" lon="-120.12562">
        <ele>2500.0</ele>
      </trkpt>
      <trkpt lat="38.85542" lon="-120.12544">
        <ele>2500.0</ele>
      </trkpt>
      <trkpt lat="38.85519" lon="-120.12465">
        <ele>2508.0</ele>
      </trkpt>
      <trkpt lat="38.8551" lon="-120.12451">
        <ele>2509.0</ele>
      </trkpt>
      <trkpt lat="38.8551" lon="-120.12451">
        <ele>2509.0</ele>
      </trkpt>
      <trkpt lat="38.85426" lon="-120.12319">
        <ele>2509.0</ele>
      </trkpt>
      <trkpt lat="38.8542" lon="-120.12311">
        <ele>2509.0</ele>
      </trkpt>
      <trkpt lat="38.85403" lon="-120.12302">
        <ele>2509.0</ele>
      </trkpt>
      <trkpt lat="38.85398" lon="-120.12295">
        <ele>2508.0</ele>
      </trkpt>
      <trkpt lat="38.85393" lon="-120.12284">
        <ele>2503.0</ele>
      </trkpt>
      <trkpt lat="38.85392" lon="-120.12265">
        <ele>2503.0</ele>
      </trkpt>
      <trkpt lat="38.85388" lon="-120.12257">
        <ele>2497.0</ele>
      </trkpt>
      <trkpt lat="38.85376" lon="-120.12253">
        <ele>2497.0</ele>
      </trkpt>
      <trkpt lat="38.85373" lon="-120.12245">
        <ele>2493.0</ele>
      </trkpt>
      <trkpt lat="38.85372" lon="-120.12232">
        <ele>2487.0</ele>
      </trkpt>
      <trkpt lat="38.85374" lon="-120.12203">
        <ele>2482.0</ele>
      </trkpt>
      <trkpt lat="38.85377" lon="-120.12194">
        <ele>2489.0</ele>
      </trkpt>
      <trkpt lat="38.85375" lon="-120.12188">
        <ele>2482.0</ele>
      </trkpt>
      <trkpt lat="38.85366" lon="-120.12192">
        <ele>2482.0</ele>
      </trkpt>
      <trkpt lat="38.85363" lon="-120.12188">
        <ele>2482.0</ele>
      </trkpt>
      <trkpt lat="38.85362" lon="-120.12179">
        <ele>2477.0</ele>
      </trkpt>
      <trkpt lat="38.85364" lon="-120.12165">
        <ele>2477.0</ele>
      </trkpt>
      <trkpt lat="38.85363" lon="-120.12135">
        <ele>2472.0</ele>
      </trkpt>
      <trkpt lat="38.85365" lon="-120.12122">
        <ele>2469.0</ele>
      </trkpt>
      <trkpt lat="38.85364" lon="-120.12114">
        <ele>2469.0</ele>
      </trkpt>
      <trkpt lat="38.85357" lon="-120.12113">
        <ele>2469.0</ele>
      </trkpt>
      <trkpt lat="38.85343" lon="-120.12121">
        <ele>2464.0</ele>
      </trkpt>
      <trkpt lat="38.85337" lon="-120.1212">
        <ele>2464.0</ele>
      </trkpt>
      <trkpt lat="38.85325" lon="-120.12129">
        <ele>2467.0</ele>
      </trkpt>
      <trkpt lat="38.85316" lon="-120.12115">
        <ele>2460.0</ele>
      </trkpt>
      <trkpt lat="38.853073085" lon="-120.120758883">
        <ele>2459.0</ele>
      </trkpt>
      <trkpt lat="38.853073085" lon="-120.120758883">
        <ele>2459.0</ele>
      </trkpt>
      <trkpt lat="38.85302" lon="-120.12052">
        <ele>2458.0</ele>
      </trkpt>
      <trkpt lat="38.85305" lon="-120.12031">
        <ele>2456.0</ele>
      </trkpt>
      <trkpt lat="38.85301" lon="-120.11996">
        <ele>2457.0</ele>
      </trkpt>
      <trkpt lat="38.853019986" lon="-120.119885108">
        <ele>2457.0</ele>
      </trkpt>
      <trkpt lat="38.853019946" lon="-120.119885407">
        <ele>2457.0</ele>
      </trkpt>
      <trkpt lat="38.85303" lon="-120.11981">
        <ele>2457.0</ele>
      </trkpt>
      <trkpt lat="38.8531" lon="-120.11962">
        <ele>2457.0</ele>
      </trkpt>
      <trkpt lat="38.85308" lon="-120.11929">
        <ele>2456.0</ele>
      </trkpt>
      <trkpt lat="38.85311" lon="-120.11922">
        <ele>2456.0</ele>
      </trkpt>
      <trkpt lat="38.85315" lon="-120.11919">
        <ele>2456.0</ele>
      </trkpt>
      <trkpt lat="38.85323" lon="-120.1189">
        <ele>2457.0</ele>
      </trkpt>
      <trkpt lat="38.85328" lon="-120.11842">
        <ele>2456.0</ele>
      </trkpt>
      <trkpt lat="38.85321" lon="-120.11808">
        <ele>2459.0</ele>
      </trkpt>
      <trkpt lat="38.8532" lon="-120.11785">
        <ele>2463.0</ele>
      </trkpt>
      <trkpt lat="38.85312" lon="-120.11772">
        <ele>2456.0</ele>
      </trkpt>
      <trkpt lat="38.85284" lon="-120.11757">
        <ele>2459.0</ele>
      </trkpt>
      <trkpt lat="38.85272" lon="-120.11724">
        <ele>2458.0</ele>
      </trkpt>
      <trkpt lat="38.85272" lon="-120.11724">
        <ele>2458.0</ele>
      </trkpt>
      <trkpt lat="38.85295" lon="-120.1173">
        <ele>2467.0</ele>
      </trkpt>
      <trkpt lat="38.85299" lon="-120.11726">
        <ele>2467.0</ele>
      </trkpt>
      <trkpt lat="38.85296" lon="-120.11689">
        <ele>2471.0</ele>
      </trkpt>
      <trkpt lat="38.85305" lon="-120.11661">
        <ele>2476.0</ele>
      </trkpt>
      <trkpt lat="38.85307" lon="-120.11646">
        <ele>2478.0</ele>
      </trkpt>
      <trkpt lat="38.85313" lon="-120.11637">
        <ele>2478.0</ele>
      </trkpt>
      <trkpt lat="38.85325" lon="-120.11633">
        <ele>2485.0</ele>
      </trkpt>
      <trkpt lat="38.85329" lon="-120.1162">
        <ele>2485.0</ele>
      </trkpt>
      <trkpt lat="38.85326" lon="-120.11588">
        <ele>2488.0</ele>
      </trkpt>
      <trkpt lat="38.85328" lon="-120.11564">
        <ele>2494.0</ele>
      </trkpt>
      <trkpt lat="38.85325" lon="-120.11551">
        <ele>2494.0</ele>
      </trkpt>
      <trkpt lat="38.85316" lon="-120.11539">
        <ele>2495.0</ele>
      </trkpt>
      <trkpt lat="38.85301" lon="-120.11527">
        <ele>2495.0</ele>
      </trkpt>
      <trkpt lat="38.85289" lon="-120.1151">
        <ele>2497.0</ele>
      </trkpt>
      <trkpt lat="38.85253" lon="-120.11471">
        <ele>2503.0</ele>
      </trkpt>
      <trkpt lat="38.85243" lon="-120.11457">
        <ele>2513.0</ele>
      </trkpt>
      <trkpt lat="38.85243" lon="-120.11448">
        <ele>2513.0</ele>
      </trkpt>
      <trkpt lat="38.85251" lon="-120.11445">
        <ele>2513.0</ele>
      </trkpt>
      <trkpt lat="38.85297" lon="-120.11445">
        <ele>2520.0</ele>
      </trkpt>
      <trkpt lat="38.85308" lon="-120.11441">
        <ele>2520.0</ele>
      </trkpt>
      <trkpt lat="38.85334" lon="-120.1144">
        <ele>2526.0</ele>
      </trkpt>
      <trkpt lat="38.85344" lon="-120.11437">
        <ele>2526.0</ele>
      </trkpt>
      <trkpt lat="38.85346" lon="-120.11434">
        <ele>2526.0</ele>
      </trkpt>
      <trkpt lat="38.85309" lon="-120.11359">
        <ele>2546.0</ele>
      </trkpt>
      <trkpt lat="38.85284" lon="-120.11298">
        <ele>2552.0</ele>
      </trkpt>
      <trkpt lat="38.85283" lon="-120.11271">
        <ele>2556.0</ele>
      </trkpt>
      <trkpt lat="38.85292" lon="-120.1122">
        <ele>2562.0</ele>
      </trkpt>
      <trkpt lat="38.85289" lon="-120.11199">
        <ele>2566.0</ele>
      </trkpt>
      <trkpt lat="38.853018026" lon="-120.111238913">
        <ele>2563.0</ele>
      </trkpt>
      <trkpt lat="38.853018026" lon="-120.111238913">
        <ele>2563.0</ele>
      </trkpt>
      <trkpt lat="38.85304" lon="-120.11111">
        <ele>2563.0</ele>
      </trkpt>
      <trkpt lat="38.85301" lon="-120.11094">
        <ele>2558.0</ele>
      </trkpt>
      <trkpt lat="38.85302" lon="-120.11075">
        <ele>2558.0</ele>
      </trkpt>
      <trkpt lat="38.85294" lon="-120.11055">
        <ele>2553.0</ele>
      </trkpt>
      <trkpt lat="38.85297" lon="-120.11035">
        <ele>2547.0</ele>
      </trkpt>
      <trkpt lat="38.85309" lon="-120.11009">
        <ele>2544.0</ele>
      </trkpt>
      <trkpt lat="38.85322" lon="-120.10995">
        <ele>2545.0</ele>
      </trkpt>
      <trkpt lat="38.85332" lon="-120.10991">
        <ele>2545.0</ele>
      </trkpt>
      <trkpt lat="38.85336" lon="-120.10982">
        <ele>2540.0</ele>
      </trkpt>
      <trkpt lat="38.85349" lon="-120.10968">
        <ele>2537.0</ele>
      </trkpt>
      <trkpt lat="38.85365" lon="-120.10961">
        <ele>2537.0</ele>
      </trkpt>
      <trkpt lat="38.85422" lon="-120.10958">
        <ele>2535.0</ele>
      </trkpt>
      <trkpt lat="38.854346519" lon="-120.109545937">
        <ele>2537.0</ele>
      </trkpt>
      <trkpt lat="38.854345306" lon="-120.109546264">
        <ele>2537.0</ele>
      </trkpt>
      <trkpt lat="38.85448" lon="-120.10951">
        <ele>2537.0</ele>
      </trkpt>
      <trkpt lat="38.85458" lon="-120.10945">
        <ele>2537.0</ele>
      </trkpt>
      <trkpt lat="38.85478" lon="-120.10923">
        <ele>2536.0</ele>
      </trkpt>
      <trkpt lat="38.85497" lon="-120.10899">
        <ele>2542.0</ele>
      </trkpt>
      <trkpt lat="38.85497" lon="-120.10899">
        <ele>2542.0</ele>
      </trkpt>
      <trkpt lat="38.85481" lon="-120.10874">
        <ele>2538.0</ele>
      </trkpt>
      <trkpt lat="38.85472" lon="-120.10839">
        <ele>2538.0</ele>
      </trkpt>
      <trkpt lat="38.85468" lon="-120.10805">
        <ele>2538.0</ele>
      </trkpt>
      <trkpt lat="38.85419" lon="-120.10671">
        <ele>2536.0</ele>
      </trkpt>
      <trkpt lat="38.85353" lon="-120.1056">
        <ele>2531.0</ele>
      </trkpt>
      <trkpt lat="38.85317" lon="-120.10434">
        <ele>2524.0</ele>
      </trkpt>
      <trkpt lat="38.85305" lon="-120.10357">
        <ele>2517.0</ele>
      </trkpt>
      <trkpt lat="38.85293" lon="-120.10304">
        <ele>2514.0</ele>
      </trkpt>
      <trkpt lat="38.85293" lon="-120.10304">
        <ele>2514.0</ele>
      </trkpt>
      <trkpt lat="38.85278" lon="-120.10282">
        <ele>2504.0</ele>
      </trkpt>
      <trkpt lat="38.8527" lon="-120.10254">
        <ele>2504.0</ele>
      </trkpt>
      <trkpt lat="38.8527" lon="-120.10254">
        <ele>2504.0</ele>
      </trkpt>
      <trkpt lat="38.85257" lon="-120.10176">
        <ele>2490.0</ele>
      </trkpt>
      <trkpt lat="38.85251" lon="-120.10153">
        <ele>2490.0</ele>
      </trkpt>
      <trkpt lat="38.85246" lon="-120.10157">
        <ele>2490.0</ele>
      </trkpt>
      <trkpt lat="38.85239" lon="-120.102">
        <ele>2489.0</ele>
      </trkpt>
      <trkpt lat="38.85219" lon="-120.10238">
        <ele>2486.0</ele>
      </trkpt>
      <trkpt lat="38.85212" lon="-120.1024">
        <ele>2486.0</ele>
      </trkpt>
      <trkpt lat="38.8521" lon="-120.10229">
        <ele>2481.0</ele>
      </trkpt>
      <trkpt lat="38.85215" lon="-120.10203">
        <ele>2477.0</ele>
      </trkpt>
      <trkpt lat="38.85214" lon="-120.10187">
        <ele>2477.0</ele>
      </trkpt>
      <trkpt lat="38.85209" lon="-120.10167">
        <ele>2478.0</ele>
      </trkpt>
      <trkpt lat="38.85201" lon="-120.10144">
        <ele>2469.0</ele>
      </trkpt>
      <trkpt lat="38.85174" lon="-120.10089">
        <ele>2460.0</ele>
      </trkpt>
      <trkpt lat="38.851632359" lon="-120.100591917">
        <ele>2462.0</ele>
      </trkpt>
      <trkpt lat="38.851631851" lon="-120.10059051">
        <ele>2462.0</ele>
      </trkpt>
      <trkpt lat="38.85161" lon="-120.10053">
        <ele>2462.0</ele>
      </trkpt>
      <trkpt lat="38.85151" lon="-120.10016">
        <ele>2451.0</ele>
      </trkpt>
      <trkpt lat="38.85109" lon="-120.09937">
        <ele>2450.0</ele>
      </trkpt>
      <trkpt lat="38.85091" lon="-120.09919">
        <ele>2443.0</ele>
      </trkpt>
      <trkpt lat="38.85071" lon="-120.09888">
        <ele>2447.0</ele>
      </trkpt>
      <trkpt lat="38.85051" lon="-120.09866">
        <ele>2439.0</ele>
      </trkpt>
      <trkpt lat="38.85033" lon="-120.09838">
        <ele>2436.0</ele>
      </trkpt>
      <trkpt lat="38.85017" lon="-120.09797">
        <ele>2437.0</ele>
      </trkpt>
      <trkpt lat="38.84992" lon="-120.09766">
        <ele>2432.0</ele>
      </trkpt>
      <trkpt lat="38.84979" lon="-120.09741">
        <ele>2425.0</ele>
      </trkpt>
      <trkpt lat="38.84965" lon="-120.09724">
        <ele>2426.0</ele>
      </trkpt>
      <trkpt lat="38.84959" lon="-120.09713">
        <ele>2426.0</ele>
      </trkpt>
      <trkpt lat="38.84952" lon="-120.09685">
        <ele>2418.0</ele>
      </trkpt>
      <trkpt lat="38.84943" lon="-120.09662">
        <ele>2419.0</ele>
      </trkpt>
      <trkpt lat="38.84901" lon="-120.09612">
        <ele>2410.0</ele>
      </trkpt>
      <trkpt lat="38.84894" lon="-120.09599">
        <ele>2410.0</ele>
      </trkpt>
      <trkpt lat="38.84884" lon="-120.09574">
        <ele>2409.0</ele>
      </trkpt>
      <trkpt lat="38.84878" lon="-120.09539">
        <ele>2406.0</ele>
      </trkpt>
      <trkpt lat="38.84878" lon="-120.09539">
        <ele>2406.0</ele>
      </trkpt>
      <trkpt lat="38.84864" lon="-120.09487">
        <ele>2399.0</ele>
      </trkpt>
      <trkpt lat="38.84869" lon="-120.09478">
        <ele>2396.0</ele>
      </trkpt>
      <trkpt lat="38.84884" lon="-120.09469">
        <ele>2397.0</ele>
      </trkpt>
      <trkpt lat="38.84896" lon="-120.09453">
        <ele>2392.0</ele>
      </trkpt>
      <trkpt lat="38.849" lon="-120.09444">
        <ele>2392.0</ele>
      </trkpt>
      <trkpt lat="38.84925" lon="-120.09352">
        <ele>2386.0</ele>
      </trkpt>
      <trkpt lat="38.84938" lon="-120.09335">
        <ele>2393.0</ele>
      </trkpt>
      <trkpt lat="38.84945" lon="-120.09322">
        <ele>2393.0</ele>
      </trkpt>
      <trkpt lat="38.84946" lon="-120.09306">
        <ele>2392.0</ele>
      </trkpt>
      <trkpt lat="38.84939" lon="-120.09248">
        <ele>2391.0</ele>
      </trkpt>
      <trkpt lat="38.84936" lon="-120.09232">
        <ele>2391.0</ele>
      </trkpt>
      <trkpt lat="38.84921" lon="-120.09196">
        <ele>2387.0</ele>
      </trkpt>
      <trkpt lat="38.84912" lon="-120.09162">
        <ele>2390.0</ele>
      </trkpt>
      <trkpt lat="38.84892" lon="-120.09115">
        <ele>2385.0</ele>
      </trkpt>
      <trkpt lat="38.84871" lon="-120.09076">
        <ele>2378.0</ele>
      </trkpt>
      <trkpt lat="38.84852" lon="-120.09049">
        <ele>2379.0</ele>
      </trkpt>
      <trkpt lat="38.8484" lon="-120.09023">
        <ele>2371.0</ele>
      </trkpt>
      <trkpt lat="38.848286158" lon="-120.090047164">
        <ele>2372.0</ele>
      </trkpt>
      <trkpt lat="38.848285399" lon="-120.090045944">
        <ele>2372.0</ele>
      </trkpt>
      <trkpt lat="38.84807" lon="-120.0897">
        <ele>2366.0</ele>
      </trkpt>
      <trkpt lat="38.84801" lon="-120.08953">
        <ele>2364.0</ele>
      </trkpt>
      <trkpt lat="38.84798" lon="-120.08924">
        <ele>2363.0</ele>
      </trkpt>
      <trkpt lat="38.84783" lon="-120.08862">
        <ele>2359.0</ele>
      </trkpt>
      <trkpt lat="38.84751" lon="-120.08818">
        <ele>2357.0</ele>
      </trkpt>
      <trkpt lat="38.84738" lon="-120.0879">
        <ele>2358.0</ele>
      </trkpt>
      <trkpt lat="38.84735" lon="-120.08776">
        <ele>2351.0</ele>
      </trkpt>
      <trkpt lat="38.84736" lon="-120.08764">
        <ele>2351.0</ele>
      </trkpt>
      <trkpt lat="38.84733" lon="-120.08757">
        <ele>2352.0</ele>
      </trkpt>
      <trkpt lat="38.84722" lon="-120.0875">
        <ele>2352.0</ele>
      </trkpt>
      <trkpt lat="38.84722" lon="-120.0875">
        <ele>2352.0</ele>
      </trkpt>
      <trkpt lat="38.84715" lon="-120.08745">
        <ele>2352.0</ele>
      </trkpt>
      <trkpt lat="38.84714" lon="-120.08735">
        <ele>2351.0</ele>
      </trkpt>
      <trkpt lat="38.84721" lon="-120.08708">
        <ele>2351.0</ele>
      </trkpt>
      <trkpt lat="38.84721" lon="-120.08687">
        <ele>2351.0</ele>
      </trkpt>
      <trkpt lat="38.84706" lon="-120.08667">
        <ele>2343.0</ele>
      </trkpt>
      <trkpt lat="38.84696" lon="-120.08649">
        <ele>2342.0</ele>
      </trkpt>
      <trkpt lat="38.84691" lon="-120.08628">
        <ele>2342.0</ele>
      </trkpt>
      <trkpt lat="38.84696" lon="-120.08559">
        <ele>2334.0</ele>
      </trkpt>
      <trkpt lat="38.84691" lon="-120.08514">
        <ele>2332.0</ele>
      </trkpt>
      <trkpt lat="38.84703" lon="-120.0846">
        <ele>2324.0</ele>
      </trkpt>
      <trkpt lat="38.84719" lon="-120.08434">
        <ele>2326.0</ele>
      </trkpt>
      <trkpt lat="38.84726" lon="-120.08406">
        <ele>2320.0</ele>
      </trkpt>
      <trkpt lat="38.84738" lon="-120.08389">
        <ele>2320.0</ele>
      </trkpt>
      <trkpt lat="38.8474" lon="-120.08356">
        <ele>2315.0</ele>
      </trkpt>
      <trkpt lat="38.84758" lon="-120.08303">
        <ele>2302.0</ele>
      </trkpt>
      <trkpt lat="38.84784" lon="-120.08267">
        <ele>2302.0</ele>
      </trkpt>
      <trkpt lat="38.84793" lon="-120.08242">
        <ele>2306.0</ele>
      </trkpt>
      <trkpt lat="38.84797" lon="-120.0818">
        <ele>2296.0</ele>
      </trkpt>
      <trkpt lat="38.847993312" lon="-120.081665954">
        <ele>2296.0</ele>
      </trkpt>
      <trkpt lat="38.8479933" lon="-120.081666025">
        <ele>2296.0</ele>
      </trkpt>
      <trkpt lat="38.84805" lon="-120.08134">
        <ele>2295.0</ele>
      </trkpt>
      <trkpt lat="38.84806" lon="-120.08117">
        <ele>2296.0</ele>
      </trkpt>
      <trkpt lat="38.84797" lon="-120.08078">
        <ele>2299.0</ele>
      </trkpt>
      <trkpt lat="38.84779" lon="-120.08057">
        <ele>2293.0</ele>
      </trkpt>
      <trkpt lat="38.84779" lon="-120.08057">
        <ele>2293.0</ele>
      </trkpt>
      <trkpt lat="38.84758" lon="-120.08032">
        <ele>2285.0</ele>
      </trkpt>
      <trkpt lat="38.84743" lon="-120.08023">
        <ele>2285.0</ele>
      </trkpt>
      <trkpt lat="38.84735" lon="-120.08015">
        <ele>2280.0</ele>
      </trkpt>
      <trkpt lat="38.84732" lon="-120.08008">
        <ele>2279.0</ele>
      </trkpt>
      <trkpt lat="38.84735" lon="-120.0799">
        <ele>2279.0</ele>
      </trkpt>
      <trkpt lat="38.84758" lon="-120.07969">
        <ele>2279.0</ele>
      </trkpt>
      <trkpt lat="38.84768" lon="-120.07943">
        <ele>2288.0</ele>
      </trkpt>
      <trkpt lat="38.84766" lon="-120.07928">
        <ele>2287.0</ele>
      </trkpt>
      <trkpt lat="38.8476" lon="-120.07915">
        <ele>2279.0</ele>
      </trkpt>
      <trkpt lat="38.84734" lon="-120.07884">
        <ele>2273.0</ele>
      </trkpt>
      <trkpt lat="38.84726" lon="-120.07859">
        <ele>2275.0</ele>
      </trkpt>
      <trkpt lat="38.84726" lon="-120.07859">
        <ele>2275.0</ele>
      </trkpt>
      <trkpt lat="38.84728" lon="-120.07848">
        <ele>2275.0</ele>
      </trkpt>
      <trkpt lat="38.84738" lon="-120.07835">
        <ele>2282.0</ele>
      </trkpt>
      <trkpt lat="38.84741" lon="-120.07826">
        <ele>2282.0</ele>
      </trkpt>
      <trkpt lat="38.8474" lon="-120.07789">
        <ele>2287.0</ele>
      </trkpt>
      <trkpt lat="38.84749" lon="-120.07753">
        <ele>2289.0</ele>
      </trkpt>
      <trkpt lat="38.84748" lon="-120.07743">
        <ele>2289.0</ele>
      </trkpt>
      <trkpt lat="38.84745" lon="-120.07732">
        <ele>2289.0</ele>
      </trkpt>
      <trkpt lat="38.84732" lon="-120.07713">
        <ele>2286.0</ele>
      </trkpt>
      <trkpt lat="38.8471" lon="-120.07689">
        <ele>2287.0</ele>
      </trkpt>
      <trkpt lat="38.84667" lon="-120.07619">
        <ele>2288.0</ele>
      </trkpt>
      <trkpt lat="38.84635" lon="-120.07556">
        <ele>2286.0</ele>
      </trkpt>
      <trkpt lat="38.84616" lon="-120.07476">
        <ele>2286.0</ele>
      </trkpt>
      <trkpt lat="38.84611" lon="-120.0744">
        <ele>2290.0</ele>
      </trkpt>
      <trkpt lat="38.84598" lon="-120.07403">
        <ele>2293.0</ele>
      </trkpt>
      <trkpt lat="38.84585" lon="-120.07386">
        <ele>2289.0</ele>
      </trkpt>
      <trkpt lat="38.84552" lon="-120.07356">
        <ele>2285.0</ele>
      </trkpt>
      <trkpt lat="38.84541" lon="-120.0734">
        <ele>2281.0</ele>
      </trkpt>
      <trkpt lat="38.84529" lon="-120.07304">
        <ele>2288.0</ele>
      </trkpt>
      <trkpt lat="38.844931541" lon="-120.072532746">
        <ele>2291.0</ele>
      </trkpt>
      <trkpt lat="38.844939057" lon="-120.072543382">
        <ele>2291.0</ele>
      </trkpt>
      <trkpt lat="38.84476" lon="-120.07229">
        <ele>2288.0</ele>
      </trkpt>
      <trkpt lat="38.84461" lon="-120.07194">
        <ele>2292.0</ele>
      </trkpt>
      <trkpt lat="38.8445" lon="-120.07157">
        <ele>2289.0</ele>
      </trkpt>
      <trkpt lat="38.84432" lon="-120.07137">
        <ele>2292.0</ele>
      </trkpt>
      <trkpt lat="38.84418" lon="-120.07116">
        <ele>2290.0</ele>
      </trkpt>
      <trkpt lat="38.8441" lon="-120.07098">
        <ele>2290.0</ele>
      </trkpt>
      <trkpt lat="38.84406" lon="-120.0708">
        <ele>2293.0</ele>
      </trkpt>
      <trkpt lat="38.84404" lon="-120.07055">
        <ele>2295.0</ele>
      </trkpt>
      <trkpt lat="38.84408" lon="-120.07041">
        <ele>2295.0</ele>
      </trkpt>
      <trkpt lat="38.84406" lon="-120.07033">
        <ele>2295.0</ele>
      </trkpt>
      <trkpt lat="38.84388" lon="-120.06999">
        <ele>2287.0</ele>
      </trkpt>
      <trkpt lat="38.8439" lon="-120.06989">
        <ele>2287.0</ele>
      </trkpt>
      <trkpt lat="38.84394" lon="-120.0698">
        <ele>2284.0</ele>
      </trkpt>
      <trkpt lat="38.84421" lon="-120.06953">
        <ele>2280.0</ele>
      </trkpt>
      <trkpt lat="38.8443" lon="-120.06938">
        <ele>2280.0</ele>
      </trkpt>
      <trkpt lat="38.84438" lon="-120.06932">
        <ele>2285.0</ele>
      </trkpt>
      <trkpt lat="38.84451" lon="-120.06928">
        <ele>2282.0</ele>
      </trkpt>
      <trkpt lat="38.84479" lon="-120.06932">
        <ele>2289.0</ele>
      </trkpt>
      <trkpt lat="38.84489" lon="-120.06929">
        <ele>2289.0</ele>
      </trkpt>
      <trkpt lat="38.84511" lon="-120.0693">
        <ele>2289.0</ele>
      </trkpt>
      <trkpt lat="38.8452" lon="-120.06927">
        <ele>2293.0</ele>
      </trkpt>
      <trkpt lat="38.84532" lon="-120.06916">
        <ele>2293.0</ele>
      </trkpt>
      <trkpt lat="38.84548" lon="-120.06909">
        <ele>2301.0</ele>
      </trkpt>
      <trkpt lat="38.84562" lon="-120.06898">
        <ele>2298.0</ele>
      </trkpt>
      <trkpt lat="38.84576" lon="-120.06835">
        <ele>2300.0</ele>
      </trkpt>
      <trkpt lat="38.84572" lon="-120.06803">
        <ele>2297.0</ele>
      </trkpt>
      <trkpt lat="38.84573" lon="-120.06773">
        <ele>2295.0</ele>
      </trkpt>
      <trkpt lat="38.84569" lon="-120.06755">
        <ele>2288.0</ele>
      </trkpt>
      <trkpt lat="38.84556" lon="-120.06722">
        <ele>2290.0</ele>
      </trkpt>
      <trkpt lat="38.84547" lon="-120.06681">
        <ele>2288.0</ele>
      </trkpt>
      <trkpt lat="38.84546442" lon="-120.066168274">
        <ele>2289.0</ele>
      </trkpt>
      <trkpt lat="38.84546442" lon="-120.066168291">
        <ele>2289.0</ele>
      </trkpt>
      <trkpt lat="38.84546" lon="-120.06566">
        <ele>2293.0</ele>
      </trkpt>
      <trkpt lat="38.84559" lon="-120.06527">
        <ele>2295.0</ele>
      </trkpt>
      <trkpt lat="38.84561" lon="-120.06479">
        <ele>2298.0</ele>
      </trkpt>
      <trkpt lat="38.84557" lon="-120.06454">
        <ele>2299.0</ele>
      </trkpt>
      <trkpt lat="38.84557" lon="-120.06454">
        <ele>2299.0</ele>
      </trkpt>
      <trkpt lat="38.84557" lon="-120.06454">
        <ele>2299.0</ele>
      </trkpt>
      <trkpt lat="38.8456" lon="-120.06407">
        <ele>2301.0</ele>
      </trkpt>
      <trkpt lat="38.84553" lon="-120.06358">
        <ele>2304.0</ele>
      </trkpt>
      <trkpt lat="38.84556" lon="-120.06342">
        <ele>2305.0</ele>
      </trkpt>
      <trkpt lat="38.84561" lon="-120.0633">
        <ele>2305.0</ele>
      </trkpt>
      <trkpt lat="38.84545" lon="-120.0621">
        <ele>2320.0</ele>
      </trkpt>
      <trkpt lat="38.84531" lon="-120.06147">
        <ele>2313.0</ele>
      </trkpt>
      <trkpt lat="38.84527" lon="-120.06122">
        <ele>2318.0</ele>
      </trkpt>
      <trkpt lat="38.84526" lon="-120.06103">
        <ele>2318.0</ele>
      </trkpt>
      <trkpt lat="38.8452" lon="-120.06073">
        <ele>2322.0</ele>
      </trkpt>
      <trkpt lat="38.84423" lon="-120.05891">
        <ele>2304.0</ele>
      </trkpt>
      <trkpt lat="38.844121822" lon="-120.058736915">
        <ele>2308.0</ele>
      </trkpt>
      <trkpt lat="38.844113996" lon="-120.058724394">
        <ele>2308.0</ele>
      </trkpt>
      <trkpt lat="38.84403" lon="-120.05859">
        <ele>2308.0</ele>
      </trkpt>
      <trkpt lat="38.84403" lon="-120.05859">
        <ele>2308.0</ele>
      </trkpt>
      <trkpt lat="38.84363" lon="-120.05794">
        <ele>2287.0</ele>
      </trkpt>
      <trkpt lat="38.84369" lon="-120.05828">
        <ele>2282.0</ele>
      </trkpt>
      <trkpt lat="38.84369" lon="-120.05852">
        <ele>2276.0</ele>
      </trkpt>
      <trkpt lat="38.84358" lon="-120.05844">
        <ele>2282.0</ele>
      </trkpt>
      <trkpt lat="38.84358" lon="-120.05844">
        <ele>2282.0</ele>
      </trkpt>
      <trkpt lat="38.84358" lon="-120.05844">
        <ele>2282.0</ele>
      </trkpt>
      <trkpt lat="38.84345" lon="-120.05828">
        <ele>2267.0</ele>
      </trkpt>
      <trkpt lat="38.84304" lon="-120.05697">
        <ele>2279.0</ele>
      </trkpt>
      <trkpt lat="38.84275" lon="-120.05625">
        <ele>2284.0</ele>
      </trkpt>
      <trkpt lat="38.84199" lon="-120.05488">
        <ele>2279.0</ele>
      </trkpt>
      <trkpt lat="38.84132" lon="-120.05376">
        <ele>2287.0</ele>
      </trkpt>
      <trkpt lat="38.84116" lon="-120.0536">
        <ele>2284.0</ele>
      </trkpt>
      <trkpt lat="38.84034" lon="-120.05298">
        <ele>2271.0</ele>
      </trkpt>
      <trkpt lat="38.84017" lon="-120.05289">
        <ele>2280.0</ele>
      </trkpt>
      <trkpt lat="38.83983" lon="-120.0526">
        <ele>2274.0</ele>
      </trkpt>
      <trkpt lat="38.83971" lon="-120.05246">
        <ele>2274.0</ele>
      </trkpt>
      <trkpt lat="38.83971" lon="-120.05246">
        <ele>2274.0</ele>
      </trkpt>
      <trkpt lat="38.83949" lon="-120.05221">
        <ele>2276.0</ele>
      </trkpt>
      <trkpt lat="38.83917" lon="-120.05191">
        <ele>2278.0</ele>
      </trkpt>
      <trkpt lat="38.83897" lon="-120.05179">
        <ele>2282.0</ele>
      </trkpt>
      <trkpt lat="38.83862" lon="-120.05147">
        <ele>2278.0</ele>
      </trkpt>
      <trkpt lat="38.83828" lon="-120.05108">
        <ele>2275.0</ele>
      </trkpt>
      <trkpt lat="38.83775" lon="-120.05028">
        <ele>2275.0</ele>
      </trkpt>
      <trkpt lat="38.83763" lon="-120.05005">
        <ele>2269.0</ele>
      </trkpt>
      <trkpt lat="38.83752" lon="-120.04975">
        <ele>2275.0</ele>
      </trkpt>
      <trkpt lat="38.837120733" lon="-120.048461798">
        <ele>2285.0</ele>
      </trkpt>
      <trkpt lat="38.837120434" lon="-120.048460835">
        <ele>2285.0</ele>
      </trkpt>
      <trkpt lat="38.83699" lon="-120.04804">
        <ele>2273.0</ele>
      </trkpt>
      <trkpt lat="38.83682" lon="-120.04775">
        <ele>2278.0</ele>
      </trkpt>
      <trkpt lat="38.83672" lon="-120.04724">
        <ele>2268.0</ele>
      </trkpt>
      <trkpt lat="38.83638" lon="-120.04631">
        <ele>2267.0</ele>
      </trkpt>
      <trkpt lat="38.83597" lon="-120.04562">
        <ele>2272.0</ele>
      </trkpt>
      <trkpt lat="38.83582" lon="-120.04532">
        <ele>2268.0</ele>
      </trkpt>
      <trkpt lat="38.83572" lon="-120.04485">
        <ele>2274.0</ele>
      </trkpt>
      <trkpt lat="38.83571" lon="-120.04458">
        <ele>2275.0</ele>
      </trkpt>
      <trkpt lat="38.83579" lon="-120.04406">
        <ele>2274.0</ele>
      </trkpt>
      <trkpt lat="38.83577" lon="-120.044">
        <ele>2271.0</ele>
      </trkpt>
      <trkpt lat="38.83577" lon="-120.044">
        <ele>2271.0</ele>
      </trkpt>
      <trkpt lat="38.83568" lon="-120.04396">
        <ele>2266.0</ele>
      </trkpt>
      <trkpt lat="38.83562" lon="-120.04398">
        <ele>2266.0</ele>
      </trkpt>
      <trkpt lat="38.83562" lon="-120.04398">
        <ele>2266.0</ele>
      </trkpt>
      <trkpt lat="38.83553" lon="-120.04406">
        <ele>2269.0</ele>
      </trkpt>
      <trkpt lat="38.83536" lon="-120.04437">
        <ele>2268.0</ele>
      </trkpt>
      <trkpt lat="38.83536" lon="-120.04437">
        <ele>2268.0</ele>
      </trkpt>
      <trkpt lat="38.83542" lon="-120.0446">
        <ele>2269.0</ele>
      </trkpt>
      <trkpt lat="38.83536" lon="-120.04469">
        <ele>2269.0</ele>
      </trkpt>
      <trkpt lat="38.83536" lon="-120.04469">
        <ele>2269.0</ele>
      </trkpt>
      <trkpt lat="38.83529" lon="-120.04473">
        <ele>2269.0</ele>
      </trkpt>
      <trkpt lat="38.83529" lon="-120.04473">
        <ele>2269.0</ele>
      </trkpt>
      <trkpt lat="38.83524" lon="-120.04475">
        <ele>2269.0</ele>
      </trkpt>
      <trkpt lat="38.83508" lon="-120.04475">
        <ele>2269.0</ele>
      </trkpt>
      <trkpt lat="38.83491" lon="-120.04467">
        <ele>2269.0</ele>
      </trkpt>
      <trkpt lat="38.834864911" lon="-120.044422009">
        <ele>2268.0</ele>
      </trkpt>
      <trkpt lat="38.834831279" lon="-120.044231862">
        <ele>2266.0</ele>
      </trkpt>
      <trkpt lat="38.834816654" lon="-120.044231862">
        <ele>2266.0</ele>
      </trkpt>
      <trkpt lat="38.834816581" lon="-120.04423">
        <ele>2266.0</ele>
      </trkpt>
      <trkpt lat="38.834642827" lon="-120.04423">
        <ele>2266.0</ele>
      </trkpt>
    </trkseg>
  </trk>
</gpx>
