<?xml version="1.0" encoding="UTF-8"?>
<gpx xmlns:xsi="http://www.w3.org/2001/XMLSchema-instance" version="1.1" creator="The Outbound Collective, Inc. 1.1.1 -- https://www.theoutbound.com" xsi:schemaLocation="http://www.topografix.com/GPX/1/1 http://www.topografix.com/GPX/1/1/gpx.xsd">
  <metadata>
    <name/>
    <time>2026-02-19T21:56:23+00:00</time>
    <bound minlat="36.7685102074645" minlon="-118.35914" maxlat="36.77538" maxlon="-118.34112"/>
  </metadata>
  <trk>
    <name/>
    <trkseg>
      <trkpt lat="36.7719955737002" lon="-118.341121673584">
        <ele>2797.0</ele>
      </trkpt>
      <trkpt lat="36.7719876871442" lon="-118.341148843572">
        <ele>2797.0</ele>
      </trkpt>
      <trkpt lat="36.77209" lon="-118.3412">
        <ele>2796.0</ele>
      </trkpt>
      <trkpt lat="36.77219" lon="-118.34122">
        <ele>2796.0</ele>
      </trkpt>
      <trkpt lat="36.77233" lon="-118.34121">
        <ele>2796.0</ele>
      </trkpt>
      <trkpt lat="36.7725" lon="-118.34112">
        <ele>2796.0</ele>
      </trkpt>
      <trkpt lat="36.7725" lon="-118.34112">
        <ele>2796.0</ele>
      </trkpt>
      <trkpt lat="36.7725" lon="-118.34112">
        <ele>2796.0</ele>
      </trkpt>
      <trkpt lat="36.77252" lon="-118.34123">
        <ele>2796.0</ele>
      </trkpt>
      <trkpt lat="36.77234" lon="-118.34177">
        <ele>2801.0</ele>
      </trkpt>
      <trkpt lat="36.77182" lon="-118.34217">
        <ele>2813.0</ele>
      </trkpt>
      <trkpt lat="36.77162" lon="-118.34227">
        <ele>2812.0</ele>
      </trkpt>
      <trkpt lat="36.77184" lon="-118.34231">
        <ele>2813.0</ele>
      </trkpt>
      <trkpt lat="36.77237" lon="-118.3423">
        <ele>2817.0</ele>
      </trkpt>
      <trkpt lat="36.77267" lon="-118.34236">
        <ele>2817.0</ele>
      </trkpt>
      <trkpt lat="36.77281" lon="-118.34228">
        <ele>2817.0</ele>
      </trkpt>
      <trkpt lat="36.77305" lon="-118.34219">
        <ele>2823.0</ele>
      </trkpt>
      <trkpt lat="36.77336" lon="-118.34214">
        <ele>2828.0</ele>
      </trkpt>
      <trkpt lat="36.77342" lon="-118.34211">
        <ele>2828.0</ele>
      </trkpt>
      <trkpt lat="36.77351" lon="-118.34221">
        <ele>2830.0</ele>
      </trkpt>
      <trkpt lat="36.77365" lon="-118.34221">
        <ele>2830.0</ele>
      </trkpt>
      <trkpt lat="36.77373" lon="-118.3421">
        <ele>2830.0</ele>
      </trkpt>
      <trkpt lat="36.77378" lon="-118.34206">
        <ele>2828.0</ele>
      </trkpt>
      <trkpt lat="36.77388" lon="-118.34213">
        <ele>2835.0</ele>
      </trkpt>
      <trkpt lat="36.77399" lon="-118.34229">
        <ele>2835.0</ele>
      </trkpt>
      <trkpt lat="36.77409" lon="-118.34253">
        <ele>2847.0</ele>
      </trkpt>
      <trkpt lat="36.77409" lon="-118.34253">
        <ele>2847.0</ele>
      </trkpt>
      <trkpt lat="36.77421" lon="-118.34267">
        <ele>2855.0</ele>
      </trkpt>
      <trkpt lat="36.774339230432" lon="-118.342771538197">
        <ele>2855.0</ele>
      </trkpt>
      <trkpt lat="36.774339230432" lon="-118.342771538197">
        <ele>2855.0</ele>
      </trkpt>
      <trkpt lat="36.77477" lon="-118.34311">
        <ele>2863.0</ele>
      </trkpt>
      <trkpt lat="36.77496" lon="-118.34323">
        <ele>2869.0</ele>
      </trkpt>
      <trkpt lat="36.77515" lon="-118.34327">
        <ele>2865.0</ele>
      </trkpt>
      <trkpt lat="36.77536" lon="-118.34322">
        <ele>2865.0</ele>
      </trkpt>
      <trkpt lat="36.77538" lon="-118.34325">
        <ele>2865.0</ele>
      </trkpt>
      <trkpt lat="36.77538" lon="-118.34325">
        <ele>2865.0</ele>
      </trkpt>
      <trkpt lat="36.77538" lon="-118.34325">
        <ele>2865.0</ele>
      </trkpt>
      <trkpt lat="36.77536" lon="-118.34328">
        <ele>2865.0</ele>
      </trkpt>
      <trkpt lat="36.77525" lon="-118.34333">
        <ele>2865.0</ele>
      </trkpt>
      <trkpt lat="36.77511" lon="-118.34343">
        <ele>2869.0</ele>
      </trkpt>
      <trkpt lat="36.77492" lon="-118.3435">
        <ele>2877.0</ele>
      </trkpt>
      <trkpt lat="36.77457" lon="-118.34345">
        <ele>2878.0</ele>
      </trkpt>
      <trkpt lat="36.77442" lon="-118.34357">
        <ele>2887.0</ele>
      </trkpt>
      <trkpt lat="36.77431" lon="-118.34356">
        <ele>2887.0</ele>
      </trkpt>
      <trkpt lat="36.77409" lon="-118.34338">
        <ele>2876.0</ele>
      </trkpt>
      <trkpt lat="36.77409" lon="-118.34338">
        <ele>2876.0</ele>
      </trkpt>
      <trkpt lat="36.77402" lon="-118.34335">
        <ele>2873.0</ele>
      </trkpt>
      <trkpt lat="36.77395" lon="-118.34339">
        <ele>2873.0</ele>
      </trkpt>
      <trkpt lat="36.77384" lon="-118.34387">
        <ele>2885.0</ele>
      </trkpt>
      <trkpt lat="36.77383" lon="-118.34411">
        <ele>2888.0</ele>
      </trkpt>
      <trkpt lat="36.77387" lon="-118.34458">
        <ele>2892.0</ele>
      </trkpt>
      <trkpt lat="36.77385" lon="-118.34466">
        <ele>2894.0</ele>
      </trkpt>
      <trkpt lat="36.77381" lon="-118.34466">
        <ele>2894.0</ele>
      </trkpt>
      <trkpt lat="36.77376" lon="-118.34462">
        <ele>2894.0</ele>
      </trkpt>
      <trkpt lat="36.77369" lon="-118.34473">
        <ele>2893.0</ele>
      </trkpt>
      <trkpt lat="36.77369" lon="-118.34473">
        <ele>2893.0</ele>
      </trkpt>
      <trkpt lat="36.7736" lon="-118.34497">
        <ele>2894.0</ele>
      </trkpt>
      <trkpt lat="36.7735" lon="-118.34512">
        <ele>2894.0</ele>
      </trkpt>
      <trkpt lat="36.77343" lon="-118.34514">
        <ele>2904.0</ele>
      </trkpt>
      <trkpt lat="36.77327" lon="-118.34509">
        <ele>2899.0</ele>
      </trkpt>
      <trkpt lat="36.77318" lon="-118.34514">
        <ele>2910.0</ele>
      </trkpt>
      <trkpt lat="36.77302" lon="-118.34499">
        <ele>2906.0</ele>
      </trkpt>
      <trkpt lat="36.77283" lon="-118.34473">
        <ele>2906.0</ele>
      </trkpt>
      <trkpt lat="36.77283" lon="-118.34473">
        <ele>2906.0</ele>
      </trkpt>
      <trkpt lat="36.77276" lon="-118.34462">
        <ele>2906.0</ele>
      </trkpt>
      <trkpt lat="36.77258" lon="-118.34445">
        <ele>2907.0</ele>
      </trkpt>
      <trkpt lat="36.77247" lon="-118.34438">
        <ele>2907.0</ele>
      </trkpt>
      <trkpt lat="36.77238" lon="-118.34439">
        <ele>2907.0</ele>
      </trkpt>
      <trkpt lat="36.77211" lon="-118.3445">
        <ele>2909.0</ele>
      </trkpt>
      <trkpt lat="36.77186" lon="-118.34467">
        <ele>2915.0</ele>
      </trkpt>
      <trkpt lat="36.77182" lon="-118.34473">
        <ele>2915.0</ele>
      </trkpt>
      <trkpt lat="36.77182" lon="-118.34473">
        <ele>2915.0</ele>
      </trkpt>
      <trkpt lat="36.77169" lon="-118.34497">
        <ele>2918.0</ele>
      </trkpt>
      <trkpt lat="36.77172" lon="-118.34498">
        <ele>2918.0</ele>
      </trkpt>
      <trkpt lat="36.7719" lon="-118.34481">
        <ele>2915.0</ele>
      </trkpt>
      <trkpt lat="36.77204" lon="-118.34477">
        <ele>2915.0</ele>
      </trkpt>
      <trkpt lat="36.77212" lon="-118.34478">
        <ele>2922.0</ele>
      </trkpt>
      <trkpt lat="36.77237" lon="-118.345">
        <ele>2925.0</ele>
      </trkpt>
      <trkpt lat="36.77234" lon="-118.34502">
        <ele>2927.0</ele>
      </trkpt>
      <trkpt lat="36.77229" lon="-118.345">
        <ele>2927.0</ele>
      </trkpt>
      <trkpt lat="36.7721" lon="-118.34503">
        <ele>2927.0</ele>
      </trkpt>
      <trkpt lat="36.77195" lon="-118.34512">
        <ele>2928.0</ele>
      </trkpt>
      <trkpt lat="36.77182" lon="-118.3454">
        <ele>2937.0</ele>
      </trkpt>
      <trkpt lat="36.77173" lon="-118.34576">
        <ele>2943.0</ele>
      </trkpt>
      <trkpt lat="36.77172" lon="-118.34597">
        <ele>2943.0</ele>
      </trkpt>
      <trkpt lat="36.77194" lon="-118.34566">
        <ele>2945.0</ele>
      </trkpt>
      <trkpt lat="36.77188" lon="-118.34586">
        <ele>2952.0</ele>
      </trkpt>
      <trkpt lat="36.77183" lon="-118.34616">
        <ele>2961.0</ele>
      </trkpt>
      <trkpt lat="36.77171" lon="-118.34649">
        <ele>2957.0</ele>
      </trkpt>
      <trkpt lat="36.77164" lon="-118.34684">
        <ele>2969.0</ele>
      </trkpt>
      <trkpt lat="36.7712" lon="-118.3481">
        <ele>2982.0</ele>
      </trkpt>
      <trkpt lat="36.77103" lon="-118.34828">
        <ele>2987.0</ele>
      </trkpt>
      <trkpt lat="36.77121" lon="-118.34823">
        <ele>2987.0</ele>
      </trkpt>
      <trkpt lat="36.77117" lon="-118.34832">
        <ele>2987.0</ele>
      </trkpt>
      <trkpt lat="36.77108" lon="-118.34837">
        <ele>2987.0</ele>
      </trkpt>
      <trkpt lat="36.77105" lon="-118.34842">
        <ele>2987.0</ele>
      </trkpt>
      <trkpt lat="36.77128" lon="-118.34838">
        <ele>2993.0</ele>
      </trkpt>
      <trkpt lat="36.77148" lon="-118.34822">
        <ele>2993.0</ele>
      </trkpt>
      <trkpt lat="36.77136" lon="-118.34852">
        <ele>3001.0</ele>
      </trkpt>
      <trkpt lat="36.77121" lon="-118.34864">
        <ele>2997.0</ele>
      </trkpt>
      <trkpt lat="36.77089" lon="-118.34868">
        <ele>2994.0</ele>
      </trkpt>
      <trkpt lat="36.7707" lon="-118.34874">
        <ele>2994.0</ele>
      </trkpt>
      <trkpt lat="36.77063" lon="-118.3488">
        <ele>3016.0</ele>
      </trkpt>
      <trkpt lat="36.7704864179284" lon="-118.348760841253">
        <ele>3016.0</ele>
      </trkpt>
      <trkpt lat="36.7704864179284" lon="-118.348760841253">
        <ele>3016.0</ele>
      </trkpt>
      <trkpt lat="36.77041" lon="-118.34874">
        <ele>3007.0</ele>
      </trkpt>
      <trkpt lat="36.7702" lon="-118.34864">
        <ele>3007.0</ele>
      </trkpt>
      <trkpt lat="36.77015" lon="-118.34866">
        <ele>3007.0</ele>
      </trkpt>
      <trkpt lat="36.77022" lon="-118.34881">
        <ele>3023.0</ele>
      </trkpt>
      <trkpt lat="36.77032" lon="-118.34892">
        <ele>3023.0</ele>
      </trkpt>
      <trkpt lat="36.77045" lon="-118.34893">
        <ele>3016.0</ele>
      </trkpt>
      <trkpt lat="36.77054" lon="-118.34897">
        <ele>3016.0</ele>
      </trkpt>
      <trkpt lat="36.77026" lon="-118.34903">
        <ele>3033.0</ele>
      </trkpt>
      <trkpt lat="36.76999" lon="-118.34903">
        <ele>3036.0</ele>
      </trkpt>
      <trkpt lat="36.77008" lon="-118.34913">
        <ele>3036.0</ele>
      </trkpt>
      <trkpt lat="36.77017" lon="-118.34917">
        <ele>3033.0</ele>
      </trkpt>
      <trkpt lat="36.77009" lon="-118.34921">
        <ele>3036.0</ele>
      </trkpt>
      <trkpt lat="36.77001" lon="-118.34922">
        <ele>3036.0</ele>
      </trkpt>
      <trkpt lat="36.76993" lon="-118.34928">
        <ele>3036.0</ele>
      </trkpt>
      <trkpt lat="36.77011" lon="-118.34937">
        <ele>3042.0</ele>
      </trkpt>
      <trkpt lat="36.77029" lon="-118.34931">
        <ele>3039.0</ele>
      </trkpt>
      <trkpt lat="36.77029" lon="-118.34933">
        <ele>3039.0</ele>
      </trkpt>
      <trkpt lat="36.7702" lon="-118.3494">
        <ele>3039.0</ele>
      </trkpt>
      <trkpt lat="36.77013" lon="-118.34951">
        <ele>3042.0</ele>
      </trkpt>
      <trkpt lat="36.76982" lon="-118.34973">
        <ele>3052.0</ele>
      </trkpt>
      <trkpt lat="36.77032" lon="-118.34968">
        <ele>3047.0</ele>
      </trkpt>
      <trkpt lat="36.77011" lon="-118.34996">
        <ele>3055.0</ele>
      </trkpt>
      <trkpt lat="36.7701" lon="-118.35028">
        <ele>3059.0</ele>
      </trkpt>
      <trkpt lat="36.77015" lon="-118.35032">
        <ele>3059.0</ele>
      </trkpt>
      <trkpt lat="36.7703" lon="-118.35021">
        <ele>3059.0</ele>
      </trkpt>
      <trkpt lat="36.77037" lon="-118.35013">
        <ele>3053.0</ele>
      </trkpt>
      <trkpt lat="36.77039" lon="-118.3502">
        <ele>3059.0</ele>
      </trkpt>
      <trkpt lat="36.77057" lon="-118.35006">
        <ele>3057.0</ele>
      </trkpt>
      <trkpt lat="36.77076" lon="-118.35">
        <ele>3063.0</ele>
      </trkpt>
      <trkpt lat="36.77085" lon="-118.35002">
        <ele>3063.0</ele>
      </trkpt>
      <trkpt lat="36.77089" lon="-118.3501">
        <ele>3063.0</ele>
      </trkpt>
      <trkpt lat="36.77117" lon="-118.35037">
        <ele>3073.0</ele>
      </trkpt>
      <trkpt lat="36.77083" lon="-118.35046">
        <ele>3077.0</ele>
      </trkpt>
      <trkpt lat="36.77085" lon="-118.35054">
        <ele>3077.0</ele>
      </trkpt>
      <trkpt lat="36.77096" lon="-118.35063">
        <ele>3077.0</ele>
      </trkpt>
      <trkpt lat="36.77105" lon="-118.3509">
        <ele>3084.0</ele>
      </trkpt>
      <trkpt lat="36.77118" lon="-118.35101">
        <ele>3088.0</ele>
      </trkpt>
      <trkpt lat="36.77142" lon="-118.351">
        <ele>3092.0</ele>
      </trkpt>
      <trkpt lat="36.77145" lon="-118.35103">
        <ele>3092.0</ele>
      </trkpt>
      <trkpt lat="36.77141" lon="-118.35111">
        <ele>3092.0</ele>
      </trkpt>
      <trkpt lat="36.77116" lon="-118.35137">
        <ele>3094.0</ele>
      </trkpt>
      <trkpt lat="36.77099" lon="-118.35149">
        <ele>3094.0</ele>
      </trkpt>
      <trkpt lat="36.77082" lon="-118.35164">
        <ele>3097.0</ele>
      </trkpt>
      <trkpt lat="36.77055" lon="-118.35178">
        <ele>3095.0</ele>
      </trkpt>
      <trkpt lat="36.7706" lon="-118.35186">
        <ele>3101.0</ele>
      </trkpt>
      <trkpt lat="36.77074" lon="-118.35186">
        <ele>3105.0</ele>
      </trkpt>
      <trkpt lat="36.7706" lon="-118.35205">
        <ele>3101.0</ele>
      </trkpt>
      <trkpt lat="36.77099" lon="-118.3519">
        <ele>3113.0</ele>
      </trkpt>
      <trkpt lat="36.77115" lon="-118.35188">
        <ele>3113.0</ele>
      </trkpt>
      <trkpt lat="36.77091" lon="-118.3521">
        <ele>3117.0</ele>
      </trkpt>
      <trkpt lat="36.77086" lon="-118.3523">
        <ele>3117.0</ele>
      </trkpt>
      <trkpt lat="36.77069" lon="-118.35245">
        <ele>3119.0</ele>
      </trkpt>
      <trkpt lat="36.77059" lon="-118.35264">
        <ele>3130.0</ele>
      </trkpt>
      <trkpt lat="36.77041" lon="-118.35276">
        <ele>3122.0</ele>
      </trkpt>
      <trkpt lat="36.77055" lon="-118.35274">
        <ele>3130.0</ele>
      </trkpt>
      <trkpt lat="36.7709" lon="-118.3526">
        <ele>3126.0</ele>
      </trkpt>
      <trkpt lat="36.77044" lon="-118.35309">
        <ele>3136.0</ele>
      </trkpt>
      <trkpt lat="36.7708" lon="-118.35302">
        <ele>3149.0</ele>
      </trkpt>
      <trkpt lat="36.77098" lon="-118.35305">
        <ele>3154.0</ele>
      </trkpt>
      <trkpt lat="36.77105" lon="-118.35301">
        <ele>3154.0</ele>
      </trkpt>
      <trkpt lat="36.77106" lon="-118.35307">
        <ele>3154.0</ele>
      </trkpt>
      <trkpt lat="36.77096" lon="-118.35317">
        <ele>3149.0</ele>
      </trkpt>
      <trkpt lat="36.77077" lon="-118.35328">
        <ele>3154.0</ele>
      </trkpt>
      <trkpt lat="36.77063" lon="-118.35356">
        <ele>3152.0</ele>
      </trkpt>
      <trkpt lat="36.77043" lon="-118.35372">
        <ele>3152.0</ele>
      </trkpt>
      <trkpt lat="36.77028" lon="-118.35405">
        <ele>3167.0</ele>
      </trkpt>
      <trkpt lat="36.77023" lon="-118.3543">
        <ele>3167.0</ele>
      </trkpt>
      <trkpt lat="36.77004" lon="-118.35472">
        <ele>3169.0</ele>
      </trkpt>
      <trkpt lat="36.77003" lon="-118.35501">
        <ele>3170.0</ele>
      </trkpt>
      <trkpt lat="36.77013" lon="-118.35517">
        <ele>3171.0</ele>
      </trkpt>
      <trkpt lat="36.77019" lon="-118.35535">
        <ele>3170.0</ele>
      </trkpt>
      <trkpt lat="36.77016" lon="-118.35561">
        <ele>3171.0</ele>
      </trkpt>
      <trkpt lat="36.7702" lon="-118.35581">
        <ele>3170.0</ele>
      </trkpt>
      <trkpt lat="36.77038" lon="-118.35603">
        <ele>3170.0</ele>
      </trkpt>
      <trkpt lat="36.77045" lon="-118.3562">
        <ele>3176.0</ele>
      </trkpt>
      <trkpt lat="36.77066" lon="-118.3564">
        <ele>3177.0</ele>
      </trkpt>
      <trkpt lat="36.77069" lon="-118.3566">
        <ele>3178.0</ele>
      </trkpt>
      <trkpt lat="36.77068" lon="-118.35675">
        <ele>3178.0</ele>
      </trkpt>
      <trkpt lat="36.77058" lon="-118.35695">
        <ele>3181.0</ele>
      </trkpt>
      <trkpt lat="36.77035" lon="-118.35716">
        <ele>3177.0</ele>
      </trkpt>
      <trkpt lat="36.77001" lon="-118.35737">
        <ele>3177.0</ele>
      </trkpt>
      <trkpt lat="36.76927" lon="-118.35855">
        <ele>3197.0</ele>
      </trkpt>
      <trkpt lat="36.76923" lon="-118.3589">
        <ele>3204.0</ele>
      </trkpt>
      <trkpt lat="36.76913" lon="-118.35905">
        <ele>3207.0</ele>
      </trkpt>
      <trkpt lat="36.7691321401523" lon="-118.359109924264">
        <ele>3207.0</ele>
      </trkpt>
      <trkpt lat="36.7691321401523" lon="-118.359109924264">
        <ele>3207.0</ele>
      </trkpt>
      <trkpt lat="36.7691327438767" lon="-118.359126828549">
        <ele>3207.0</ele>
      </trkpt>
      <trkpt lat="36.7691327438767" lon="-118.359126828549">
        <ele>3207.0</ele>
      </trkpt>
      <trkpt lat="36.7691321401523" lon="-118.359109924264">
        <ele>3207.0</ele>
      </trkpt>
      <trkpt lat="36.76913" lon="-118.35911">
        <ele>3207.0</ele>
      </trkpt>
      <trkpt lat="36.76895" lon="-118.35908">
        <ele>3206.0</ele>
      </trkpt>
      <trkpt lat="36.76854" lon="-118.35914">
        <ele>3206.0</ele>
      </trkpt>
      <trkpt lat="36.7685102074645" lon="-118.359133124799">
        <ele>3206.0</ele>
      </trkpt>
      <trkpt lat="36.7685102074645" lon="-118.359133124799">
        <ele>3206.0</ele>
      </trkpt>
      <trkpt lat="36.76854" lon="-118.35914">
        <ele>3206.0</ele>
      </trkpt>
      <trkpt lat="36.76895" lon="-118.35908">
        <ele>3206.0</ele>
      </trkpt>
      <trkpt lat="36.76913" lon="-118.35911">
        <ele>3207.0</ele>
      </trkpt>
      <trkpt lat="36.7691321401523" lon="-118.359109924264">
        <ele>3207.0</ele>
      </trkpt>
      <trkpt lat="36.76913" lon="-118.35905">
        <ele>3207.0</ele>
      </trkpt>
      <trkpt lat="36.76923" lon="-118.3589">
        <ele>3204.0</ele>
      </trkpt>
      <trkpt lat="36.76927" lon="-118.35855">
        <ele>3197.0</ele>
      </trkpt>
      <trkpt lat="36.77001" lon="-118.35737">
        <ele>3177.0</ele>
      </trkpt>
      <trkpt lat="36.77035" lon="-118.35716">
        <ele>3177.0</ele>
      </trkpt>
      <trkpt lat="36.77058" lon="-118.35695">
        <ele>3181.0</ele>
      </trkpt>
      <trkpt lat="36.77068" lon="-118.35675">
        <ele>3178.0</ele>
      </trkpt>
      <trkpt lat="36.77069" lon="-118.3566">
        <ele>3178.0</ele>
      </trkpt>
      <trkpt lat="36.77066" lon="-118.3564">
        <ele>3177.0</ele>
      </trkpt>
      <trkpt lat="36.77045" lon="-118.3562">
        <ele>3176.0</ele>
      </trkpt>
      <trkpt lat="36.77038" lon="-118.35603">
        <ele>3170.0</ele>
      </trkpt>
      <trkpt lat="36.7702" lon="-118.35581">
        <ele>3170.0</ele>
      </trkpt>
      <trkpt lat="36.77016" lon="-118.35561">
        <ele>3171.0</ele>
      </trkpt>
      <trkpt lat="36.77019" lon="-118.35535">
        <ele>3170.0</ele>
      </trkpt>
      <trkpt lat="36.77013" lon="-118.35517">
        <ele>3171.0</ele>
      </trkpt>
      <trkpt lat="36.77003" lon="-118.35501">
        <ele>3170.0</ele>
      </trkpt>
      <trkpt lat="36.77004" lon="-118.35472">
        <ele>3169.0</ele>
      </trkpt>
      <trkpt lat="36.77023" lon="-118.3543">
        <ele>3167.0</ele>
      </trkpt>
      <trkpt lat="36.77028" lon="-118.35405">
        <ele>3167.0</ele>
      </trkpt>
      <trkpt lat="36.77043" lon="-118.35372">
        <ele>3152.0</ele>
      </trkpt>
      <trkpt lat="36.77063" lon="-118.35356">
        <ele>3152.0</ele>
      </trkpt>
      <trkpt lat="36.77077" lon="-118.35328">
        <ele>3154.0</ele>
      </trkpt>
      <trkpt lat="36.77096" lon="-118.35317">
        <ele>3149.0</ele>
      </trkpt>
      <trkpt lat="36.77106" lon="-118.35307">
        <ele>3154.0</ele>
      </trkpt>
      <trkpt lat="36.77105" lon="-118.35301">
        <ele>3154.0</ele>
      </trkpt>
      <trkpt lat="36.77098" lon="-118.35305">
        <ele>3154.0</ele>
      </trkpt>
      <trkpt lat="36.7708" lon="-118.35302">
        <ele>3149.0</ele>
      </trkpt>
      <trkpt lat="36.77044" lon="-118.35309">
        <ele>3136.0</ele>
      </trkpt>
      <trkpt lat="36.7709" lon="-118.3526">
        <ele>3126.0</ele>
      </trkpt>
      <trkpt lat="36.77055" lon="-118.35274">
        <ele>3130.0</ele>
      </trkpt>
      <trkpt lat="36.77041" lon="-118.35276">
        <ele>3122.0</ele>
      </trkpt>
      <trkpt lat="36.77059" lon="-118.35264">
        <ele>3130.0</ele>
      </trkpt>
      <trkpt lat="36.77069" lon="-118.35245">
        <ele>3119.0</ele>
      </trkpt>
      <trkpt lat="36.77086" lon="-118.3523">
        <ele>3117.0</ele>
      </trkpt>
      <trkpt lat="36.77091" lon="-118.3521">
        <ele>3117.0</ele>
      </trkpt>
      <trkpt lat="36.77115" lon="-118.35188">
        <ele>3113.0</ele>
      </trkpt>
      <trkpt lat="36.77099" lon="-118.3519">
        <ele>3113.0</ele>
      </trkpt>
      <trkpt lat="36.7706" lon="-118.35205">
        <ele>3101.0</ele>
      </trkpt>
      <trkpt lat="36.77074" lon="-118.35186">
        <ele>3105.0</ele>
      </trkpt>
      <trkpt lat="36.7706" lon="-118.35186">
        <ele>3101.0</ele>
      </trkpt>
      <trkpt lat="36.77055" lon="-118.35178">
        <ele>3095.0</ele>
      </trkpt>
      <trkpt lat="36.77082" lon="-118.35164">
        <ele>3097.0</ele>
      </trkpt>
      <trkpt lat="36.77099" lon="-118.35149">
        <ele>3094.0</ele>
      </trkpt>
      <trkpt lat="36.77116" lon="-118.35137">
        <ele>3094.0</ele>
      </trkpt>
      <trkpt lat="36.77141" lon="-118.35111">
        <ele>3092.0</ele>
      </trkpt>
      <trkpt lat="36.77145" lon="-118.35103">
        <ele>3092.0</ele>
      </trkpt>
      <trkpt lat="36.77142" lon="-118.351">
        <ele>3092.0</ele>
      </trkpt>
      <trkpt lat="36.77118" lon="-118.35101">
        <ele>3088.0</ele>
      </trkpt>
      <trkpt lat="36.77105" lon="-118.3509">
        <ele>3084.0</ele>
      </trkpt>
      <trkpt lat="36.77096" lon="-118.35063">
        <ele>3077.0</ele>
      </trkpt>
      <trkpt lat="36.77085" lon="-118.35054">
        <ele>3077.0</ele>
      </trkpt>
      <trkpt lat="36.77083" lon="-118.35046">
        <ele>3077.0</ele>
      </trkpt>
      <trkpt lat="36.77117" lon="-118.35037">
        <ele>3073.0</ele>
      </trkpt>
      <trkpt lat="36.77089" lon="-118.3501">
        <ele>3063.0</ele>
      </trkpt>
      <trkpt lat="36.77085" lon="-118.35002">
        <ele>3063.0</ele>
      </trkpt>
      <trkpt lat="36.77076" lon="-118.35">
        <ele>3063.0</ele>
      </trkpt>
      <trkpt lat="36.77057" lon="-118.35006">
        <ele>3057.0</ele>
      </trkpt>
      <trkpt lat="36.77039" lon="-118.3502">
        <ele>3059.0</ele>
      </trkpt>
      <trkpt lat="36.77037" lon="-118.35013">
        <ele>3053.0</ele>
      </trkpt>
      <trkpt lat="36.7703" lon="-118.35021">
        <ele>3059.0</ele>
      </trkpt>
      <trkpt lat="36.77015" lon="-118.35032">
        <ele>3059.0</ele>
      </trkpt>
      <trkpt lat="36.7701" lon="-118.35028">
        <ele>3059.0</ele>
      </trkpt>
      <trkpt lat="36.77011" lon="-118.34996">
        <ele>3055.0</ele>
      </trkpt>
      <trkpt lat="36.77032" lon="-118.34968">
        <ele>3047.0</ele>
      </trkpt>
      <trkpt lat="36.76982" lon="-118.34973">
        <ele>3052.0</ele>
      </trkpt>
      <trkpt lat="36.7700863560165" lon="-118.34954097315">
        <ele>3042.0</ele>
      </trkpt>
      <trkpt lat="36.7700863560165" lon="-118.34954097315">
        <ele>3042.0</ele>
      </trkpt>
      <trkpt lat="36.77013" lon="-118.34951">
        <ele>3042.0</ele>
      </trkpt>
      <trkpt lat="36.7702" lon="-118.3494">
        <ele>3039.0</ele>
      </trkpt>
      <trkpt lat="36.77029" lon="-118.34933">
        <ele>3039.0</ele>
      </trkpt>
      <trkpt lat="36.77029" lon="-118.34931">
        <ele>3039.0</ele>
      </trkpt>
      <trkpt lat="36.77011" lon="-118.34937">
        <ele>3042.0</ele>
      </trkpt>
      <trkpt lat="36.76993" lon="-118.34928">
        <ele>3036.0</ele>
      </trkpt>
      <trkpt lat="36.77001" lon="-118.34922">
        <ele>3036.0</ele>
      </trkpt>
      <trkpt lat="36.77009" lon="-118.34921">
        <ele>3036.0</ele>
      </trkpt>
      <trkpt lat="36.77017" lon="-118.34917">
        <ele>3033.0</ele>
      </trkpt>
      <trkpt lat="36.77008" lon="-118.34913">
        <ele>3036.0</ele>
      </trkpt>
      <trkpt lat="36.76999" lon="-118.34903">
        <ele>3036.0</ele>
      </trkpt>
      <trkpt lat="36.77026" lon="-118.34903">
        <ele>3033.0</ele>
      </trkpt>
      <trkpt lat="36.77054" lon="-118.34897">
        <ele>3016.0</ele>
      </trkpt>
      <trkpt lat="36.77045" lon="-118.34893">
        <ele>3016.0</ele>
      </trkpt>
      <trkpt lat="36.77032" lon="-118.34892">
        <ele>3023.0</ele>
      </trkpt>
      <trkpt lat="36.77022" lon="-118.34881">
        <ele>3023.0</ele>
      </trkpt>
      <trkpt lat="36.77015" lon="-118.34866">
        <ele>3007.0</ele>
      </trkpt>
      <trkpt lat="36.7702" lon="-118.34864">
        <ele>3007.0</ele>
      </trkpt>
      <trkpt lat="36.77041" lon="-118.34874">
        <ele>3007.0</ele>
      </trkpt>
      <trkpt lat="36.77063" lon="-118.3488">
        <ele>3016.0</ele>
      </trkpt>
      <trkpt lat="36.7707" lon="-118.34874">
        <ele>2994.0</ele>
      </trkpt>
      <trkpt lat="36.77089" lon="-118.34868">
        <ele>2994.0</ele>
      </trkpt>
      <trkpt lat="36.77121" lon="-118.34864">
        <ele>2997.0</ele>
      </trkpt>
      <trkpt lat="36.77136" lon="-118.34852">
        <ele>3001.0</ele>
      </trkpt>
      <trkpt lat="36.77148" lon="-118.34822">
        <ele>2993.0</ele>
      </trkpt>
      <trkpt lat="36.77128" lon="-118.34838">
        <ele>2993.0</ele>
      </trkpt>
      <trkpt lat="36.77105" lon="-118.34842">
        <ele>2987.0</ele>
      </trkpt>
      <trkpt lat="36.77108" lon="-118.34837">
        <ele>2987.0</ele>
      </trkpt>
      <trkpt lat="36.77117" lon="-118.34832">
        <ele>2987.0</ele>
      </trkpt>
      <trkpt lat="36.77121" lon="-118.34823">
        <ele>2987.0</ele>
      </trkpt>
      <trkpt lat="36.77103" lon="-118.34828">
        <ele>2987.0</ele>
      </trkpt>
      <trkpt lat="36.7712" lon="-118.3481">
        <ele>2982.0</ele>
      </trkpt>
      <trkpt lat="36.77164" lon="-118.34684">
        <ele>2969.0</ele>
      </trkpt>
      <trkpt lat="36.77171" lon="-118.34649">
        <ele>2957.0</ele>
      </trkpt>
      <trkpt lat="36.77183" lon="-118.34616">
        <ele>2961.0</ele>
      </trkpt>
      <trkpt lat="36.77188" lon="-118.34586">
        <ele>2952.0</ele>
      </trkpt>
      <trkpt lat="36.77194" lon="-118.34566">
        <ele>2945.0</ele>
      </trkpt>
      <trkpt lat="36.77172" lon="-118.34597">
        <ele>2943.0</ele>
      </trkpt>
      <trkpt lat="36.77173" lon="-118.34576">
        <ele>2943.0</ele>
      </trkpt>
      <trkpt lat="36.77182" lon="-118.3454">
        <ele>2937.0</ele>
      </trkpt>
      <trkpt lat="36.77195" lon="-118.34512">
        <ele>2928.0</ele>
      </trkpt>
      <trkpt lat="36.7721" lon="-118.34503">
        <ele>2927.0</ele>
      </trkpt>
      <trkpt lat="36.77229" lon="-118.345">
        <ele>2927.0</ele>
      </trkpt>
      <trkpt lat="36.77234" lon="-118.34502">
        <ele>2927.0</ele>
      </trkpt>
      <trkpt lat="36.77237" lon="-118.345">
        <ele>2925.0</ele>
      </trkpt>
      <trkpt lat="36.77212" lon="-118.34478">
        <ele>2922.0</ele>
      </trkpt>
      <trkpt lat="36.77204" lon="-118.34477">
        <ele>2915.0</ele>
      </trkpt>
      <trkpt lat="36.7719" lon="-118.34481">
        <ele>2915.0</ele>
      </trkpt>
      <trkpt lat="36.77172" lon="-118.34498">
        <ele>2918.0</ele>
      </trkpt>
      <trkpt lat="36.77169" lon="-118.34497">
        <ele>2918.0</ele>
      </trkpt>
      <trkpt lat="36.77182" lon="-118.34473">
        <ele>2915.0</ele>
      </trkpt>
      <trkpt lat="36.77182" lon="-118.34473">
        <ele>2915.0</ele>
      </trkpt>
      <trkpt lat="36.77186" lon="-118.34467">
        <ele>2915.0</ele>
      </trkpt>
      <trkpt lat="36.77211" lon="-118.3445">
        <ele>2909.0</ele>
      </trkpt>
      <trkpt lat="36.77238" lon="-118.34439">
        <ele>2907.0</ele>
      </trkpt>
      <trkpt lat="36.77247" lon="-118.34438">
        <ele>2907.0</ele>
      </trkpt>
      <trkpt lat="36.77258" lon="-118.34445">
        <ele>2907.0</ele>
      </trkpt>
      <trkpt lat="36.77276" lon="-118.34462">
        <ele>2906.0</ele>
      </trkpt>
      <trkpt lat="36.77283" lon="-118.34473">
        <ele>2906.0</ele>
      </trkpt>
      <trkpt lat="36.77283" lon="-118.34473">
        <ele>2906.0</ele>
      </trkpt>
      <trkpt lat="36.77302" lon="-118.34499">
        <ele>2906.0</ele>
      </trkpt>
      <trkpt lat="36.77318" lon="-118.34514">
        <ele>2910.0</ele>
      </trkpt>
      <trkpt lat="36.77327" lon="-118.34509">
        <ele>2899.0</ele>
      </trkpt>
      <trkpt lat="36.77343" lon="-118.34514">
        <ele>2904.0</ele>
      </trkpt>
      <trkpt lat="36.7735" lon="-118.34512">
        <ele>2894.0</ele>
      </trkpt>
      <trkpt lat="36.7736" lon="-118.34497">
        <ele>2894.0</ele>
      </trkpt>
      <trkpt lat="36.77369" lon="-118.34473">
        <ele>2893.0</ele>
      </trkpt>
      <trkpt lat="36.77369" lon="-118.34473">
        <ele>2893.0</ele>
      </trkpt>
      <trkpt lat="36.77376" lon="-118.34462">
        <ele>2894.0</ele>
      </trkpt>
      <trkpt lat="36.77381" lon="-118.34466">
        <ele>2894.0</ele>
      </trkpt>
      <trkpt lat="36.77385" lon="-118.34466">
        <ele>2894.0</ele>
      </trkpt>
      <trkpt lat="36.77387" lon="-118.34458">
        <ele>2892.0</ele>
      </trkpt>
      <trkpt lat="36.77383" lon="-118.34411">
        <ele>2888.0</ele>
      </trkpt>
      <trkpt lat="36.77384" lon="-118.34387">
        <ele>2885.0</ele>
      </trkpt>
      <trkpt lat="36.77395" lon="-118.34339">
        <ele>2873.0</ele>
      </trkpt>
      <trkpt lat="36.77402" lon="-118.34335">
        <ele>2873.0</ele>
      </trkpt>
      <trkpt lat="36.77409" lon="-118.34338">
        <ele>2876.0</ele>
      </trkpt>
      <trkpt lat="36.77409" lon="-118.34338">
        <ele>2876.0</ele>
      </trkpt>
      <trkpt lat="36.77431" lon="-118.34356">
        <ele>2887.0</ele>
      </trkpt>
      <trkpt lat="36.77442" lon="-118.34357">
        <ele>2887.0</ele>
      </trkpt>
      <trkpt lat="36.77457" lon="-118.34345">
        <ele>2878.0</ele>
      </trkpt>
      <trkpt lat="36.77492" lon="-118.3435">
        <ele>2877.0</ele>
      </trkpt>
      <trkpt lat="36.77511" lon="-118.34343">
        <ele>2869.0</ele>
      </trkpt>
      <trkpt lat="36.77525" lon="-118.34333">
        <ele>2865.0</ele>
      </trkpt>
      <trkpt lat="36.77536" lon="-118.34328">
        <ele>2865.0</ele>
      </trkpt>
      <trkpt lat="36.77538" lon="-118.34325">
        <ele>2865.0</ele>
      </trkpt>
      <trkpt lat="36.77538" lon="-118.34325">
        <ele>2865.0</ele>
      </trkpt>
      <trkpt lat="36.77538" lon="-118.34325">
        <ele>2865.0</ele>
      </trkpt>
      <trkpt lat="36.77536" lon="-118.34322">
        <ele>2865.0</ele>
      </trkpt>
      <trkpt lat="36.77515" lon="-118.34327">
        <ele>2865.0</ele>
      </trkpt>
      <trkpt lat="36.77496" lon="-118.34323">
        <ele>2869.0</ele>
      </trkpt>
      <trkpt lat="36.77477" lon="-118.34311">
        <ele>2863.0</ele>
      </trkpt>
      <trkpt lat="36.774339230432" lon="-118.342771538197">
        <ele>2855.0</ele>
      </trkpt>
      <trkpt lat="36.774339230432" lon="-118.342771538197">
        <ele>2855.0</ele>
      </trkpt>
      <trkpt lat="36.77421" lon="-118.34267">
        <ele>2855.0</ele>
      </trkpt>
      <trkpt lat="36.77409" lon="-118.34253">
        <ele>2847.0</ele>
      </trkpt>
      <trkpt lat="36.77409" lon="-118.34253">
        <ele>2847.0</ele>
      </trkpt>
      <trkpt lat="36.77399" lon="-118.34229">
        <ele>2835.0</ele>
      </trkpt>
      <trkpt lat="36.77388" lon="-118.34213">
        <ele>2835.0</ele>
      </trkpt>
      <trkpt lat="36.77378" lon="-118.34206">
        <ele>2828.0</ele>
      </trkpt>
      <trkpt lat="36.77373" lon="-118.3421">
        <ele>2830.0</ele>
      </trkpt>
      <trkpt lat="36.77365" lon="-118.34221">
        <ele>2830.0</ele>
      </trkpt>
      <trkpt lat="36.77351" lon="-118.34221">
        <ele>2830.0</ele>
      </trkpt>
      <trkpt lat="36.77342" lon="-118.34211">
        <ele>2828.0</ele>
      </trkpt>
      <trkpt lat="36.7733898546033" lon="-118.342125072698">
        <ele>2828.0</ele>
      </trkpt>
      <trkpt lat="36.77336" lon="-118.34214">
        <ele>2828.0</ele>
      </trkpt>
      <trkpt lat="36.77305" lon="-118.34219">
        <ele>2823.0</ele>
      </trkpt>
      <trkpt lat="36.77281" lon="-118.34228">
        <ele>2817.0</ele>
      </trkpt>
      <trkpt lat="36.77267" lon="-118.34236">
        <ele>2817.0</ele>
      </trkpt>
      <trkpt lat="36.77237" lon="-118.3423">
        <ele>2817.0</ele>
      </trkpt>
      <trkpt lat="36.77184" lon="-118.34231">
        <ele>2813.0</ele>
      </trkpt>
      <trkpt lat="36.77162" lon="-118.34227">
        <ele>2812.0</ele>
      </trkpt>
      <trkpt lat="36.77182" lon="-118.34217">
        <ele>2813.0</ele>
      </trkpt>
      <trkpt lat="36.77234" lon="-118.34177">
        <ele>2801.0</ele>
      </trkpt>
      <trkpt lat="36.7724306077829" lon="-118.341498176651">
        <ele>2797.0</ele>
      </trkpt>
      <trkpt lat="36.7724306077829" lon="-118.341498176651">
        <ele>2797.0</ele>
      </trkpt>
      <trkpt lat="36.77252" lon="-118.34123">
        <ele>2796.0</ele>
      </trkpt>
      <trkpt lat="36.7725" lon="-118.34112">
        <ele>2796.0</ele>
      </trkpt>
      <trkpt lat="36.7725" lon="-118.34112">
        <ele>2796.0</ele>
      </trkpt>
      <trkpt lat="36.7725" lon="-118.34112">
        <ele>2796.0</ele>
      </trkpt>
      <trkpt lat="36.77233" lon="-118.34121">
        <ele>2796.0</ele>
      </trkpt>
      <trkpt lat="36.77219" lon="-118.34122">
        <ele>2796.0</ele>
      </trkpt>
      <trkpt lat="36.77209" lon="-118.3412">
        <ele>2796.0</ele>
      </trkpt>
      <trkpt lat="36.7719780936527" lon="-118.341144046826">
        <ele>2797.0</ele>
      </trkpt>
    </trkseg>
  </trk>
</gpx>
