<?xml version="1.0" encoding="UTF-8"?>
<gpx xmlns:xsi="http://www.w3.org/2001/XMLSchema-instance" version="1.1" creator="The Outbound Collective, Inc. 1.1.1 -- https://www.theoutbound.com" xsi:schemaLocation="http://www.topografix.com/GPX/1/1 http://www.topografix.com/GPX/1/1/gpx.xsd">
  <metadata>
    <name/>
    <time>2026-02-19T21:49:56+00:00</time>
    <bound minlat="37.91077" minlon="-122.63499" maxlat="37.94487" maxlon="-122.6124"/>
  </metadata>
  <trk>
    <name/>
    <trkseg>
      <trkpt lat="37.9108202637901" lon="-122.612743377686">
        <ele>611.0</ele>
      </trkpt>
      <trkpt lat="37.9108222518925" lon="-122.612739188919">
        <ele>611.0</ele>
      </trkpt>
      <trkpt lat="37.91089" lon="-122.61279">
        <ele>611.0</ele>
      </trkpt>
      <trkpt lat="37.91089" lon="-122.61279">
        <ele>611.0</ele>
      </trkpt>
      <trkpt lat="37.91089" lon="-122.61279">
        <ele>611.0</ele>
      </trkpt>
      <trkpt lat="37.91148" lon="-122.61309">
        <ele>610.0</ele>
      </trkpt>
      <trkpt lat="37.91177" lon="-122.61336">
        <ele>606.0</ele>
      </trkpt>
      <trkpt lat="37.91177" lon="-122.61336">
        <ele>606.0</ele>
      </trkpt>
      <trkpt lat="37.91181" lon="-122.61346">
        <ele>602.0</ele>
      </trkpt>
      <trkpt lat="37.91184" lon="-122.61365">
        <ele>601.0</ele>
      </trkpt>
      <trkpt lat="37.91179" lon="-122.61398">
        <ele>602.0</ele>
      </trkpt>
      <trkpt lat="37.91169" lon="-122.61417">
        <ele>600.0</ele>
      </trkpt>
      <trkpt lat="37.91155" lon="-122.6143">
        <ele>600.0</ele>
      </trkpt>
      <trkpt lat="37.91144" lon="-122.61448">
        <ele>598.0</ele>
      </trkpt>
      <trkpt lat="37.9114" lon="-122.61476">
        <ele>594.0</ele>
      </trkpt>
      <trkpt lat="37.91142" lon="-122.61498">
        <ele>594.0</ele>
      </trkpt>
      <trkpt lat="37.91154" lon="-122.61517">
        <ele>592.0</ele>
      </trkpt>
      <trkpt lat="37.9115422730786" lon="-122.615222280809">
        <ele>592.0</ele>
      </trkpt>
      <trkpt lat="37.9115422730786" lon="-122.615222280809">
        <ele>592.0</ele>
      </trkpt>
      <trkpt lat="37.91155" lon="-122.6154">
        <ele>592.0</ele>
      </trkpt>
      <trkpt lat="37.91194" lon="-122.61607">
        <ele>599.0</ele>
      </trkpt>
      <trkpt lat="37.91212" lon="-122.61613">
        <ele>599.0</ele>
      </trkpt>
      <trkpt lat="37.91229" lon="-122.61615">
        <ele>599.0</ele>
      </trkpt>
      <trkpt lat="37.91234" lon="-122.61619">
        <ele>599.0</ele>
      </trkpt>
      <trkpt lat="37.91245" lon="-122.61637">
        <ele>597.0</ele>
      </trkpt>
      <trkpt lat="37.9126" lon="-122.61654">
        <ele>595.0</ele>
      </trkpt>
      <trkpt lat="37.91271" lon="-122.61676">
        <ele>598.0</ele>
      </trkpt>
      <trkpt lat="37.91284" lon="-122.6169">
        <ele>595.0</ele>
      </trkpt>
      <trkpt lat="37.91299" lon="-122.61713">
        <ele>590.0</ele>
      </trkpt>
      <trkpt lat="37.9131" lon="-122.61753">
        <ele>591.0</ele>
      </trkpt>
      <trkpt lat="37.9132" lon="-122.61769">
        <ele>593.0</ele>
      </trkpt>
      <trkpt lat="37.91318" lon="-122.6178">
        <ele>591.0</ele>
      </trkpt>
      <trkpt lat="37.9132" lon="-122.61805">
        <ele>593.0</ele>
      </trkpt>
      <trkpt lat="37.91326" lon="-122.61821">
        <ele>592.0</ele>
      </trkpt>
      <trkpt lat="37.91334" lon="-122.61831">
        <ele>592.0</ele>
      </trkpt>
      <trkpt lat="37.91332" lon="-122.61854">
        <ele>596.0</ele>
      </trkpt>
      <trkpt lat="37.91341" lon="-122.61877">
        <ele>600.0</ele>
      </trkpt>
      <trkpt lat="37.91351" lon="-122.61913">
        <ele>597.0</ele>
      </trkpt>
      <trkpt lat="37.91373" lon="-122.61954">
        <ele>602.0</ele>
      </trkpt>
      <trkpt lat="37.91406" lon="-122.62005">
        <ele>595.0</ele>
      </trkpt>
      <trkpt lat="37.91414" lon="-122.62022">
        <ele>590.0</ele>
      </trkpt>
      <trkpt lat="37.91419" lon="-122.62047">
        <ele>588.0</ele>
      </trkpt>
      <trkpt lat="37.91425" lon="-122.62094">
        <ele>586.0</ele>
      </trkpt>
      <trkpt lat="37.91421" lon="-122.62138">
        <ele>582.0</ele>
      </trkpt>
      <trkpt lat="37.91426" lon="-122.62163">
        <ele>580.0</ele>
      </trkpt>
      <trkpt lat="37.91441" lon="-122.62186">
        <ele>571.0</ele>
      </trkpt>
      <trkpt lat="37.91473" lon="-122.62208">
        <ele>571.0</ele>
      </trkpt>
      <trkpt lat="37.91485" lon="-122.62226">
        <ele>575.0</ele>
      </trkpt>
      <trkpt lat="37.91508" lon="-122.62233">
        <ele>575.0</ele>
      </trkpt>
      <trkpt lat="37.9156" lon="-122.62263">
        <ele>571.0</ele>
      </trkpt>
      <trkpt lat="37.91593" lon="-122.62268">
        <ele>577.0</ele>
      </trkpt>
      <trkpt lat="37.91622" lon="-122.62276">
        <ele>577.0</ele>
      </trkpt>
      <trkpt lat="37.91636" lon="-122.62285">
        <ele>577.0</ele>
      </trkpt>
      <trkpt lat="37.91665" lon="-122.62289">
        <ele>576.0</ele>
      </trkpt>
      <trkpt lat="37.9168" lon="-122.62308">
        <ele>577.0</ele>
      </trkpt>
      <trkpt lat="37.91693" lon="-122.62316">
        <ele>581.0</ele>
      </trkpt>
      <trkpt lat="37.91698" lon="-122.62317">
        <ele>581.0</ele>
      </trkpt>
      <trkpt lat="37.91708" lon="-122.62334">
        <ele>579.0</ele>
      </trkpt>
      <trkpt lat="37.91722" lon="-122.62338">
        <ele>579.0</ele>
      </trkpt>
      <trkpt lat="37.91719" lon="-122.62354">
        <ele>577.0</ele>
      </trkpt>
      <trkpt lat="37.91731" lon="-122.62405">
        <ele>576.0</ele>
      </trkpt>
      <trkpt lat="37.91749" lon="-122.624">
        <ele>577.0</ele>
      </trkpt>
      <trkpt lat="37.91763" lon="-122.624">
        <ele>577.0</ele>
      </trkpt>
      <trkpt lat="37.91782" lon="-122.62411">
        <ele>573.0</ele>
      </trkpt>
      <trkpt lat="37.91803" lon="-122.6241">
        <ele>573.0</ele>
      </trkpt>
      <trkpt lat="37.91815" lon="-122.62425">
        <ele>573.0</ele>
      </trkpt>
      <trkpt lat="37.91828" lon="-122.62435">
        <ele>571.0</ele>
      </trkpt>
      <trkpt lat="37.91831" lon="-122.62445">
        <ele>571.0</ele>
      </trkpt>
      <trkpt lat="37.9183214617664" lon="-122.624454584707">
        <ele>571.0</ele>
      </trkpt>
      <trkpt lat="37.9183214617664" lon="-122.624454584707">
        <ele>571.0</ele>
      </trkpt>
      <trkpt lat="37.91846" lon="-122.62451">
        <ele>571.0</ele>
      </trkpt>
      <trkpt lat="37.91858" lon="-122.62463">
        <ele>569.0</ele>
      </trkpt>
      <trkpt lat="37.91866" lon="-122.62465">
        <ele>569.0</ele>
      </trkpt>
      <trkpt lat="37.9188" lon="-122.62481">
        <ele>568.0</ele>
      </trkpt>
      <trkpt lat="37.9188" lon="-122.62481">
        <ele>568.0</ele>
      </trkpt>
      <trkpt lat="37.91897" lon="-122.62498">
        <ele>565.0</ele>
      </trkpt>
      <trkpt lat="37.91918" lon="-122.62515">
        <ele>555.0</ele>
      </trkpt>
      <trkpt lat="37.91961" lon="-122.62521">
        <ele>552.0</ele>
      </trkpt>
      <trkpt lat="37.92002" lon="-122.62539">
        <ele>549.0</ele>
      </trkpt>
      <trkpt lat="37.92023" lon="-122.62543">
        <ele>547.0</ele>
      </trkpt>
      <trkpt lat="37.92055" lon="-122.62555">
        <ele>546.0</ele>
      </trkpt>
      <trkpt lat="37.92087" lon="-122.62591">
        <ele>545.0</ele>
      </trkpt>
      <trkpt lat="37.92125" lon="-122.62605">
        <ele>543.0</ele>
      </trkpt>
      <trkpt lat="37.92145" lon="-122.62616">
        <ele>544.0</ele>
      </trkpt>
      <trkpt lat="37.92166" lon="-122.62623">
        <ele>543.0</ele>
      </trkpt>
      <trkpt lat="37.9218" lon="-122.62623">
        <ele>543.0</ele>
      </trkpt>
      <trkpt lat="37.92187" lon="-122.62619">
        <ele>542.0</ele>
      </trkpt>
      <trkpt lat="37.9219435919729" lon="-122.626105086185">
        <ele>542.0</ele>
      </trkpt>
      <trkpt lat="37.9219435919729" lon="-122.626105086185">
        <ele>542.0</ele>
      </trkpt>
      <trkpt lat="37.922" lon="-122.62604">
        <ele>542.0</ele>
      </trkpt>
      <trkpt lat="37.9221" lon="-122.62603">
        <ele>543.0</ele>
      </trkpt>
      <trkpt lat="37.92237" lon="-122.62646">
        <ele>538.0</ele>
      </trkpt>
      <trkpt lat="37.92247" lon="-122.62652">
        <ele>538.0</ele>
      </trkpt>
      <trkpt lat="37.92275" lon="-122.62657">
        <ele>540.0</ele>
      </trkpt>
      <trkpt lat="37.92304" lon="-122.62655">
        <ele>544.0</ele>
      </trkpt>
      <trkpt lat="37.92315" lon="-122.62659">
        <ele>544.0</ele>
      </trkpt>
      <trkpt lat="37.92335" lon="-122.6267">
        <ele>544.0</ele>
      </trkpt>
      <trkpt lat="37.9233555941853" lon="-122.626709789824">
        <ele>544.0</ele>
      </trkpt>
      <trkpt lat="37.9233555941853" lon="-122.626709789824">
        <ele>544.0</ele>
      </trkpt>
      <trkpt lat="37.92339" lon="-122.62677">
        <ele>544.0</ele>
      </trkpt>
      <trkpt lat="37.92342" lon="-122.62695">
        <ele>534.0</ele>
      </trkpt>
      <trkpt lat="37.92342" lon="-122.62695">
        <ele>534.0</ele>
      </trkpt>
      <trkpt lat="37.9234" lon="-122.62742">
        <ele>534.0</ele>
      </trkpt>
      <trkpt lat="37.92343" lon="-122.62779">
        <ele>542.0</ele>
      </trkpt>
      <trkpt lat="37.92345" lon="-122.62792">
        <ele>548.0</ele>
      </trkpt>
      <trkpt lat="37.92362" lon="-122.62827">
        <ele>551.0</ele>
      </trkpt>
      <trkpt lat="37.92413" lon="-122.62863">
        <ele>551.0</ele>
      </trkpt>
      <trkpt lat="37.92441" lon="-122.62899">
        <ele>543.0</ele>
      </trkpt>
      <trkpt lat="37.92463" lon="-122.62909">
        <ele>535.0</ele>
      </trkpt>
      <trkpt lat="37.92468" lon="-122.62919">
        <ele>535.0</ele>
      </trkpt>
      <trkpt lat="37.92467" lon="-122.62939">
        <ele>523.0</ele>
      </trkpt>
      <trkpt lat="37.92467" lon="-122.62939">
        <ele>523.0</ele>
      </trkpt>
      <trkpt lat="37.92467" lon="-122.62947">
        <ele>523.0</ele>
      </trkpt>
      <trkpt lat="37.92463" lon="-122.62953">
        <ele>523.0</ele>
      </trkpt>
      <trkpt lat="37.92463" lon="-122.62953">
        <ele>523.0</ele>
      </trkpt>
      <trkpt lat="37.92463" lon="-122.62953">
        <ele>523.0</ele>
      </trkpt>
      <trkpt lat="37.92459" lon="-122.63019">
        <ele>514.0</ele>
      </trkpt>
      <trkpt lat="37.92462" lon="-122.63035">
        <ele>514.0</ele>
      </trkpt>
      <trkpt lat="37.92468" lon="-122.63047">
        <ele>506.0</ele>
      </trkpt>
      <trkpt lat="37.92486" lon="-122.63062">
        <ele>506.0</ele>
      </trkpt>
      <trkpt lat="37.92506" lon="-122.63067">
        <ele>516.0</ele>
      </trkpt>
      <trkpt lat="37.92538" lon="-122.63084">
        <ele>513.0</ele>
      </trkpt>
      <trkpt lat="37.9257935338475" lon="-122.630807565973">
        <ele>516.0</ele>
      </trkpt>
      <trkpt lat="37.9257935338475" lon="-122.630807565973">
        <ele>516.0</ele>
      </trkpt>
      <trkpt lat="37.92589" lon="-122.6308">
        <ele>516.0</ele>
      </trkpt>
      <trkpt lat="37.92611" lon="-122.63094">
        <ele>517.0</ele>
      </trkpt>
      <trkpt lat="37.92626" lon="-122.63132">
        <ele>506.0</ele>
      </trkpt>
      <trkpt lat="37.92638" lon="-122.63141">
        <ele>506.0</ele>
      </trkpt>
      <trkpt lat="37.92648" lon="-122.63137">
        <ele>506.0</ele>
      </trkpt>
      <trkpt lat="37.92687" lon="-122.63105">
        <ele>512.0</ele>
      </trkpt>
      <trkpt lat="37.92687" lon="-122.63105">
        <ele>512.0</ele>
      </trkpt>
      <trkpt lat="37.92707" lon="-122.63089">
        <ele>523.0</ele>
      </trkpt>
      <trkpt lat="37.92727" lon="-122.63079">
        <ele>518.0</ele>
      </trkpt>
      <trkpt lat="37.92767" lon="-122.63074">
        <ele>513.0</ele>
      </trkpt>
      <trkpt lat="37.92794" lon="-122.63079">
        <ele>514.0</ele>
      </trkpt>
      <trkpt lat="37.92811" lon="-122.63087">
        <ele>514.0</ele>
      </trkpt>
      <trkpt lat="37.92816" lon="-122.63086">
        <ele>514.0</ele>
      </trkpt>
      <trkpt lat="37.928176401078" lon="-122.630827197844">
        <ele>514.0</ele>
      </trkpt>
      <trkpt lat="37.928176401078" lon="-122.630827197844">
        <ele>514.0</ele>
      </trkpt>
      <trkpt lat="37.92819" lon="-122.6308">
        <ele>514.0</ele>
      </trkpt>
      <trkpt lat="37.92814" lon="-122.63063">
        <ele>519.0</ele>
      </trkpt>
      <trkpt lat="37.92798" lon="-122.63039">
        <ele>519.0</ele>
      </trkpt>
      <trkpt lat="37.92783" lon="-122.63025">
        <ele>519.0</ele>
      </trkpt>
      <trkpt lat="37.92744" lon="-122.62999">
        <ele>524.0</ele>
      </trkpt>
      <trkpt lat="37.92734" lon="-122.62986">
        <ele>529.0</ele>
      </trkpt>
      <trkpt lat="37.92722" lon="-122.62963">
        <ele>529.0</ele>
      </trkpt>
      <trkpt lat="37.92703" lon="-122.62939">
        <ele>534.0</ele>
      </trkpt>
      <trkpt lat="37.92703" lon="-122.62939">
        <ele>534.0</ele>
      </trkpt>
      <trkpt lat="37.92692" lon="-122.62931">
        <ele>534.0</ele>
      </trkpt>
      <trkpt lat="37.92691" lon="-122.62918">
        <ele>533.0</ele>
      </trkpt>
      <trkpt lat="37.92687" lon="-122.62908">
        <ele>533.0</ele>
      </trkpt>
      <trkpt lat="37.92687" lon="-122.62908">
        <ele>533.0</ele>
      </trkpt>
      <trkpt lat="37.92679" lon="-122.62904">
        <ele>542.0</ele>
      </trkpt>
      <trkpt lat="37.92672" lon="-122.62893">
        <ele>544.0</ele>
      </trkpt>
      <trkpt lat="37.92671" lon="-122.62884">
        <ele>544.0</ele>
      </trkpt>
      <trkpt lat="37.9267337146668" lon="-122.628733283999">
        <ele>539.0</ele>
      </trkpt>
      <trkpt lat="37.9267337146668" lon="-122.628733283999">
        <ele>539.0</ele>
      </trkpt>
      <trkpt lat="37.92675" lon="-122.62866">
        <ele>539.0</ele>
      </trkpt>
      <trkpt lat="37.92674" lon="-122.62857">
        <ele>539.0</ele>
      </trkpt>
      <trkpt lat="37.92658" lon="-122.62828">
        <ele>533.0</ele>
      </trkpt>
      <trkpt lat="37.92639" lon="-122.62807">
        <ele>540.0</ele>
      </trkpt>
      <trkpt lat="37.92635" lon="-122.6279">
        <ele>540.0</ele>
      </trkpt>
      <trkpt lat="37.92635" lon="-122.62781">
        <ele>540.0</ele>
      </trkpt>
      <trkpt lat="37.92644" lon="-122.62767">
        <ele>540.0</ele>
      </trkpt>
      <trkpt lat="37.92649" lon="-122.6275">
        <ele>542.0</ele>
      </trkpt>
      <trkpt lat="37.92653" lon="-122.62718">
        <ele>536.0</ele>
      </trkpt>
      <trkpt lat="37.92652" lon="-122.62695">
        <ele>552.0</ele>
      </trkpt>
      <trkpt lat="37.92655" lon="-122.62687">
        <ele>545.0</ele>
      </trkpt>
      <trkpt lat="37.9266" lon="-122.6268">
        <ele>551.0</ele>
      </trkpt>
      <trkpt lat="37.92674" lon="-122.62671">
        <ele>551.0</ele>
      </trkpt>
      <trkpt lat="37.92674" lon="-122.62671">
        <ele>551.0</ele>
      </trkpt>
      <trkpt lat="37.92674" lon="-122.62671">
        <ele>551.0</ele>
      </trkpt>
      <trkpt lat="37.92687" lon="-122.62656">
        <ele>549.0</ele>
      </trkpt>
      <trkpt lat="37.92687" lon="-122.62656">
        <ele>549.0</ele>
      </trkpt>
      <trkpt lat="37.92692" lon="-122.6265">
        <ele>556.0</ele>
      </trkpt>
      <trkpt lat="37.92702" lon="-122.62646">
        <ele>556.0</ele>
      </trkpt>
      <trkpt lat="37.92752" lon="-122.62674">
        <ele>545.0</ele>
      </trkpt>
      <trkpt lat="37.92759" lon="-122.62677">
        <ele>545.0</ele>
      </trkpt>
      <trkpt lat="37.92766" lon="-122.62676">
        <ele>541.0</ele>
      </trkpt>
      <trkpt lat="37.92776" lon="-122.62652">
        <ele>543.0</ele>
      </trkpt>
      <trkpt lat="37.92781" lon="-122.62611">
        <ele>541.0</ele>
      </trkpt>
      <trkpt lat="37.92781" lon="-122.62565">
        <ele>540.0</ele>
      </trkpt>
      <trkpt lat="37.92776" lon="-122.62543">
        <ele>540.0</ele>
      </trkpt>
      <trkpt lat="37.9276" lon="-122.62525">
        <ele>544.0</ele>
      </trkpt>
      <trkpt lat="37.92734" lon="-122.6251">
        <ele>550.0</ele>
      </trkpt>
      <trkpt lat="37.92722" lon="-122.62501">
        <ele>550.0</ele>
      </trkpt>
      <trkpt lat="37.9272" lon="-122.62496">
        <ele>550.0</ele>
      </trkpt>
      <trkpt lat="37.92721" lon="-122.62489">
        <ele>550.0</ele>
      </trkpt>
      <trkpt lat="37.92737" lon="-122.62457">
        <ele>555.0</ele>
      </trkpt>
      <trkpt lat="37.92742" lon="-122.6244">
        <ele>555.0</ele>
      </trkpt>
      <trkpt lat="37.9274388266108" lon="-122.624079971134">
        <ele>557.0</ele>
      </trkpt>
      <trkpt lat="37.9274388266108" lon="-122.624079971134">
        <ele>557.0</ele>
      </trkpt>
      <trkpt lat="37.92745" lon="-122.62389">
        <ele>554.0</ele>
      </trkpt>
      <trkpt lat="37.9275" lon="-122.62383">
        <ele>554.0</ele>
      </trkpt>
      <trkpt lat="37.92768" lon="-122.62368">
        <ele>543.0</ele>
      </trkpt>
      <trkpt lat="37.92772" lon="-122.6236">
        <ele>543.0</ele>
      </trkpt>
      <trkpt lat="37.92772" lon="-122.62351">
        <ele>543.0</ele>
      </trkpt>
      <trkpt lat="37.92767" lon="-122.62344">
        <ele>537.0</ele>
      </trkpt>
      <trkpt lat="37.92755" lon="-122.62334">
        <ele>538.0</ele>
      </trkpt>
      <trkpt lat="37.92713" lon="-122.62329">
        <ele>546.0</ele>
      </trkpt>
      <trkpt lat="37.92687" lon="-122.62294">
        <ele>557.0</ele>
      </trkpt>
      <trkpt lat="37.92687" lon="-122.62294">
        <ele>557.0</ele>
      </trkpt>
      <trkpt lat="37.9268" lon="-122.62286">
        <ele>561.0</ele>
      </trkpt>
      <trkpt lat="37.92668" lon="-122.62253">
        <ele>560.0</ele>
      </trkpt>
      <trkpt lat="37.92671" lon="-122.62238">
        <ele>560.0</ele>
      </trkpt>
      <trkpt lat="37.92687" lon="-122.62221">
        <ele>554.0</ele>
      </trkpt>
      <trkpt lat="37.92687" lon="-122.62221">
        <ele>554.0</ele>
      </trkpt>
      <trkpt lat="37.92698" lon="-122.62211">
        <ele>554.0</ele>
      </trkpt>
      <trkpt lat="37.92705" lon="-122.62197">
        <ele>549.0</ele>
      </trkpt>
      <trkpt lat="37.9271" lon="-122.62182">
        <ele>531.0</ele>
      </trkpt>
      <trkpt lat="37.92706" lon="-122.62161">
        <ele>542.0</ele>
      </trkpt>
      <trkpt lat="37.92709" lon="-122.62127">
        <ele>519.0</ele>
      </trkpt>
      <trkpt lat="37.92707" lon="-122.62104">
        <ele>535.0</ele>
      </trkpt>
      <trkpt lat="37.92697" lon="-122.62079">
        <ele>536.0</ele>
      </trkpt>
      <trkpt lat="37.92687" lon="-122.62061">
        <ele>536.0</ele>
      </trkpt>
      <trkpt lat="37.92687" lon="-122.62061">
        <ele>536.0</ele>
      </trkpt>
      <trkpt lat="37.92675" lon="-122.62044">
        <ele>549.0</ele>
      </trkpt>
      <trkpt lat="37.92672" lon="-122.62025">
        <ele>548.0</ele>
      </trkpt>
      <trkpt lat="37.92677" lon="-122.62019">
        <ele>548.0</ele>
      </trkpt>
      <trkpt lat="37.92687" lon="-122.62016">
        <ele>539.0</ele>
      </trkpt>
      <trkpt lat="37.92687" lon="-122.62016">
        <ele>539.0</ele>
      </trkpt>
      <trkpt lat="37.927" lon="-122.62011">
        <ele>546.0</ele>
      </trkpt>
      <trkpt lat="37.92705" lon="-122.62004">
        <ele>546.0</ele>
      </trkpt>
      <trkpt lat="37.92715" lon="-122.6198">
        <ele>551.0</ele>
      </trkpt>
      <trkpt lat="37.92721" lon="-122.61975">
        <ele>551.0</ele>
      </trkpt>
      <trkpt lat="37.92739" lon="-122.61971">
        <ele>548.0</ele>
      </trkpt>
      <trkpt lat="37.92764" lon="-122.61975">
        <ele>540.0</ele>
      </trkpt>
      <trkpt lat="37.92789" lon="-122.61971">
        <ele>540.0</ele>
      </trkpt>
      <trkpt lat="37.9281" lon="-122.61978">
        <ele>531.0</ele>
      </trkpt>
      <trkpt lat="37.92821" lon="-122.61979">
        <ele>527.0</ele>
      </trkpt>
      <trkpt lat="37.92843" lon="-122.61956">
        <ele>532.0</ele>
      </trkpt>
      <trkpt lat="37.92869" lon="-122.61939">
        <ele>531.0</ele>
      </trkpt>
      <trkpt lat="37.92877" lon="-122.61939">
        <ele>527.0</ele>
      </trkpt>
      <trkpt lat="37.9289" lon="-122.61945">
        <ele>527.0</ele>
      </trkpt>
      <trkpt lat="37.92897" lon="-122.61944">
        <ele>527.0</ele>
      </trkpt>
      <trkpt lat="37.9293437278236" lon="-122.619092967021">
        <ele>521.0</ele>
      </trkpt>
      <trkpt lat="37.9293437278236" lon="-122.619092967021">
        <ele>521.0</ele>
      </trkpt>
      <trkpt lat="37.92953" lon="-122.61892">
        <ele>526.0</ele>
      </trkpt>
      <trkpt lat="37.92988" lon="-122.61847">
        <ele>507.0</ele>
      </trkpt>
      <trkpt lat="37.92997" lon="-122.61827">
        <ele>507.0</ele>
      </trkpt>
      <trkpt lat="37.92995" lon="-122.61796">
        <ele>507.0</ele>
      </trkpt>
      <trkpt lat="37.92995" lon="-122.61796">
        <ele>507.0</ele>
      </trkpt>
      <trkpt lat="37.92995" lon="-122.61796">
        <ele>507.0</ele>
      </trkpt>
      <trkpt lat="37.93002" lon="-122.61783">
        <ele>509.0</ele>
      </trkpt>
      <trkpt lat="37.93015" lon="-122.61774">
        <ele>508.0</ele>
      </trkpt>
      <trkpt lat="37.93023" lon="-122.61777">
        <ele>508.0</ele>
      </trkpt>
      <trkpt lat="37.9303" lon="-122.61775">
        <ele>508.0</ele>
      </trkpt>
      <trkpt lat="37.9305" lon="-122.61713">
        <ele>501.0</ele>
      </trkpt>
      <trkpt lat="37.9311" lon="-122.6164">
        <ele>501.0</ele>
      </trkpt>
      <trkpt lat="37.93117" lon="-122.61624">
        <ele>507.0</ele>
      </trkpt>
      <trkpt lat="37.93124" lon="-122.61598">
        <ele>507.0</ele>
      </trkpt>
      <trkpt lat="37.93123" lon="-122.61576">
        <ele>510.0</ele>
      </trkpt>
      <trkpt lat="37.93099" lon="-122.61519">
        <ele>515.0</ele>
      </trkpt>
      <trkpt lat="37.93093" lon="-122.61494">
        <ele>527.0</ele>
      </trkpt>
      <trkpt lat="37.93088" lon="-122.61458">
        <ele>522.0</ele>
      </trkpt>
      <trkpt lat="37.9309" lon="-122.6145">
        <ele>522.0</ele>
      </trkpt>
      <trkpt lat="37.9309" lon="-122.61425">
        <ele>526.0</ele>
      </trkpt>
      <trkpt lat="37.93108" lon="-122.61424">
        <ele>518.0</ele>
      </trkpt>
      <trkpt lat="37.93181" lon="-122.61456">
        <ele>504.0</ele>
      </trkpt>
      <trkpt lat="37.93212" lon="-122.61458">
        <ele>496.0</ele>
      </trkpt>
      <trkpt lat="37.93257" lon="-122.61444">
        <ele>495.0</ele>
      </trkpt>
      <trkpt lat="37.93294" lon="-122.61427">
        <ele>495.0</ele>
      </trkpt>
      <trkpt lat="37.93315" lon="-122.61425">
        <ele>495.0</ele>
      </trkpt>
      <trkpt lat="37.93352" lon="-122.61408">
        <ele>477.0</ele>
      </trkpt>
      <trkpt lat="37.93368" lon="-122.61405">
        <ele>477.0</ele>
      </trkpt>
      <trkpt lat="37.93378" lon="-122.61393">
        <ele>478.0</ele>
      </trkpt>
      <trkpt lat="37.93378" lon="-122.61393">
        <ele>478.0</ele>
      </trkpt>
      <trkpt lat="37.93378" lon="-122.61393">
        <ele>478.0</ele>
      </trkpt>
      <trkpt lat="37.93414" lon="-122.6137">
        <ele>482.0</ele>
      </trkpt>
      <trkpt lat="37.93425" lon="-122.61356">
        <ele>482.0</ele>
      </trkpt>
      <trkpt lat="37.93434" lon="-122.61325">
        <ele>480.0</ele>
      </trkpt>
      <trkpt lat="37.93416" lon="-122.61286">
        <ele>481.0</ele>
      </trkpt>
      <trkpt lat="37.93416" lon="-122.61286">
        <ele>481.0</ele>
      </trkpt>
      <trkpt lat="37.93416" lon="-122.61286">
        <ele>481.0</ele>
      </trkpt>
      <trkpt lat="37.93432" lon="-122.6128">
        <ele>479.0</ele>
      </trkpt>
      <trkpt lat="37.93445" lon="-122.61273">
        <ele>479.0</ele>
      </trkpt>
      <trkpt lat="37.93454" lon="-122.61261">
        <ele>478.0</ele>
      </trkpt>
      <trkpt lat="37.93474" lon="-122.61245">
        <ele>475.0</ele>
      </trkpt>
      <trkpt lat="37.93474" lon="-122.61245">
        <ele>475.0</ele>
      </trkpt>
      <trkpt lat="37.93474" lon="-122.61245">
        <ele>475.0</ele>
      </trkpt>
      <trkpt lat="37.93497" lon="-122.6124">
        <ele>470.0</ele>
      </trkpt>
      <trkpt lat="37.93523" lon="-122.61249">
        <ele>470.0</ele>
      </trkpt>
      <trkpt lat="37.93547" lon="-122.61266">
        <ele>473.0</ele>
      </trkpt>
      <trkpt lat="37.9355901932183" lon="-122.612692051525">
        <ele>473.0</ele>
      </trkpt>
      <trkpt lat="37.9355901932183" lon="-122.612692051525">
        <ele>473.0</ele>
      </trkpt>
      <trkpt lat="37.93562" lon="-122.6127">
        <ele>473.0</ele>
      </trkpt>
      <trkpt lat="37.9357" lon="-122.61278">
        <ele>477.0</ele>
      </trkpt>
      <trkpt lat="37.93582" lon="-122.61282">
        <ele>477.0</ele>
      </trkpt>
      <trkpt lat="37.93627" lon="-122.61278">
        <ele>475.0</ele>
      </trkpt>
      <trkpt lat="37.93636" lon="-122.61282">
        <ele>475.0</ele>
      </trkpt>
      <trkpt lat="37.93643" lon="-122.61299">
        <ele>478.0</ele>
      </trkpt>
      <trkpt lat="37.93653" lon="-122.6131">
        <ele>481.0</ele>
      </trkpt>
      <trkpt lat="37.93653" lon="-122.6131">
        <ele>481.0</ele>
      </trkpt>
      <trkpt lat="37.93653" lon="-122.6131">
        <ele>481.0</ele>
      </trkpt>
      <trkpt lat="37.93652" lon="-122.61341">
        <ele>479.0</ele>
      </trkpt>
      <trkpt lat="37.93656" lon="-122.61354">
        <ele>480.0</ele>
      </trkpt>
      <trkpt lat="37.93663" lon="-122.61365">
        <ele>480.0</ele>
      </trkpt>
      <trkpt lat="37.93672" lon="-122.61373">
        <ele>480.0</ele>
      </trkpt>
      <trkpt lat="37.93675" lon="-122.61386">
        <ele>475.0</ele>
      </trkpt>
      <trkpt lat="37.93681" lon="-122.61398">
        <ele>476.0</ele>
      </trkpt>
      <trkpt lat="37.93716" lon="-122.61434">
        <ele>464.0</ele>
      </trkpt>
      <trkpt lat="37.93726" lon="-122.61439">
        <ele>464.0</ele>
      </trkpt>
      <trkpt lat="37.93733" lon="-122.61438">
        <ele>464.0</ele>
      </trkpt>
      <trkpt lat="37.93742" lon="-122.6143">
        <ele>468.0</ele>
      </trkpt>
      <trkpt lat="37.93755" lon="-122.61407">
        <ele>468.0</ele>
      </trkpt>
      <trkpt lat="37.93765" lon="-122.61404">
        <ele>463.0</ele>
      </trkpt>
      <trkpt lat="37.93776" lon="-122.61407">
        <ele>463.0</ele>
      </trkpt>
      <trkpt lat="37.93816" lon="-122.6144">
        <ele>450.0</ele>
      </trkpt>
      <trkpt lat="37.9387" lon="-122.61452">
        <ele>432.0</ele>
      </trkpt>
      <trkpt lat="37.93893" lon="-122.61464">
        <ele>421.0</ele>
      </trkpt>
      <trkpt lat="37.93909" lon="-122.61484">
        <ele>418.0</ele>
      </trkpt>
      <trkpt lat="37.93919" lon="-122.61514">
        <ele>410.0</ele>
      </trkpt>
      <trkpt lat="37.93919" lon="-122.61561">
        <ele>408.0</ele>
      </trkpt>
      <trkpt lat="37.93929" lon="-122.61596">
        <ele>405.0</ele>
      </trkpt>
      <trkpt lat="37.93934" lon="-122.61624">
        <ele>407.0</ele>
      </trkpt>
      <trkpt lat="37.93943" lon="-122.61638">
        <ele>408.0</ele>
      </trkpt>
      <trkpt lat="37.93976" lon="-122.61668">
        <ele>402.0</ele>
      </trkpt>
      <trkpt lat="37.93985" lon="-122.61682">
        <ele>400.0</ele>
      </trkpt>
      <trkpt lat="37.93985" lon="-122.61682">
        <ele>400.0</ele>
      </trkpt>
      <trkpt lat="37.93985" lon="-122.61682">
        <ele>400.0</ele>
      </trkpt>
      <trkpt lat="37.93984" lon="-122.61694">
        <ele>400.0</ele>
      </trkpt>
      <trkpt lat="37.93985" lon="-122.61712">
        <ele>396.0</ele>
      </trkpt>
      <trkpt lat="37.94002" lon="-122.61785">
        <ele>379.0</ele>
      </trkpt>
      <trkpt lat="37.94011" lon="-122.61811">
        <ele>377.0</ele>
      </trkpt>
      <trkpt lat="37.94013" lon="-122.61826">
        <ele>375.0</ele>
      </trkpt>
      <trkpt lat="37.94011" lon="-122.6191">
        <ele>365.0</ele>
      </trkpt>
      <trkpt lat="37.94013" lon="-122.61942">
        <ele>361.0</ele>
      </trkpt>
      <trkpt lat="37.94016" lon="-122.6196">
        <ele>360.0</ele>
      </trkpt>
      <trkpt lat="37.9405" lon="-122.62025">
        <ele>349.0</ele>
      </trkpt>
      <trkpt lat="37.94055" lon="-122.62042">
        <ele>345.0</ele>
      </trkpt>
      <trkpt lat="37.94055" lon="-122.6206">
        <ele>345.0</ele>
      </trkpt>
      <trkpt lat="37.94069" lon="-122.62103">
        <ele>338.0</ele>
      </trkpt>
      <trkpt lat="37.94063" lon="-122.62124">
        <ele>338.0</ele>
      </trkpt>
      <trkpt lat="37.94033" lon="-122.62158">
        <ele>324.0</ele>
      </trkpt>
      <trkpt lat="37.94031" lon="-122.62171">
        <ele>324.0</ele>
      </trkpt>
      <trkpt lat="37.94033" lon="-122.62189">
        <ele>317.0</ele>
      </trkpt>
      <trkpt lat="37.94036" lon="-122.62198">
        <ele>317.0</ele>
      </trkpt>
      <trkpt lat="37.94048" lon="-122.62209">
        <ele>307.0</ele>
      </trkpt>
      <trkpt lat="37.94075" lon="-122.62222">
        <ele>321.0</ele>
      </trkpt>
      <trkpt lat="37.94083" lon="-122.6223">
        <ele>321.0</ele>
      </trkpt>
      <trkpt lat="37.9409" lon="-122.62242">
        <ele>313.0</ele>
      </trkpt>
      <trkpt lat="37.94092" lon="-122.62253">
        <ele>313.0</ele>
      </trkpt>
      <trkpt lat="37.94096" lon="-122.62328">
        <ele>312.0</ele>
      </trkpt>
      <trkpt lat="37.94093" lon="-122.62347">
        <ele>312.0</ele>
      </trkpt>
      <trkpt lat="37.94076" lon="-122.62378">
        <ele>313.0</ele>
      </trkpt>
      <trkpt lat="37.94066" lon="-122.62412">
        <ele>309.0</ele>
      </trkpt>
      <trkpt lat="37.94067" lon="-122.62441">
        <ele>306.0</ele>
      </trkpt>
      <trkpt lat="37.94078" lon="-122.62468">
        <ele>300.0</ele>
      </trkpt>
      <trkpt lat="37.94115" lon="-122.62537">
        <ele>294.0</ele>
      </trkpt>
      <trkpt lat="37.9413" lon="-122.62555">
        <ele>294.0</ele>
      </trkpt>
      <trkpt lat="37.94143" lon="-122.62567">
        <ele>294.0</ele>
      </trkpt>
      <trkpt lat="37.94154" lon="-122.62584">
        <ele>290.0</ele>
      </trkpt>
      <trkpt lat="37.94183" lon="-122.62612">
        <ele>284.0</ele>
      </trkpt>
      <trkpt lat="37.94224" lon="-122.62637">
        <ele>274.0</ele>
      </trkpt>
      <trkpt lat="37.94261" lon="-122.62653">
        <ele>266.0</ele>
      </trkpt>
      <trkpt lat="37.94291" lon="-122.6268">
        <ele>263.0</ele>
      </trkpt>
      <trkpt lat="37.94347" lon="-122.62706">
        <ele>255.0</ele>
      </trkpt>
      <trkpt lat="37.94366" lon="-122.6272">
        <ele>250.0</ele>
      </trkpt>
      <trkpt lat="37.94403" lon="-122.62729">
        <ele>236.0</ele>
      </trkpt>
      <trkpt lat="37.94408" lon="-122.62732">
        <ele>236.0</ele>
      </trkpt>
      <trkpt lat="37.94411" lon="-122.62775">
        <ele>235.0</ele>
      </trkpt>
      <trkpt lat="37.94415" lon="-122.62789">
        <ele>235.0</ele>
      </trkpt>
      <trkpt lat="37.9442" lon="-122.62796">
        <ele>237.0</ele>
      </trkpt>
      <trkpt lat="37.9442" lon="-122.62796">
        <ele>237.0</ele>
      </trkpt>
      <trkpt lat="37.94426" lon="-122.62805">
        <ele>237.0</ele>
      </trkpt>
      <trkpt lat="37.94441" lon="-122.62811">
        <ele>232.0</ele>
      </trkpt>
      <trkpt lat="37.94455" lon="-122.62806">
        <ele>232.0</ele>
      </trkpt>
      <trkpt lat="37.9446" lon="-122.62797">
        <ele>221.0</ele>
      </trkpt>
      <trkpt lat="37.9446" lon="-122.62797">
        <ele>221.0</ele>
      </trkpt>
      <trkpt lat="37.94479" lon="-122.628">
        <ele>221.0</ele>
      </trkpt>
      <trkpt lat="37.94486" lon="-122.62807">
        <ele>221.0</ele>
      </trkpt>
      <trkpt lat="37.94487" lon="-122.62812">
        <ele>213.0</ele>
      </trkpt>
      <trkpt lat="37.94487" lon="-122.6282">
        <ele>213.0</ele>
      </trkpt>
      <trkpt lat="37.94482" lon="-122.62832">
        <ele>220.0</ele>
      </trkpt>
      <trkpt lat="37.94471" lon="-122.62844">
        <ele>220.0</ele>
      </trkpt>
      <trkpt lat="37.94462" lon="-122.62848">
        <ele>221.0</ele>
      </trkpt>
      <trkpt lat="37.94453" lon="-122.62847">
        <ele>232.0</ele>
      </trkpt>
      <trkpt lat="37.94431" lon="-122.62834">
        <ele>232.0</ele>
      </trkpt>
      <trkpt lat="37.9442" lon="-122.62832">
        <ele>236.0</ele>
      </trkpt>
      <trkpt lat="37.9442" lon="-122.62832">
        <ele>236.0</ele>
      </trkpt>
      <trkpt lat="37.944" lon="-122.62835">
        <ele>239.0</ele>
      </trkpt>
      <trkpt lat="37.94378" lon="-122.62808">
        <ele>240.0</ele>
      </trkpt>
      <trkpt lat="37.9437" lon="-122.62819">
        <ele>248.0</ele>
      </trkpt>
      <trkpt lat="37.94365" lon="-122.6282">
        <ele>244.0</ele>
      </trkpt>
      <trkpt lat="37.94339" lon="-122.62808">
        <ele>252.0</ele>
      </trkpt>
      <trkpt lat="37.94331" lon="-122.62815">
        <ele>252.0</ele>
      </trkpt>
      <trkpt lat="37.94323" lon="-122.62831">
        <ele>244.0</ele>
      </trkpt>
      <trkpt lat="37.94319" lon="-122.62834">
        <ele>233.0</ele>
      </trkpt>
      <trkpt lat="37.94312" lon="-122.62832">
        <ele>233.0</ele>
      </trkpt>
      <trkpt lat="37.94296" lon="-122.62812">
        <ele>245.0</ele>
      </trkpt>
      <trkpt lat="37.94275" lon="-122.62768">
        <ele>244.0</ele>
      </trkpt>
      <trkpt lat="37.94248" lon="-122.62746">
        <ele>248.0</ele>
      </trkpt>
      <trkpt lat="37.94213" lon="-122.62737">
        <ele>238.0</ele>
      </trkpt>
      <trkpt lat="37.94154" lon="-122.62707">
        <ele>258.0</ele>
      </trkpt>
      <trkpt lat="37.94141" lon="-122.62696">
        <ele>258.0</ele>
      </trkpt>
      <trkpt lat="37.94122" lon="-122.62698">
        <ele>261.0</ele>
      </trkpt>
      <trkpt lat="37.9411" lon="-122.62694">
        <ele>261.0</ele>
      </trkpt>
      <trkpt lat="37.94099" lon="-122.62696">
        <ele>261.0</ele>
      </trkpt>
      <trkpt lat="37.94086" lon="-122.62707">
        <ele>262.0</ele>
      </trkpt>
      <trkpt lat="37.94077" lon="-122.62721">
        <ele>254.0</ele>
      </trkpt>
      <trkpt lat="37.94066" lon="-122.62725">
        <ele>254.0</ele>
      </trkpt>
      <trkpt lat="37.94037" lon="-122.6273">
        <ele>254.0</ele>
      </trkpt>
      <trkpt lat="37.94014" lon="-122.62728">
        <ele>254.0</ele>
      </trkpt>
      <trkpt lat="37.9400699031088" lon="-122.627234437021">
        <ele>251.0</ele>
      </trkpt>
      <trkpt lat="37.9400699031088" lon="-122.627234437021">
        <ele>251.0</ele>
      </trkpt>
      <trkpt lat="37.93994" lon="-122.62715">
        <ele>251.0</ele>
      </trkpt>
      <trkpt lat="37.93989" lon="-122.62703">
        <ele>256.0</ele>
      </trkpt>
      <trkpt lat="37.93979" lon="-122.62689">
        <ele>256.0</ele>
      </trkpt>
      <trkpt lat="37.93967" lon="-122.62665">
        <ele>255.0</ele>
      </trkpt>
      <trkpt lat="37.93962" lon="-122.62665">
        <ele>255.0</ele>
      </trkpt>
      <trkpt lat="37.9396" lon="-122.6267">
        <ele>255.0</ele>
      </trkpt>
      <trkpt lat="37.93961" lon="-122.62679">
        <ele>255.0</ele>
      </trkpt>
      <trkpt lat="37.93945" lon="-122.62685">
        <ele>259.0</ele>
      </trkpt>
      <trkpt lat="37.93921" lon="-122.62672">
        <ele>258.0</ele>
      </trkpt>
      <trkpt lat="37.93918" lon="-122.62675">
        <ele>258.0</ele>
      </trkpt>
      <trkpt lat="37.93919" lon="-122.6268">
        <ele>258.0</ele>
      </trkpt>
      <trkpt lat="37.9393" lon="-122.62718">
        <ele>275.0</ele>
      </trkpt>
      <trkpt lat="37.9393" lon="-122.62728">
        <ele>275.0</ele>
      </trkpt>
      <trkpt lat="37.93924" lon="-122.62731">
        <ele>275.0</ele>
      </trkpt>
      <trkpt lat="37.93909" lon="-122.6272">
        <ele>275.0</ele>
      </trkpt>
      <trkpt lat="37.93901" lon="-122.62719">
        <ele>290.0</ele>
      </trkpt>
      <trkpt lat="37.93898" lon="-122.62721">
        <ele>290.0</ele>
      </trkpt>
      <trkpt lat="37.939" lon="-122.62735">
        <ele>290.0</ele>
      </trkpt>
      <trkpt lat="37.93917" lon="-122.62791">
        <ele>284.0</ele>
      </trkpt>
      <trkpt lat="37.93925" lon="-122.62832">
        <ele>290.0</ele>
      </trkpt>
      <trkpt lat="37.93936" lon="-122.62866">
        <ele>287.0</ele>
      </trkpt>
      <trkpt lat="37.93949" lon="-122.62889">
        <ele>292.0</ele>
      </trkpt>
      <trkpt lat="37.93956" lon="-122.62925">
        <ele>293.0</ele>
      </trkpt>
      <trkpt lat="37.93962" lon="-122.62939">
        <ele>290.0</ele>
      </trkpt>
      <trkpt lat="37.93962" lon="-122.62939">
        <ele>290.0</ele>
      </trkpt>
      <trkpt lat="37.93983" lon="-122.62963">
        <ele>289.0</ele>
      </trkpt>
      <trkpt lat="37.93985" lon="-122.62985">
        <ele>289.0</ele>
      </trkpt>
      <trkpt lat="37.93983" lon="-122.62994">
        <ele>285.0</ele>
      </trkpt>
      <trkpt lat="37.9396" lon="-122.63023">
        <ele>283.0</ele>
      </trkpt>
      <trkpt lat="37.93943" lon="-122.63034">
        <ele>289.0</ele>
      </trkpt>
      <trkpt lat="37.93926" lon="-122.63039">
        <ele>294.0</ele>
      </trkpt>
      <trkpt lat="37.93891" lon="-122.63056">
        <ele>292.0</ele>
      </trkpt>
      <trkpt lat="37.93844" lon="-122.63055">
        <ele>300.0</ele>
      </trkpt>
      <trkpt lat="37.93788" lon="-122.63077">
        <ele>292.0</ele>
      </trkpt>
      <trkpt lat="37.93766" lon="-122.63081">
        <ele>292.0</ele>
      </trkpt>
      <trkpt lat="37.93759" lon="-122.63079">
        <ele>295.0</ele>
      </trkpt>
      <trkpt lat="37.93754" lon="-122.63071">
        <ele>295.0</ele>
      </trkpt>
      <trkpt lat="37.93734" lon="-122.63081">
        <ele>300.0</ele>
      </trkpt>
      <trkpt lat="37.93725" lon="-122.63088">
        <ele>300.0</ele>
      </trkpt>
      <trkpt lat="37.93713" lon="-122.6309">
        <ele>300.0</ele>
      </trkpt>
      <trkpt lat="37.937" lon="-122.63091">
        <ele>304.0</ele>
      </trkpt>
      <trkpt lat="37.93678" lon="-122.63085">
        <ele>306.0</ele>
      </trkpt>
      <trkpt lat="37.93659" lon="-122.63073">
        <ele>306.0</ele>
      </trkpt>
      <trkpt lat="37.93654" lon="-122.63077">
        <ele>306.0</ele>
      </trkpt>
      <trkpt lat="37.9364" lon="-122.63113">
        <ele>310.0</ele>
      </trkpt>
      <trkpt lat="37.93634" lon="-122.63118">
        <ele>310.0</ele>
      </trkpt>
      <trkpt lat="37.93614" lon="-122.63114">
        <ele>320.0</ele>
      </trkpt>
      <trkpt lat="37.93607" lon="-122.63109">
        <ele>320.0</ele>
      </trkpt>
      <trkpt lat="37.93591" lon="-122.63104">
        <ele>328.0</ele>
      </trkpt>
      <trkpt lat="37.93582" lon="-122.63104">
        <ele>328.0</ele>
      </trkpt>
      <trkpt lat="37.9357" lon="-122.6311">
        <ele>328.0</ele>
      </trkpt>
      <trkpt lat="37.93535" lon="-122.63145">
        <ele>342.0</ele>
      </trkpt>
      <trkpt lat="37.93505" lon="-122.63163">
        <ele>351.0</ele>
      </trkpt>
      <trkpt lat="37.93519" lon="-122.63236">
        <ele>341.0</ele>
      </trkpt>
      <trkpt lat="37.93519" lon="-122.63249">
        <ele>341.0</ele>
      </trkpt>
      <trkpt lat="37.93515" lon="-122.63252">
        <ele>341.0</ele>
      </trkpt>
      <trkpt lat="37.93509" lon="-122.63252">
        <ele>339.0</ele>
      </trkpt>
      <trkpt lat="37.93497" lon="-122.63236">
        <ele>345.0</ele>
      </trkpt>
      <trkpt lat="37.93488" lon="-122.63228">
        <ele>345.0</ele>
      </trkpt>
      <trkpt lat="37.9348" lon="-122.63225">
        <ele>349.0</ele>
      </trkpt>
      <trkpt lat="37.93434" lon="-122.63243">
        <ele>353.0</ele>
      </trkpt>
      <trkpt lat="37.93433" lon="-122.63258">
        <ele>353.0</ele>
      </trkpt>
      <trkpt lat="37.9343456334552" lon="-122.632618373027">
        <ele>353.0</ele>
      </trkpt>
      <trkpt lat="37.9343456334552" lon="-122.632618373027">
        <ele>353.0</ele>
      </trkpt>
      <trkpt lat="37.93444" lon="-122.63285">
        <ele>352.0</ele>
      </trkpt>
      <trkpt lat="37.93443" lon="-122.63326">
        <ele>349.0</ele>
      </trkpt>
      <trkpt lat="37.9344" lon="-122.63335">
        <ele>349.0</ele>
      </trkpt>
      <trkpt lat="37.93426" lon="-122.63348">
        <ele>354.0</ele>
      </trkpt>
      <trkpt lat="37.93419" lon="-122.63352">
        <ele>354.0</ele>
      </trkpt>
      <trkpt lat="37.93386" lon="-122.63348">
        <ele>367.0</ele>
      </trkpt>
      <trkpt lat="37.93376" lon="-122.63352">
        <ele>367.0</ele>
      </trkpt>
      <trkpt lat="37.93352" lon="-122.63365">
        <ele>380.0</ele>
      </trkpt>
      <trkpt lat="37.93328" lon="-122.63392">
        <ele>374.0</ele>
      </trkpt>
      <trkpt lat="37.933" lon="-122.63406">
        <ele>355.0</ele>
      </trkpt>
      <trkpt lat="37.93278" lon="-122.63406">
        <ele>351.0</ele>
      </trkpt>
      <trkpt lat="37.93257" lon="-122.63401">
        <ele>354.0</ele>
      </trkpt>
      <trkpt lat="37.9324" lon="-122.63391">
        <ele>354.0</ele>
      </trkpt>
      <trkpt lat="37.93226" lon="-122.63392">
        <ele>355.0</ele>
      </trkpt>
      <trkpt lat="37.93214" lon="-122.63402">
        <ele>355.0</ele>
      </trkpt>
      <trkpt lat="37.93204" lon="-122.63421">
        <ele>358.0</ele>
      </trkpt>
      <trkpt lat="37.93163" lon="-122.63451">
        <ele>355.0</ele>
      </trkpt>
      <trkpt lat="37.93131" lon="-122.6348">
        <ele>351.0</ele>
      </trkpt>
      <trkpt lat="37.93116" lon="-122.63485">
        <ele>356.0</ele>
      </trkpt>
      <trkpt lat="37.9310101997173" lon="-122.634960379156">
        <ele>353.0</ele>
      </trkpt>
      <trkpt lat="37.9310101997173" lon="-122.634960379156">
        <ele>353.0</ele>
      </trkpt>
      <trkpt lat="37.93097" lon="-122.63499">
        <ele>364.0</ele>
      </trkpt>
      <trkpt lat="37.93097" lon="-122.63499">
        <ele>364.0</ele>
      </trkpt>
      <trkpt lat="37.93097" lon="-122.63499">
        <ele>364.0</ele>
      </trkpt>
      <trkpt lat="37.93093" lon="-122.63486">
        <ele>368.0</ele>
      </trkpt>
      <trkpt lat="37.93083" lon="-122.63481">
        <ele>368.0</ele>
      </trkpt>
      <trkpt lat="37.93067" lon="-122.63469">
        <ele>378.0</ele>
      </trkpt>
      <trkpt lat="37.93033" lon="-122.63459">
        <ele>382.0</ele>
      </trkpt>
      <trkpt lat="37.92998" lon="-122.6342">
        <ele>400.0</ele>
      </trkpt>
      <trkpt lat="37.92987" lon="-122.63402">
        <ele>407.0</ele>
      </trkpt>
      <trkpt lat="37.92969" lon="-122.63398">
        <ele>402.0</ele>
      </trkpt>
      <trkpt lat="37.92955" lon="-122.63399">
        <ele>405.0</ele>
      </trkpt>
      <trkpt lat="37.92945" lon="-122.63396">
        <ele>405.0</ele>
      </trkpt>
      <trkpt lat="37.92938" lon="-122.63398">
        <ele>405.0</ele>
      </trkpt>
      <trkpt lat="37.92924" lon="-122.63395">
        <ele>407.0</ele>
      </trkpt>
      <trkpt lat="37.92891" lon="-122.63378">
        <ele>411.0</ele>
      </trkpt>
      <trkpt lat="37.92873" lon="-122.63373">
        <ele>417.0</ele>
      </trkpt>
      <trkpt lat="37.92848" lon="-122.63354">
        <ele>417.0</ele>
      </trkpt>
      <trkpt lat="37.92819" lon="-122.63346">
        <ele>426.0</ele>
      </trkpt>
      <trkpt lat="37.92764" lon="-122.6335">
        <ele>418.0</ele>
      </trkpt>
      <trkpt lat="37.9275" lon="-122.63346">
        <ele>425.0</ele>
      </trkpt>
      <trkpt lat="37.9273159002813" lon="-122.633443263662">
        <ele>426.0</ele>
      </trkpt>
      <trkpt lat="37.9273159002813" lon="-122.633443263662">
        <ele>426.0</ele>
      </trkpt>
      <trkpt lat="37.92706" lon="-122.63342">
        <ele>430.0</ele>
      </trkpt>
      <trkpt lat="37.92687" lon="-122.63348">
        <ele>417.0</ele>
      </trkpt>
      <trkpt lat="37.92687" lon="-122.63348">
        <ele>417.0</ele>
      </trkpt>
      <trkpt lat="37.9265" lon="-122.63359">
        <ele>431.0</ele>
      </trkpt>
      <trkpt lat="37.92596" lon="-122.63364">
        <ele>450.0</ele>
      </trkpt>
      <trkpt lat="37.92589" lon="-122.63362">
        <ele>450.0</ele>
      </trkpt>
      <trkpt lat="37.92569" lon="-122.63349">
        <ele>460.0</ele>
      </trkpt>
      <trkpt lat="37.92559" lon="-122.63348">
        <ele>460.0</ele>
      </trkpt>
      <trkpt lat="37.92547" lon="-122.63325">
        <ele>458.0</ele>
      </trkpt>
      <trkpt lat="37.92544" lon="-122.63307">
        <ele>457.0</ele>
      </trkpt>
      <trkpt lat="37.92532" lon="-122.63274">
        <ele>474.0</ele>
      </trkpt>
      <trkpt lat="37.92525" lon="-122.63238">
        <ele>475.0</ele>
      </trkpt>
      <trkpt lat="37.92509" lon="-122.63206">
        <ele>470.0</ele>
      </trkpt>
      <trkpt lat="37.92508" lon="-122.63186">
        <ele>470.0</ele>
      </trkpt>
      <trkpt lat="37.92498" lon="-122.63175">
        <ele>475.0</ele>
      </trkpt>
      <trkpt lat="37.92457" lon="-122.63141">
        <ele>488.0</ele>
      </trkpt>
      <trkpt lat="37.92447" lon="-122.63128">
        <ele>488.0</ele>
      </trkpt>
      <trkpt lat="37.92443" lon="-122.63116">
        <ele>490.0</ele>
      </trkpt>
      <trkpt lat="37.92441" lon="-122.63103">
        <ele>490.0</ele>
      </trkpt>
      <trkpt lat="37.92447" lon="-122.63095">
        <ele>501.0</ele>
      </trkpt>
      <trkpt lat="37.92461" lon="-122.63088">
        <ele>498.0</ele>
      </trkpt>
      <trkpt lat="37.92462" lon="-122.63083">
        <ele>498.0</ele>
      </trkpt>
      <trkpt lat="37.9246" lon="-122.63074">
        <ele>498.0</ele>
      </trkpt>
      <trkpt lat="37.92443" lon="-122.63036">
        <ele>510.0</ele>
      </trkpt>
      <trkpt lat="37.92444" lon="-122.63013">
        <ele>511.0</ele>
      </trkpt>
      <trkpt lat="37.92451" lon="-122.62999">
        <ele>511.0</ele>
      </trkpt>
      <trkpt lat="37.92451" lon="-122.62993">
        <ele>511.0</ele>
      </trkpt>
      <trkpt lat="37.92444" lon="-122.62981">
        <ele>515.0</ele>
      </trkpt>
      <trkpt lat="37.9243858871713" lon="-122.629647661514">
        <ele>515.0</ele>
      </trkpt>
      <trkpt lat="37.9243858871713" lon="-122.629647661514">
        <ele>515.0</ele>
      </trkpt>
      <trkpt lat="37.92436" lon="-122.62957">
        <ele>521.0</ele>
      </trkpt>
      <trkpt lat="37.92436" lon="-122.62939">
        <ele>521.0</ele>
      </trkpt>
      <trkpt lat="37.92436" lon="-122.62939">
        <ele>521.0</ele>
      </trkpt>
      <trkpt lat="37.92439" lon="-122.62931">
        <ele>521.0</ele>
      </trkpt>
      <trkpt lat="37.92446" lon="-122.62929">
        <ele>529.0</ele>
      </trkpt>
      <trkpt lat="37.92451" lon="-122.62932">
        <ele>521.0</ele>
      </trkpt>
      <trkpt lat="37.92453" lon="-122.62939">
        <ele>521.0</ele>
      </trkpt>
      <trkpt lat="37.92453" lon="-122.62939">
        <ele>521.0</ele>
      </trkpt>
      <trkpt lat="37.92456" lon="-122.6295">
        <ele>521.0</ele>
      </trkpt>
      <trkpt lat="37.92463" lon="-122.62953">
        <ele>523.0</ele>
      </trkpt>
      <trkpt lat="37.92463" lon="-122.62953">
        <ele>523.0</ele>
      </trkpt>
      <trkpt lat="37.92463" lon="-122.62953">
        <ele>523.0</ele>
      </trkpt>
      <trkpt lat="37.92467" lon="-122.62947">
        <ele>523.0</ele>
      </trkpt>
      <trkpt lat="37.92467" lon="-122.62939">
        <ele>523.0</ele>
      </trkpt>
      <trkpt lat="37.92467" lon="-122.62939">
        <ele>523.0</ele>
      </trkpt>
      <trkpt lat="37.92468" lon="-122.62919">
        <ele>535.0</ele>
      </trkpt>
      <trkpt lat="37.92463" lon="-122.62909">
        <ele>535.0</ele>
      </trkpt>
      <trkpt lat="37.92441" lon="-122.62899">
        <ele>543.0</ele>
      </trkpt>
      <trkpt lat="37.92413" lon="-122.62863">
        <ele>551.0</ele>
      </trkpt>
      <trkpt lat="37.92362" lon="-122.62827">
        <ele>551.0</ele>
      </trkpt>
      <trkpt lat="37.92345" lon="-122.62792">
        <ele>548.0</ele>
      </trkpt>
      <trkpt lat="37.92343" lon="-122.62779">
        <ele>542.0</ele>
      </trkpt>
      <trkpt lat="37.9234" lon="-122.62742">
        <ele>534.0</ele>
      </trkpt>
      <trkpt lat="37.92342" lon="-122.62695">
        <ele>534.0</ele>
      </trkpt>
      <trkpt lat="37.92342" lon="-122.62695">
        <ele>534.0</ele>
      </trkpt>
      <trkpt lat="37.92339" lon="-122.62677">
        <ele>544.0</ele>
      </trkpt>
      <trkpt lat="37.92335" lon="-122.6267">
        <ele>544.0</ele>
      </trkpt>
      <trkpt lat="37.92315" lon="-122.62659">
        <ele>544.0</ele>
      </trkpt>
      <trkpt lat="37.92304" lon="-122.62655">
        <ele>544.0</ele>
      </trkpt>
      <trkpt lat="37.92275" lon="-122.62657">
        <ele>540.0</ele>
      </trkpt>
      <trkpt lat="37.92247" lon="-122.62652">
        <ele>538.0</ele>
      </trkpt>
      <trkpt lat="37.92237" lon="-122.62646">
        <ele>538.0</ele>
      </trkpt>
      <trkpt lat="37.9221" lon="-122.62603">
        <ele>543.0</ele>
      </trkpt>
      <trkpt lat="37.922" lon="-122.62604">
        <ele>542.0</ele>
      </trkpt>
      <trkpt lat="37.9219435919729" lon="-122.626105086185">
        <ele>542.0</ele>
      </trkpt>
      <trkpt lat="37.9219435919729" lon="-122.626105086185">
        <ele>542.0</ele>
      </trkpt>
      <trkpt lat="37.92187" lon="-122.62619">
        <ele>542.0</ele>
      </trkpt>
      <trkpt lat="37.9218" lon="-122.62623">
        <ele>543.0</ele>
      </trkpt>
      <trkpt lat="37.92166" lon="-122.62623">
        <ele>543.0</ele>
      </trkpt>
      <trkpt lat="37.92145" lon="-122.62616">
        <ele>544.0</ele>
      </trkpt>
      <trkpt lat="37.92125" lon="-122.62605">
        <ele>543.0</ele>
      </trkpt>
      <trkpt lat="37.92087" lon="-122.62591">
        <ele>545.0</ele>
      </trkpt>
      <trkpt lat="37.92055" lon="-122.62555">
        <ele>546.0</ele>
      </trkpt>
      <trkpt lat="37.920385992348" lon="-122.625488497131">
        <ele>547.0</ele>
      </trkpt>
      <trkpt lat="37.920385992348" lon="-122.625488497131">
        <ele>547.0</ele>
      </trkpt>
      <trkpt lat="37.92023" lon="-122.62543">
        <ele>547.0</ele>
      </trkpt>
      <trkpt lat="37.92002" lon="-122.62539">
        <ele>549.0</ele>
      </trkpt>
      <trkpt lat="37.91961" lon="-122.62521">
        <ele>552.0</ele>
      </trkpt>
      <trkpt lat="37.91918" lon="-122.62515">
        <ele>555.0</ele>
      </trkpt>
      <trkpt lat="37.91897" lon="-122.62498">
        <ele>565.0</ele>
      </trkpt>
      <trkpt lat="37.9188" lon="-122.62481">
        <ele>568.0</ele>
      </trkpt>
      <trkpt lat="37.9188" lon="-122.62481">
        <ele>568.0</ele>
      </trkpt>
      <trkpt lat="37.91866" lon="-122.62465">
        <ele>569.0</ele>
      </trkpt>
      <trkpt lat="37.91858" lon="-122.62463">
        <ele>569.0</ele>
      </trkpt>
      <trkpt lat="37.91846" lon="-122.62451">
        <ele>571.0</ele>
      </trkpt>
      <trkpt lat="37.91831" lon="-122.62445">
        <ele>571.0</ele>
      </trkpt>
      <trkpt lat="37.91828" lon="-122.62435">
        <ele>571.0</ele>
      </trkpt>
      <trkpt lat="37.91815" lon="-122.62425">
        <ele>573.0</ele>
      </trkpt>
      <trkpt lat="37.91803" lon="-122.6241">
        <ele>573.0</ele>
      </trkpt>
      <trkpt lat="37.91782" lon="-122.62411">
        <ele>573.0</ele>
      </trkpt>
      <trkpt lat="37.91763" lon="-122.624">
        <ele>577.0</ele>
      </trkpt>
      <trkpt lat="37.91749" lon="-122.624">
        <ele>577.0</ele>
      </trkpt>
      <trkpt lat="37.91731" lon="-122.62405">
        <ele>576.0</ele>
      </trkpt>
      <trkpt lat="37.91719" lon="-122.62354">
        <ele>577.0</ele>
      </trkpt>
      <trkpt lat="37.91722" lon="-122.62338">
        <ele>579.0</ele>
      </trkpt>
      <trkpt lat="37.91708" lon="-122.62334">
        <ele>579.0</ele>
      </trkpt>
      <trkpt lat="37.91698" lon="-122.62317">
        <ele>581.0</ele>
      </trkpt>
      <trkpt lat="37.91693" lon="-122.62316">
        <ele>581.0</ele>
      </trkpt>
      <trkpt lat="37.9168" lon="-122.62308">
        <ele>577.0</ele>
      </trkpt>
      <trkpt lat="37.91665" lon="-122.62289">
        <ele>576.0</ele>
      </trkpt>
      <trkpt lat="37.91636" lon="-122.62285">
        <ele>577.0</ele>
      </trkpt>
      <trkpt lat="37.91622" lon="-122.62276">
        <ele>577.0</ele>
      </trkpt>
      <trkpt lat="37.91593" lon="-122.62268">
        <ele>577.0</ele>
      </trkpt>
      <trkpt lat="37.9156" lon="-122.62263">
        <ele>571.0</ele>
      </trkpt>
      <trkpt lat="37.9152145238485" lon="-122.622407609913">
        <ele>574.0</ele>
      </trkpt>
      <trkpt lat="37.9152145238485" lon="-122.622407609913">
        <ele>574.0</ele>
      </trkpt>
      <trkpt lat="37.91508" lon="-122.62233">
        <ele>575.0</ele>
      </trkpt>
      <trkpt lat="37.91485" lon="-122.62226">
        <ele>575.0</ele>
      </trkpt>
      <trkpt lat="37.91473" lon="-122.62208">
        <ele>571.0</ele>
      </trkpt>
      <trkpt lat="37.91441" lon="-122.62186">
        <ele>571.0</ele>
      </trkpt>
      <trkpt lat="37.91426" lon="-122.62163">
        <ele>580.0</ele>
      </trkpt>
      <trkpt lat="37.91421" lon="-122.62138">
        <ele>582.0</ele>
      </trkpt>
      <trkpt lat="37.91425" lon="-122.62094">
        <ele>586.0</ele>
      </trkpt>
      <trkpt lat="37.91419" lon="-122.62047">
        <ele>588.0</ele>
      </trkpt>
      <trkpt lat="37.91414" lon="-122.62022">
        <ele>590.0</ele>
      </trkpt>
      <trkpt lat="37.91406" lon="-122.62005">
        <ele>595.0</ele>
      </trkpt>
      <trkpt lat="37.91373" lon="-122.61954">
        <ele>602.0</ele>
      </trkpt>
      <trkpt lat="37.91351" lon="-122.61913">
        <ele>597.0</ele>
      </trkpt>
      <trkpt lat="37.91341" lon="-122.61877">
        <ele>600.0</ele>
      </trkpt>
      <trkpt lat="37.91332" lon="-122.61854">
        <ele>596.0</ele>
      </trkpt>
      <trkpt lat="37.91334" lon="-122.61831">
        <ele>592.0</ele>
      </trkpt>
      <trkpt lat="37.91326" lon="-122.61821">
        <ele>592.0</ele>
      </trkpt>
      <trkpt lat="37.9132" lon="-122.61805">
        <ele>593.0</ele>
      </trkpt>
      <trkpt lat="37.91318" lon="-122.6178">
        <ele>591.0</ele>
      </trkpt>
      <trkpt lat="37.9132" lon="-122.61769">
        <ele>593.0</ele>
      </trkpt>
      <trkpt lat="37.9131" lon="-122.61753">
        <ele>591.0</ele>
      </trkpt>
      <trkpt lat="37.91299" lon="-122.61713">
        <ele>590.0</ele>
      </trkpt>
      <trkpt lat="37.91284" lon="-122.6169">
        <ele>595.0</ele>
      </trkpt>
      <trkpt lat="37.91271" lon="-122.61676">
        <ele>598.0</ele>
      </trkpt>
      <trkpt lat="37.9126" lon="-122.61654">
        <ele>595.0</ele>
      </trkpt>
      <trkpt lat="37.91245" lon="-122.61637">
        <ele>597.0</ele>
      </trkpt>
      <trkpt lat="37.91234" lon="-122.61619">
        <ele>599.0</ele>
      </trkpt>
      <trkpt lat="37.91229" lon="-122.61615">
        <ele>599.0</ele>
      </trkpt>
      <trkpt lat="37.91212" lon="-122.61613">
        <ele>599.0</ele>
      </trkpt>
      <trkpt lat="37.91194" lon="-122.61607">
        <ele>599.0</ele>
      </trkpt>
      <trkpt lat="37.91155" lon="-122.6154">
        <ele>592.0</ele>
      </trkpt>
      <trkpt lat="37.91154" lon="-122.61517">
        <ele>592.0</ele>
      </trkpt>
      <trkpt lat="37.91142" lon="-122.61498">
        <ele>594.0</ele>
      </trkpt>
      <trkpt lat="37.9114" lon="-122.61476">
        <ele>594.0</ele>
      </trkpt>
      <trkpt lat="37.91144" lon="-122.61448">
        <ele>598.0</ele>
      </trkpt>
      <trkpt lat="37.91155" lon="-122.6143">
        <ele>600.0</ele>
      </trkpt>
      <trkpt lat="37.91169" lon="-122.61417">
        <ele>600.0</ele>
      </trkpt>
      <trkpt lat="37.91169" lon="-122.61417">
        <ele>600.0</ele>
      </trkpt>
      <trkpt lat="37.91179" lon="-122.61398">
        <ele>602.0</ele>
      </trkpt>
      <trkpt lat="37.91179" lon="-122.61398">
        <ele>602.0</ele>
      </trkpt>
      <trkpt lat="37.91184" lon="-122.61365">
        <ele>601.0</ele>
      </trkpt>
      <trkpt lat="37.91181" lon="-122.61346">
        <ele>602.0</ele>
      </trkpt>
      <trkpt lat="37.91177" lon="-122.61336">
        <ele>606.0</ele>
      </trkpt>
      <trkpt lat="37.91177" lon="-122.61336">
        <ele>606.0</ele>
      </trkpt>
      <trkpt lat="37.91148" lon="-122.61309">
        <ele>610.0</ele>
      </trkpt>
      <trkpt lat="37.91089" lon="-122.61279">
        <ele>611.0</ele>
      </trkpt>
      <trkpt lat="37.91089" lon="-122.61279">
        <ele>611.0</ele>
      </trkpt>
      <trkpt lat="37.91089" lon="-122.61279">
        <ele>611.0</ele>
      </trkpt>
      <trkpt lat="37.91077" lon="-122.6127">
        <ele>611.0</ele>
      </trkpt>
      <trkpt lat="37.91077" lon="-122.6127">
        <ele>611.0</ele>
      </trkpt>
    </trkseg>
  </trk>
</gpx>
