<?xml version="1.0" encoding="UTF-8"?>
<gpx xmlns:xsi="http://www.w3.org/2001/XMLSchema-instance" version="1.1" creator="The Outbound Collective, Inc. 1.1.1 -- https://www.theoutbound.com" xsi:schemaLocation="http://www.topografix.com/GPX/1/1 http://www.topografix.com/GPX/1/1/gpx.xsd">
  <metadata>
    <name/>
    <time>2026-02-19T21:49:46+00:00</time>
    <bound minlat="37.89134" minlon="-122.57531" maxlat="37.90636" maxlon="-122.56124"/>
  </metadata>
  <trk>
    <name/>
    <trkseg>
      <trkpt lat="37.8923056162307" lon="-122.57208108902">
        <ele>62.0</ele>
      </trkpt>
      <trkpt lat="37.8923001436168" lon="-122.572093179226">
        <ele>65.0</ele>
      </trkpt>
      <trkpt lat="37.89261" lon="-122.57236">
        <ele>63.0</ele>
      </trkpt>
      <trkpt lat="37.89276" lon="-122.57253">
        <ele>65.0</ele>
      </trkpt>
      <trkpt lat="37.89278" lon="-122.57281">
        <ele>69.0</ele>
      </trkpt>
      <trkpt lat="37.89322" lon="-122.57317">
        <ele>76.0</ele>
      </trkpt>
      <trkpt lat="37.89322" lon="-122.57317">
        <ele>76.0</ele>
      </trkpt>
      <trkpt lat="37.89322" lon="-122.57317">
        <ele>76.0</ele>
      </trkpt>
      <trkpt lat="37.8932582186651" lon="-122.573259174185">
        <ele>78.0</ele>
      </trkpt>
      <trkpt lat="37.8932582186651" lon="-122.573259174185">
        <ele>78.0</ele>
      </trkpt>
      <trkpt lat="37.89328" lon="-122.57331">
        <ele>78.0</ele>
      </trkpt>
      <trkpt lat="37.89328" lon="-122.57331">
        <ele>78.0</ele>
      </trkpt>
      <trkpt lat="37.89338" lon="-122.57328">
        <ele>78.0</ele>
      </trkpt>
      <trkpt lat="37.89351" lon="-122.5734">
        <ele>77.0</ele>
      </trkpt>
      <trkpt lat="37.89384" lon="-122.57407">
        <ele>82.0</ele>
      </trkpt>
      <trkpt lat="37.8940395476641" lon="-122.574233914153">
        <ele>86.0</ele>
      </trkpt>
      <trkpt lat="37.8940395476641" lon="-122.574233914153">
        <ele>86.0</ele>
      </trkpt>
      <trkpt lat="37.89412" lon="-122.5743">
        <ele>86.0</ele>
      </trkpt>
      <trkpt lat="37.89423" lon="-122.57449">
        <ele>81.0</ele>
      </trkpt>
      <trkpt lat="37.8942707328331" lon="-122.574629655428">
        <ele>73.0</ele>
      </trkpt>
      <trkpt lat="37.8942707328331" lon="-122.574629655428">
        <ele>73.0</ele>
      </trkpt>
      <trkpt lat="37.8943" lon="-122.57473">
        <ele>73.0</ele>
      </trkpt>
      <trkpt lat="37.8944" lon="-122.57486">
        <ele>79.0</ele>
      </trkpt>
      <trkpt lat="37.8944" lon="-122.57486">
        <ele>79.0</ele>
      </trkpt>
      <trkpt lat="37.89453" lon="-122.57477">
        <ele>79.0</ele>
      </trkpt>
      <trkpt lat="37.8946" lon="-122.57476">
        <ele>87.0</ele>
      </trkpt>
      <trkpt lat="37.89473" lon="-122.57483">
        <ele>87.0</ele>
      </trkpt>
      <trkpt lat="37.89513" lon="-122.57486">
        <ele>97.0</ele>
      </trkpt>
      <trkpt lat="37.89522" lon="-122.57479">
        <ele>104.0</ele>
      </trkpt>
      <trkpt lat="37.89542" lon="-122.57446">
        <ele>110.0</ele>
      </trkpt>
      <trkpt lat="37.89564" lon="-122.57418">
        <ele>116.0</ele>
      </trkpt>
      <trkpt lat="37.89578" lon="-122.57442">
        <ele>113.0</ele>
      </trkpt>
      <trkpt lat="37.89636" lon="-122.57443">
        <ele>113.0</ele>
      </trkpt>
      <trkpt lat="37.89658" lon="-122.57447">
        <ele>112.0</ele>
      </trkpt>
      <trkpt lat="37.89669" lon="-122.57429">
        <ele>119.0</ele>
      </trkpt>
      <trkpt lat="37.89674" lon="-122.57397">
        <ele>129.0</ele>
      </trkpt>
      <trkpt lat="37.89686" lon="-122.57369">
        <ele>135.0</ele>
      </trkpt>
      <trkpt lat="37.89705" lon="-122.57347">
        <ele>145.0</ele>
      </trkpt>
      <trkpt lat="37.89719" lon="-122.57367">
        <ele>133.0</ele>
      </trkpt>
      <trkpt lat="37.8973" lon="-122.5737">
        <ele>133.0</ele>
      </trkpt>
      <trkpt lat="37.89741" lon="-122.57368">
        <ele>133.0</ele>
      </trkpt>
      <trkpt lat="37.89757" lon="-122.57357">
        <ele>133.0</ele>
      </trkpt>
      <trkpt lat="37.89789" lon="-122.57323">
        <ele>143.0</ele>
      </trkpt>
      <trkpt lat="37.89806" lon="-122.5732">
        <ele>130.0</ele>
      </trkpt>
      <trkpt lat="37.89821" lon="-122.57311">
        <ele>129.0</ele>
      </trkpt>
      <trkpt lat="37.89828" lon="-122.57304">
        <ele>129.0</ele>
      </trkpt>
      <trkpt lat="37.8983" lon="-122.5729">
        <ele>141.0</ele>
      </trkpt>
      <trkpt lat="37.8984" lon="-122.57271">
        <ele>141.0</ele>
      </trkpt>
      <trkpt lat="37.89841" lon="-122.57245">
        <ele>153.0</ele>
      </trkpt>
      <trkpt lat="37.8984267275758" lon="-122.572406986234">
        <ele>153.0</ele>
      </trkpt>
      <trkpt lat="37.8984267275758" lon="-122.572406986234">
        <ele>153.0</ele>
      </trkpt>
      <trkpt lat="37.89848" lon="-122.57227">
        <ele>151.0</ele>
      </trkpt>
      <trkpt lat="37.89867" lon="-122.57226">
        <ele>151.0</ele>
      </trkpt>
      <trkpt lat="37.8987" lon="-122.57208">
        <ele>157.0</ele>
      </trkpt>
      <trkpt lat="37.89875" lon="-122.57217">
        <ele>151.0</ele>
      </trkpt>
      <trkpt lat="37.89885" lon="-122.57217">
        <ele>147.0</ele>
      </trkpt>
      <trkpt lat="37.89894" lon="-122.57206">
        <ele>150.0</ele>
      </trkpt>
      <trkpt lat="37.89903" lon="-122.57203">
        <ele>153.0</ele>
      </trkpt>
      <trkpt lat="37.89912" lon="-122.57196">
        <ele>153.0</ele>
      </trkpt>
      <trkpt lat="37.89919" lon="-122.57186">
        <ele>153.0</ele>
      </trkpt>
      <trkpt lat="37.89927" lon="-122.57183">
        <ele>153.0</ele>
      </trkpt>
      <trkpt lat="37.89921" lon="-122.57197">
        <ele>153.0</ele>
      </trkpt>
      <trkpt lat="37.89908" lon="-122.5721">
        <ele>150.0</ele>
      </trkpt>
      <trkpt lat="37.89907" lon="-122.57219">
        <ele>150.0</ele>
      </trkpt>
      <trkpt lat="37.8991" lon="-122.5725">
        <ele>148.0</ele>
      </trkpt>
      <trkpt lat="37.89906" lon="-122.57261">
        <ele>148.0</ele>
      </trkpt>
      <trkpt lat="37.89904" lon="-122.57278">
        <ele>145.0</ele>
      </trkpt>
      <trkpt lat="37.89905" lon="-122.57299">
        <ele>141.0</ele>
      </trkpt>
      <trkpt lat="37.899" lon="-122.57386">
        <ele>114.0</ele>
      </trkpt>
      <trkpt lat="37.89902" lon="-122.5742">
        <ele>115.0</ele>
      </trkpt>
      <trkpt lat="37.89911" lon="-122.57428">
        <ele>131.0</ele>
      </trkpt>
      <trkpt lat="37.8992" lon="-122.57429">
        <ele>131.0</ele>
      </trkpt>
      <trkpt lat="37.90044" lon="-122.57283">
        <ele>179.0</ele>
      </trkpt>
      <trkpt lat="37.90051" lon="-122.5729">
        <ele>179.0</ele>
      </trkpt>
      <trkpt lat="37.90051" lon="-122.57341">
        <ele>164.0</ele>
      </trkpt>
      <trkpt lat="37.90061" lon="-122.5736">
        <ele>161.0</ele>
      </trkpt>
      <trkpt lat="37.90072" lon="-122.57369">
        <ele>170.0</ele>
      </trkpt>
      <trkpt lat="37.9009" lon="-122.57372">
        <ele>170.0</ele>
      </trkpt>
      <trkpt lat="37.90131" lon="-122.57369">
        <ele>183.0</ele>
      </trkpt>
      <trkpt lat="37.90185" lon="-122.57341">
        <ele>196.0</ele>
      </trkpt>
      <trkpt lat="37.90223" lon="-122.57289">
        <ele>220.0</ele>
      </trkpt>
      <trkpt lat="37.90231" lon="-122.57272">
        <ele>220.0</ele>
      </trkpt>
      <trkpt lat="37.90249" lon="-122.57251">
        <ele>224.0</ele>
      </trkpt>
      <trkpt lat="37.90256" lon="-122.57251">
        <ele>224.0</ele>
      </trkpt>
      <trkpt lat="37.90265" lon="-122.57257">
        <ele>229.0</ele>
      </trkpt>
      <trkpt lat="37.90297" lon="-122.57334">
        <ele>216.0</ele>
      </trkpt>
      <trkpt lat="37.90303" lon="-122.57343">
        <ele>216.0</ele>
      </trkpt>
      <trkpt lat="37.90317" lon="-122.57354">
        <ele>212.0</ele>
      </trkpt>
      <trkpt lat="37.9034" lon="-122.57351">
        <ele>221.0</ele>
      </trkpt>
      <trkpt lat="37.90345" lon="-122.57354">
        <ele>221.0</ele>
      </trkpt>
      <trkpt lat="37.90348" lon="-122.57361">
        <ele>227.0</ele>
      </trkpt>
      <trkpt lat="37.90347" lon="-122.57369">
        <ele>221.0</ele>
      </trkpt>
      <trkpt lat="37.90337" lon="-122.57386">
        <ele>215.0</ele>
      </trkpt>
      <trkpt lat="37.90332" lon="-122.57407">
        <ele>218.0</ele>
      </trkpt>
      <trkpt lat="37.90328" lon="-122.57437">
        <ele>224.0</ele>
      </trkpt>
      <trkpt lat="37.90328" lon="-122.5748">
        <ele>224.0</ele>
      </trkpt>
      <trkpt lat="37.90315" lon="-122.57495">
        <ele>210.0</ele>
      </trkpt>
      <trkpt lat="37.90323" lon="-122.57505">
        <ele>219.0</ele>
      </trkpt>
      <trkpt lat="37.9037919086412" lon="-122.57527135795">
        <ele>234.0</ele>
      </trkpt>
      <trkpt lat="37.9037919086412" lon="-122.57527135795">
        <ele>234.0</ele>
      </trkpt>
      <trkpt lat="37.90389" lon="-122.57531">
        <ele>234.0</ele>
      </trkpt>
      <trkpt lat="37.90404" lon="-122.57528">
        <ele>240.0</ele>
      </trkpt>
      <trkpt lat="37.90423" lon="-122.57515">
        <ele>240.0</ele>
      </trkpt>
      <trkpt lat="37.9045" lon="-122.5749">
        <ele>251.0</ele>
      </trkpt>
      <trkpt lat="37.90531" lon="-122.57435">
        <ele>262.0</ele>
      </trkpt>
      <trkpt lat="37.90547" lon="-122.57417">
        <ele>272.0</ele>
      </trkpt>
      <trkpt lat="37.90559" lon="-122.57413">
        <ele>272.0</ele>
      </trkpt>
      <trkpt lat="37.90572" lon="-122.57425">
        <ele>279.0</ele>
      </trkpt>
      <trkpt lat="37.90577" lon="-122.5745">
        <ele>269.0</ele>
      </trkpt>
      <trkpt lat="37.90584" lon="-122.57458">
        <ele>269.0</ele>
      </trkpt>
      <trkpt lat="37.90611" lon="-122.57457">
        <ele>277.0</ele>
      </trkpt>
      <trkpt lat="37.90629" lon="-122.57467">
        <ele>278.0</ele>
      </trkpt>
      <trkpt lat="37.90628" lon="-122.57459">
        <ele>278.0</ele>
      </trkpt>
      <trkpt lat="37.90622" lon="-122.57447">
        <ele>277.0</ele>
      </trkpt>
      <trkpt lat="37.90605" lon="-122.57432">
        <ele>277.0</ele>
      </trkpt>
      <trkpt lat="37.90604" lon="-122.57427">
        <ele>286.0</ele>
      </trkpt>
      <trkpt lat="37.90607" lon="-122.5743">
        <ele>286.0</ele>
      </trkpt>
      <trkpt lat="37.90625" lon="-122.57439">
        <ele>277.0</ele>
      </trkpt>
      <trkpt lat="37.90633" lon="-122.57449">
        <ele>286.0</ele>
      </trkpt>
      <trkpt lat="37.90635" lon="-122.57449">
        <ele>286.0</ele>
      </trkpt>
      <trkpt lat="37.9063481251565" lon="-122.574489374217">
        <ele>286.0</ele>
      </trkpt>
      <trkpt lat="37.90636" lon="-122.57443">
        <ele>286.0</ele>
      </trkpt>
      <trkpt lat="37.90636" lon="-122.57443">
        <ele>286.0</ele>
      </trkpt>
      <trkpt lat="37.90614" lon="-122.57426">
        <ele>286.0</ele>
      </trkpt>
      <trkpt lat="37.90607" lon="-122.57394">
        <ele>295.0</ele>
      </trkpt>
      <trkpt lat="37.90591" lon="-122.57359">
        <ele>303.0</ele>
      </trkpt>
      <trkpt lat="37.90586" lon="-122.57357">
        <ele>303.0</ele>
      </trkpt>
      <trkpt lat="37.90571" lon="-122.57358">
        <ele>303.0</ele>
      </trkpt>
      <trkpt lat="37.9055482075066" lon="-122.57344375369">
        <ele>312.0</ele>
      </trkpt>
      <trkpt lat="37.90555" lon="-122.57344">
        <ele>312.0</ele>
      </trkpt>
      <trkpt lat="37.90558" lon="-122.57338">
        <ele>312.0</ele>
      </trkpt>
      <trkpt lat="37.90547" lon="-122.57321">
        <ele>312.0</ele>
      </trkpt>
      <trkpt lat="37.90544" lon="-122.57312">
        <ele>315.0</ele>
      </trkpt>
      <trkpt lat="37.9054400000073" lon="-122.573119999985">
        <ele>315.0</ele>
      </trkpt>
      <trkpt lat="37.90541" lon="-122.57318">
        <ele>306.0</ele>
      </trkpt>
      <trkpt lat="37.9053453692849" lon="-122.573223087143">
        <ele>303.0</ele>
      </trkpt>
      <trkpt lat="37.9053453692849" lon="-122.573223087143">
        <ele>303.0</ele>
      </trkpt>
      <trkpt lat="37.90532" lon="-122.57324">
        <ele>303.0</ele>
      </trkpt>
      <trkpt lat="37.90529" lon="-122.57319">
        <ele>306.0</ele>
      </trkpt>
      <trkpt lat="37.90522" lon="-122.57294">
        <ele>306.0</ele>
      </trkpt>
      <trkpt lat="37.90522" lon="-122.57292">
        <ele>306.0</ele>
      </trkpt>
      <trkpt lat="37.90522" lon="-122.57292">
        <ele>306.0</ele>
      </trkpt>
      <trkpt lat="37.90511" lon="-122.5726">
        <ele>293.0</ele>
      </trkpt>
      <trkpt lat="37.90512" lon="-122.57242">
        <ele>293.0</ele>
      </trkpt>
      <trkpt lat="37.90481" lon="-122.57204">
        <ele>293.0</ele>
      </trkpt>
      <trkpt lat="37.9047097487135" lon="-122.571730132387">
        <ele>298.0</ele>
      </trkpt>
      <trkpt lat="37.90471" lon="-122.57173">
        <ele>298.0</ele>
      </trkpt>
      <trkpt lat="37.90455" lon="-122.57172">
        <ele>298.0</ele>
      </trkpt>
      <trkpt lat="37.90431" lon="-122.57186">
        <ele>291.0</ele>
      </trkpt>
      <trkpt lat="37.90415" lon="-122.57187">
        <ele>283.0</ele>
      </trkpt>
      <trkpt lat="37.90397" lon="-122.57195">
        <ele>272.0</ele>
      </trkpt>
      <trkpt lat="37.90386" lon="-122.57196">
        <ele>272.0</ele>
      </trkpt>
      <trkpt lat="37.90381" lon="-122.57191">
        <ele>272.0</ele>
      </trkpt>
      <trkpt lat="37.90377" lon="-122.57179">
        <ele>275.0</ele>
      </trkpt>
      <trkpt lat="37.90376" lon="-122.5717">
        <ele>275.0</ele>
      </trkpt>
      <trkpt lat="37.90381" lon="-122.57151">
        <ele>280.0</ele>
      </trkpt>
      <trkpt lat="37.90376" lon="-122.57125">
        <ele>285.0</ele>
      </trkpt>
      <trkpt lat="37.90366" lon="-122.57121">
        <ele>276.0</ele>
      </trkpt>
      <trkpt lat="37.9036" lon="-122.5711">
        <ele>276.0</ele>
      </trkpt>
      <trkpt lat="37.90334" lon="-122.57115">
        <ele>267.0</ele>
      </trkpt>
      <trkpt lat="37.90316" lon="-122.57114">
        <ele>264.0</ele>
      </trkpt>
      <trkpt lat="37.90302" lon="-122.57106">
        <ele>264.0</ele>
      </trkpt>
      <trkpt lat="37.90297" lon="-122.571">
        <ele>264.0</ele>
      </trkpt>
      <trkpt lat="37.9029" lon="-122.571">
        <ele>267.0</ele>
      </trkpt>
      <trkpt lat="37.90274" lon="-122.5711">
        <ele>267.0</ele>
      </trkpt>
      <trkpt lat="37.90252" lon="-122.57147">
        <ele>261.0</ele>
      </trkpt>
      <trkpt lat="37.90206" lon="-122.57185">
        <ele>254.0</ele>
      </trkpt>
      <trkpt lat="37.90182" lon="-122.57212">
        <ele>244.0</ele>
      </trkpt>
      <trkpt lat="37.90157" lon="-122.57246">
        <ele>235.0</ele>
      </trkpt>
      <trkpt lat="37.9015" lon="-122.5725">
        <ele>220.0</ele>
      </trkpt>
      <trkpt lat="37.90143" lon="-122.5725">
        <ele>220.0</ele>
      </trkpt>
      <trkpt lat="37.90138" lon="-122.57244">
        <ele>220.0</ele>
      </trkpt>
      <trkpt lat="37.90124" lon="-122.57211">
        <ele>213.0</ele>
      </trkpt>
      <trkpt lat="37.90117" lon="-122.57201">
        <ele>225.0</ele>
      </trkpt>
      <trkpt lat="37.90103" lon="-122.57196">
        <ele>225.0</ele>
      </trkpt>
      <trkpt lat="37.90081" lon="-122.57196">
        <ele>213.0</ele>
      </trkpt>
      <trkpt lat="37.90075" lon="-122.57192">
        <ele>213.0</ele>
      </trkpt>
      <trkpt lat="37.90071" lon="-122.57184">
        <ele>213.0</ele>
      </trkpt>
      <trkpt lat="37.90067" lon="-122.57161">
        <ele>208.0</ele>
      </trkpt>
      <trkpt lat="37.90062" lon="-122.57144">
        <ele>217.0</ele>
      </trkpt>
      <trkpt lat="37.90045" lon="-122.5711">
        <ele>214.0</ele>
      </trkpt>
      <trkpt lat="37.90043" lon="-122.57082">
        <ele>215.0</ele>
      </trkpt>
      <trkpt lat="37.9005" lon="-122.57051">
        <ele>219.0</ele>
      </trkpt>
      <trkpt lat="37.90048" lon="-122.57038">
        <ele>226.0</ele>
      </trkpt>
      <trkpt lat="37.90025" lon="-122.57025">
        <ele>212.0</ele>
      </trkpt>
      <trkpt lat="37.90006" lon="-122.56998">
        <ele>219.0</ele>
      </trkpt>
      <trkpt lat="37.89992" lon="-122.56999">
        <ele>219.0</ele>
      </trkpt>
      <trkpt lat="37.89966" lon="-122.57015">
        <ele>205.0</ele>
      </trkpt>
      <trkpt lat="37.89944" lon="-122.57016">
        <ele>206.0</ele>
      </trkpt>
      <trkpt lat="37.89924" lon="-122.57007">
        <ele>219.0</ele>
      </trkpt>
      <trkpt lat="37.89891" lon="-122.56977">
        <ele>231.0</ele>
      </trkpt>
      <trkpt lat="37.89881" lon="-122.56977">
        <ele>231.0</ele>
      </trkpt>
      <trkpt lat="37.89864" lon="-122.56987">
        <ele>225.0</ele>
      </trkpt>
      <trkpt lat="37.8985029939901" lon="-122.569853881646">
        <ele>236.0</ele>
      </trkpt>
      <trkpt lat="37.8985029939901" lon="-122.569853881646">
        <ele>236.0</ele>
      </trkpt>
      <trkpt lat="37.89847" lon="-122.56985">
        <ele>238.0</ele>
      </trkpt>
      <trkpt lat="37.89847" lon="-122.56985">
        <ele>238.0</ele>
      </trkpt>
      <trkpt lat="37.89822" lon="-122.56982">
        <ele>238.0</ele>
      </trkpt>
      <trkpt lat="37.89805" lon="-122.56992">
        <ele>237.0</ele>
      </trkpt>
      <trkpt lat="37.89801" lon="-122.57005">
        <ele>237.0</ele>
      </trkpt>
      <trkpt lat="37.89793" lon="-122.57015">
        <ele>229.0</ele>
      </trkpt>
      <trkpt lat="37.8978" lon="-122.57018">
        <ele>234.0</ele>
      </trkpt>
      <trkpt lat="37.8978" lon="-122.57018">
        <ele>234.0</ele>
      </trkpt>
      <trkpt lat="37.8978" lon="-122.57018">
        <ele>234.0</ele>
      </trkpt>
      <trkpt lat="37.89756" lon="-122.57039">
        <ele>230.0</ele>
      </trkpt>
      <trkpt lat="37.89742" lon="-122.57039">
        <ele>230.0</ele>
      </trkpt>
      <trkpt lat="37.89731" lon="-122.57028">
        <ele>222.0</ele>
      </trkpt>
      <trkpt lat="37.89713" lon="-122.56993">
        <ele>221.0</ele>
      </trkpt>
      <trkpt lat="37.89709" lon="-122.56971">
        <ele>220.0</ele>
      </trkpt>
      <trkpt lat="37.89709" lon="-122.5692">
        <ele>229.0</ele>
      </trkpt>
      <trkpt lat="37.89704" lon="-122.56908">
        <ele>217.0</ele>
      </trkpt>
      <trkpt lat="37.89694" lon="-122.56894">
        <ele>220.0</ele>
      </trkpt>
      <trkpt lat="37.89691" lon="-122.56882">
        <ele>220.0</ele>
      </trkpt>
      <trkpt lat="37.8969" lon="-122.56863">
        <ele>222.0</ele>
      </trkpt>
      <trkpt lat="37.89695" lon="-122.56832">
        <ele>225.0</ele>
      </trkpt>
      <trkpt lat="37.89694" lon="-122.568">
        <ele>232.0</ele>
      </trkpt>
      <trkpt lat="37.89692" lon="-122.56792">
        <ele>232.0</ele>
      </trkpt>
      <trkpt lat="37.89674" lon="-122.56789">
        <ele>230.0</ele>
      </trkpt>
      <trkpt lat="37.89647" lon="-122.56801">
        <ele>219.0</ele>
      </trkpt>
      <trkpt lat="37.89632" lon="-122.56802">
        <ele>219.0</ele>
      </trkpt>
      <trkpt lat="37.89615" lon="-122.56795">
        <ele>210.0</ele>
      </trkpt>
      <trkpt lat="37.89605" lon="-122.56782">
        <ele>213.0</ele>
      </trkpt>
      <trkpt lat="37.89603" lon="-122.56768">
        <ele>213.0</ele>
      </trkpt>
      <trkpt lat="37.89606" lon="-122.56755">
        <ele>213.0</ele>
      </trkpt>
      <trkpt lat="37.89628" lon="-122.56719">
        <ele>225.0</ele>
      </trkpt>
      <trkpt lat="37.89635" lon="-122.56688">
        <ele>221.0</ele>
      </trkpt>
      <trkpt lat="37.8965" lon="-122.56664">
        <ele>222.0</ele>
      </trkpt>
      <trkpt lat="37.89645" lon="-122.56658">
        <ele>222.0</ele>
      </trkpt>
      <trkpt lat="37.89611" lon="-122.56643">
        <ele>211.0</ele>
      </trkpt>
      <trkpt lat="37.89605" lon="-122.56637">
        <ele>211.0</ele>
      </trkpt>
      <trkpt lat="37.8959689067694" lon="-122.566207813539">
        <ele>210.0</ele>
      </trkpt>
      <trkpt lat="37.8959689067694" lon="-122.566207813539">
        <ele>210.0</ele>
      </trkpt>
      <trkpt lat="37.89588" lon="-122.56603">
        <ele>210.0</ele>
      </trkpt>
      <trkpt lat="37.89582" lon="-122.56581">
        <ele>219.0</ele>
      </trkpt>
      <trkpt lat="37.89559" lon="-122.56559">
        <ele>209.0</ele>
      </trkpt>
      <trkpt lat="37.89556" lon="-122.56551">
        <ele>209.0</ele>
      </trkpt>
      <trkpt lat="37.89556" lon="-122.56537">
        <ele>206.0</ele>
      </trkpt>
      <trkpt lat="37.8956" lon="-122.56524">
        <ele>206.0</ele>
      </trkpt>
      <trkpt lat="37.89566" lon="-122.56513">
        <ele>198.0</ele>
      </trkpt>
      <trkpt lat="37.89576" lon="-122.565">
        <ele>205.0</ele>
      </trkpt>
      <trkpt lat="37.89588" lon="-122.5649">
        <ele>205.0</ele>
      </trkpt>
      <trkpt lat="37.89608" lon="-122.5648">
        <ele>205.0</ele>
      </trkpt>
      <trkpt lat="37.89633" lon="-122.56474">
        <ele>218.0</ele>
      </trkpt>
      <trkpt lat="37.89638" lon="-122.56464">
        <ele>218.0</ele>
      </trkpt>
      <trkpt lat="37.89634" lon="-122.56435">
        <ele>217.0</ele>
      </trkpt>
      <trkpt lat="37.89639" lon="-122.56421">
        <ele>219.0</ele>
      </trkpt>
      <trkpt lat="37.89617" lon="-122.56406">
        <ele>208.0</ele>
      </trkpt>
      <trkpt lat="37.89609" lon="-122.56383">
        <ele>211.0</ele>
      </trkpt>
      <trkpt lat="37.89596" lon="-122.56361">
        <ele>200.0</ele>
      </trkpt>
      <trkpt lat="37.89594" lon="-122.56348">
        <ele>200.0</ele>
      </trkpt>
      <trkpt lat="37.89594" lon="-122.56348">
        <ele>200.0</ele>
      </trkpt>
      <trkpt lat="37.89589" lon="-122.56306">
        <ele>199.0</ele>
      </trkpt>
      <trkpt lat="37.89589" lon="-122.56288">
        <ele>197.0</ele>
      </trkpt>
      <trkpt lat="37.89602" lon="-122.56244">
        <ele>206.0</ele>
      </trkpt>
      <trkpt lat="37.89608" lon="-122.56233">
        <ele>197.0</ele>
      </trkpt>
      <trkpt lat="37.89617" lon="-122.56225">
        <ele>197.0</ele>
      </trkpt>
      <trkpt lat="37.89635" lon="-122.56218">
        <ele>205.0</ele>
      </trkpt>
      <trkpt lat="37.89661" lon="-122.5622">
        <ele>213.0</ele>
      </trkpt>
      <trkpt lat="37.89679" lon="-122.56203">
        <ele>204.0</ele>
      </trkpt>
      <trkpt lat="37.89708" lon="-122.5619">
        <ele>211.0</ele>
      </trkpt>
      <trkpt lat="37.89727" lon="-122.56196">
        <ele>218.0</ele>
      </trkpt>
      <trkpt lat="37.89727" lon="-122.56196">
        <ele>218.0</ele>
      </trkpt>
      <trkpt lat="37.8971" lon="-122.56181">
        <ele>218.0</ele>
      </trkpt>
      <trkpt lat="37.89701" lon="-122.56182">
        <ele>211.0</ele>
      </trkpt>
      <trkpt lat="37.89684" lon="-122.56178">
        <ele>209.0</ele>
      </trkpt>
      <trkpt lat="37.89652" lon="-122.56162">
        <ele>194.0</ele>
      </trkpt>
      <trkpt lat="37.89652" lon="-122.56162">
        <ele>194.0</ele>
      </trkpt>
      <trkpt lat="37.8964" lon="-122.56158">
        <ele>194.0</ele>
      </trkpt>
      <trkpt lat="37.89639" lon="-122.56139">
        <ele>195.0</ele>
      </trkpt>
      <trkpt lat="37.89633" lon="-122.56124">
        <ele>200.0</ele>
      </trkpt>
      <trkpt lat="37.89636" lon="-122.56143">
        <ele>195.0</ele>
      </trkpt>
      <trkpt lat="37.89631" lon="-122.56154">
        <ele>194.0</ele>
      </trkpt>
      <trkpt lat="37.89605" lon="-122.56159">
        <ele>186.0</ele>
      </trkpt>
      <trkpt lat="37.89583" lon="-122.56158">
        <ele>179.0</ele>
      </trkpt>
      <trkpt lat="37.89532" lon="-122.56186">
        <ele>174.0</ele>
      </trkpt>
      <trkpt lat="37.89523" lon="-122.56195">
        <ele>174.0</ele>
      </trkpt>
      <trkpt lat="37.89525" lon="-122.56214">
        <ele>180.0</ele>
      </trkpt>
      <trkpt lat="37.89534" lon="-122.56233">
        <ele>180.0</ele>
      </trkpt>
      <trkpt lat="37.89534" lon="-122.56233">
        <ele>180.0</ele>
      </trkpt>
      <trkpt lat="37.89526" lon="-122.56248">
        <ele>181.0</ele>
      </trkpt>
      <trkpt lat="37.89526" lon="-122.56248">
        <ele>181.0</ele>
      </trkpt>
      <trkpt lat="37.89495" lon="-122.56268">
        <ele>172.0</ele>
      </trkpt>
      <trkpt lat="37.89506" lon="-122.56252">
        <ele>170.0</ele>
      </trkpt>
      <trkpt lat="37.89471" lon="-122.56281">
        <ele>160.0</ele>
      </trkpt>
      <trkpt lat="37.89457" lon="-122.56309">
        <ele>145.0</ele>
      </trkpt>
      <trkpt lat="37.89458" lon="-122.56334">
        <ele>145.0</ele>
      </trkpt>
      <trkpt lat="37.89465" lon="-122.56348">
        <ele>153.0</ele>
      </trkpt>
      <trkpt lat="37.89465" lon="-122.56348">
        <ele>153.0</ele>
      </trkpt>
      <trkpt lat="37.8949" lon="-122.56381">
        <ele>158.0</ele>
      </trkpt>
      <trkpt lat="37.89496" lon="-122.56386">
        <ele>158.0</ele>
      </trkpt>
      <trkpt lat="37.89497" lon="-122.5639">
        <ele>158.0</ele>
      </trkpt>
      <trkpt lat="37.89494" lon="-122.56393">
        <ele>158.0</ele>
      </trkpt>
      <trkpt lat="37.8949340891872" lon="-122.563932770693">
        <ele>158.0</ele>
      </trkpt>
      <trkpt lat="37.8949340891872" lon="-122.563932770693">
        <ele>158.0</ele>
      </trkpt>
      <trkpt lat="37.89462" lon="-122.56408">
        <ele>153.0</ele>
      </trkpt>
      <trkpt lat="37.89437" lon="-122.5643">
        <ele>151.0</ele>
      </trkpt>
      <trkpt lat="37.89427" lon="-122.56433">
        <ele>156.0</ele>
      </trkpt>
      <trkpt lat="37.89416" lon="-122.56435">
        <ele>156.0</ele>
      </trkpt>
      <trkpt lat="37.89389" lon="-122.56426">
        <ele>145.0</ele>
      </trkpt>
      <trkpt lat="37.89356" lon="-122.56423">
        <ele>139.0</ele>
      </trkpt>
      <trkpt lat="37.89338" lon="-122.56425">
        <ele>130.0</ele>
      </trkpt>
      <trkpt lat="37.89325" lon="-122.5643">
        <ele>130.0</ele>
      </trkpt>
      <trkpt lat="37.89313" lon="-122.56445">
        <ele>124.0</ele>
      </trkpt>
      <trkpt lat="37.89305" lon="-122.5646">
        <ele>124.0</ele>
      </trkpt>
      <trkpt lat="37.89298" lon="-122.56484">
        <ele>124.0</ele>
      </trkpt>
      <trkpt lat="37.89311" lon="-122.56535">
        <ele>126.0</ele>
      </trkpt>
      <trkpt lat="37.89299" lon="-122.56549">
        <ele>129.0</ele>
      </trkpt>
      <trkpt lat="37.89274" lon="-122.56565">
        <ele>122.0</ele>
      </trkpt>
      <trkpt lat="37.89272" lon="-122.56569">
        <ele>122.0</ele>
      </trkpt>
      <trkpt lat="37.89276" lon="-122.56581">
        <ele>127.0</ele>
      </trkpt>
      <trkpt lat="37.89276" lon="-122.56581">
        <ele>127.0</ele>
      </trkpt>
      <trkpt lat="37.89275" lon="-122.56587">
        <ele>127.0</ele>
      </trkpt>
      <trkpt lat="37.89263" lon="-122.56601">
        <ele>126.0</ele>
      </trkpt>
      <trkpt lat="37.8926" lon="-122.5661">
        <ele>126.0</ele>
      </trkpt>
      <trkpt lat="37.8925915953266" lon="-122.566111556426">
        <ele>126.0</ele>
      </trkpt>
      <trkpt lat="37.8925915953266" lon="-122.566111556426">
        <ele>126.0</ele>
      </trkpt>
      <trkpt lat="37.89244" lon="-122.56632">
        <ele>127.0</ele>
      </trkpt>
      <trkpt lat="37.8922" lon="-122.5664">
        <ele>116.0</ele>
      </trkpt>
      <trkpt lat="37.8922" lon="-122.5664">
        <ele>116.0</ele>
      </trkpt>
      <trkpt lat="37.89203" lon="-122.56645">
        <ele>104.0</ele>
      </trkpt>
      <trkpt lat="37.89194" lon="-122.56653">
        <ele>104.0</ele>
      </trkpt>
      <trkpt lat="37.89187" lon="-122.56664">
        <ele>104.0</ele>
      </trkpt>
      <trkpt lat="37.89185" lon="-122.56674">
        <ele>104.0</ele>
      </trkpt>
      <trkpt lat="37.89194" lon="-122.56689">
        <ele>99.0</ele>
      </trkpt>
      <trkpt lat="37.8922" lon="-122.56702">
        <ele>109.0</ele>
      </trkpt>
      <trkpt lat="37.8922" lon="-122.56702">
        <ele>109.0</ele>
      </trkpt>
      <trkpt lat="37.89229" lon="-122.56712">
        <ele>101.0</ele>
      </trkpt>
      <trkpt lat="37.8923" lon="-122.56735">
        <ele>101.0</ele>
      </trkpt>
      <trkpt lat="37.89234" lon="-122.56757">
        <ele>90.0</ele>
      </trkpt>
      <trkpt lat="37.89228" lon="-122.56768">
        <ele>83.0</ele>
      </trkpt>
      <trkpt lat="37.8922" lon="-122.56776">
        <ele>83.0</ele>
      </trkpt>
      <trkpt lat="37.8922" lon="-122.56776">
        <ele>83.0</ele>
      </trkpt>
      <trkpt lat="37.89205" lon="-122.5679">
        <ele>82.0</ele>
      </trkpt>
      <trkpt lat="37.89203" lon="-122.56795">
        <ele>74.0</ele>
      </trkpt>
      <trkpt lat="37.89197" lon="-122.56831">
        <ele>66.0</ele>
      </trkpt>
      <trkpt lat="37.89188" lon="-122.56832">
        <ele>66.0</ele>
      </trkpt>
      <trkpt lat="37.8918" lon="-122.56822">
        <ele>59.0</ele>
      </trkpt>
      <trkpt lat="37.89177" lon="-122.56805">
        <ele>67.0</ele>
      </trkpt>
      <trkpt lat="37.89171" lon="-122.56805">
        <ele>67.0</ele>
      </trkpt>
      <trkpt lat="37.89171" lon="-122.56839">
        <ele>59.0</ele>
      </trkpt>
      <trkpt lat="37.89167" lon="-122.56853">
        <ele>53.0</ele>
      </trkpt>
      <trkpt lat="37.89166" lon="-122.56865">
        <ele>53.0</ele>
      </trkpt>
      <trkpt lat="37.89172" lon="-122.56896">
        <ele>52.0</ele>
      </trkpt>
      <trkpt lat="37.89161" lon="-122.5691">
        <ele>52.0</ele>
      </trkpt>
      <trkpt lat="37.89137" lon="-122.56928">
        <ele>48.0</ele>
      </trkpt>
      <trkpt lat="37.89137" lon="-122.56928">
        <ele>48.0</ele>
      </trkpt>
      <trkpt lat="37.8913638463226" lon="-122.569300512258">
        <ele>48.0</ele>
      </trkpt>
      <trkpt lat="37.8913638463226" lon="-122.569300512258">
        <ele>48.0</ele>
      </trkpt>
      <trkpt lat="37.89134" lon="-122.56938">
        <ele>48.0</ele>
      </trkpt>
      <trkpt lat="37.89134" lon="-122.56938">
        <ele>48.0</ele>
      </trkpt>
      <trkpt lat="37.89134" lon="-122.56938">
        <ele>48.0</ele>
      </trkpt>
      <trkpt lat="37.89167" lon="-122.5699">
        <ele>54.0</ele>
      </trkpt>
      <trkpt lat="37.8917" lon="-122.57006">
        <ele>54.0</ele>
      </trkpt>
      <trkpt lat="37.891723112939" lon="-122.57029112939">
        <ele>57.0</ele>
      </trkpt>
      <trkpt lat="37.891723112939" lon="-122.57029112939">
        <ele>57.0</ele>
      </trkpt>
      <trkpt lat="37.89175" lon="-122.57056">
        <ele>59.0</ele>
      </trkpt>
      <trkpt lat="37.89167" lon="-122.57094">
        <ele>62.0</ele>
      </trkpt>
      <trkpt lat="37.89201" lon="-122.57154">
        <ele>61.0</ele>
      </trkpt>
      <trkpt lat="37.8922" lon="-122.57194">
        <ele>62.0</ele>
      </trkpt>
      <trkpt lat="37.8922" lon="-122.57194">
        <ele>62.0</ele>
      </trkpt>
      <trkpt lat="37.89225" lon="-122.57205">
        <ele>62.0</ele>
      </trkpt>
    </trkseg>
  </trk>
</gpx>
