<?xml version="1.0" encoding="UTF-8"?>
<gpx xmlns:xsi="http://www.w3.org/2001/XMLSchema-instance" version="1.1" creator="The Outbound Collective, Inc. 1.1.1 -- https://www.theoutbound.com" xsi:schemaLocation="http://www.topografix.com/GPX/1/1 http://www.topografix.com/GPX/1/1/gpx.xsd">
  <metadata>
    <name/>
    <time>2026-02-19T21:49:26+00:00</time>
    <bound minlat="37.90319" minlon="-122.130453777025" maxlat="37.9120800571203" maxlon="-122.10059"/>
  </metadata>
  <trk>
    <name/>
    <trkseg>
      <trkpt lat="37.9063295986191" lon="-122.100656032562">
        <ele>109.0</ele>
      </trkpt>
      <trkpt lat="37.906329105968" lon="-122.100668694122">
        <ele>109.0</ele>
      </trkpt>
      <trkpt lat="37.90619" lon="-122.10066">
        <ele>109.0</ele>
      </trkpt>
      <trkpt lat="37.90595" lon="-122.10059">
        <ele>111.0</ele>
      </trkpt>
      <trkpt lat="37.90587" lon="-122.10059">
        <ele>111.0</ele>
      </trkpt>
      <trkpt lat="37.9057549643059" lon="-122.100696186795">
        <ele>115.0</ele>
      </trkpt>
      <trkpt lat="37.90574" lon="-122.10071">
        <ele>115.0</ele>
      </trkpt>
      <trkpt lat="37.90574" lon="-122.10071">
        <ele>115.0</ele>
      </trkpt>
      <trkpt lat="37.90571" lon="-122.10082">
        <ele>115.0</ele>
      </trkpt>
      <trkpt lat="37.90575" lon="-122.10093">
        <ele>115.0</ele>
      </trkpt>
      <trkpt lat="37.90617" lon="-122.10153">
        <ele>126.0</ele>
      </trkpt>
      <trkpt lat="37.90654" lon="-122.10181">
        <ele>120.0</ele>
      </trkpt>
      <trkpt lat="37.90654" lon="-122.10181">
        <ele>120.0</ele>
      </trkpt>
      <trkpt lat="37.90665" lon="-122.10197">
        <ele>120.0</ele>
      </trkpt>
      <trkpt lat="37.90665" lon="-122.10205">
        <ele>120.0</ele>
      </trkpt>
      <trkpt lat="37.90665" lon="-122.10205">
        <ele>120.0</ele>
      </trkpt>
      <trkpt lat="37.90665" lon="-122.1022">
        <ele>124.0</ele>
      </trkpt>
      <trkpt lat="37.9066279481994" lon="-122.102250889053">
        <ele>124.0</ele>
      </trkpt>
      <trkpt lat="37.9066279481994" lon="-122.102250889053">
        <ele>124.0</ele>
      </trkpt>
      <trkpt lat="37.9063958255955" lon="-122.102786556325">
        <ele>134.0</ele>
      </trkpt>
      <trkpt lat="37.9063958256046" lon="-122.102786556325">
        <ele>134.0</ele>
      </trkpt>
      <trkpt lat="37.90639" lon="-122.1028">
        <ele>134.0</ele>
      </trkpt>
      <trkpt lat="37.90637" lon="-122.1029">
        <ele>134.0</ele>
      </trkpt>
      <trkpt lat="37.906392397892" lon="-122.102964393939">
        <ele>132.0</ele>
      </trkpt>
      <trkpt lat="37.906400533228" lon="-122.10298778303">
        <ele>132.0</ele>
      </trkpt>
      <trkpt lat="37.90645" lon="-122.10313">
        <ele>132.0</ele>
      </trkpt>
      <trkpt lat="37.9065407885123" lon="-122.103238946215">
        <ele>124.0</ele>
      </trkpt>
      <trkpt lat="37.9065407885123" lon="-122.103238946215">
        <ele>124.0</ele>
      </trkpt>
      <trkpt lat="37.90665" lon="-122.10337">
        <ele>124.0</ele>
      </trkpt>
      <trkpt lat="37.90677" lon="-122.10363">
        <ele>127.0</ele>
      </trkpt>
      <trkpt lat="37.90676" lon="-122.10373">
        <ele>127.0</ele>
      </trkpt>
      <trkpt lat="37.90673" lon="-122.10377">
        <ele>131.0</ele>
      </trkpt>
      <trkpt lat="37.90673" lon="-122.10377">
        <ele>131.0</ele>
      </trkpt>
      <trkpt lat="37.90673" lon="-122.10377">
        <ele>131.0</ele>
      </trkpt>
      <trkpt lat="37.9066986822078" lon="-122.103777829448">
        <ele>131.0</ele>
      </trkpt>
      <trkpt lat="37.9066986822181" lon="-122.103777829448">
        <ele>131.0</ele>
      </trkpt>
      <trkpt lat="37.90665" lon="-122.10379">
        <ele>131.0</ele>
      </trkpt>
      <trkpt lat="37.9065155484733" lon="-122.103738780189">
        <ele>134.0</ele>
      </trkpt>
      <trkpt lat="37.9065155484733" lon="-122.103738780189">
        <ele>134.0</ele>
      </trkpt>
      <trkpt lat="37.90644" lon="-122.10371">
        <ele>134.0</ele>
      </trkpt>
      <trkpt lat="37.9061503833857" lon="-122.10350726837">
        <ele>142.0</ele>
      </trkpt>
      <trkpt lat="37.9061275893691" lon="-122.103497340579">
        <ele>142.0</ele>
      </trkpt>
      <trkpt lat="37.906" lon="-122.10347">
        <ele>140.0</ele>
      </trkpt>
      <trkpt lat="37.906" lon="-122.10347">
        <ele>140.0</ele>
      </trkpt>
      <trkpt lat="37.906" lon="-122.10347">
        <ele>140.0</ele>
      </trkpt>
      <trkpt lat="37.90586" lon="-122.10324">
        <ele>151.0</ele>
      </trkpt>
      <trkpt lat="37.90584" lon="-122.10304">
        <ele>154.0</ele>
      </trkpt>
      <trkpt lat="37.90584" lon="-122.10285">
        <ele>153.0</ele>
      </trkpt>
      <trkpt lat="37.9058956684732" lon="-122.102648737058">
        <ele>153.0</ele>
      </trkpt>
      <trkpt lat="37.9058956685013" lon="-122.102648737058">
        <ele>153.0</ele>
      </trkpt>
      <trkpt lat="37.90597" lon="-122.10238">
        <ele>152.0</ele>
      </trkpt>
      <trkpt lat="37.90596" lon="-122.10229">
        <ele>148.0</ele>
      </trkpt>
      <trkpt lat="37.9059435995201" lon="-122.10225719904">
        <ele>148.0</ele>
      </trkpt>
      <trkpt lat="37.9059435995201" lon="-122.10225719904">
        <ele>148.0</ele>
      </trkpt>
      <trkpt lat="37.90593" lon="-122.10223">
        <ele>148.0</ele>
      </trkpt>
      <trkpt lat="37.90562" lon="-122.10205">
        <ele>156.0</ele>
      </trkpt>
      <trkpt lat="37.90562" lon="-122.10205">
        <ele>156.0</ele>
      </trkpt>
      <trkpt lat="37.90501" lon="-122.10162">
        <ele>162.0</ele>
      </trkpt>
      <trkpt lat="37.9048" lon="-122.10128">
        <ele>163.0</ele>
      </trkpt>
      <trkpt lat="37.9047" lon="-122.10119">
        <ele>157.0</ele>
      </trkpt>
      <trkpt lat="37.90452" lon="-122.10118">
        <ele>160.0</ele>
      </trkpt>
      <trkpt lat="37.90447" lon="-122.10125">
        <ele>160.0</ele>
      </trkpt>
      <trkpt lat="37.90447" lon="-122.10125">
        <ele>160.0</ele>
      </trkpt>
      <trkpt lat="37.904498934199" lon="-122.101339024063">
        <ele>161.0</ele>
      </trkpt>
      <trkpt lat="37.9045093014965" lon="-122.101370922939">
        <ele>161.0</ele>
      </trkpt>
      <trkpt lat="37.9046" lon="-122.10165">
        <ele>164.0</ele>
      </trkpt>
      <trkpt lat="37.90462" lon="-122.1018">
        <ele>164.0</ele>
      </trkpt>
      <trkpt lat="37.90462" lon="-122.10195">
        <ele>168.0</ele>
      </trkpt>
      <trkpt lat="37.90459" lon="-122.10205">
        <ele>168.0</ele>
      </trkpt>
      <trkpt lat="37.90459" lon="-122.10205">
        <ele>168.0</ele>
      </trkpt>
      <trkpt lat="37.90455" lon="-122.10212">
        <ele>168.0</ele>
      </trkpt>
      <trkpt lat="37.9045207880799" lon="-122.102135933775">
        <ele>168.0</ele>
      </trkpt>
      <trkpt lat="37.9045207880959" lon="-122.102135933775">
        <ele>168.0</ele>
      </trkpt>
      <trkpt lat="37.90444" lon="-122.10218">
        <ele>168.0</ele>
      </trkpt>
      <trkpt lat="37.90417" lon="-122.10221">
        <ele>171.0</ele>
      </trkpt>
      <trkpt lat="37.90396" lon="-122.10227">
        <ele>174.0</ele>
      </trkpt>
      <trkpt lat="37.90385" lon="-122.10225">
        <ele>174.0</ele>
      </trkpt>
      <trkpt lat="37.90366" lon="-122.10205">
        <ele>170.0</ele>
      </trkpt>
      <trkpt lat="37.90366" lon="-122.10205">
        <ele>170.0</ele>
      </trkpt>
      <trkpt lat="37.90357" lon="-122.10203">
        <ele>170.0</ele>
      </trkpt>
      <trkpt lat="37.9035" lon="-122.10205">
        <ele>170.0</ele>
      </trkpt>
      <trkpt lat="37.9035" lon="-122.10205">
        <ele>170.0</ele>
      </trkpt>
      <trkpt lat="37.90343" lon="-122.10211">
        <ele>174.0</ele>
      </trkpt>
      <trkpt lat="37.90339" lon="-122.10224">
        <ele>174.0</ele>
      </trkpt>
      <trkpt lat="37.90341" lon="-122.10274">
        <ele>177.0</ele>
      </trkpt>
      <trkpt lat="37.90347" lon="-122.10304">
        <ele>178.0</ele>
      </trkpt>
      <trkpt lat="37.9037239270232" lon="-122.103489255502">
        <ele>188.0</ele>
      </trkpt>
      <trkpt lat="37.9037239270336" lon="-122.103489255502">
        <ele>188.0</ele>
      </trkpt>
      <trkpt lat="37.90373" lon="-122.1035">
        <ele>188.0</ele>
      </trkpt>
      <trkpt lat="37.90373" lon="-122.10361">
        <ele>188.0</ele>
      </trkpt>
      <trkpt lat="37.90362" lon="-122.1038">
        <ele>192.0</ele>
      </trkpt>
      <trkpt lat="37.90362" lon="-122.1038">
        <ele>192.0</ele>
      </trkpt>
      <trkpt lat="37.90362" lon="-122.1038">
        <ele>192.0</ele>
      </trkpt>
      <trkpt lat="37.90361" lon="-122.10399">
        <ele>192.0</ele>
      </trkpt>
      <trkpt lat="37.90369" lon="-122.10411">
        <ele>197.0</ele>
      </trkpt>
      <trkpt lat="37.90384" lon="-122.10417">
        <ele>199.0</ele>
      </trkpt>
      <trkpt lat="37.9038594053487" lon="-122.104181643209">
        <ele>199.0</ele>
      </trkpt>
      <trkpt lat="37.9038594053487" lon="-122.104181643209">
        <ele>199.0</ele>
      </trkpt>
      <trkpt lat="37.90389" lon="-122.1042">
        <ele>199.0</ele>
      </trkpt>
      <trkpt lat="37.9039" lon="-122.10424">
        <ele>199.0</ele>
      </trkpt>
      <trkpt lat="37.9038924407043" lon="-122.104285355774">
        <ele>199.0</ele>
      </trkpt>
      <trkpt lat="37.9038828571437" lon="-122.104307142856">
        <ele>203.0</ele>
      </trkpt>
      <trkpt lat="37.90384" lon="-122.10435">
        <ele>203.0</ele>
      </trkpt>
      <trkpt lat="37.90358" lon="-122.10438">
        <ele>201.0</ele>
      </trkpt>
      <trkpt lat="37.9033" lon="-122.10448">
        <ele>201.0</ele>
      </trkpt>
      <trkpt lat="37.90323" lon="-122.10454">
        <ele>201.0</ele>
      </trkpt>
      <trkpt lat="37.90323" lon="-122.10454">
        <ele>201.0</ele>
      </trkpt>
      <trkpt lat="37.90323" lon="-122.10454">
        <ele>201.0</ele>
      </trkpt>
      <trkpt lat="37.90319" lon="-122.10471">
        <ele>211.0</ele>
      </trkpt>
      <trkpt lat="37.90319" lon="-122.10471">
        <ele>211.0</ele>
      </trkpt>
      <trkpt lat="37.90319" lon="-122.10471">
        <ele>211.0</ele>
      </trkpt>
      <trkpt lat="37.90329" lon="-122.10477">
        <ele>209.0</ele>
      </trkpt>
      <trkpt lat="37.90372" lon="-122.10481">
        <ele>209.0</ele>
      </trkpt>
      <trkpt lat="37.9038773358867" lon="-122.104867211527">
        <ele>217.0</ele>
      </trkpt>
      <trkpt lat="37.903894396201" lon="-122.104873415113">
        <ele>217.0</ele>
      </trkpt>
      <trkpt lat="37.9041598328911" lon="-122.104969939232">
        <ele>217.0</ele>
      </trkpt>
      <trkpt lat="37.9041598328914" lon="-122.104969939232">
        <ele>217.0</ele>
      </trkpt>
      <trkpt lat="37.90416" lon="-122.10497">
        <ele>217.0</ele>
      </trkpt>
      <trkpt lat="37.90426" lon="-122.10509">
        <ele>217.0</ele>
      </trkpt>
      <trkpt lat="37.9043215748765" lon="-122.105269126913">
        <ele>222.0</ele>
      </trkpt>
      <trkpt lat="37.9043215748765" lon="-122.105269126913">
        <ele>222.0</ele>
      </trkpt>
      <trkpt lat="37.90437" lon="-122.10541">
        <ele>222.0</ele>
      </trkpt>
      <trkpt lat="37.9044110295967" lon="-122.105786104636">
        <ele>239.0</ele>
      </trkpt>
      <trkpt lat="37.904411029602" lon="-122.105786104636">
        <ele>239.0</ele>
      </trkpt>
      <trkpt lat="37.90443" lon="-122.10596">
        <ele>239.0</ele>
      </trkpt>
      <trkpt lat="37.90443" lon="-122.10662">
        <ele>256.0</ele>
      </trkpt>
      <trkpt lat="37.9044731936277" lon="-122.106879161766">
        <ele>261.0</ele>
      </trkpt>
      <trkpt lat="37.9044731936277" lon="-122.106879161766">
        <ele>261.0</ele>
      </trkpt>
      <trkpt lat="37.90456" lon="-122.1074">
        <ele>269.0</ele>
      </trkpt>
      <trkpt lat="37.90455" lon="-122.10757">
        <ele>269.0</ele>
      </trkpt>
      <trkpt lat="37.90449" lon="-122.10769">
        <ele>272.0</ele>
      </trkpt>
      <trkpt lat="37.90426" lon="-122.10799">
        <ele>268.0</ele>
      </trkpt>
      <trkpt lat="37.90422" lon="-122.10811">
        <ele>268.0</ele>
      </trkpt>
      <trkpt lat="37.90418" lon="-122.10832">
        <ele>272.0</ele>
      </trkpt>
      <trkpt lat="37.904186098464" lon="-122.108435851713">
        <ele>272.0</ele>
      </trkpt>
      <trkpt lat="37.904186098464" lon="-122.108435851713">
        <ele>272.0</ele>
      </trkpt>
      <trkpt lat="37.9042" lon="-122.1087">
        <ele>274.0</ele>
      </trkpt>
      <trkpt lat="37.90423" lon="-122.10887">
        <ele>277.0</ele>
      </trkpt>
      <trkpt lat="37.90438" lon="-122.10934">
        <ele>286.0</ele>
      </trkpt>
      <trkpt lat="37.9044942927298" lon="-122.11005623444">
        <ele>288.0</ele>
      </trkpt>
      <trkpt lat="37.9044942927575" lon="-122.11005623444">
        <ele>288.0</ele>
      </trkpt>
      <trkpt lat="37.90453" lon="-122.11028">
        <ele>287.0</ele>
      </trkpt>
      <trkpt lat="37.9046282148583" lon="-122.110521072834">
        <ele>288.0</ele>
      </trkpt>
      <trkpt lat="37.9046282148583" lon="-122.110521072834">
        <ele>288.0</ele>
      </trkpt>
      <trkpt lat="37.90464" lon="-122.11055">
        <ele>288.0</ele>
      </trkpt>
      <trkpt lat="37.90488" lon="-122.11097">
        <ele>292.0</ele>
      </trkpt>
      <trkpt lat="37.9049" lon="-122.11104">
        <ele>294.0</ele>
      </trkpt>
      <trkpt lat="37.9048797180175" lon="-122.111147494507">
        <ele>294.0</ele>
      </trkpt>
      <trkpt lat="37.9048773593037" lon="-122.11115999569">
        <ele>294.0</ele>
      </trkpt>
      <trkpt lat="37.9048" lon="-122.11157">
        <ele>287.0</ele>
      </trkpt>
      <trkpt lat="37.90479" lon="-122.11202">
        <ele>287.0</ele>
      </trkpt>
      <trkpt lat="37.904797336362" lon="-122.112086027258">
        <ele>284.0</ele>
      </trkpt>
      <trkpt lat="37.9047973363626" lon="-122.112086027258">
        <ele>284.0</ele>
      </trkpt>
      <trkpt lat="37.90481" lon="-122.1122">
        <ele>284.0</ele>
      </trkpt>
      <trkpt lat="37.90489" lon="-122.11239">
        <ele>294.0</ele>
      </trkpt>
      <trkpt lat="37.90499" lon="-122.1128">
        <ele>289.0</ele>
      </trkpt>
      <trkpt lat="37.90499" lon="-122.1128">
        <ele>289.0</ele>
      </trkpt>
      <trkpt lat="37.90505" lon="-122.1129">
        <ele>289.0</ele>
      </trkpt>
      <trkpt lat="37.90512" lon="-122.11295">
        <ele>284.0</ele>
      </trkpt>
      <trkpt lat="37.90518" lon="-122.11295">
        <ele>288.0</ele>
      </trkpt>
      <trkpt lat="37.90524" lon="-122.11293">
        <ele>288.0</ele>
      </trkpt>
      <trkpt lat="37.90543" lon="-122.11271">
        <ele>296.0</ele>
      </trkpt>
      <trkpt lat="37.90557" lon="-122.11261">
        <ele>303.0</ele>
      </trkpt>
      <trkpt lat="37.90572" lon="-122.11271">
        <ele>298.0</ele>
      </trkpt>
      <trkpt lat="37.90583" lon="-122.11272">
        <ele>298.0</ele>
      </trkpt>
      <trkpt lat="37.90596" lon="-122.11265">
        <ele>298.0</ele>
      </trkpt>
      <trkpt lat="37.90604" lon="-122.11264">
        <ele>300.0</ele>
      </trkpt>
      <trkpt lat="37.90616" lon="-122.11269">
        <ele>300.0</ele>
      </trkpt>
      <trkpt lat="37.9062" lon="-122.11275">
        <ele>300.0</ele>
      </trkpt>
      <trkpt lat="37.9062" lon="-122.11283">
        <ele>300.0</ele>
      </trkpt>
      <trkpt lat="37.90612" lon="-122.11297">
        <ele>296.0</ele>
      </trkpt>
      <trkpt lat="37.90612" lon="-122.11297">
        <ele>296.0</ele>
      </trkpt>
      <trkpt lat="37.90612" lon="-122.11297">
        <ele>296.0</ele>
      </trkpt>
      <trkpt lat="37.90608" lon="-122.11316">
        <ele>296.0</ele>
      </trkpt>
      <trkpt lat="37.90592" lon="-122.11356">
        <ele>282.0</ele>
      </trkpt>
      <trkpt lat="37.90589" lon="-122.1138">
        <ele>287.0</ele>
      </trkpt>
      <trkpt lat="37.90592" lon="-122.11407">
        <ele>292.0</ele>
      </trkpt>
      <trkpt lat="37.90597" lon="-122.11413">
        <ele>292.0</ele>
      </trkpt>
      <trkpt lat="37.90597" lon="-122.11413">
        <ele>292.0</ele>
      </trkpt>
      <trkpt lat="37.90604" lon="-122.11405">
        <ele>300.0</ele>
      </trkpt>
      <trkpt lat="37.90604" lon="-122.11405">
        <ele>300.0</ele>
      </trkpt>
      <trkpt lat="37.90604" lon="-122.11405">
        <ele>300.0</ele>
      </trkpt>
      <trkpt lat="37.90631" lon="-122.11387">
        <ele>306.0</ele>
      </trkpt>
      <trkpt lat="37.9064" lon="-122.11387">
        <ele>306.0</ele>
      </trkpt>
      <trkpt lat="37.90647" lon="-122.11391">
        <ele>306.0</ele>
      </trkpt>
      <trkpt lat="37.90647" lon="-122.11391">
        <ele>306.0</ele>
      </trkpt>
      <trkpt lat="37.90647" lon="-122.11391">
        <ele>306.0</ele>
      </trkpt>
      <trkpt lat="37.90688" lon="-122.1144">
        <ele>304.0</ele>
      </trkpt>
      <trkpt lat="37.907" lon="-122.11473">
        <ele>299.0</ele>
      </trkpt>
      <trkpt lat="37.90712" lon="-122.11491">
        <ele>300.0</ele>
      </trkpt>
      <trkpt lat="37.90716" lon="-122.1153">
        <ele>298.0</ele>
      </trkpt>
      <trkpt lat="37.9073438941946" lon="-122.115575841292">
        <ele>296.0</ele>
      </trkpt>
      <trkpt lat="37.9073438941946" lon="-122.115575841292">
        <ele>296.0</ele>
      </trkpt>
      <trkpt lat="37.90738" lon="-122.11563">
        <ele>301.0</ele>
      </trkpt>
      <trkpt lat="37.90738" lon="-122.11563">
        <ele>301.0</ele>
      </trkpt>
      <trkpt lat="37.90741" lon="-122.11583">
        <ele>302.0</ele>
      </trkpt>
      <trkpt lat="37.90728" lon="-122.11629">
        <ele>292.0</ele>
      </trkpt>
      <trkpt lat="37.90728" lon="-122.11629">
        <ele>292.0</ele>
      </trkpt>
      <trkpt lat="37.9072530753393" lon="-122.116342054344">
        <ele>292.0</ele>
      </trkpt>
      <trkpt lat="37.9072530753618" lon="-122.116342054344">
        <ele>292.0</ele>
      </trkpt>
      <trkpt lat="37.90713" lon="-122.11658">
        <ele>291.0</ele>
      </trkpt>
      <trkpt lat="37.90713" lon="-122.11668">
        <ele>291.0</ele>
      </trkpt>
      <trkpt lat="37.90715" lon="-122.11673">
        <ele>291.0</ele>
      </trkpt>
      <trkpt lat="37.90751" lon="-122.11697">
        <ele>296.0</ele>
      </trkpt>
      <trkpt lat="37.90792" lon="-122.11739">
        <ele>302.0</ele>
      </trkpt>
      <trkpt lat="37.9079599973376" lon="-122.117479974485">
        <ele>302.0</ele>
      </trkpt>
      <trkpt lat="37.90796" lon="-122.11748">
        <ele>302.0</ele>
      </trkpt>
      <trkpt lat="37.90802" lon="-122.11758">
        <ele>302.0</ele>
      </trkpt>
      <trkpt lat="37.90805" lon="-122.11768">
        <ele>301.0</ele>
      </trkpt>
      <trkpt lat="37.90819" lon="-122.11784">
        <ele>301.0</ele>
      </trkpt>
      <trkpt lat="37.90819" lon="-122.11784">
        <ele>301.0</ele>
      </trkpt>
      <trkpt lat="37.90819" lon="-122.11784">
        <ele>301.0</ele>
      </trkpt>
      <trkpt lat="37.90831" lon="-122.1179">
        <ele>300.0</ele>
      </trkpt>
      <trkpt lat="37.90851" lon="-122.11809">
        <ele>303.0</ele>
      </trkpt>
      <trkpt lat="37.90901" lon="-122.11906">
        <ele>311.0</ele>
      </trkpt>
      <trkpt lat="37.90935" lon="-122.11948">
        <ele>325.0</ele>
      </trkpt>
      <trkpt lat="37.9094" lon="-122.11958">
        <ele>325.0</ele>
      </trkpt>
      <trkpt lat="37.90942" lon="-122.12006">
        <ele>330.0</ele>
      </trkpt>
      <trkpt lat="37.90953" lon="-122.12027">
        <ele>328.0</ele>
      </trkpt>
      <trkpt lat="37.90953" lon="-122.12027">
        <ele>328.0</ele>
      </trkpt>
      <trkpt lat="37.90958" lon="-122.12038">
        <ele>328.0</ele>
      </trkpt>
      <trkpt lat="37.9096282782296" lon="-122.120833815359">
        <ele>329.0</ele>
      </trkpt>
      <trkpt lat="37.9096282782302" lon="-122.120833815359">
        <ele>329.0</ele>
      </trkpt>
      <trkpt lat="37.90963" lon="-122.12085">
        <ele>329.0</ele>
      </trkpt>
      <trkpt lat="37.9097" lon="-122.12106">
        <ele>325.0</ele>
      </trkpt>
      <trkpt lat="37.90985" lon="-122.12122">
        <ele>325.0</ele>
      </trkpt>
      <trkpt lat="37.91009" lon="-122.12137">
        <ele>328.0</ele>
      </trkpt>
      <trkpt lat="37.91021" lon="-122.12162">
        <ele>331.0</ele>
      </trkpt>
      <trkpt lat="37.91023" lon="-122.12176">
        <ele>331.0</ele>
      </trkpt>
      <trkpt lat="37.91022" lon="-122.12196">
        <ele>332.0</ele>
      </trkpt>
      <trkpt lat="37.91009" lon="-122.12262">
        <ele>321.0</ele>
      </trkpt>
      <trkpt lat="37.91014" lon="-122.1233">
        <ele>328.0</ele>
      </trkpt>
      <trkpt lat="37.91013" lon="-122.12346">
        <ele>320.0</ele>
      </trkpt>
      <trkpt lat="37.91004" lon="-122.12383">
        <ele>322.0</ele>
      </trkpt>
      <trkpt lat="37.91005" lon="-122.12402">
        <ele>322.0</ele>
      </trkpt>
      <trkpt lat="37.91005" lon="-122.12402">
        <ele>322.0</ele>
      </trkpt>
      <trkpt lat="37.91015" lon="-122.12442">
        <ele>329.0</ele>
      </trkpt>
      <trkpt lat="37.91021" lon="-122.12458">
        <ele>329.0</ele>
      </trkpt>
      <trkpt lat="37.91058" lon="-122.12516">
        <ele>336.0</ele>
      </trkpt>
      <trkpt lat="37.91062" lon="-122.12531">
        <ele>336.0</ele>
      </trkpt>
      <trkpt lat="37.9106" lon="-122.1255">
        <ele>334.0</ele>
      </trkpt>
      <trkpt lat="37.91048" lon="-122.12584">
        <ele>329.0</ele>
      </trkpt>
      <trkpt lat="37.91049" lon="-122.12596">
        <ele>329.0</ele>
      </trkpt>
      <trkpt lat="37.9106" lon="-122.1263">
        <ele>319.0</ele>
      </trkpt>
      <trkpt lat="37.91056" lon="-122.1266">
        <ele>318.0</ele>
      </trkpt>
      <trkpt lat="37.91052" lon="-122.12674">
        <ele>318.0</ele>
      </trkpt>
      <trkpt lat="37.91052" lon="-122.12674">
        <ele>318.0</ele>
      </trkpt>
      <trkpt lat="37.91052" lon="-122.12674">
        <ele>318.0</ele>
      </trkpt>
      <trkpt lat="37.91064" lon="-122.12701">
        <ele>318.0</ele>
      </trkpt>
      <trkpt lat="37.91083" lon="-122.12728">
        <ele>317.0</ele>
      </trkpt>
      <trkpt lat="37.9112" lon="-122.12766">
        <ele>318.0</ele>
      </trkpt>
      <trkpt lat="37.91124" lon="-122.12774">
        <ele>318.0</ele>
      </trkpt>
      <trkpt lat="37.91127" lon="-122.12792">
        <ele>315.0</ele>
      </trkpt>
      <trkpt lat="37.91127" lon="-122.12813">
        <ele>315.0</ele>
      </trkpt>
      <trkpt lat="37.91129" lon="-122.12834">
        <ele>313.0</ele>
      </trkpt>
      <trkpt lat="37.91164" lon="-122.12927">
        <ele>320.0</ele>
      </trkpt>
      <trkpt lat="37.9119" lon="-122.12971">
        <ele>337.0</ele>
      </trkpt>
      <trkpt lat="37.91197" lon="-122.12992">
        <ele>339.0</ele>
      </trkpt>
      <trkpt lat="37.9120773941691" lon="-122.13044086172">
        <ele>340.0</ele>
      </trkpt>
      <trkpt lat="37.9120773941691" lon="-122.13044086172">
        <ele>340.0</ele>
      </trkpt>
      <trkpt lat="37.9120800571186" lon="-122.130453777025">
        <ele>340.0</ele>
      </trkpt>
      <trkpt lat="37.9120800571203" lon="-122.130453777025">
        <ele>340.0</ele>
      </trkpt>
      <trkpt lat="37.9120773941691" lon="-122.13044086172">
        <ele>340.0</ele>
      </trkpt>
      <trkpt lat="37.9120773941691" lon="-122.13044086172">
        <ele>340.0</ele>
      </trkpt>
      <trkpt lat="37.91197" lon="-122.12992">
        <ele>339.0</ele>
      </trkpt>
      <trkpt lat="37.9119" lon="-122.12971">
        <ele>337.0</ele>
      </trkpt>
      <trkpt lat="37.91164" lon="-122.12927">
        <ele>320.0</ele>
      </trkpt>
      <trkpt lat="37.91129" lon="-122.12834">
        <ele>313.0</ele>
      </trkpt>
      <trkpt lat="37.91127" lon="-122.12813">
        <ele>315.0</ele>
      </trkpt>
      <trkpt lat="37.91127" lon="-122.12792">
        <ele>315.0</ele>
      </trkpt>
      <trkpt lat="37.91124" lon="-122.12774">
        <ele>318.0</ele>
      </trkpt>
      <trkpt lat="37.9112" lon="-122.12766">
        <ele>318.0</ele>
      </trkpt>
      <trkpt lat="37.91083" lon="-122.12728">
        <ele>317.0</ele>
      </trkpt>
      <trkpt lat="37.91064" lon="-122.12701">
        <ele>318.0</ele>
      </trkpt>
      <trkpt lat="37.91052" lon="-122.12674">
        <ele>318.0</ele>
      </trkpt>
      <trkpt lat="37.91052" lon="-122.12674">
        <ele>318.0</ele>
      </trkpt>
      <trkpt lat="37.91052" lon="-122.12674">
        <ele>318.0</ele>
      </trkpt>
      <trkpt lat="37.91056" lon="-122.1266">
        <ele>318.0</ele>
      </trkpt>
      <trkpt lat="37.9106" lon="-122.1263">
        <ele>319.0</ele>
      </trkpt>
      <trkpt lat="37.91049" lon="-122.12596">
        <ele>329.0</ele>
      </trkpt>
      <trkpt lat="37.91048" lon="-122.12584">
        <ele>329.0</ele>
      </trkpt>
      <trkpt lat="37.9106" lon="-122.1255">
        <ele>334.0</ele>
      </trkpt>
      <trkpt lat="37.91062" lon="-122.12531">
        <ele>336.0</ele>
      </trkpt>
      <trkpt lat="37.91058" lon="-122.12516">
        <ele>336.0</ele>
      </trkpt>
      <trkpt lat="37.91021" lon="-122.12458">
        <ele>329.0</ele>
      </trkpt>
      <trkpt lat="37.91015" lon="-122.12442">
        <ele>329.0</ele>
      </trkpt>
      <trkpt lat="37.91005" lon="-122.12402">
        <ele>322.0</ele>
      </trkpt>
      <trkpt lat="37.91005" lon="-122.12402">
        <ele>322.0</ele>
      </trkpt>
      <trkpt lat="37.91004" lon="-122.12383">
        <ele>322.0</ele>
      </trkpt>
      <trkpt lat="37.91013" lon="-122.12346">
        <ele>320.0</ele>
      </trkpt>
      <trkpt lat="37.91014" lon="-122.1233">
        <ele>328.0</ele>
      </trkpt>
      <trkpt lat="37.91009" lon="-122.12262">
        <ele>321.0</ele>
      </trkpt>
      <trkpt lat="37.91022" lon="-122.12196">
        <ele>332.0</ele>
      </trkpt>
      <trkpt lat="37.91023" lon="-122.12176">
        <ele>331.0</ele>
      </trkpt>
      <trkpt lat="37.91021" lon="-122.12162">
        <ele>331.0</ele>
      </trkpt>
      <trkpt lat="37.91009" lon="-122.12137">
        <ele>328.0</ele>
      </trkpt>
      <trkpt lat="37.90985" lon="-122.12122">
        <ele>325.0</ele>
      </trkpt>
      <trkpt lat="37.9097" lon="-122.12106">
        <ele>325.0</ele>
      </trkpt>
      <trkpt lat="37.90963" lon="-122.12085">
        <ele>329.0</ele>
      </trkpt>
      <trkpt lat="37.90958" lon="-122.12038">
        <ele>328.0</ele>
      </trkpt>
      <trkpt lat="37.90953" lon="-122.12027">
        <ele>328.0</ele>
      </trkpt>
      <trkpt lat="37.90953" lon="-122.12027">
        <ele>328.0</ele>
      </trkpt>
      <trkpt lat="37.90942" lon="-122.12006">
        <ele>330.0</ele>
      </trkpt>
      <trkpt lat="37.9094" lon="-122.11958">
        <ele>325.0</ele>
      </trkpt>
      <trkpt lat="37.90935" lon="-122.11948">
        <ele>325.0</ele>
      </trkpt>
      <trkpt lat="37.90901" lon="-122.11906">
        <ele>311.0</ele>
      </trkpt>
      <trkpt lat="37.90851" lon="-122.11809">
        <ele>303.0</ele>
      </trkpt>
      <trkpt lat="37.90831" lon="-122.1179">
        <ele>300.0</ele>
      </trkpt>
      <trkpt lat="37.90819" lon="-122.11784">
        <ele>301.0</ele>
      </trkpt>
      <trkpt lat="37.90819" lon="-122.11784">
        <ele>301.0</ele>
      </trkpt>
      <trkpt lat="37.90819" lon="-122.11784">
        <ele>301.0</ele>
      </trkpt>
      <trkpt lat="37.90805" lon="-122.11768">
        <ele>301.0</ele>
      </trkpt>
      <trkpt lat="37.90802" lon="-122.11758">
        <ele>302.0</ele>
      </trkpt>
      <trkpt lat="37.90796" lon="-122.11748">
        <ele>302.0</ele>
      </trkpt>
      <trkpt lat="37.9079599973376" lon="-122.117479974485">
        <ele>302.0</ele>
      </trkpt>
      <trkpt lat="37.90792" lon="-122.11739">
        <ele>302.0</ele>
      </trkpt>
      <trkpt lat="37.90751" lon="-122.11697">
        <ele>296.0</ele>
      </trkpt>
      <trkpt lat="37.90715" lon="-122.11673">
        <ele>291.0</ele>
      </trkpt>
      <trkpt lat="37.90713" lon="-122.11668">
        <ele>291.0</ele>
      </trkpt>
      <trkpt lat="37.90713" lon="-122.11658">
        <ele>291.0</ele>
      </trkpt>
      <trkpt lat="37.9071334000571" lon="-122.116573426556">
        <ele>291.0</ele>
      </trkpt>
      <trkpt lat="37.9071334000604" lon="-122.116573426556">
        <ele>291.0</ele>
      </trkpt>
      <trkpt lat="37.90728" lon="-122.11629">
        <ele>292.0</ele>
      </trkpt>
      <trkpt lat="37.90728" lon="-122.11629">
        <ele>292.0</ele>
      </trkpt>
      <trkpt lat="37.90741" lon="-122.11583">
        <ele>302.0</ele>
      </trkpt>
      <trkpt lat="37.90738" lon="-122.11563">
        <ele>301.0</ele>
      </trkpt>
      <trkpt lat="37.90738" lon="-122.11563">
        <ele>301.0</ele>
      </trkpt>
      <trkpt lat="37.9073438941946" lon="-122.115575841292">
        <ele>296.0</ele>
      </trkpt>
      <trkpt lat="37.9073438941946" lon="-122.115575841292">
        <ele>296.0</ele>
      </trkpt>
      <trkpt lat="37.90716" lon="-122.1153">
        <ele>298.0</ele>
      </trkpt>
      <trkpt lat="37.90712" lon="-122.11491">
        <ele>300.0</ele>
      </trkpt>
      <trkpt lat="37.907" lon="-122.11473">
        <ele>299.0</ele>
      </trkpt>
      <trkpt lat="37.90688" lon="-122.1144">
        <ele>304.0</ele>
      </trkpt>
      <trkpt lat="37.90647" lon="-122.11391">
        <ele>306.0</ele>
      </trkpt>
      <trkpt lat="37.90647" lon="-122.11391">
        <ele>306.0</ele>
      </trkpt>
      <trkpt lat="37.90647" lon="-122.11391">
        <ele>306.0</ele>
      </trkpt>
      <trkpt lat="37.9064" lon="-122.11387">
        <ele>306.0</ele>
      </trkpt>
      <trkpt lat="37.90631" lon="-122.11387">
        <ele>306.0</ele>
      </trkpt>
      <trkpt lat="37.9062603834445" lon="-122.113903077704">
        <ele>306.0</ele>
      </trkpt>
      <trkpt lat="37.9062603835188" lon="-122.113903077704">
        <ele>306.0</ele>
      </trkpt>
      <trkpt lat="37.90604" lon="-122.11405">
        <ele>300.0</ele>
      </trkpt>
      <trkpt lat="37.90604" lon="-122.11405">
        <ele>300.0</ele>
      </trkpt>
      <trkpt lat="37.90604" lon="-122.11405">
        <ele>300.0</ele>
      </trkpt>
      <trkpt lat="37.90597" lon="-122.11413">
        <ele>292.0</ele>
      </trkpt>
      <trkpt lat="37.90597" lon="-122.11413">
        <ele>292.0</ele>
      </trkpt>
      <trkpt lat="37.90592" lon="-122.11407">
        <ele>292.0</ele>
      </trkpt>
      <trkpt lat="37.90589" lon="-122.1138">
        <ele>287.0</ele>
      </trkpt>
      <trkpt lat="37.90592" lon="-122.11356">
        <ele>282.0</ele>
      </trkpt>
      <trkpt lat="37.90608" lon="-122.11316">
        <ele>296.0</ele>
      </trkpt>
      <trkpt lat="37.90612" lon="-122.11297">
        <ele>296.0</ele>
      </trkpt>
      <trkpt lat="37.90612" lon="-122.11297">
        <ele>296.0</ele>
      </trkpt>
      <trkpt lat="37.90612" lon="-122.11297">
        <ele>296.0</ele>
      </trkpt>
      <trkpt lat="37.9062" lon="-122.11283">
        <ele>300.0</ele>
      </trkpt>
      <trkpt lat="37.9062" lon="-122.11275">
        <ele>300.0</ele>
      </trkpt>
      <trkpt lat="37.90616" lon="-122.11269">
        <ele>300.0</ele>
      </trkpt>
      <trkpt lat="37.90604" lon="-122.11264">
        <ele>300.0</ele>
      </trkpt>
      <trkpt lat="37.90596" lon="-122.11265">
        <ele>298.0</ele>
      </trkpt>
      <trkpt lat="37.90583" lon="-122.11272">
        <ele>298.0</ele>
      </trkpt>
      <trkpt lat="37.90572" lon="-122.11271">
        <ele>298.0</ele>
      </trkpt>
      <trkpt lat="37.90557" lon="-122.11261">
        <ele>303.0</ele>
      </trkpt>
      <trkpt lat="37.90543" lon="-122.11271">
        <ele>296.0</ele>
      </trkpt>
      <trkpt lat="37.90524" lon="-122.11293">
        <ele>288.0</ele>
      </trkpt>
      <trkpt lat="37.90518" lon="-122.11295">
        <ele>288.0</ele>
      </trkpt>
      <trkpt lat="37.90512" lon="-122.11295">
        <ele>284.0</ele>
      </trkpt>
      <trkpt lat="37.90505" lon="-122.1129">
        <ele>289.0</ele>
      </trkpt>
      <trkpt lat="37.90499" lon="-122.1128">
        <ele>289.0</ele>
      </trkpt>
      <trkpt lat="37.90499" lon="-122.1128">
        <ele>289.0</ele>
      </trkpt>
      <trkpt lat="37.90489" lon="-122.11239">
        <ele>294.0</ele>
      </trkpt>
      <trkpt lat="37.90481" lon="-122.1122">
        <ele>284.0</ele>
      </trkpt>
      <trkpt lat="37.90479" lon="-122.11202">
        <ele>287.0</ele>
      </trkpt>
      <trkpt lat="37.9048" lon="-122.11157">
        <ele>287.0</ele>
      </trkpt>
      <trkpt lat="37.9048162694193" lon="-122.111483772077">
        <ele>288.0</ele>
      </trkpt>
      <trkpt lat="37.9048162694261" lon="-122.111483772077">
        <ele>288.0</ele>
      </trkpt>
      <trkpt lat="37.9048773593037" lon="-122.11115999569">
        <ele>294.0</ele>
      </trkpt>
      <trkpt lat="37.9048797180175" lon="-122.111147494507">
        <ele>294.0</ele>
      </trkpt>
      <trkpt lat="37.9049" lon="-122.11104">
        <ele>294.0</ele>
      </trkpt>
      <trkpt lat="37.90488" lon="-122.11097">
        <ele>292.0</ele>
      </trkpt>
      <trkpt lat="37.90464" lon="-122.11055">
        <ele>288.0</ele>
      </trkpt>
      <trkpt lat="37.9046282148583" lon="-122.110521072834">
        <ele>288.0</ele>
      </trkpt>
      <trkpt lat="37.9046282148583" lon="-122.110521072834">
        <ele>288.0</ele>
      </trkpt>
      <trkpt lat="37.90453" lon="-122.11028">
        <ele>287.0</ele>
      </trkpt>
      <trkpt lat="37.90438" lon="-122.10934">
        <ele>286.0</ele>
      </trkpt>
      <trkpt lat="37.90423" lon="-122.10887">
        <ele>277.0</ele>
      </trkpt>
      <trkpt lat="37.9042" lon="-122.1087">
        <ele>274.0</ele>
      </trkpt>
      <trkpt lat="37.904186098464" lon="-122.108435851713">
        <ele>272.0</ele>
      </trkpt>
      <trkpt lat="37.904186098464" lon="-122.108435851713">
        <ele>272.0</ele>
      </trkpt>
      <trkpt lat="37.90418" lon="-122.10832">
        <ele>272.0</ele>
      </trkpt>
      <trkpt lat="37.90422" lon="-122.10811">
        <ele>268.0</ele>
      </trkpt>
      <trkpt lat="37.90426" lon="-122.10799">
        <ele>268.0</ele>
      </trkpt>
      <trkpt lat="37.90449" lon="-122.10769">
        <ele>272.0</ele>
      </trkpt>
      <trkpt lat="37.90455" lon="-122.10757">
        <ele>269.0</ele>
      </trkpt>
      <trkpt lat="37.90456" lon="-122.1074">
        <ele>269.0</ele>
      </trkpt>
      <trkpt lat="37.9044731936277" lon="-122.106879161766">
        <ele>261.0</ele>
      </trkpt>
      <trkpt lat="37.9044731936277" lon="-122.106879161766">
        <ele>261.0</ele>
      </trkpt>
      <trkpt lat="37.90443" lon="-122.10662">
        <ele>256.0</ele>
      </trkpt>
      <trkpt lat="37.90443" lon="-122.10596">
        <ele>239.0</ele>
      </trkpt>
      <trkpt lat="37.9044001800845" lon="-122.105686650775">
        <ele>233.0</ele>
      </trkpt>
      <trkpt lat="37.9044001800907" lon="-122.105686650775">
        <ele>233.0</ele>
      </trkpt>
      <trkpt lat="37.90437" lon="-122.10541">
        <ele>222.0</ele>
      </trkpt>
      <trkpt lat="37.9043215748765" lon="-122.105269126913">
        <ele>222.0</ele>
      </trkpt>
      <trkpt lat="37.9043215748765" lon="-122.105269126913">
        <ele>222.0</ele>
      </trkpt>
      <trkpt lat="37.90426" lon="-122.10509">
        <ele>217.0</ele>
      </trkpt>
      <trkpt lat="37.9041896943258" lon="-122.105005633191">
        <ele>217.0</ele>
      </trkpt>
      <trkpt lat="37.90418969434" lon="-122.105005633191">
        <ele>217.0</ele>
      </trkpt>
      <trkpt lat="37.90416" lon="-122.10497">
        <ele>217.0</ele>
      </trkpt>
      <trkpt lat="37.903894396201" lon="-122.104873415113">
        <ele>217.0</ele>
      </trkpt>
      <trkpt lat="37.9038773358867" lon="-122.104867211527">
        <ele>217.0</ele>
      </trkpt>
      <trkpt lat="37.90372" lon="-122.10481">
        <ele>209.0</ele>
      </trkpt>
      <trkpt lat="37.90329" lon="-122.10477">
        <ele>209.0</ele>
      </trkpt>
      <trkpt lat="37.90319" lon="-122.10471">
        <ele>211.0</ele>
      </trkpt>
      <trkpt lat="37.90319" lon="-122.10471">
        <ele>211.0</ele>
      </trkpt>
      <trkpt lat="37.90319" lon="-122.10471">
        <ele>211.0</ele>
      </trkpt>
      <trkpt lat="37.90323" lon="-122.10454">
        <ele>201.0</ele>
      </trkpt>
      <trkpt lat="37.90323" lon="-122.10454">
        <ele>201.0</ele>
      </trkpt>
      <trkpt lat="37.90323" lon="-122.10454">
        <ele>201.0</ele>
      </trkpt>
      <trkpt lat="37.9033" lon="-122.10448">
        <ele>201.0</ele>
      </trkpt>
      <trkpt lat="37.90358" lon="-122.10438">
        <ele>201.0</ele>
      </trkpt>
      <trkpt lat="37.90384" lon="-122.10435">
        <ele>203.0</ele>
      </trkpt>
      <trkpt lat="37.9038828571437" lon="-122.104307142856">
        <ele>203.0</ele>
      </trkpt>
      <trkpt lat="37.9038924407043" lon="-122.104285355774">
        <ele>199.0</ele>
      </trkpt>
      <trkpt lat="37.9039" lon="-122.10424">
        <ele>199.0</ele>
      </trkpt>
      <trkpt lat="37.90389" lon="-122.1042">
        <ele>199.0</ele>
      </trkpt>
      <trkpt lat="37.9038594053487" lon="-122.104181643209">
        <ele>199.0</ele>
      </trkpt>
      <trkpt lat="37.9038594053487" lon="-122.104181643209">
        <ele>199.0</ele>
      </trkpt>
      <trkpt lat="37.90384" lon="-122.10417">
        <ele>199.0</ele>
      </trkpt>
      <trkpt lat="37.90369" lon="-122.10411">
        <ele>197.0</ele>
      </trkpt>
      <trkpt lat="37.90361" lon="-122.10399">
        <ele>192.0</ele>
      </trkpt>
      <trkpt lat="37.90362" lon="-122.1038">
        <ele>192.0</ele>
      </trkpt>
      <trkpt lat="37.90362" lon="-122.1038">
        <ele>192.0</ele>
      </trkpt>
      <trkpt lat="37.90362" lon="-122.1038">
        <ele>192.0</ele>
      </trkpt>
      <trkpt lat="37.90373" lon="-122.10361">
        <ele>188.0</ele>
      </trkpt>
      <trkpt lat="37.90373" lon="-122.1035">
        <ele>188.0</ele>
      </trkpt>
      <trkpt lat="37.90347" lon="-122.10304">
        <ele>178.0</ele>
      </trkpt>
      <trkpt lat="37.90341" lon="-122.10274">
        <ele>177.0</ele>
      </trkpt>
      <trkpt lat="37.9033910496685" lon="-122.102266241713">
        <ele>174.0</ele>
      </trkpt>
      <trkpt lat="37.9033910496687" lon="-122.102266241713">
        <ele>174.0</ele>
      </trkpt>
      <trkpt lat="37.90339" lon="-122.10224">
        <ele>174.0</ele>
      </trkpt>
      <trkpt lat="37.90343" lon="-122.10211">
        <ele>174.0</ele>
      </trkpt>
      <trkpt lat="37.9035" lon="-122.10205">
        <ele>170.0</ele>
      </trkpt>
      <trkpt lat="37.9035" lon="-122.10205">
        <ele>170.0</ele>
      </trkpt>
      <trkpt lat="37.90357" lon="-122.10203">
        <ele>170.0</ele>
      </trkpt>
      <trkpt lat="37.90366" lon="-122.10205">
        <ele>170.0</ele>
      </trkpt>
      <trkpt lat="37.90366" lon="-122.10205">
        <ele>170.0</ele>
      </trkpt>
      <trkpt lat="37.90385" lon="-122.10225">
        <ele>174.0</ele>
      </trkpt>
      <trkpt lat="37.90396" lon="-122.10227">
        <ele>174.0</ele>
      </trkpt>
      <trkpt lat="37.90417" lon="-122.10221">
        <ele>171.0</ele>
      </trkpt>
      <trkpt lat="37.90444" lon="-122.10218">
        <ele>168.0</ele>
      </trkpt>
      <trkpt lat="37.90455" lon="-122.10212">
        <ele>168.0</ele>
      </trkpt>
      <trkpt lat="37.90459" lon="-122.10205">
        <ele>168.0</ele>
      </trkpt>
      <trkpt lat="37.90459" lon="-122.10205">
        <ele>168.0</ele>
      </trkpt>
      <trkpt lat="37.90462" lon="-122.10195">
        <ele>168.0</ele>
      </trkpt>
      <trkpt lat="37.90462" lon="-122.1018">
        <ele>164.0</ele>
      </trkpt>
      <trkpt lat="37.9046" lon="-122.10165">
        <ele>164.0</ele>
      </trkpt>
      <trkpt lat="37.9045093014965" lon="-122.101370922939">
        <ele>161.0</ele>
      </trkpt>
      <trkpt lat="37.904498934199" lon="-122.101339024063">
        <ele>161.0</ele>
      </trkpt>
      <trkpt lat="37.90447" lon="-122.10125">
        <ele>160.0</ele>
      </trkpt>
      <trkpt lat="37.90447" lon="-122.10125">
        <ele>160.0</ele>
      </trkpt>
      <trkpt lat="37.90452" lon="-122.10118">
        <ele>160.0</ele>
      </trkpt>
      <trkpt lat="37.9047" lon="-122.10119">
        <ele>157.0</ele>
      </trkpt>
      <trkpt lat="37.9048" lon="-122.10128">
        <ele>163.0</ele>
      </trkpt>
      <trkpt lat="37.90501" lon="-122.10162">
        <ele>162.0</ele>
      </trkpt>
      <trkpt lat="37.90562" lon="-122.10205">
        <ele>156.0</ele>
      </trkpt>
      <trkpt lat="37.90562" lon="-122.10205">
        <ele>156.0</ele>
      </trkpt>
      <trkpt lat="37.9056848901545" lon="-122.102087678154">
        <ele>163.0</ele>
      </trkpt>
      <trkpt lat="37.9056848902626" lon="-122.102087678154">
        <ele>163.0</ele>
      </trkpt>
      <trkpt lat="37.90593" lon="-122.10223">
        <ele>148.0</ele>
      </trkpt>
      <trkpt lat="37.9059435995201" lon="-122.10225719904">
        <ele>148.0</ele>
      </trkpt>
      <trkpt lat="37.9059435995201" lon="-122.10225719904">
        <ele>148.0</ele>
      </trkpt>
      <trkpt lat="37.90596" lon="-122.10229">
        <ele>148.0</ele>
      </trkpt>
      <trkpt lat="37.90597" lon="-122.10238">
        <ele>152.0</ele>
      </trkpt>
      <trkpt lat="37.90584" lon="-122.10285">
        <ele>153.0</ele>
      </trkpt>
      <trkpt lat="37.90584" lon="-122.10304">
        <ele>154.0</ele>
      </trkpt>
      <trkpt lat="37.90586" lon="-122.10324">
        <ele>151.0</ele>
      </trkpt>
      <trkpt lat="37.906" lon="-122.10347">
        <ele>140.0</ele>
      </trkpt>
      <trkpt lat="37.906" lon="-122.10347">
        <ele>140.0</ele>
      </trkpt>
      <trkpt lat="37.906" lon="-122.10347">
        <ele>140.0</ele>
      </trkpt>
      <trkpt lat="37.9061275893691" lon="-122.103497340579">
        <ele>142.0</ele>
      </trkpt>
      <trkpt lat="37.9061503833857" lon="-122.10350726837">
        <ele>142.0</ele>
      </trkpt>
      <trkpt lat="37.9064068523521" lon="-122.103686796647">
        <ele>134.0</ele>
      </trkpt>
      <trkpt lat="37.9064068524099" lon="-122.103686796647">
        <ele>134.0</ele>
      </trkpt>
      <trkpt lat="37.90644" lon="-122.10371">
        <ele>134.0</ele>
      </trkpt>
      <trkpt lat="37.9065155484733" lon="-122.103738780189">
        <ele>134.0</ele>
      </trkpt>
      <trkpt lat="37.9065155484733" lon="-122.103738780189">
        <ele>134.0</ele>
      </trkpt>
      <trkpt lat="37.90665" lon="-122.10379">
        <ele>131.0</ele>
      </trkpt>
      <trkpt lat="37.90673" lon="-122.10377">
        <ele>131.0</ele>
      </trkpt>
      <trkpt lat="37.90673" lon="-122.10377">
        <ele>131.0</ele>
      </trkpt>
      <trkpt lat="37.90673" lon="-122.10377">
        <ele>131.0</ele>
      </trkpt>
      <trkpt lat="37.90676" lon="-122.10373">
        <ele>127.0</ele>
      </trkpt>
      <trkpt lat="37.90677" lon="-122.10363">
        <ele>127.0</ele>
      </trkpt>
      <trkpt lat="37.90668232035" lon="-122.103440027425">
        <ele>124.0</ele>
      </trkpt>
      <trkpt lat="37.9066823203693" lon="-122.103440027425">
        <ele>124.0</ele>
      </trkpt>
      <trkpt lat="37.90665" lon="-122.10337">
        <ele>124.0</ele>
      </trkpt>
      <trkpt lat="37.9065407885123" lon="-122.103238946215">
        <ele>124.0</ele>
      </trkpt>
      <trkpt lat="37.9065407885123" lon="-122.103238946215">
        <ele>124.0</ele>
      </trkpt>
      <trkpt lat="37.90645" lon="-122.10313">
        <ele>132.0</ele>
      </trkpt>
      <trkpt lat="37.906400533228" lon="-122.10298778303">
        <ele>132.0</ele>
      </trkpt>
      <trkpt lat="37.906392397892" lon="-122.102964393939">
        <ele>132.0</ele>
      </trkpt>
      <trkpt lat="37.90637" lon="-122.1029">
        <ele>134.0</ele>
      </trkpt>
      <trkpt lat="37.90639" lon="-122.1028">
        <ele>134.0</ele>
      </trkpt>
      <trkpt lat="37.9066279481994" lon="-122.102250889053">
        <ele>124.0</ele>
      </trkpt>
      <trkpt lat="37.9066279481994" lon="-122.102250889053">
        <ele>124.0</ele>
      </trkpt>
      <trkpt lat="37.90665" lon="-122.1022">
        <ele>124.0</ele>
      </trkpt>
      <trkpt lat="37.90665" lon="-122.10205">
        <ele>120.0</ele>
      </trkpt>
      <trkpt lat="37.90665" lon="-122.10205">
        <ele>120.0</ele>
      </trkpt>
      <trkpt lat="37.90665" lon="-122.10197">
        <ele>120.0</ele>
      </trkpt>
      <trkpt lat="37.90654" lon="-122.10181">
        <ele>120.0</ele>
      </trkpt>
      <trkpt lat="37.90654" lon="-122.10181">
        <ele>120.0</ele>
      </trkpt>
      <trkpt lat="37.9063874226463" lon="-122.101694536057">
        <ele>121.0</ele>
      </trkpt>
      <trkpt lat="37.9063874228718" lon="-122.101694536057">
        <ele>121.0</ele>
      </trkpt>
      <trkpt lat="37.90617" lon="-122.10153">
        <ele>126.0</ele>
      </trkpt>
      <trkpt lat="37.90575" lon="-122.10093">
        <ele>115.0</ele>
      </trkpt>
      <trkpt lat="37.90571" lon="-122.10082">
        <ele>115.0</ele>
      </trkpt>
      <trkpt lat="37.90574" lon="-122.10071">
        <ele>115.0</ele>
      </trkpt>
      <trkpt lat="37.90574" lon="-122.10071">
        <ele>115.0</ele>
      </trkpt>
      <trkpt lat="37.9057549643059" lon="-122.100696186795">
        <ele>115.0</ele>
      </trkpt>
      <trkpt lat="37.90587" lon="-122.10059">
        <ele>111.0</ele>
      </trkpt>
      <trkpt lat="37.90595" lon="-122.10059">
        <ele>111.0</ele>
      </trkpt>
      <trkpt lat="37.90619" lon="-122.10066">
        <ele>109.0</ele>
      </trkpt>
      <trkpt lat="37.906324467162" lon="-122.100668404198">
        <ele>109.0</ele>
      </trkpt>
    </trkseg>
  </trk>
</gpx>
