<?xml version="1.0" encoding="UTF-8"?>
<gpx xmlns:xsi="http://www.w3.org/2001/XMLSchema-instance" version="1.1" creator="The Outbound Collective, Inc. 1.1.1 -- https://www.theoutbound.com" xsi:schemaLocation="http://www.topografix.com/GPX/1/1 http://www.topografix.com/GPX/1/1/gpx.xsd">
  <metadata>
    <name/>
    <time>2026-02-19T22:01:01+00:00</time>
    <bound minlat="33.55603204586875" minlon="-117.8044874612709" maxlat="33.57668" maxlon="-117.77662"/>
  </metadata>
  <trk>
    <name/>
    <trkseg>
      <trkpt lat="33.55603204586875" lon="-117.8044867515564">
        <ele>17.0</ele>
      </trkpt>
      <trkpt lat="33.55603253874045" lon="-117.8044874612709">
        <ele>17.0</ele>
      </trkpt>
      <trkpt lat="33.55612" lon="-117.8044">
        <ele>17.0</ele>
      </trkpt>
      <trkpt lat="33.55633" lon="-117.80389">
        <ele>24.0</ele>
      </trkpt>
      <trkpt lat="33.55648" lon="-117.80373">
        <ele>23.0</ele>
      </trkpt>
      <trkpt lat="33.55656" lon="-117.8037">
        <ele>26.0</ele>
      </trkpt>
      <trkpt lat="33.5567" lon="-117.80355">
        <ele>26.0</ele>
      </trkpt>
      <trkpt lat="33.55697" lon="-117.80344">
        <ele>31.0</ele>
      </trkpt>
      <trkpt lat="33.55729" lon="-117.80321">
        <ele>32.0</ele>
      </trkpt>
      <trkpt lat="33.55757" lon="-117.80292">
        <ele>30.0</ele>
      </trkpt>
      <trkpt lat="33.55783" lon="-117.80258">
        <ele>22.0</ele>
      </trkpt>
      <trkpt lat="33.55792" lon="-117.80232">
        <ele>15.0</ele>
      </trkpt>
      <trkpt lat="33.5579" lon="-117.80177">
        <ele>32.0</ele>
      </trkpt>
      <trkpt lat="33.55799" lon="-117.80154">
        <ele>20.0</ele>
      </trkpt>
      <trkpt lat="33.55815" lon="-117.80131">
        <ele>26.0</ele>
      </trkpt>
      <trkpt lat="33.55827" lon="-117.80104">
        <ele>26.0</ele>
      </trkpt>
      <trkpt lat="33.55866" lon="-117.80049">
        <ele>29.0</ele>
      </trkpt>
      <trkpt lat="33.55882" lon="-117.80013">
        <ele>35.0</ele>
      </trkpt>
      <trkpt lat="33.55922" lon="-117.79972">
        <ele>39.0</ele>
      </trkpt>
      <trkpt lat="33.55949" lon="-117.7993">
        <ele>50.0</ele>
      </trkpt>
      <trkpt lat="33.55951843764263" lon="-117.7992767328379">
        <ele>50.0</ele>
      </trkpt>
      <trkpt lat="33.55951843767417" lon="-117.7992767328379">
        <ele>50.0</ele>
      </trkpt>
      <trkpt lat="33.55971" lon="-117.79912">
        <ele>43.0</ele>
      </trkpt>
      <trkpt lat="33.55971" lon="-117.79912">
        <ele>43.0</ele>
      </trkpt>
      <trkpt lat="33.56011" lon="-117.7988">
        <ele>46.0</ele>
      </trkpt>
      <trkpt lat="33.56021" lon="-117.79867">
        <ele>42.0</ele>
      </trkpt>
      <trkpt lat="33.5604" lon="-117.79807">
        <ele>50.0</ele>
      </trkpt>
      <trkpt lat="33.5606" lon="-117.79765">
        <ele>46.0</ele>
      </trkpt>
      <trkpt lat="33.5607" lon="-117.7976">
        <ele>57.0</ele>
      </trkpt>
      <trkpt lat="33.56093" lon="-117.79762">
        <ele>57.0</ele>
      </trkpt>
      <trkpt lat="33.56109" lon="-117.79745">
        <ele>62.0</ele>
      </trkpt>
      <trkpt lat="33.56130904233314" lon="-117.7974275341197">
        <ele>63.0</ele>
      </trkpt>
      <trkpt lat="33.56130904233314" lon="-117.7974275341197">
        <ele>63.0</ele>
      </trkpt>
      <trkpt lat="33.56148" lon="-117.79741">
        <ele>63.0</ele>
      </trkpt>
      <trkpt lat="33.56166" lon="-117.79719">
        <ele>61.0</ele>
      </trkpt>
      <trkpt lat="33.56175" lon="-117.79704">
        <ele>68.0</ele>
      </trkpt>
      <trkpt lat="33.56193" lon="-117.79689">
        <ele>62.0</ele>
      </trkpt>
      <trkpt lat="33.56248" lon="-117.79624">
        <ele>65.0</ele>
      </trkpt>
      <trkpt lat="33.56267" lon="-117.79569">
        <ele>68.0</ele>
      </trkpt>
      <trkpt lat="33.56291" lon="-117.79541">
        <ele>72.0</ele>
      </trkpt>
      <trkpt lat="33.56291" lon="-117.79541">
        <ele>72.0</ele>
      </trkpt>
      <trkpt lat="33.56297" lon="-117.79533">
        <ele>72.0</ele>
      </trkpt>
      <trkpt lat="33.56311" lon="-117.79524">
        <ele>72.0</ele>
      </trkpt>
      <trkpt lat="33.56342" lon="-117.79487">
        <ele>81.0</ele>
      </trkpt>
      <trkpt lat="33.56361" lon="-117.79471">
        <ele>81.0</ele>
      </trkpt>
      <trkpt lat="33.56384" lon="-117.79462">
        <ele>84.0</ele>
      </trkpt>
      <trkpt lat="33.56447" lon="-117.79453">
        <ele>85.0</ele>
      </trkpt>
      <trkpt lat="33.56461" lon="-117.79448">
        <ele>81.0</ele>
      </trkpt>
      <trkpt lat="33.56499" lon="-117.79427">
        <ele>77.0</ele>
      </trkpt>
      <trkpt lat="33.56532" lon="-117.79393">
        <ele>81.0</ele>
      </trkpt>
      <trkpt lat="33.56578" lon="-117.79377">
        <ele>89.0</ele>
      </trkpt>
      <trkpt lat="33.56617" lon="-117.79354">
        <ele>93.0</ele>
      </trkpt>
      <trkpt lat="33.5666" lon="-117.79334">
        <ele>90.0</ele>
      </trkpt>
      <trkpt lat="33.56724" lon="-117.79281">
        <ele>96.0</ele>
      </trkpt>
      <trkpt lat="33.56733" lon="-117.79277">
        <ele>96.0</ele>
      </trkpt>
      <trkpt lat="33.56795" lon="-117.79227">
        <ele>93.0</ele>
      </trkpt>
      <trkpt lat="33.56812223171048" lon="-117.7920664534331">
        <ele>94.0</ele>
      </trkpt>
      <trkpt lat="33.56812223175812" lon="-117.7920664534331">
        <ele>94.0</ele>
      </trkpt>
      <trkpt lat="33.56817" lon="-117.79201">
        <ele>94.0</ele>
      </trkpt>
      <trkpt lat="33.56841" lon="-117.79179">
        <ele>93.0</ele>
      </trkpt>
      <trkpt lat="33.56856" lon="-117.79171">
        <ele>95.0</ele>
      </trkpt>
      <trkpt lat="33.56856" lon="-117.79171">
        <ele>95.0</ele>
      </trkpt>
      <trkpt lat="33.56868" lon="-117.79157">
        <ele>95.0</ele>
      </trkpt>
      <trkpt lat="33.56868" lon="-117.79157">
        <ele>95.0</ele>
      </trkpt>
      <trkpt lat="33.56886" lon="-117.79152">
        <ele>98.0</ele>
      </trkpt>
      <trkpt lat="33.56886" lon="-117.79152">
        <ele>98.0</ele>
      </trkpt>
      <trkpt lat="33.56886" lon="-117.79152">
        <ele>98.0</ele>
      </trkpt>
      <trkpt lat="33.56918" lon="-117.79109">
        <ele>101.0</ele>
      </trkpt>
      <trkpt lat="33.56949" lon="-117.79021">
        <ele>97.0</ele>
      </trkpt>
      <trkpt lat="33.56965" lon="-117.79009">
        <ele>100.0</ele>
      </trkpt>
      <trkpt lat="33.56975512801427" lon="-117.7900671958923">
        <ele>100.0</ele>
      </trkpt>
      <trkpt lat="33.56975593658137" lon="-117.7900811719523">
        <ele>100.0</ele>
      </trkpt>
      <trkpt lat="33.56977" lon="-117.79008">
        <ele>100.0</ele>
      </trkpt>
      <trkpt lat="33.56985" lon="-117.79003">
        <ele>100.0</ele>
      </trkpt>
      <trkpt lat="33.57001" lon="-117.78981">
        <ele>104.0</ele>
      </trkpt>
      <trkpt lat="33.57018" lon="-117.78952">
        <ele>109.0</ele>
      </trkpt>
      <trkpt lat="33.57022" lon="-117.7894">
        <ele>109.0</ele>
      </trkpt>
      <trkpt lat="33.57022" lon="-117.7894">
        <ele>109.0</ele>
      </trkpt>
      <trkpt lat="33.57022" lon="-117.7894">
        <ele>109.0</ele>
      </trkpt>
      <trkpt lat="33.57041" lon="-117.78911">
        <ele>106.0</ele>
      </trkpt>
      <trkpt lat="33.57055" lon="-117.78897">
        <ele>105.0</ele>
      </trkpt>
      <trkpt lat="33.57118" lon="-117.78868">
        <ele>107.0</ele>
      </trkpt>
      <trkpt lat="33.57198" lon="-117.78798">
        <ele>112.0</ele>
      </trkpt>
      <trkpt lat="33.57258" lon="-117.78783">
        <ele>118.0</ele>
      </trkpt>
      <trkpt lat="33.5729" lon="-117.78758">
        <ele>117.0</ele>
      </trkpt>
      <trkpt lat="33.57319" lon="-117.78719">
        <ele>118.0</ele>
      </trkpt>
      <trkpt lat="33.57376" lon="-117.78657">
        <ele>121.0</ele>
      </trkpt>
      <trkpt lat="33.57403" lon="-117.78639">
        <ele>124.0</ele>
      </trkpt>
      <trkpt lat="33.57448" lon="-117.78621">
        <ele>124.0</ele>
      </trkpt>
      <trkpt lat="33.57457" lon="-117.78627">
        <ele>127.0</ele>
      </trkpt>
      <trkpt lat="33.57465" lon="-117.78645">
        <ele>128.0</ele>
      </trkpt>
      <trkpt lat="33.57473" lon="-117.78641">
        <ele>128.0</ele>
      </trkpt>
      <trkpt lat="33.57484" lon="-117.78642">
        <ele>128.0</ele>
      </trkpt>
      <trkpt lat="33.57492" lon="-117.78637">
        <ele>131.0</ele>
      </trkpt>
      <trkpt lat="33.57502" lon="-117.78604">
        <ele>129.0</ele>
      </trkpt>
      <trkpt lat="33.57538" lon="-117.78593">
        <ele>129.0</ele>
      </trkpt>
      <trkpt lat="33.57555" lon="-117.78584">
        <ele>130.0</ele>
      </trkpt>
      <trkpt lat="33.57563" lon="-117.7857">
        <ele>130.0</ele>
      </trkpt>
      <trkpt lat="33.57563" lon="-117.7857">
        <ele>130.0</ele>
      </trkpt>
      <trkpt lat="33.57548" lon="-117.78555">
        <ele>129.0</ele>
      </trkpt>
      <trkpt lat="33.57542" lon="-117.78538">
        <ele>130.0</ele>
      </trkpt>
      <trkpt lat="33.57551" lon="-117.78523">
        <ele>130.0</ele>
      </trkpt>
      <trkpt lat="33.57561" lon="-117.78518">
        <ele>130.0</ele>
      </trkpt>
      <trkpt lat="33.57562" lon="-117.78511">
        <ele>137.0</ele>
      </trkpt>
      <trkpt lat="33.5754" lon="-117.78496">
        <ele>143.0</ele>
      </trkpt>
      <trkpt lat="33.57515" lon="-117.78508">
        <ele>143.0</ele>
      </trkpt>
      <trkpt lat="33.5749" lon="-117.78503">
        <ele>151.0</ele>
      </trkpt>
      <trkpt lat="33.57483" lon="-117.78497">
        <ele>146.0</ele>
      </trkpt>
      <trkpt lat="33.57453" lon="-117.78493">
        <ele>143.0</ele>
      </trkpt>
      <trkpt lat="33.57451" lon="-117.78489">
        <ele>143.0</ele>
      </trkpt>
      <trkpt lat="33.57447847128497" lon="-117.7848637260708">
        <ele>143.0</ele>
      </trkpt>
      <trkpt lat="33.57447847129016" lon="-117.7848637260708">
        <ele>143.0</ele>
      </trkpt>
      <trkpt lat="33.57445" lon="-117.78484">
        <ele>146.0</ele>
      </trkpt>
      <trkpt lat="33.57449" lon="-117.78477">
        <ele>146.0</ele>
      </trkpt>
      <trkpt lat="33.57475" lon="-117.78465">
        <ele>156.0</ele>
      </trkpt>
      <trkpt lat="33.5749" lon="-117.78448">
        <ele>162.0</ele>
      </trkpt>
      <trkpt lat="33.57511" lon="-117.78392">
        <ele>164.0</ele>
      </trkpt>
      <trkpt lat="33.57532" lon="-117.78364">
        <ele>173.0</ele>
      </trkpt>
      <trkpt lat="33.57536" lon="-117.78355">
        <ele>173.0</ele>
      </trkpt>
      <trkpt lat="33.57543" lon="-117.78348">
        <ele>179.0</ele>
      </trkpt>
      <trkpt lat="33.57573" lon="-117.78291">
        <ele>181.0</ele>
      </trkpt>
      <trkpt lat="33.57576" lon="-117.78279">
        <ele>181.0</ele>
      </trkpt>
      <trkpt lat="33.57584" lon="-117.78271">
        <ele>181.0</ele>
      </trkpt>
      <trkpt lat="33.57595" lon="-117.78247">
        <ele>184.0</ele>
      </trkpt>
      <trkpt lat="33.57624" lon="-117.78211">
        <ele>188.0</ele>
      </trkpt>
      <trkpt lat="33.57639" lon="-117.78182">
        <ele>191.0</ele>
      </trkpt>
      <trkpt lat="33.57643" lon="-117.78129">
        <ele>197.0</ele>
      </trkpt>
      <trkpt lat="33.57649" lon="-117.78118">
        <ele>200.0</ele>
      </trkpt>
      <trkpt lat="33.57651" lon="-117.78101">
        <ele>200.0</ele>
      </trkpt>
      <trkpt lat="33.57662" lon="-117.78081">
        <ele>203.0</ele>
      </trkpt>
      <trkpt lat="33.57668" lon="-117.78051">
        <ele>206.0</ele>
      </trkpt>
      <trkpt lat="33.57663" lon="-117.78004">
        <ele>207.0</ele>
      </trkpt>
      <trkpt lat="33.57659" lon="-117.77991">
        <ele>207.0</ele>
      </trkpt>
      <trkpt lat="33.57657" lon="-117.77956">
        <ele>210.0</ele>
      </trkpt>
      <trkpt lat="33.57659" lon="-117.77943">
        <ele>210.0</ele>
      </trkpt>
      <trkpt lat="33.5766" lon="-117.77861">
        <ele>221.0</ele>
      </trkpt>
      <trkpt lat="33.57643" lon="-117.77818">
        <ele>238.0</ele>
      </trkpt>
      <trkpt lat="33.57643" lon="-117.7780401706695">
        <ele>238.0</ele>
      </trkpt>
      <trkpt lat="33.57643" lon="-117.7780401706696">
        <ele>238.0</ele>
      </trkpt>
      <trkpt lat="33.57643" lon="-117.77802">
        <ele>238.0</ele>
      </trkpt>
      <trkpt lat="33.57634" lon="-117.77774">
        <ele>245.0</ele>
      </trkpt>
      <trkpt lat="33.57636" lon="-117.77763">
        <ele>253.0</ele>
      </trkpt>
      <trkpt lat="33.57633" lon="-117.77745">
        <ele>253.0</ele>
      </trkpt>
      <trkpt lat="33.57639" lon="-117.77717">
        <ele>259.0</ele>
      </trkpt>
      <trkpt lat="33.57637" lon="-117.77667">
        <ele>260.0</ele>
      </trkpt>
      <trkpt lat="33.57633" lon="-117.77662">
        <ele>260.0</ele>
      </trkpt>
      <trkpt lat="33.57633" lon="-117.77662">
        <ele>260.0</ele>
      </trkpt>
      <trkpt lat="33.57606" lon="-117.77703">
        <ele>259.0</ele>
      </trkpt>
      <trkpt lat="33.57589" lon="-117.77722">
        <ele>255.0</ele>
      </trkpt>
      <trkpt lat="33.57566" lon="-117.77738">
        <ele>250.0</ele>
      </trkpt>
      <trkpt lat="33.57549" lon="-117.77748">
        <ele>250.0</ele>
      </trkpt>
      <trkpt lat="33.57528" lon="-117.77751">
        <ele>245.0</ele>
      </trkpt>
      <trkpt lat="33.57503" lon="-117.77751">
        <ele>239.0</ele>
      </trkpt>
      <trkpt lat="33.57475" lon="-117.77747">
        <ele>242.0</ele>
      </trkpt>
      <trkpt lat="33.57455" lon="-117.7775">
        <ele>239.0</ele>
      </trkpt>
      <trkpt lat="33.57418" lon="-117.77766">
        <ele>237.0</ele>
      </trkpt>
      <trkpt lat="33.57402" lon="-117.77774">
        <ele>237.0</ele>
      </trkpt>
      <trkpt lat="33.57399340391653" lon="-117.777763049939">
        <ele>237.0</ele>
      </trkpt>
      <trkpt lat="33.57399340393555" lon="-117.777763049939">
        <ele>237.0</ele>
      </trkpt>
      <trkpt lat="33.57387" lon="-117.77787">
        <ele>237.0</ele>
      </trkpt>
      <trkpt lat="33.57373" lon="-117.77805">
        <ele>232.0</ele>
      </trkpt>
      <trkpt lat="33.57366" lon="-117.77822">
        <ele>231.0</ele>
      </trkpt>
      <trkpt lat="33.57353" lon="-117.77879">
        <ele>234.0</ele>
      </trkpt>
      <trkpt lat="33.57344" lon="-117.77907">
        <ele>237.0</ele>
      </trkpt>
      <trkpt lat="33.5733" lon="-117.77927">
        <ele>237.0</ele>
      </trkpt>
      <trkpt lat="33.57294" lon="-117.77958">
        <ele>232.0</ele>
      </trkpt>
      <trkpt lat="33.57196" lon="-117.77975">
        <ele>231.0</ele>
      </trkpt>
      <trkpt lat="33.57177" lon="-117.77983">
        <ele>226.0</ele>
      </trkpt>
      <trkpt lat="33.57156" lon="-117.78">
        <ele>238.0</ele>
      </trkpt>
      <trkpt lat="33.5713" lon="-117.78026">
        <ele>242.0</ele>
      </trkpt>
      <trkpt lat="33.57101" lon="-117.78067">
        <ele>243.0</ele>
      </trkpt>
      <trkpt lat="33.57072" lon="-117.78121">
        <ele>249.0</ele>
      </trkpt>
      <trkpt lat="33.57059" lon="-117.78152">
        <ele>251.0</ele>
      </trkpt>
      <trkpt lat="33.57055" lon="-117.78199">
        <ele>248.0</ele>
      </trkpt>
      <trkpt lat="33.57055" lon="-117.78199">
        <ele>248.0</ele>
      </trkpt>
      <trkpt lat="33.57055" lon="-117.78199">
        <ele>248.0</ele>
      </trkpt>
      <trkpt lat="33.5707" lon="-117.78206">
        <ele>248.0</ele>
      </trkpt>
      <trkpt lat="33.57085" lon="-117.78222">
        <ele>247.0</ele>
      </trkpt>
      <trkpt lat="33.57096792035207" lon="-117.7823025442464">
        <ele>247.0</ele>
      </trkpt>
      <trkpt lat="33.57096792040813" lon="-117.7823025442464">
        <ele>247.0</ele>
      </trkpt>
      <trkpt lat="33.57105" lon="-117.78236">
        <ele>240.0</ele>
      </trkpt>
      <trkpt lat="33.57111" lon="-117.78246">
        <ele>236.0</ele>
      </trkpt>
      <trkpt lat="33.57124" lon="-117.78283">
        <ele>229.0</ele>
      </trkpt>
      <trkpt lat="33.57125" lon="-117.78289">
        <ele>229.0</ele>
      </trkpt>
      <trkpt lat="33.57122" lon="-117.78308">
        <ele>225.0</ele>
      </trkpt>
      <trkpt lat="33.57124" lon="-117.78318">
        <ele>225.0</ele>
      </trkpt>
      <trkpt lat="33.57133" lon="-117.78338">
        <ele>224.0</ele>
      </trkpt>
      <trkpt lat="33.57151" lon="-117.78365">
        <ele>223.0</ele>
      </trkpt>
      <trkpt lat="33.57161" lon="-117.78396">
        <ele>221.0</ele>
      </trkpt>
      <trkpt lat="33.57165" lon="-117.78429">
        <ele>219.0</ele>
      </trkpt>
      <trkpt lat="33.57179" lon="-117.78463">
        <ele>211.0</ele>
      </trkpt>
      <trkpt lat="33.57167" lon="-117.78505">
        <ele>209.0</ele>
      </trkpt>
      <trkpt lat="33.57166" lon="-117.78516">
        <ele>202.0</ele>
      </trkpt>
      <trkpt lat="33.57164" lon="-117.7852">
        <ele>202.0</ele>
      </trkpt>
      <trkpt lat="33.5715" lon="-117.78521">
        <ele>205.0</ele>
      </trkpt>
      <trkpt lat="33.57145" lon="-117.78527">
        <ele>205.0</ele>
      </trkpt>
      <trkpt lat="33.57146" lon="-117.7855">
        <ele>201.0</ele>
      </trkpt>
      <trkpt lat="33.57143" lon="-117.78569">
        <ele>201.0</ele>
      </trkpt>
      <trkpt lat="33.57141" lon="-117.78576">
        <ele>195.0</ele>
      </trkpt>
      <trkpt lat="33.57126" lon="-117.78603">
        <ele>191.0</ele>
      </trkpt>
      <trkpt lat="33.57123" lon="-117.78638">
        <ele>187.0</ele>
      </trkpt>
      <trkpt lat="33.57108" lon="-117.78661">
        <ele>186.0</ele>
      </trkpt>
      <trkpt lat="33.57103" lon="-117.78674">
        <ele>186.0</ele>
      </trkpt>
      <trkpt lat="33.57094" lon="-117.78682">
        <ele>179.0</ele>
      </trkpt>
      <trkpt lat="33.57084" lon="-117.78702">
        <ele>179.0</ele>
      </trkpt>
      <trkpt lat="33.57073" lon="-117.78708">
        <ele>179.0</ele>
      </trkpt>
      <trkpt lat="33.57053" lon="-117.78733">
        <ele>171.0</ele>
      </trkpt>
      <trkpt lat="33.57048" lon="-117.78744">
        <ele>164.0</ele>
      </trkpt>
      <trkpt lat="33.57046" lon="-117.78759">
        <ele>164.0</ele>
      </trkpt>
      <trkpt lat="33.57039" lon="-117.78779">
        <ele>146.0</ele>
      </trkpt>
      <trkpt lat="33.57039" lon="-117.78806">
        <ele>138.0</ele>
      </trkpt>
      <trkpt lat="33.57029" lon="-117.78827">
        <ele>126.0</ele>
      </trkpt>
      <trkpt lat="33.57007" lon="-117.7885">
        <ele>119.0</ele>
      </trkpt>
      <trkpt lat="33.57006" lon="-117.78855">
        <ele>119.0</ele>
      </trkpt>
      <trkpt lat="33.57009" lon="-117.78862">
        <ele>119.0</ele>
      </trkpt>
      <trkpt lat="33.57017" lon="-117.78867">
        <ele>118.0</ele>
      </trkpt>
      <trkpt lat="33.57017" lon="-117.78872">
        <ele>118.0</ele>
      </trkpt>
      <trkpt lat="33.57011" lon="-117.7888">
        <ele>111.0</ele>
      </trkpt>
      <trkpt lat="33.5701" lon="-117.78896">
        <ele>111.0</ele>
      </trkpt>
      <trkpt lat="33.57008236481683" lon="-117.789002828302">
        <ele>111.0</ele>
      </trkpt>
      <trkpt lat="33.57008236482216" lon="-117.789002828302">
        <ele>111.0</ele>
      </trkpt>
      <trkpt lat="33.57003" lon="-117.78913">
        <ele>106.0</ele>
      </trkpt>
      <trkpt lat="33.57002" lon="-117.78923">
        <ele>106.0</ele>
      </trkpt>
      <trkpt lat="33.57022" lon="-117.7894">
        <ele>109.0</ele>
      </trkpt>
      <trkpt lat="33.57022" lon="-117.7894">
        <ele>109.0</ele>
      </trkpt>
      <trkpt lat="33.57018" lon="-117.78952">
        <ele>109.0</ele>
      </trkpt>
      <trkpt lat="33.57001" lon="-117.78981">
        <ele>104.0</ele>
      </trkpt>
      <trkpt lat="33.56985" lon="-117.79003">
        <ele>100.0</ele>
      </trkpt>
      <trkpt lat="33.56977" lon="-117.79008">
        <ele>100.0</ele>
      </trkpt>
      <trkpt lat="33.56965" lon="-117.79009">
        <ele>100.0</ele>
      </trkpt>
      <trkpt lat="33.56949" lon="-117.79021">
        <ele>97.0</ele>
      </trkpt>
      <trkpt lat="33.56918" lon="-117.79109">
        <ele>101.0</ele>
      </trkpt>
      <trkpt lat="33.56886" lon="-117.79152">
        <ele>98.0</ele>
      </trkpt>
      <trkpt lat="33.56886" lon="-117.79152">
        <ele>98.0</ele>
      </trkpt>
      <trkpt lat="33.56886" lon="-117.79152">
        <ele>98.0</ele>
      </trkpt>
      <trkpt lat="33.56868" lon="-117.79157">
        <ele>95.0</ele>
      </trkpt>
      <trkpt lat="33.56868" lon="-117.79157">
        <ele>95.0</ele>
      </trkpt>
      <trkpt lat="33.56856" lon="-117.79171">
        <ele>95.0</ele>
      </trkpt>
      <trkpt lat="33.56856" lon="-117.79171">
        <ele>95.0</ele>
      </trkpt>
      <trkpt lat="33.56841" lon="-117.79179">
        <ele>93.0</ele>
      </trkpt>
      <trkpt lat="33.56817" lon="-117.79201">
        <ele>94.0</ele>
      </trkpt>
      <trkpt lat="33.56795" lon="-117.79227">
        <ele>93.0</ele>
      </trkpt>
      <trkpt lat="33.56733" lon="-117.79277">
        <ele>96.0</ele>
      </trkpt>
      <trkpt lat="33.56724" lon="-117.79281">
        <ele>96.0</ele>
      </trkpt>
      <trkpt lat="33.5666" lon="-117.79334">
        <ele>90.0</ele>
      </trkpt>
      <trkpt lat="33.56617" lon="-117.79354">
        <ele>93.0</ele>
      </trkpt>
      <trkpt lat="33.56578" lon="-117.79377">
        <ele>89.0</ele>
      </trkpt>
      <trkpt lat="33.56532" lon="-117.79393">
        <ele>81.0</ele>
      </trkpt>
      <trkpt lat="33.56499" lon="-117.79427">
        <ele>77.0</ele>
      </trkpt>
      <trkpt lat="33.56461" lon="-117.79448">
        <ele>81.0</ele>
      </trkpt>
      <trkpt lat="33.56447" lon="-117.79453">
        <ele>85.0</ele>
      </trkpt>
      <trkpt lat="33.56384" lon="-117.79462">
        <ele>84.0</ele>
      </trkpt>
      <trkpt lat="33.56361" lon="-117.79471">
        <ele>81.0</ele>
      </trkpt>
      <trkpt lat="33.56342" lon="-117.79487">
        <ele>81.0</ele>
      </trkpt>
      <trkpt lat="33.56311" lon="-117.79524">
        <ele>72.0</ele>
      </trkpt>
      <trkpt lat="33.56297" lon="-117.79533">
        <ele>72.0</ele>
      </trkpt>
      <trkpt lat="33.56291" lon="-117.79541">
        <ele>72.0</ele>
      </trkpt>
      <trkpt lat="33.56291" lon="-117.79541">
        <ele>72.0</ele>
      </trkpt>
      <trkpt lat="33.56280856556581" lon="-117.7955283401732">
        <ele>68.0</ele>
      </trkpt>
      <trkpt lat="33.56280384145072" lon="-117.7955338517368">
        <ele>68.0</ele>
      </trkpt>
      <trkpt lat="33.56267" lon="-117.79569">
        <ele>68.0</ele>
      </trkpt>
      <trkpt lat="33.56248" lon="-117.79624">
        <ele>65.0</ele>
      </trkpt>
      <trkpt lat="33.56193" lon="-117.79689">
        <ele>62.0</ele>
      </trkpt>
      <trkpt lat="33.56175" lon="-117.79704">
        <ele>68.0</ele>
      </trkpt>
      <trkpt lat="33.56166" lon="-117.79719">
        <ele>61.0</ele>
      </trkpt>
      <trkpt lat="33.56148" lon="-117.79741">
        <ele>63.0</ele>
      </trkpt>
      <trkpt lat="33.56130904233314" lon="-117.7974275341197">
        <ele>63.0</ele>
      </trkpt>
      <trkpt lat="33.56130904233314" lon="-117.7974275341197">
        <ele>63.0</ele>
      </trkpt>
      <trkpt lat="33.56109" lon="-117.79745">
        <ele>62.0</ele>
      </trkpt>
      <trkpt lat="33.56093" lon="-117.79762">
        <ele>57.0</ele>
      </trkpt>
      <trkpt lat="33.5607" lon="-117.7976">
        <ele>57.0</ele>
      </trkpt>
      <trkpt lat="33.5606" lon="-117.79765">
        <ele>46.0</ele>
      </trkpt>
      <trkpt lat="33.5604" lon="-117.79807">
        <ele>50.0</ele>
      </trkpt>
      <trkpt lat="33.56021" lon="-117.79867">
        <ele>42.0</ele>
      </trkpt>
      <trkpt lat="33.56011" lon="-117.7988">
        <ele>46.0</ele>
      </trkpt>
      <trkpt lat="33.55971" lon="-117.79912">
        <ele>43.0</ele>
      </trkpt>
      <trkpt lat="33.55971" lon="-117.79912">
        <ele>43.0</ele>
      </trkpt>
      <trkpt lat="33.55949" lon="-117.7993">
        <ele>50.0</ele>
      </trkpt>
      <trkpt lat="33.55922" lon="-117.79972">
        <ele>39.0</ele>
      </trkpt>
      <trkpt lat="33.55882" lon="-117.80013">
        <ele>35.0</ele>
      </trkpt>
      <trkpt lat="33.55866" lon="-117.80049">
        <ele>29.0</ele>
      </trkpt>
      <trkpt lat="33.55827" lon="-117.80104">
        <ele>26.0</ele>
      </trkpt>
      <trkpt lat="33.55815" lon="-117.80131">
        <ele>26.0</ele>
      </trkpt>
      <trkpt lat="33.55799" lon="-117.80154">
        <ele>20.0</ele>
      </trkpt>
      <trkpt lat="33.5579" lon="-117.80177">
        <ele>32.0</ele>
      </trkpt>
      <trkpt lat="33.55792" lon="-117.80232">
        <ele>15.0</ele>
      </trkpt>
      <trkpt lat="33.55783" lon="-117.80258">
        <ele>22.0</ele>
      </trkpt>
      <trkpt lat="33.55757" lon="-117.80292">
        <ele>30.0</ele>
      </trkpt>
      <trkpt lat="33.55729" lon="-117.80321">
        <ele>32.0</ele>
      </trkpt>
      <trkpt lat="33.55697" lon="-117.80344">
        <ele>31.0</ele>
      </trkpt>
      <trkpt lat="33.5567" lon="-117.80355">
        <ele>26.0</ele>
      </trkpt>
      <trkpt lat="33.55656" lon="-117.8037">
        <ele>26.0</ele>
      </trkpt>
      <trkpt lat="33.55648" lon="-117.80373">
        <ele>23.0</ele>
      </trkpt>
      <trkpt lat="33.55633" lon="-117.80389">
        <ele>24.0</ele>
      </trkpt>
      <trkpt lat="33.55612" lon="-117.8044">
        <ele>17.0</ele>
      </trkpt>
      <trkpt lat="33.55604133300655" lon="-117.8044786669934">
        <ele>17.0</ele>
      </trkpt>
    </trkseg>
  </trk>
</gpx>
