<?xml version="1.0" encoding="UTF-8"?>
<gpx xmlns:xsi="http://www.w3.org/2001/XMLSchema-instance" version="1.1" creator="The Outbound Collective, Inc. 1.1.1 -- https://www.theoutbound.com" xsi:schemaLocation="http://www.topografix.com/GPX/1/1 http://www.topografix.com/GPX/1/1/gpx.xsd">
  <metadata>
    <name/>
    <time>2026-02-19T21:59:26+00:00</time>
    <bound minlat="34.10529073746574" minlon="-118.35376" maxlat="34.11762" maxlon="-118.34799"/>
  </metadata>
  <trk>
    <name/>
    <trkseg>
      <trkpt lat="34.10529315091315" lon="-118.3489483594895">
        <ele>172.0</ele>
      </trkpt>
      <trkpt lat="34.10529073746574" lon="-118.3489530530981">
        <ele>172.0</ele>
      </trkpt>
      <trkpt lat="34.1053" lon="-118.34896">
        <ele>172.0</ele>
      </trkpt>
      <trkpt lat="34.10538" lon="-118.34918">
        <ele>170.0</ele>
      </trkpt>
      <trkpt lat="34.10543" lon="-118.34923">
        <ele>172.0</ele>
      </trkpt>
      <trkpt lat="34.10607" lon="-118.34956">
        <ele>173.0</ele>
      </trkpt>
      <trkpt lat="34.10607" lon="-118.34956">
        <ele>173.0</ele>
      </trkpt>
      <trkpt lat="34.10607" lon="-118.34956">
        <ele>173.0</ele>
      </trkpt>
      <trkpt lat="34.10604876619269" lon="-118.3497864939447">
        <ele>173.0</ele>
      </trkpt>
      <trkpt lat="34.10604876619378" lon="-118.3497864939447">
        <ele>173.0</ele>
      </trkpt>
      <trkpt lat="34.10604" lon="-118.34988">
        <ele>176.0</ele>
      </trkpt>
      <trkpt lat="34.10599" lon="-118.35004">
        <ele>176.0</ele>
      </trkpt>
      <trkpt lat="34.1059" lon="-118.35014">
        <ele>182.0</ele>
      </trkpt>
      <trkpt lat="34.10573" lon="-118.35026">
        <ele>182.0</ele>
      </trkpt>
      <trkpt lat="34.10568" lon="-118.3504">
        <ele>177.0</ele>
      </trkpt>
      <trkpt lat="34.10543" lon="-118.35067">
        <ele>188.0</ele>
      </trkpt>
      <trkpt lat="34.10542" lon="-118.35078">
        <ele>194.0</ele>
      </trkpt>
      <trkpt lat="34.10542" lon="-118.35078">
        <ele>194.0</ele>
      </trkpt>
      <trkpt lat="34.10542" lon="-118.35078">
        <ele>194.0</ele>
      </trkpt>
      <trkpt lat="34.10589732591738" lon="-118.3504883008283">
        <ele>196.0</ele>
      </trkpt>
      <trkpt lat="34.10589732609418" lon="-118.3504883008283">
        <ele>196.0</ele>
      </trkpt>
      <trkpt lat="34.10596" lon="-118.35045">
        <ele>196.0</ele>
      </trkpt>
      <trkpt lat="34.10620987210693" lon="-118.3504115578216">
        <ele>187.0</ele>
      </trkpt>
      <trkpt lat="34.10621" lon="-118.35041">
        <ele>187.0</ele>
      </trkpt>
      <trkpt lat="34.1062" lon="-118.35053">
        <ele>201.0</ele>
      </trkpt>
      <trkpt lat="34.10591" lon="-118.35085">
        <ele>202.0</ele>
      </trkpt>
      <trkpt lat="34.10589576112961" lon="-118.3508784777408">
        <ele>202.0</ele>
      </trkpt>
      <trkpt lat="34.10589576114019" lon="-118.3508784777408">
        <ele>202.0</ele>
      </trkpt>
      <trkpt lat="34.10577" lon="-118.35113">
        <ele>204.0</ele>
      </trkpt>
      <trkpt lat="34.10576" lon="-118.35126">
        <ele>197.0</ele>
      </trkpt>
      <trkpt lat="34.1058" lon="-118.35131">
        <ele>197.0</ele>
      </trkpt>
      <trkpt lat="34.10592" lon="-118.35132">
        <ele>197.0</ele>
      </trkpt>
      <trkpt lat="34.10604" lon="-118.35114">
        <ele>207.0</ele>
      </trkpt>
      <trkpt lat="34.10613" lon="-118.35114">
        <ele>207.0</ele>
      </trkpt>
      <trkpt lat="34.1062" lon="-118.3512">
        <ele>207.0</ele>
      </trkpt>
      <trkpt lat="34.10629" lon="-118.35113">
        <ele>215.0</ele>
      </trkpt>
      <trkpt lat="34.10658" lon="-118.35103">
        <ele>223.0</ele>
      </trkpt>
      <trkpt lat="34.10666" lon="-118.35115">
        <ele>223.0</ele>
      </trkpt>
      <trkpt lat="34.10678" lon="-118.35117">
        <ele>223.0</ele>
      </trkpt>
      <trkpt lat="34.10686" lon="-118.35125">
        <ele>230.0</ele>
      </trkpt>
      <trkpt lat="34.10713" lon="-118.35123">
        <ele>233.0</ele>
      </trkpt>
      <trkpt lat="34.1072" lon="-118.35128">
        <ele>238.0</ele>
      </trkpt>
      <trkpt lat="34.10726" lon="-118.35127">
        <ele>238.0</ele>
      </trkpt>
      <trkpt lat="34.10726" lon="-118.35127">
        <ele>238.0</ele>
      </trkpt>
      <trkpt lat="34.10735" lon="-118.35126">
        <ele>238.0</ele>
      </trkpt>
      <trkpt lat="34.10744" lon="-118.35137">
        <ele>249.0</ele>
      </trkpt>
      <trkpt lat="34.1076" lon="-118.35142">
        <ele>249.0</ele>
      </trkpt>
      <trkpt lat="34.10776" lon="-118.35143">
        <ele>255.0</ele>
      </trkpt>
      <trkpt lat="34.10796" lon="-118.35156">
        <ele>269.0</ele>
      </trkpt>
      <trkpt lat="34.10823" lon="-118.35164">
        <ele>274.0</ele>
      </trkpt>
      <trkpt lat="34.1083" lon="-118.35168">
        <ele>274.0</ele>
      </trkpt>
      <trkpt lat="34.10851" lon="-118.35209">
        <ele>290.0</ele>
      </trkpt>
      <trkpt lat="34.10862" lon="-118.35219">
        <ele>290.0</ele>
      </trkpt>
      <trkpt lat="34.10866" lon="-118.35226">
        <ele>290.0</ele>
      </trkpt>
      <trkpt lat="34.10874" lon="-118.35253">
        <ele>293.0</ele>
      </trkpt>
      <trkpt lat="34.1089" lon="-118.35282">
        <ele>301.0</ele>
      </trkpt>
      <trkpt lat="34.10891" lon="-118.35292">
        <ele>300.0</ele>
      </trkpt>
      <trkpt lat="34.10915" lon="-118.35297">
        <ele>300.0</ele>
      </trkpt>
      <trkpt lat="34.10943" lon="-118.35297">
        <ele>300.0</ele>
      </trkpt>
      <trkpt lat="34.10955366950975" lon="-118.3529897871216">
        <ele>300.0</ele>
      </trkpt>
      <trkpt lat="34.10955366960211" lon="-118.3529897871216">
        <ele>300.0</ele>
      </trkpt>
      <trkpt lat="34.10968" lon="-118.35301">
        <ele>298.0</ele>
      </trkpt>
      <trkpt lat="34.10975" lon="-118.35295">
        <ele>298.0</ele>
      </trkpt>
      <trkpt lat="34.11008" lon="-118.35292">
        <ele>306.0</ele>
      </trkpt>
      <trkpt lat="34.11041" lon="-118.35297">
        <ele>311.0</ele>
      </trkpt>
      <trkpt lat="34.11102" lon="-118.35317">
        <ele>332.0</ele>
      </trkpt>
      <trkpt lat="34.11124" lon="-118.35317">
        <ele>332.0</ele>
      </trkpt>
      <trkpt lat="34.1113" lon="-118.35323">
        <ele>347.0</ele>
      </trkpt>
      <trkpt lat="34.11130010477321" lon="-118.3532306984968">
        <ele>347.0</ele>
      </trkpt>
      <trkpt lat="34.11130010477324" lon="-118.3532306984968">
        <ele>347.0</ele>
      </trkpt>
      <trkpt lat="34.11131826077801" lon="-118.3533517400409">
        <ele>347.0</ele>
      </trkpt>
      <trkpt lat="34.11131826077801" lon="-118.3533517400409">
        <ele>347.0</ele>
      </trkpt>
      <trkpt lat="34.11133" lon="-118.35343">
        <ele>347.0</ele>
      </trkpt>
      <trkpt lat="34.11135" lon="-118.35348">
        <ele>347.0</ele>
      </trkpt>
      <trkpt lat="34.11146" lon="-118.35356">
        <ele>347.0</ele>
      </trkpt>
      <trkpt lat="34.11153" lon="-118.35358">
        <ele>351.0</ele>
      </trkpt>
      <trkpt lat="34.11169" lon="-118.35356">
        <ele>351.0</ele>
      </trkpt>
      <trkpt lat="34.11177165389513" lon="-118.3535150903577">
        <ele>351.0</ele>
      </trkpt>
      <trkpt lat="34.11177165395227" lon="-118.3535150903577">
        <ele>351.0</ele>
      </trkpt>
      <trkpt lat="34.11189" lon="-118.35345">
        <ele>349.0</ele>
      </trkpt>
      <trkpt lat="34.11203" lon="-118.35341">
        <ele>349.0</ele>
      </trkpt>
      <trkpt lat="34.1122" lon="-118.35338">
        <ele>344.0</ele>
      </trkpt>
      <trkpt lat="34.11238" lon="-118.35339">
        <ele>342.0</ele>
      </trkpt>
      <trkpt lat="34.11244" lon="-118.35344">
        <ele>342.0</ele>
      </trkpt>
      <trkpt lat="34.1125" lon="-118.35356">
        <ele>343.0</ele>
      </trkpt>
      <trkpt lat="34.11255" lon="-118.35376">
        <ele>345.0</ele>
      </trkpt>
      <trkpt lat="34.11273" lon="-118.35375">
        <ele>342.0</ele>
      </trkpt>
      <trkpt lat="34.11315" lon="-118.35357">
        <ele>339.0</ele>
      </trkpt>
      <trkpt lat="34.11315" lon="-118.35357">
        <ele>339.0</ele>
      </trkpt>
      <trkpt lat="34.11360350550638" lon="-118.3536125161412">
        <ele>337.0</ele>
      </trkpt>
      <trkpt lat="34.11360350600634" lon="-118.3536125161412">
        <ele>337.0</ele>
      </trkpt>
      <trkpt lat="34.11379" lon="-118.35363">
        <ele>332.0</ele>
      </trkpt>
      <trkpt lat="34.11419" lon="-118.35371">
        <ele>335.0</ele>
      </trkpt>
      <trkpt lat="34.11419" lon="-118.35371">
        <ele>335.0</ele>
      </trkpt>
      <trkpt lat="34.11435" lon="-118.3536">
        <ele>339.0</ele>
      </trkpt>
      <trkpt lat="34.11452" lon="-118.35354">
        <ele>339.0</ele>
      </trkpt>
      <trkpt lat="34.11486" lon="-118.35349">
        <ele>346.0</ele>
      </trkpt>
      <trkpt lat="34.11504" lon="-118.35352">
        <ele>356.0</ele>
      </trkpt>
      <trkpt lat="34.11504" lon="-118.35352">
        <ele>356.0</ele>
      </trkpt>
      <trkpt lat="34.11517" lon="-118.35349">
        <ele>370.0</ele>
      </trkpt>
      <trkpt lat="34.11518" lon="-118.35336">
        <ele>363.0</ele>
      </trkpt>
      <trkpt lat="34.11518" lon="-118.35336">
        <ele>363.0</ele>
      </trkpt>
      <trkpt lat="34.1151" lon="-118.35314">
        <ele>339.0</ele>
      </trkpt>
      <trkpt lat="34.1151" lon="-118.35314">
        <ele>339.0</ele>
      </trkpt>
      <trkpt lat="34.11523" lon="-118.35295">
        <ele>356.0</ele>
      </trkpt>
      <trkpt lat="34.1153" lon="-118.35307">
        <ele>356.0</ele>
      </trkpt>
      <trkpt lat="34.1153" lon="-118.35307">
        <ele>356.0</ele>
      </trkpt>
      <trkpt lat="34.11538" lon="-118.35339">
        <ele>363.0</ele>
      </trkpt>
      <trkpt lat="34.11538" lon="-118.35339">
        <ele>363.0</ele>
      </trkpt>
      <trkpt lat="34.11552345638979" lon="-118.3532802980549">
        <ele>374.0</ele>
      </trkpt>
      <trkpt lat="34.11552345641232" lon="-118.3532802980549">
        <ele>374.0</ele>
      </trkpt>
      <trkpt lat="34.11555" lon="-118.35326">
        <ele>374.0</ele>
      </trkpt>
      <trkpt lat="34.11555" lon="-118.35326">
        <ele>374.0</ele>
      </trkpt>
      <trkpt lat="34.11574" lon="-118.35311">
        <ele>377.0</ele>
      </trkpt>
      <trkpt lat="34.11585" lon="-118.35311">
        <ele>377.0</ele>
      </trkpt>
      <trkpt lat="34.11585362798664" lon="-118.3531127440267">
        <ele>377.0</ele>
      </trkpt>
      <trkpt lat="34.1159" lon="-118.35302">
        <ele>377.0</ele>
      </trkpt>
      <trkpt lat="34.1159" lon="-118.35289">
        <ele>372.0</ele>
      </trkpt>
      <trkpt lat="34.11605" lon="-118.35273">
        <ele>377.0</ele>
      </trkpt>
      <trkpt lat="34.11605" lon="-118.35254">
        <ele>367.0</ele>
      </trkpt>
      <trkpt lat="34.11605" lon="-118.35254">
        <ele>367.0</ele>
      </trkpt>
      <trkpt lat="34.11605" lon="-118.35254">
        <ele>367.0</ele>
      </trkpt>
      <trkpt lat="34.11607" lon="-118.35248">
        <ele>367.0</ele>
      </trkpt>
      <trkpt lat="34.11619" lon="-118.3524">
        <ele>367.0</ele>
      </trkpt>
      <trkpt lat="34.11627" lon="-118.35231">
        <ele>356.0</ele>
      </trkpt>
      <trkpt lat="34.11635" lon="-118.35233">
        <ele>356.0</ele>
      </trkpt>
      <trkpt lat="34.11649" lon="-118.35246">
        <ele>370.0</ele>
      </trkpt>
      <trkpt lat="34.1166" lon="-118.35247">
        <ele>375.0</ele>
      </trkpt>
      <trkpt lat="34.11695906030535" lon="-118.3522814933397">
        <ele>363.0</ele>
      </trkpt>
      <trkpt lat="34.11695906039225" lon="-118.3522814933397">
        <ele>363.0</ele>
      </trkpt>
      <trkpt lat="34.117" lon="-118.35226">
        <ele>363.0</ele>
      </trkpt>
      <trkpt lat="34.11741" lon="-118.35215">
        <ele>364.0</ele>
      </trkpt>
      <trkpt lat="34.11745" lon="-118.35205">
        <ele>361.0</ele>
      </trkpt>
      <trkpt lat="34.11745" lon="-118.35205">
        <ele>361.0</ele>
      </trkpt>
      <trkpt lat="34.11745" lon="-118.35205">
        <ele>361.0</ele>
      </trkpt>
      <trkpt lat="34.11722" lon="-118.35159">
        <ele>359.0</ele>
      </trkpt>
      <trkpt lat="34.11721" lon="-118.35144">
        <ele>355.0</ele>
      </trkpt>
      <trkpt lat="34.11724" lon="-118.35138">
        <ele>355.0</ele>
      </trkpt>
      <trkpt lat="34.11744" lon="-118.35127">
        <ele>356.0</ele>
      </trkpt>
      <trkpt lat="34.11762" lon="-118.35109">
        <ele>351.0</ele>
      </trkpt>
      <trkpt lat="34.11762" lon="-118.35109">
        <ele>351.0</ele>
      </trkpt>
      <trkpt lat="34.11741" lon="-118.3511">
        <ele>351.0</ele>
      </trkpt>
      <trkpt lat="34.11718" lon="-118.35118">
        <ele>349.0</ele>
      </trkpt>
      <trkpt lat="34.11709580615771" lon="-118.3512473550738">
        <ele>349.0</ele>
      </trkpt>
      <trkpt lat="34.11709580616558" lon="-118.3512473550738">
        <ele>349.0</ele>
      </trkpt>
      <trkpt lat="34.11708" lon="-118.35126">
        <ele>346.0</ele>
      </trkpt>
      <trkpt lat="34.11683" lon="-118.35167">
        <ele>350.0</ele>
      </trkpt>
      <trkpt lat="34.11674" lon="-118.35174">
        <ele>338.0</ele>
      </trkpt>
      <trkpt lat="34.11657" lon="-118.35178">
        <ele>338.0</ele>
      </trkpt>
      <trkpt lat="34.11643" lon="-118.35171">
        <ele>335.0</ele>
      </trkpt>
      <trkpt lat="34.11616" lon="-118.35137">
        <ele>331.0</ele>
      </trkpt>
      <trkpt lat="34.11589" lon="-118.35132">
        <ele>331.0</ele>
      </trkpt>
      <trkpt lat="34.11565" lon="-118.35149">
        <ele>328.0</ele>
      </trkpt>
      <trkpt lat="34.11548" lon="-118.3515">
        <ele>328.0</ele>
      </trkpt>
      <trkpt lat="34.1151" lon="-118.3513">
        <ele>319.0</ele>
      </trkpt>
      <trkpt lat="34.11484" lon="-118.35128">
        <ele>318.0</ele>
      </trkpt>
      <trkpt lat="34.11455" lon="-118.35102">
        <ele>319.0</ele>
      </trkpt>
      <trkpt lat="34.11444" lon="-118.35096">
        <ele>313.0</ele>
      </trkpt>
      <trkpt lat="34.11413990050912" lon="-118.3508805618995">
        <ele>312.0</ele>
      </trkpt>
      <trkpt lat="34.11413990050912" lon="-118.3508805618995">
        <ele>312.0</ele>
      </trkpt>
      <trkpt lat="34.1141" lon="-118.35087">
        <ele>312.0</ele>
      </trkpt>
      <trkpt lat="34.11388" lon="-118.35078">
        <ele>316.0</ele>
      </trkpt>
      <trkpt lat="34.11378" lon="-118.35069">
        <ele>316.0</ele>
      </trkpt>
      <trkpt lat="34.1136" lon="-118.35047">
        <ele>319.0</ele>
      </trkpt>
      <trkpt lat="34.11353" lon="-118.35043">
        <ele>319.0</ele>
      </trkpt>
      <trkpt lat="34.113349427104" lon="-118.3504153589544">
        <ele>315.0</ele>
      </trkpt>
      <trkpt lat="34.1133494273062" lon="-118.3504153589544">
        <ele>315.0</ele>
      </trkpt>
      <trkpt lat="34.11316" lon="-118.3504">
        <ele>316.0</ele>
      </trkpt>
      <trkpt lat="34.11304" lon="-118.35035">
        <ele>316.0</ele>
      </trkpt>
      <trkpt lat="34.11284740354667" lon="-118.3502364174763">
        <ele>312.0</ele>
      </trkpt>
      <trkpt lat="34.11285" lon="-118.35023">
        <ele>312.0</ele>
      </trkpt>
      <trkpt lat="34.1127" lon="-118.35005">
        <ele>314.0</ele>
      </trkpt>
      <trkpt lat="34.11251" lon="-118.34988">
        <ele>315.0</ele>
      </trkpt>
      <trkpt lat="34.11237" lon="-118.34959">
        <ele>314.0</ele>
      </trkpt>
      <trkpt lat="34.11225136441391" lon="-118.3494385503156">
        <ele>315.0</ele>
      </trkpt>
      <trkpt lat="34.11225136466032" lon="-118.3494385503156">
        <ele>315.0</ele>
      </trkpt>
      <trkpt lat="34.1119" lon="-118.34899">
        <ele>307.0</ele>
      </trkpt>
      <trkpt lat="34.11157" lon="-118.34882">
        <ele>308.0</ele>
      </trkpt>
      <trkpt lat="34.11146" lon="-118.34879">
        <ele>302.0</ele>
      </trkpt>
      <trkpt lat="34.11104" lon="-118.3488">
        <ele>302.0</ele>
      </trkpt>
      <trkpt lat="34.11095" lon="-118.34875">
        <ele>305.0</ele>
      </trkpt>
      <trkpt lat="34.1107" lon="-118.34847">
        <ele>292.0</ele>
      </trkpt>
      <trkpt lat="34.11062" lon="-118.34844">
        <ele>290.0</ele>
      </trkpt>
      <trkpt lat="34.10982" lon="-118.34835">
        <ele>281.0</ele>
      </trkpt>
      <trkpt lat="34.1096" lon="-118.34822">
        <ele>281.0</ele>
      </trkpt>
      <trkpt lat="34.10923" lon="-118.34807">
        <ele>267.0</ele>
      </trkpt>
      <trkpt lat="34.1089" lon="-118.34799">
        <ele>255.0</ele>
      </trkpt>
      <trkpt lat="34.10872" lon="-118.34799">
        <ele>257.0</ele>
      </trkpt>
      <trkpt lat="34.10812" lon="-118.34818">
        <ele>250.0</ele>
      </trkpt>
      <trkpt lat="34.10802610750353" lon="-118.348197071363">
        <ele>248.0</ele>
      </trkpt>
      <trkpt lat="34.10802610763454" lon="-118.348197071363">
        <ele>248.0</ele>
      </trkpt>
      <trkpt lat="34.10779" lon="-118.34824">
        <ele>244.0</ele>
      </trkpt>
      <trkpt lat="34.10756" lon="-118.34846">
        <ele>234.0</ele>
      </trkpt>
      <trkpt lat="34.10731" lon="-118.34851">
        <ele>216.0</ele>
      </trkpt>
      <trkpt lat="34.10726" lon="-118.34855">
        <ele>216.0</ele>
      </trkpt>
      <trkpt lat="34.10726" lon="-118.34855">
        <ele>216.0</ele>
      </trkpt>
      <trkpt lat="34.10721" lon="-118.34859">
        <ele>216.0</ele>
      </trkpt>
      <trkpt lat="34.10708" lon="-118.34859">
        <ele>206.0</ele>
      </trkpt>
      <trkpt lat="34.10709" lon="-118.34868">
        <ele>216.0</ele>
      </trkpt>
      <trkpt lat="34.10706" lon="-118.34874">
        <ele>206.0</ele>
      </trkpt>
      <trkpt lat="34.10688" lon="-118.34877">
        <ele>202.0</ele>
      </trkpt>
      <trkpt lat="34.10677" lon="-118.34888">
        <ele>195.0</ele>
      </trkpt>
      <trkpt lat="34.10677" lon="-118.34888">
        <ele>195.0</ele>
      </trkpt>
      <trkpt lat="34.10679" lon="-118.34891">
        <ele>195.0</ele>
      </trkpt>
      <trkpt lat="34.10687" lon="-118.3489">
        <ele>202.0</ele>
      </trkpt>
      <trkpt lat="34.10711" lon="-118.34884">
        <ele>209.0</ele>
      </trkpt>
      <trkpt lat="34.10726" lon="-118.34887">
        <ele>209.0</ele>
      </trkpt>
      <trkpt lat="34.10726" lon="-118.34887">
        <ele>209.0</ele>
      </trkpt>
      <trkpt lat="34.10747" lon="-118.34898">
        <ele>215.0</ele>
      </trkpt>
      <trkpt lat="34.10779529015281" lon="-118.3490450580306">
        <ele>206.0</ele>
      </trkpt>
      <trkpt lat="34.10779529029642" lon="-118.3490450580306">
        <ele>206.0</ele>
      </trkpt>
      <trkpt lat="34.10787" lon="-118.34906">
        <ele>206.0</ele>
      </trkpt>
      <trkpt lat="34.10787" lon="-118.34906">
        <ele>206.0</ele>
      </trkpt>
      <trkpt lat="34.10787" lon="-118.34906">
        <ele>206.0</ele>
      </trkpt>
      <trkpt lat="34.108" lon="-118.34897">
        <ele>221.0</ele>
      </trkpt>
      <trkpt lat="34.10833" lon="-118.34902">
        <ele>227.0</ele>
      </trkpt>
      <trkpt lat="34.1084" lon="-118.34908">
        <ele>215.0</ele>
      </trkpt>
      <trkpt lat="34.10840180687209" lon="-118.3491034893371">
        <ele>215.0</ele>
      </trkpt>
      <trkpt lat="34.10840180687217" lon="-118.3491034893371">
        <ele>215.0</ele>
      </trkpt>
      <trkpt lat="34.10841" lon="-118.34921">
        <ele>215.0</ele>
      </trkpt>
      <trkpt lat="34.10844" lon="-118.34926">
        <ele>215.0</ele>
      </trkpt>
      <trkpt lat="34.10844" lon="-118.34926">
        <ele>215.0</ele>
      </trkpt>
      <trkpt lat="34.10844" lon="-118.34926">
        <ele>215.0</ele>
      </trkpt>
      <trkpt lat="34.10891" lon="-118.3495">
        <ele>217.0</ele>
      </trkpt>
      <trkpt lat="34.109" lon="-118.34961">
        <ele>213.0</ele>
      </trkpt>
      <trkpt lat="34.10903" lon="-118.34968">
        <ele>218.0</ele>
      </trkpt>
      <trkpt lat="34.10901" lon="-118.34977">
        <ele>213.0</ele>
      </trkpt>
      <trkpt lat="34.10901" lon="-118.34977">
        <ele>213.0</ele>
      </trkpt>
      <trkpt lat="34.10901" lon="-118.34977">
        <ele>213.0</ele>
      </trkpt>
      <trkpt lat="34.10894" lon="-118.34981">
        <ele>213.0</ele>
      </trkpt>
      <trkpt lat="34.10847" lon="-118.34969">
        <ele>205.0</ele>
      </trkpt>
      <trkpt lat="34.10838072624258" lon="-118.3496946176081">
        <ele>205.0</ele>
      </trkpt>
      <trkpt lat="34.10838072650151" lon="-118.3496946176081">
        <ele>205.0</ele>
      </trkpt>
      <trkpt lat="34.10789" lon="-118.34972">
        <ele>199.0</ele>
      </trkpt>
      <trkpt lat="34.10754" lon="-118.34962">
        <ele>193.0</ele>
      </trkpt>
      <trkpt lat="34.10754" lon="-118.34962">
        <ele>193.0</ele>
      </trkpt>
      <trkpt lat="34.10726" lon="-118.34954">
        <ele>189.0</ele>
      </trkpt>
      <trkpt lat="34.10726" lon="-118.34954">
        <ele>189.0</ele>
      </trkpt>
      <trkpt lat="34.10706" lon="-118.34955">
        <ele>187.0</ele>
      </trkpt>
      <trkpt lat="34.10667" lon="-118.34964">
        <ele>180.0</ele>
      </trkpt>
      <trkpt lat="34.1065" lon="-118.34965">
        <ele>175.0</ele>
      </trkpt>
      <trkpt lat="34.10607" lon="-118.34956">
        <ele>173.0</ele>
      </trkpt>
      <trkpt lat="34.10607" lon="-118.34956">
        <ele>173.0</ele>
      </trkpt>
      <trkpt lat="34.10607" lon="-118.34956">
        <ele>173.0</ele>
      </trkpt>
      <trkpt lat="34.10543" lon="-118.34923">
        <ele>172.0</ele>
      </trkpt>
      <trkpt lat="34.10538" lon="-118.34918">
        <ele>170.0</ele>
      </trkpt>
      <trkpt lat="34.10536387131579" lon="-118.3491356461184">
        <ele>170.0</ele>
      </trkpt>
      <trkpt lat="34.10536387132186" lon="-118.3491356461184">
        <ele>170.0</ele>
      </trkpt>
      <trkpt lat="34.10530403979835" lon="-118.3489711094455">
        <ele>172.0</ele>
      </trkpt>
    </trkseg>
  </trk>
</gpx>
