<?xml version="1.0" encoding="UTF-8"?>
<gpx xmlns:xsi="http://www.w3.org/2001/XMLSchema-instance" version="1.1" creator="The Outbound Collective, Inc. 1.1.1 -- https://www.theoutbound.com" xsi:schemaLocation="http://www.topografix.com/GPX/1/1 http://www.topografix.com/GPX/1/1/gpx.xsd">
  <metadata>
    <name/>
    <time>2026-02-19T21:58:03+00:00</time>
    <bound minlat="41.400598027" minlon="-124.065663815" maxlat="41.40402" maxlon="-124.05927"/>
  </metadata>
  <trk>
    <name/>
    <trkseg>
      <trkpt lat="41.400598027" lon="-124.065663815">
        <ele>11.0</ele>
      </trkpt>
      <trkpt lat="41.400817328" lon="-124.065465331">
        <ele>10.0</ele>
      </trkpt>
      <trkpt lat="41.400817532" lon="-124.065466194">
        <ele>10.0</ele>
      </trkpt>
      <trkpt lat="41.40105" lon="-124.06537">
        <ele>13.0</ele>
      </trkpt>
      <trkpt lat="41.40113" lon="-124.06528">
        <ele>13.0</ele>
      </trkpt>
      <trkpt lat="41.40143" lon="-124.06517">
        <ele>14.0</ele>
      </trkpt>
      <trkpt lat="41.40159" lon="-124.06507">
        <ele>23.0</ele>
      </trkpt>
      <trkpt lat="41.40204" lon="-124.06494">
        <ele>24.0</ele>
      </trkpt>
      <trkpt lat="41.40216" lon="-124.06486">
        <ele>31.0</ele>
      </trkpt>
      <trkpt lat="41.40226" lon="-124.06474">
        <ele>31.0</ele>
      </trkpt>
      <trkpt lat="41.40294" lon="-124.06413">
        <ele>30.0</ele>
      </trkpt>
      <trkpt lat="41.40314" lon="-124.06407">
        <ele>30.0</ele>
      </trkpt>
      <trkpt lat="41.40333" lon="-124.06412">
        <ele>21.0</ele>
      </trkpt>
      <trkpt lat="41.40333" lon="-124.06412">
        <ele>21.0</ele>
      </trkpt>
      <trkpt lat="41.40354" lon="-124.06409">
        <ele>20.0</ele>
      </trkpt>
      <trkpt lat="41.40361" lon="-124.06403">
        <ele>20.0</ele>
      </trkpt>
      <trkpt lat="41.403637029" lon="-124.063986753">
        <ele>25.0</ele>
      </trkpt>
      <trkpt lat="41.403637029" lon="-124.063986753">
        <ele>25.0</ele>
      </trkpt>
      <trkpt lat="41.40366" lon="-124.06395">
        <ele>25.0</ele>
      </trkpt>
      <trkpt lat="41.40368" lon="-124.06388">
        <ele>25.0</ele>
      </trkpt>
      <trkpt lat="41.40368" lon="-124.06388">
        <ele>25.0</ele>
      </trkpt>
      <trkpt lat="41.40368" lon="-124.06388">
        <ele>25.0</ele>
      </trkpt>
      <trkpt lat="41.40366" lon="-124.06358">
        <ele>32.0</ele>
      </trkpt>
      <trkpt lat="41.40359" lon="-124.06334">
        <ele>35.0</ele>
      </trkpt>
      <trkpt lat="41.40352" lon="-124.06324">
        <ele>35.0</ele>
      </trkpt>
      <trkpt lat="41.40336" lon="-124.06309">
        <ele>37.0</ele>
      </trkpt>
      <trkpt lat="41.40305" lon="-124.06293">
        <ele>40.0</ele>
      </trkpt>
      <trkpt lat="41.40275" lon="-124.06255">
        <ele>41.0</ele>
      </trkpt>
      <trkpt lat="41.40248" lon="-124.06201">
        <ele>47.0</ele>
      </trkpt>
      <trkpt lat="41.4023" lon="-124.06177">
        <ele>55.0</ele>
      </trkpt>
      <trkpt lat="41.40219" lon="-124.06152">
        <ele>53.0</ele>
      </trkpt>
      <trkpt lat="41.40192" lon="-124.06109">
        <ele>56.0</ele>
      </trkpt>
      <trkpt lat="41.40186" lon="-124.06095">
        <ele>52.0</ele>
      </trkpt>
      <trkpt lat="41.401803899" lon="-124.060753646">
        <ele>57.0</ele>
      </trkpt>
      <trkpt lat="41.401803899" lon="-124.060753646">
        <ele>57.0</ele>
      </trkpt>
      <trkpt lat="41.40178" lon="-124.06067">
        <ele>58.0</ele>
      </trkpt>
      <trkpt lat="41.40174" lon="-124.06035">
        <ele>59.0</ele>
      </trkpt>
      <trkpt lat="41.40169" lon="-124.06015">
        <ele>59.0</ele>
      </trkpt>
      <trkpt lat="41.40168" lon="-124.06001">
        <ele>61.0</ele>
      </trkpt>
      <trkpt lat="41.40171" lon="-124.05976">
        <ele>66.0</ele>
      </trkpt>
      <trkpt lat="41.40166" lon="-124.05936">
        <ele>85.0</ele>
      </trkpt>
      <trkpt lat="41.40171" lon="-124.05927">
        <ele>93.0</ele>
      </trkpt>
      <trkpt lat="41.40206" lon="-124.05978">
        <ele>65.0</ele>
      </trkpt>
      <trkpt lat="41.4022" lon="-124.05985">
        <ele>79.0</ele>
      </trkpt>
      <trkpt lat="41.40236" lon="-124.05973">
        <ele>79.0</ele>
      </trkpt>
      <trkpt lat="41.402369765" lon="-124.059723344">
        <ele>104.0</ele>
      </trkpt>
      <trkpt lat="41.40239" lon="-124.05979">
        <ele>104.0</ele>
      </trkpt>
      <trkpt lat="41.40239" lon="-124.05979">
        <ele>104.0</ele>
      </trkpt>
      <trkpt lat="41.40245" lon="-124.0599">
        <ele>78.0</ele>
      </trkpt>
      <trkpt lat="41.40245" lon="-124.0599">
        <ele>78.0</ele>
      </trkpt>
      <trkpt lat="41.402737754" lon="-124.060269285">
        <ele>70.0</ele>
      </trkpt>
      <trkpt lat="41.402737754" lon="-124.060269285">
        <ele>70.0</ele>
      </trkpt>
      <trkpt lat="41.40305" lon="-124.06067">
        <ele>74.0</ele>
      </trkpt>
      <trkpt lat="41.40329" lon="-124.06076">
        <ele>93.0</ele>
      </trkpt>
      <trkpt lat="41.40332" lon="-124.06088">
        <ele>93.0</ele>
      </trkpt>
      <trkpt lat="41.4033" lon="-124.06115">
        <ele>84.0</ele>
      </trkpt>
      <trkpt lat="41.403251936" lon="-124.061276167">
        <ele>66.0</ele>
      </trkpt>
      <trkpt lat="41.403251936" lon="-124.061276167">
        <ele>66.0</ele>
      </trkpt>
      <trkpt lat="41.40322" lon="-124.06136">
        <ele>66.0</ele>
      </trkpt>
      <trkpt lat="41.40325" lon="-124.06153">
        <ele>56.0</ele>
      </trkpt>
      <trkpt lat="41.40336" lon="-124.0618">
        <ele>56.0</ele>
      </trkpt>
      <trkpt lat="41.4033" lon="-124.06213">
        <ele>51.0</ele>
      </trkpt>
      <trkpt lat="41.40331" lon="-124.06228">
        <ele>51.0</ele>
      </trkpt>
      <trkpt lat="41.40338" lon="-124.06253">
        <ele>42.0</ele>
      </trkpt>
      <trkpt lat="41.40352" lon="-124.06275">
        <ele>44.0</ele>
      </trkpt>
      <trkpt lat="41.40373" lon="-124.06298">
        <ele>39.0</ele>
      </trkpt>
      <trkpt lat="41.40388" lon="-124.06306">
        <ele>48.0</ele>
      </trkpt>
      <trkpt lat="41.40399" lon="-124.06324">
        <ele>42.0</ele>
      </trkpt>
      <trkpt lat="41.40402" lon="-124.06346">
        <ele>42.0</ele>
      </trkpt>
      <trkpt lat="41.40394" lon="-124.06377">
        <ele>25.0</ele>
      </trkpt>
      <trkpt lat="41.40394" lon="-124.06377">
        <ele>25.0</ele>
      </trkpt>
      <trkpt lat="41.40368" lon="-124.06388">
        <ele>25.0</ele>
      </trkpt>
      <trkpt lat="41.40368" lon="-124.06388">
        <ele>25.0</ele>
      </trkpt>
      <trkpt lat="41.40366" lon="-124.06395">
        <ele>25.0</ele>
      </trkpt>
      <trkpt lat="41.403637029" lon="-124.063986753">
        <ele>25.0</ele>
      </trkpt>
      <trkpt lat="41.403637029" lon="-124.063986753">
        <ele>25.0</ele>
      </trkpt>
      <trkpt lat="41.40361" lon="-124.06403">
        <ele>20.0</ele>
      </trkpt>
      <trkpt lat="41.40354" lon="-124.06409">
        <ele>20.0</ele>
      </trkpt>
      <trkpt lat="41.40333" lon="-124.06412">
        <ele>21.0</ele>
      </trkpt>
      <trkpt lat="41.40333" lon="-124.06412">
        <ele>21.0</ele>
      </trkpt>
      <trkpt lat="41.40314" lon="-124.06407">
        <ele>30.0</ele>
      </trkpt>
      <trkpt lat="41.40294" lon="-124.06413">
        <ele>30.0</ele>
      </trkpt>
      <trkpt lat="41.40226" lon="-124.06474">
        <ele>31.0</ele>
      </trkpt>
      <trkpt lat="41.40216" lon="-124.06486">
        <ele>31.0</ele>
      </trkpt>
      <trkpt lat="41.40204" lon="-124.06494">
        <ele>24.0</ele>
      </trkpt>
      <trkpt lat="41.401845889" lon="-124.064996076">
        <ele>24.0</ele>
      </trkpt>
      <trkpt lat="41.401845889" lon="-124.064996076">
        <ele>24.0</ele>
      </trkpt>
      <trkpt lat="41.40159" lon="-124.06507">
        <ele>23.0</ele>
      </trkpt>
      <trkpt lat="41.40143" lon="-124.06517">
        <ele>14.0</ele>
      </trkpt>
      <trkpt lat="41.40113" lon="-124.06528">
        <ele>13.0</ele>
      </trkpt>
      <trkpt lat="41.40105" lon="-124.06537">
        <ele>13.0</ele>
      </trkpt>
      <trkpt lat="41.400818814" lon="-124.065465663">
        <ele>10.0</ele>
      </trkpt>
      <trkpt lat="41.400600039" lon="-124.065663815">
        <ele>11.0</ele>
      </trkpt>
    </trkseg>
  </trk>
</gpx>
