<?xml version="1.0" encoding="UTF-8"?>
<gpx xmlns:xsi="http://www.w3.org/2001/XMLSchema-instance" version="1.1" creator="The Outbound Collective, Inc. 1.1.1 -- https://www.theoutbound.com" xsi:schemaLocation="http://www.topografix.com/GPX/1/1 http://www.topografix.com/GPX/1/1/gpx.xsd">
  <metadata>
    <name/>
    <time>2026-02-19T21:56:06+00:00</time>
    <bound minlat="40.43154" minlon="-121.427178158" maxlat="40.443219762" maxlon="-121.397445202"/>
  </metadata>
  <trk>
    <name/>
    <trkseg>
      <trkpt lat="40.443219762" lon="-121.397445202">
        <ele>1724.0</ele>
      </trkpt>
      <trkpt lat="40.442958476" lon="-121.397606134">
        <ele>1720.0</ele>
      </trkpt>
      <trkpt lat="40.44296075" lon="-121.39760577">
        <ele>1720.0</ele>
      </trkpt>
      <trkpt lat="40.44296" lon="-121.39761">
        <ele>1720.0</ele>
      </trkpt>
      <trkpt lat="40.4427" lon="-121.3979">
        <ele>1722.0</ele>
      </trkpt>
      <trkpt lat="40.44263" lon="-121.39808">
        <ele>1725.0</ele>
      </trkpt>
      <trkpt lat="40.442635012" lon="-121.398092887">
        <ele>1725.0</ele>
      </trkpt>
      <trkpt lat="40.442015388" lon="-121.400213242">
        <ele>1742.0</ele>
      </trkpt>
      <trkpt lat="40.441892908" lon="-121.400449276">
        <ele>1742.0</ele>
      </trkpt>
      <trkpt lat="40.441898006" lon="-121.400452984">
        <ele>1742.0</ele>
      </trkpt>
      <trkpt lat="40.44187" lon="-121.40053">
        <ele>1742.0</ele>
      </trkpt>
      <trkpt lat="40.44189" lon="-121.40073">
        <ele>1741.0</ele>
      </trkpt>
      <trkpt lat="40.44161" lon="-121.40185">
        <ele>1746.0</ele>
      </trkpt>
      <trkpt lat="40.44162" lon="-121.4026">
        <ele>1746.0</ele>
      </trkpt>
      <trkpt lat="40.44177" lon="-121.40333">
        <ele>1745.0</ele>
      </trkpt>
      <trkpt lat="40.44177" lon="-121.40359">
        <ele>1745.0</ele>
      </trkpt>
      <trkpt lat="40.44177" lon="-121.40359">
        <ele>1745.0</ele>
      </trkpt>
      <trkpt lat="40.44177" lon="-121.40359">
        <ele>1745.0</ele>
      </trkpt>
      <trkpt lat="40.44155" lon="-121.40384">
        <ele>1746.0</ele>
      </trkpt>
      <trkpt lat="40.44129" lon="-121.40406">
        <ele>1755.0</ele>
      </trkpt>
      <trkpt lat="40.44117" lon="-121.4041">
        <ele>1763.0</ele>
      </trkpt>
      <trkpt lat="40.44111" lon="-121.40409">
        <ele>1763.0</ele>
      </trkpt>
      <trkpt lat="40.44111" lon="-121.40409">
        <ele>1763.0</ele>
      </trkpt>
      <trkpt lat="40.44111" lon="-121.40409">
        <ele>1763.0</ele>
      </trkpt>
      <trkpt lat="40.44101" lon="-121.40429">
        <ele>1763.0</ele>
      </trkpt>
      <trkpt lat="40.44079" lon="-121.40435">
        <ele>1771.0</ele>
      </trkpt>
      <trkpt lat="40.44047" lon="-121.40436">
        <ele>1771.0</ele>
      </trkpt>
      <trkpt lat="40.44008" lon="-121.40469">
        <ele>1767.0</ele>
      </trkpt>
      <trkpt lat="40.43978" lon="-121.40472">
        <ele>1769.0</ele>
      </trkpt>
      <trkpt lat="40.43953" lon="-121.40466">
        <ele>1771.0</ele>
      </trkpt>
      <trkpt lat="40.43941" lon="-121.40481">
        <ele>1771.0</ele>
      </trkpt>
      <trkpt lat="40.43916" lon="-121.40495">
        <ele>1766.0</ele>
      </trkpt>
      <trkpt lat="40.4388" lon="-121.4051">
        <ele>1768.0</ele>
      </trkpt>
      <trkpt lat="40.43859" lon="-121.40532">
        <ele>1775.0</ele>
      </trkpt>
      <trkpt lat="40.4382" lon="-121.40608">
        <ele>1778.0</ele>
      </trkpt>
      <trkpt lat="40.43792" lon="-121.4063">
        <ele>1780.0</ele>
      </trkpt>
      <trkpt lat="40.43772" lon="-121.40628">
        <ele>1782.0</ele>
      </trkpt>
      <trkpt lat="40.43756" lon="-121.40636">
        <ele>1788.0</ele>
      </trkpt>
      <trkpt lat="40.43745" lon="-121.40674">
        <ele>1789.0</ele>
      </trkpt>
      <trkpt lat="40.4374" lon="-121.40703">
        <ele>1792.0</ele>
      </trkpt>
      <trkpt lat="40.43764" lon="-121.40733">
        <ele>1789.0</ele>
      </trkpt>
      <trkpt lat="40.4377" lon="-121.40766">
        <ele>1789.0</ele>
      </trkpt>
      <trkpt lat="40.4378" lon="-121.4078">
        <ele>1789.0</ele>
      </trkpt>
      <trkpt lat="40.4379" lon="-121.40812">
        <ele>1790.0</ele>
      </trkpt>
      <trkpt lat="40.43784" lon="-121.40846">
        <ele>1791.0</ele>
      </trkpt>
      <trkpt lat="40.43806" lon="-121.4089">
        <ele>1792.0</ele>
      </trkpt>
      <trkpt lat="40.43809" lon="-121.40929">
        <ele>1796.0</ele>
      </trkpt>
      <trkpt lat="40.43824" lon="-121.40949">
        <ele>1788.0</ele>
      </trkpt>
      <trkpt lat="40.4383" lon="-121.40979">
        <ele>1792.0</ele>
      </trkpt>
      <trkpt lat="40.43824" lon="-121.41008">
        <ele>1792.0</ele>
      </trkpt>
      <trkpt lat="40.43805" lon="-121.41035">
        <ele>1799.0</ele>
      </trkpt>
      <trkpt lat="40.43795" lon="-121.41064">
        <ele>1797.0</ele>
      </trkpt>
      <trkpt lat="40.43794" lon="-121.41089">
        <ele>1795.0</ele>
      </trkpt>
      <trkpt lat="40.43806" lon="-121.4112">
        <ele>1791.0</ele>
      </trkpt>
      <trkpt lat="40.43808" lon="-121.41145">
        <ele>1789.0</ele>
      </trkpt>
      <trkpt lat="40.43832" lon="-121.41181">
        <ele>1783.0</ele>
      </trkpt>
      <trkpt lat="40.43833" lon="-121.41215">
        <ele>1787.0</ele>
      </trkpt>
      <trkpt lat="40.43825" lon="-121.41229">
        <ele>1787.0</ele>
      </trkpt>
      <trkpt lat="40.43832" lon="-121.41265">
        <ele>1791.0</ele>
      </trkpt>
      <trkpt lat="40.43836" lon="-121.41312">
        <ele>1795.0</ele>
      </trkpt>
      <trkpt lat="40.43859" lon="-121.41392">
        <ele>1792.0</ele>
      </trkpt>
      <trkpt lat="40.43867" lon="-121.41451">
        <ele>1793.0</ele>
      </trkpt>
      <trkpt lat="40.43857" lon="-121.41505">
        <ele>1793.0</ele>
      </trkpt>
      <trkpt lat="40.438563652" lon="-121.41517061">
        <ele>1793.0</ele>
      </trkpt>
      <trkpt lat="40.438563652" lon="-121.41517061">
        <ele>1793.0</ele>
      </trkpt>
      <trkpt lat="40.43855" lon="-121.41543">
        <ele>1794.0</ele>
      </trkpt>
      <trkpt lat="40.43848" lon="-121.41569">
        <ele>1794.0</ele>
      </trkpt>
      <trkpt lat="40.43852" lon="-121.41582">
        <ele>1795.0</ele>
      </trkpt>
      <trkpt lat="40.43866" lon="-121.41589">
        <ele>1795.0</ele>
      </trkpt>
      <trkpt lat="40.43868" lon="-121.41602">
        <ele>1795.0</ele>
      </trkpt>
      <trkpt lat="40.43863" lon="-121.41649">
        <ele>1795.0</ele>
      </trkpt>
      <trkpt lat="40.43851" lon="-121.41675">
        <ele>1791.0</ele>
      </trkpt>
      <trkpt lat="40.4387" lon="-121.41844">
        <ele>1802.0</ele>
      </trkpt>
      <trkpt lat="40.4387" lon="-121.41844">
        <ele>1802.0</ele>
      </trkpt>
      <trkpt lat="40.4388" lon="-121.41891">
        <ele>1802.0</ele>
      </trkpt>
      <trkpt lat="40.43881" lon="-121.41923">
        <ele>1802.0</ele>
      </trkpt>
      <trkpt lat="40.43888" lon="-121.41941">
        <ele>1799.0</ele>
      </trkpt>
      <trkpt lat="40.43894" lon="-121.41972">
        <ele>1796.0</ele>
      </trkpt>
      <trkpt lat="40.43889" lon="-121.42062">
        <ele>1800.0</ele>
      </trkpt>
      <trkpt lat="40.43885" lon="-121.4209">
        <ele>1804.0</ele>
      </trkpt>
      <trkpt lat="40.43885" lon="-121.4209">
        <ele>1804.0</ele>
      </trkpt>
      <trkpt lat="40.43882" lon="-121.42105">
        <ele>1803.0</ele>
      </trkpt>
      <trkpt lat="40.43878" lon="-121.42111">
        <ele>1803.0</ele>
      </trkpt>
      <trkpt lat="40.43865" lon="-121.42121">
        <ele>1809.0</ele>
      </trkpt>
      <trkpt lat="40.43849" lon="-121.4214">
        <ele>1807.0</ele>
      </trkpt>
      <trkpt lat="40.43839" lon="-121.42163">
        <ele>1804.0</ele>
      </trkpt>
      <trkpt lat="40.43813" lon="-121.42193">
        <ele>1806.0</ele>
      </trkpt>
      <trkpt lat="40.43804" lon="-121.42198">
        <ele>1806.0</ele>
      </trkpt>
      <trkpt lat="40.4378" lon="-121.42203">
        <ele>1810.0</ele>
      </trkpt>
      <trkpt lat="40.43757" lon="-121.42214">
        <ele>1818.0</ele>
      </trkpt>
      <trkpt lat="40.43733" lon="-121.42264">
        <ele>1824.0</ele>
      </trkpt>
      <trkpt lat="40.43716" lon="-121.4232">
        <ele>1829.0</ele>
      </trkpt>
      <trkpt lat="40.43708" lon="-121.42372">
        <ele>1841.0</ele>
      </trkpt>
      <trkpt lat="40.43703" lon="-121.42379">
        <ele>1845.0</ele>
      </trkpt>
      <trkpt lat="40.4369" lon="-121.42372">
        <ele>1841.0</ele>
      </trkpt>
      <trkpt lat="40.43686" lon="-121.42373">
        <ele>1841.0</ele>
      </trkpt>
      <trkpt lat="40.43667" lon="-121.42414">
        <ele>1860.0</ele>
      </trkpt>
      <trkpt lat="40.43649" lon="-121.42409">
        <ele>1866.0</ele>
      </trkpt>
      <trkpt lat="40.43646" lon="-121.42426">
        <ele>1866.0</ele>
      </trkpt>
      <trkpt lat="40.4363" lon="-121.42418">
        <ele>1866.0</ele>
      </trkpt>
      <trkpt lat="40.43591" lon="-121.42372">
        <ele>1880.0</ele>
      </trkpt>
      <trkpt lat="40.43585" lon="-121.42373">
        <ele>1880.0</ele>
      </trkpt>
      <trkpt lat="40.43584" lon="-121.42403">
        <ele>1892.0</ele>
      </trkpt>
      <trkpt lat="40.4358" lon="-121.42414">
        <ele>1892.0</ele>
      </trkpt>
      <trkpt lat="40.43554" lon="-121.42386">
        <ele>1898.0</ele>
      </trkpt>
      <trkpt lat="40.43544" lon="-121.42379">
        <ele>1898.0</ele>
      </trkpt>
      <trkpt lat="40.43541" lon="-121.42439">
        <ele>1919.0</ele>
      </trkpt>
      <trkpt lat="40.43535" lon="-121.42464">
        <ele>1918.0</ele>
      </trkpt>
      <trkpt lat="40.43533" lon="-121.42497">
        <ele>1920.0</ele>
      </trkpt>
      <trkpt lat="40.43522" lon="-121.42547">
        <ele>1931.0</ele>
      </trkpt>
      <trkpt lat="40.43517" lon="-121.42553">
        <ele>1931.0</ele>
      </trkpt>
      <trkpt lat="40.43512" lon="-121.42555">
        <ele>1939.0</ele>
      </trkpt>
      <trkpt lat="40.43497" lon="-121.42551">
        <ele>1939.0</ele>
      </trkpt>
      <trkpt lat="40.43491" lon="-121.42556">
        <ele>1939.0</ele>
      </trkpt>
      <trkpt lat="40.43483" lon="-121.4257">
        <ele>1949.0</ele>
      </trkpt>
      <trkpt lat="40.4347" lon="-121.42576">
        <ele>1949.0</ele>
      </trkpt>
      <trkpt lat="40.43452" lon="-121.42573">
        <ele>1952.0</ele>
      </trkpt>
      <trkpt lat="40.43437" lon="-121.42579">
        <ele>1952.0</ele>
      </trkpt>
      <trkpt lat="40.43416" lon="-121.42571">
        <ele>1953.0</ele>
      </trkpt>
      <trkpt lat="40.43393" lon="-121.42581">
        <ele>1956.0</ele>
      </trkpt>
      <trkpt lat="40.43391" lon="-121.4261">
        <ele>1956.0</ele>
      </trkpt>
      <trkpt lat="40.43323" lon="-121.42654">
        <ele>1969.0</ele>
      </trkpt>
      <trkpt lat="40.43319" lon="-121.42676">
        <ele>1974.0</ele>
      </trkpt>
      <trkpt lat="40.43311" lon="-121.42683">
        <ele>1975.0</ele>
      </trkpt>
      <trkpt lat="40.43299" lon="-121.42684">
        <ele>1975.0</ele>
      </trkpt>
      <trkpt lat="40.43277" lon="-121.42681">
        <ele>1975.0</ele>
      </trkpt>
      <trkpt lat="40.43251" lon="-121.42687">
        <ele>1979.0</ele>
      </trkpt>
      <trkpt lat="40.432" lon="-121.4269">
        <ele>1982.0</ele>
      </trkpt>
      <trkpt lat="40.4318" lon="-121.427">
        <ele>1978.0</ele>
      </trkpt>
      <trkpt lat="40.43154" lon="-121.42707">
        <ele>1978.0</ele>
      </trkpt>
      <trkpt lat="40.43154" lon="-121.42707">
        <ele>1978.0</ele>
      </trkpt>
      <trkpt lat="40.431568971" lon="-121.427178158">
        <ele>1980.0</ele>
      </trkpt>
      <trkpt lat="40.431568971" lon="-121.427178158">
        <ele>1980.0</ele>
      </trkpt>
      <trkpt lat="40.43154" lon="-121.42707">
        <ele>1978.0</ele>
      </trkpt>
      <trkpt lat="40.43154" lon="-121.42707">
        <ele>1978.0</ele>
      </trkpt>
      <trkpt lat="40.4318" lon="-121.427">
        <ele>1978.0</ele>
      </trkpt>
      <trkpt lat="40.432" lon="-121.4269">
        <ele>1982.0</ele>
      </trkpt>
      <trkpt lat="40.43251" lon="-121.42687">
        <ele>1979.0</ele>
      </trkpt>
      <trkpt lat="40.43277" lon="-121.42681">
        <ele>1975.0</ele>
      </trkpt>
      <trkpt lat="40.43299" lon="-121.42684">
        <ele>1975.0</ele>
      </trkpt>
      <trkpt lat="40.43311" lon="-121.42683">
        <ele>1975.0</ele>
      </trkpt>
      <trkpt lat="40.43319" lon="-121.42676">
        <ele>1974.0</ele>
      </trkpt>
      <trkpt lat="40.43323" lon="-121.42654">
        <ele>1969.0</ele>
      </trkpt>
      <trkpt lat="40.43391" lon="-121.4261">
        <ele>1956.0</ele>
      </trkpt>
      <trkpt lat="40.43393" lon="-121.42581">
        <ele>1956.0</ele>
      </trkpt>
      <trkpt lat="40.43416" lon="-121.42571">
        <ele>1953.0</ele>
      </trkpt>
      <trkpt lat="40.43437" lon="-121.42579">
        <ele>1952.0</ele>
      </trkpt>
      <trkpt lat="40.43452" lon="-121.42573">
        <ele>1952.0</ele>
      </trkpt>
      <trkpt lat="40.4347" lon="-121.42576">
        <ele>1949.0</ele>
      </trkpt>
      <trkpt lat="40.43483" lon="-121.4257">
        <ele>1949.0</ele>
      </trkpt>
      <trkpt lat="40.43491" lon="-121.42556">
        <ele>1939.0</ele>
      </trkpt>
      <trkpt lat="40.43497" lon="-121.42551">
        <ele>1939.0</ele>
      </trkpt>
      <trkpt lat="40.43512" lon="-121.42555">
        <ele>1939.0</ele>
      </trkpt>
      <trkpt lat="40.43517" lon="-121.42553">
        <ele>1931.0</ele>
      </trkpt>
      <trkpt lat="40.43522" lon="-121.42547">
        <ele>1931.0</ele>
      </trkpt>
      <trkpt lat="40.43533" lon="-121.42497">
        <ele>1920.0</ele>
      </trkpt>
      <trkpt lat="40.43535" lon="-121.42464">
        <ele>1918.0</ele>
      </trkpt>
      <trkpt lat="40.43541" lon="-121.42439">
        <ele>1919.0</ele>
      </trkpt>
      <trkpt lat="40.43544" lon="-121.42379">
        <ele>1898.0</ele>
      </trkpt>
      <trkpt lat="40.43554" lon="-121.42386">
        <ele>1898.0</ele>
      </trkpt>
      <trkpt lat="40.4358" lon="-121.42414">
        <ele>1892.0</ele>
      </trkpt>
      <trkpt lat="40.43584" lon="-121.42403">
        <ele>1892.0</ele>
      </trkpt>
      <trkpt lat="40.43585" lon="-121.42373">
        <ele>1880.0</ele>
      </trkpt>
      <trkpt lat="40.43591" lon="-121.42372">
        <ele>1880.0</ele>
      </trkpt>
      <trkpt lat="40.4363" lon="-121.42418">
        <ele>1866.0</ele>
      </trkpt>
      <trkpt lat="40.43646" lon="-121.42426">
        <ele>1866.0</ele>
      </trkpt>
      <trkpt lat="40.43649" lon="-121.42409">
        <ele>1866.0</ele>
      </trkpt>
      <trkpt lat="40.43667" lon="-121.42414">
        <ele>1860.0</ele>
      </trkpt>
      <trkpt lat="40.43686" lon="-121.42373">
        <ele>1841.0</ele>
      </trkpt>
      <trkpt lat="40.4369" lon="-121.42372">
        <ele>1841.0</ele>
      </trkpt>
      <trkpt lat="40.43703" lon="-121.42379">
        <ele>1845.0</ele>
      </trkpt>
      <trkpt lat="40.43708" lon="-121.42372">
        <ele>1841.0</ele>
      </trkpt>
      <trkpt lat="40.43716" lon="-121.4232">
        <ele>1829.0</ele>
      </trkpt>
      <trkpt lat="40.43733" lon="-121.42264">
        <ele>1824.0</ele>
      </trkpt>
      <trkpt lat="40.43757" lon="-121.42214">
        <ele>1818.0</ele>
      </trkpt>
      <trkpt lat="40.4378" lon="-121.42203">
        <ele>1810.0</ele>
      </trkpt>
      <trkpt lat="40.43804" lon="-121.42198">
        <ele>1806.0</ele>
      </trkpt>
      <trkpt lat="40.43813" lon="-121.42193">
        <ele>1806.0</ele>
      </trkpt>
      <trkpt lat="40.43839" lon="-121.42163">
        <ele>1804.0</ele>
      </trkpt>
      <trkpt lat="40.43849" lon="-121.4214">
        <ele>1807.0</ele>
      </trkpt>
      <trkpt lat="40.43865" lon="-121.42121">
        <ele>1809.0</ele>
      </trkpt>
      <trkpt lat="40.43878" lon="-121.42111">
        <ele>1803.0</ele>
      </trkpt>
      <trkpt lat="40.43882" lon="-121.42105">
        <ele>1803.0</ele>
      </trkpt>
      <trkpt lat="40.43885" lon="-121.4209">
        <ele>1804.0</ele>
      </trkpt>
      <trkpt lat="40.43885" lon="-121.4209">
        <ele>1804.0</ele>
      </trkpt>
      <trkpt lat="40.43889" lon="-121.42062">
        <ele>1800.0</ele>
      </trkpt>
      <trkpt lat="40.43894" lon="-121.41972">
        <ele>1796.0</ele>
      </trkpt>
      <trkpt lat="40.43888" lon="-121.41941">
        <ele>1799.0</ele>
      </trkpt>
      <trkpt lat="40.43881" lon="-121.41923">
        <ele>1802.0</ele>
      </trkpt>
      <trkpt lat="40.4388" lon="-121.41891">
        <ele>1802.0</ele>
      </trkpt>
      <trkpt lat="40.4387" lon="-121.41844">
        <ele>1802.0</ele>
      </trkpt>
      <trkpt lat="40.4387" lon="-121.41844">
        <ele>1802.0</ele>
      </trkpt>
      <trkpt lat="40.43851" lon="-121.41675">
        <ele>1791.0</ele>
      </trkpt>
      <trkpt lat="40.43863" lon="-121.41649">
        <ele>1795.0</ele>
      </trkpt>
      <trkpt lat="40.43868" lon="-121.41602">
        <ele>1795.0</ele>
      </trkpt>
      <trkpt lat="40.43866" lon="-121.41589">
        <ele>1795.0</ele>
      </trkpt>
      <trkpt lat="40.43852" lon="-121.41582">
        <ele>1795.0</ele>
      </trkpt>
      <trkpt lat="40.43848" lon="-121.41569">
        <ele>1794.0</ele>
      </trkpt>
      <trkpt lat="40.43855" lon="-121.41543">
        <ele>1794.0</ele>
      </trkpt>
      <trkpt lat="40.43857" lon="-121.41505">
        <ele>1793.0</ele>
      </trkpt>
      <trkpt lat="40.43867" lon="-121.41451">
        <ele>1793.0</ele>
      </trkpt>
      <trkpt lat="40.43859" lon="-121.41392">
        <ele>1792.0</ele>
      </trkpt>
      <trkpt lat="40.43836" lon="-121.41312">
        <ele>1795.0</ele>
      </trkpt>
      <trkpt lat="40.43832" lon="-121.41265">
        <ele>1791.0</ele>
      </trkpt>
      <trkpt lat="40.43825" lon="-121.41229">
        <ele>1787.0</ele>
      </trkpt>
      <trkpt lat="40.43833" lon="-121.41215">
        <ele>1787.0</ele>
      </trkpt>
      <trkpt lat="40.43832" lon="-121.41181">
        <ele>1783.0</ele>
      </trkpt>
      <trkpt lat="40.43808" lon="-121.41145">
        <ele>1789.0</ele>
      </trkpt>
      <trkpt lat="40.43806" lon="-121.4112">
        <ele>1791.0</ele>
      </trkpt>
      <trkpt lat="40.43794" lon="-121.41089">
        <ele>1795.0</ele>
      </trkpt>
      <trkpt lat="40.43795" lon="-121.41064">
        <ele>1797.0</ele>
      </trkpt>
      <trkpt lat="40.43805" lon="-121.41035">
        <ele>1799.0</ele>
      </trkpt>
      <trkpt lat="40.43824" lon="-121.41008">
        <ele>1792.0</ele>
      </trkpt>
      <trkpt lat="40.4383" lon="-121.40979">
        <ele>1792.0</ele>
      </trkpt>
      <trkpt lat="40.43824" lon="-121.40949">
        <ele>1788.0</ele>
      </trkpt>
      <trkpt lat="40.43809" lon="-121.40929">
        <ele>1796.0</ele>
      </trkpt>
      <trkpt lat="40.43806" lon="-121.4089">
        <ele>1792.0</ele>
      </trkpt>
      <trkpt lat="40.43784" lon="-121.40846">
        <ele>1791.0</ele>
      </trkpt>
      <trkpt lat="40.4379" lon="-121.40812">
        <ele>1790.0</ele>
      </trkpt>
      <trkpt lat="40.4378" lon="-121.4078">
        <ele>1789.0</ele>
      </trkpt>
      <trkpt lat="40.4377" lon="-121.40766">
        <ele>1789.0</ele>
      </trkpt>
      <trkpt lat="40.43764" lon="-121.40733">
        <ele>1789.0</ele>
      </trkpt>
      <trkpt lat="40.4374" lon="-121.40703">
        <ele>1792.0</ele>
      </trkpt>
      <trkpt lat="40.43745" lon="-121.40674">
        <ele>1789.0</ele>
      </trkpt>
      <trkpt lat="40.43756" lon="-121.40636">
        <ele>1788.0</ele>
      </trkpt>
      <trkpt lat="40.43772" lon="-121.40628">
        <ele>1782.0</ele>
      </trkpt>
      <trkpt lat="40.43792" lon="-121.4063">
        <ele>1780.0</ele>
      </trkpt>
      <trkpt lat="40.4382" lon="-121.40608">
        <ele>1778.0</ele>
      </trkpt>
      <trkpt lat="40.43859" lon="-121.40532">
        <ele>1775.0</ele>
      </trkpt>
      <trkpt lat="40.4388" lon="-121.4051">
        <ele>1768.0</ele>
      </trkpt>
      <trkpt lat="40.43916" lon="-121.40495">
        <ele>1766.0</ele>
      </trkpt>
      <trkpt lat="40.43941" lon="-121.40481">
        <ele>1771.0</ele>
      </trkpt>
      <trkpt lat="40.43953" lon="-121.40466">
        <ele>1771.0</ele>
      </trkpt>
      <trkpt lat="40.43978" lon="-121.40472">
        <ele>1769.0</ele>
      </trkpt>
      <trkpt lat="40.44008" lon="-121.40469">
        <ele>1767.0</ele>
      </trkpt>
      <trkpt lat="40.44008" lon="-121.40469">
        <ele>1767.0</ele>
      </trkpt>
      <trkpt lat="40.44047" lon="-121.40436">
        <ele>1771.0</ele>
      </trkpt>
      <trkpt lat="40.44047" lon="-121.40436">
        <ele>1771.0</ele>
      </trkpt>
      <trkpt lat="40.44079" lon="-121.40435">
        <ele>1771.0</ele>
      </trkpt>
      <trkpt lat="40.44101" lon="-121.40429">
        <ele>1763.0</ele>
      </trkpt>
      <trkpt lat="40.44111" lon="-121.40409">
        <ele>1763.0</ele>
      </trkpt>
      <trkpt lat="40.44111" lon="-121.40409">
        <ele>1763.0</ele>
      </trkpt>
      <trkpt lat="40.44111" lon="-121.40409">
        <ele>1763.0</ele>
      </trkpt>
      <trkpt lat="40.44117" lon="-121.4041">
        <ele>1763.0</ele>
      </trkpt>
      <trkpt lat="40.44129" lon="-121.40406">
        <ele>1755.0</ele>
      </trkpt>
      <trkpt lat="40.44155" lon="-121.40384">
        <ele>1746.0</ele>
      </trkpt>
      <trkpt lat="40.44177" lon="-121.40359">
        <ele>1745.0</ele>
      </trkpt>
      <trkpt lat="40.44177" lon="-121.40359">
        <ele>1745.0</ele>
      </trkpt>
      <trkpt lat="40.44177" lon="-121.40359">
        <ele>1745.0</ele>
      </trkpt>
      <trkpt lat="40.44177" lon="-121.40333">
        <ele>1745.0</ele>
      </trkpt>
      <trkpt lat="40.44162" lon="-121.4026">
        <ele>1746.0</ele>
      </trkpt>
      <trkpt lat="40.44161" lon="-121.40185">
        <ele>1746.0</ele>
      </trkpt>
      <trkpt lat="40.44189" lon="-121.40073">
        <ele>1741.0</ele>
      </trkpt>
      <trkpt lat="40.44187" lon="-121.40053">
        <ele>1742.0</ele>
      </trkpt>
      <trkpt lat="40.441896334" lon="-121.400457582">
        <ele>1742.0</ele>
      </trkpt>
      <trkpt lat="40.442015388" lon="-121.400197148">
        <ele>1742.0</ele>
      </trkpt>
      <trkpt lat="40.442631867" lon="-121.398083568">
        <ele>1725.0</ele>
      </trkpt>
      <trkpt lat="40.442725767" lon="-121.397852898">
        <ele>1722.0</ele>
      </trkpt>
      <trkpt lat="40.44273351" lon="-121.397862624">
        <ele>1722.0</ele>
      </trkpt>
      <trkpt lat="40.44296" lon="-121.39761">
        <ele>1720.0</ele>
      </trkpt>
      <trkpt lat="40.442961697" lon="-121.397600435">
        <ele>1720.0</ele>
      </trkpt>
      <trkpt lat="40.443215679" lon="-121.397445202">
        <ele>1724.0</ele>
      </trkpt>
    </trkseg>
  </trk>
</gpx>
