<?xml version="1.0" encoding="UTF-8"?>
<gpx xmlns:xsi="http://www.w3.org/2001/XMLSchema-instance" version="1.1" creator="The Outbound Collective, Inc. 1.1.1 -- https://www.theoutbound.com" xsi:schemaLocation="http://www.topografix.com/GPX/1/1 http://www.topografix.com/GPX/1/1/gpx.xsd">
  <metadata>
    <name/>
    <time>2026-02-19T21:56:14+00:00</time>
    <bound minlat="40.15616" minlon="-124.12443" maxlat="40.17438" maxlon="-124.11009"/>
  </metadata>
  <trk>
    <name/>
    <trkseg>
      <trkpt lat="40.1743565094201" lon="-124.1114866733551">
        <ele>688.0</ele>
      </trkpt>
      <trkpt lat="40.17435778011637" lon="-124.1114837054034">
        <ele>688.0</ele>
      </trkpt>
      <trkpt lat="40.17423" lon="-124.11139">
        <ele>690.0</ele>
      </trkpt>
      <trkpt lat="40.17407" lon="-124.11138">
        <ele>690.0</ele>
      </trkpt>
      <trkpt lat="40.17393" lon="-124.11141">
        <ele>693.0</ele>
      </trkpt>
      <trkpt lat="40.17381" lon="-124.11165">
        <ele>691.0</ele>
      </trkpt>
      <trkpt lat="40.17367" lon="-124.11157">
        <ele>694.0</ele>
      </trkpt>
      <trkpt lat="40.17352" lon="-124.11153">
        <ele>694.0</ele>
      </trkpt>
      <trkpt lat="40.17331" lon="-124.11153">
        <ele>696.0</ele>
      </trkpt>
      <trkpt lat="40.17314" lon="-124.11149">
        <ele>703.0</ele>
      </trkpt>
      <trkpt lat="40.17302" lon="-124.11142">
        <ele>703.0</ele>
      </trkpt>
      <trkpt lat="40.17301" lon="-124.11129">
        <ele>703.0</ele>
      </trkpt>
      <trkpt lat="40.17308" lon="-124.11099">
        <ele>705.0</ele>
      </trkpt>
      <trkpt lat="40.173" lon="-124.11092">
        <ele>705.0</ele>
      </trkpt>
      <trkpt lat="40.1729" lon="-124.11098">
        <ele>706.0</ele>
      </trkpt>
      <trkpt lat="40.17276" lon="-124.111">
        <ele>706.0</ele>
      </trkpt>
      <trkpt lat="40.17266" lon="-124.1109">
        <ele>704.0</ele>
      </trkpt>
      <trkpt lat="40.17256" lon="-124.11092">
        <ele>709.0</ele>
      </trkpt>
      <trkpt lat="40.17246" lon="-124.11103">
        <ele>711.0</ele>
      </trkpt>
      <trkpt lat="40.17215" lon="-124.11106">
        <ele>716.0</ele>
      </trkpt>
      <trkpt lat="40.1717" lon="-124.11092">
        <ele>728.0</ele>
      </trkpt>
      <trkpt lat="40.17147" lon="-124.11091">
        <ele>731.0</ele>
      </trkpt>
      <trkpt lat="40.17124" lon="-124.11085">
        <ele>733.0</ele>
      </trkpt>
      <trkpt lat="40.17116" lon="-124.11087">
        <ele>733.0</ele>
      </trkpt>
      <trkpt lat="40.17107" lon="-124.11084">
        <ele>733.0</ele>
      </trkpt>
      <trkpt lat="40.17103" lon="-124.11072">
        <ele>733.0</ele>
      </trkpt>
      <trkpt lat="40.17096" lon="-124.11067">
        <ele>737.0</ele>
      </trkpt>
      <trkpt lat="40.17053" lon="-124.11057">
        <ele>739.0</ele>
      </trkpt>
      <trkpt lat="40.17033" lon="-124.11044">
        <ele>740.0</ele>
      </trkpt>
      <trkpt lat="40.16997" lon="-124.11033">
        <ele>752.0</ele>
      </trkpt>
      <trkpt lat="40.16972" lon="-124.11031">
        <ele>760.0</ele>
      </trkpt>
      <trkpt lat="40.16955" lon="-124.11023">
        <ele>771.0</ele>
      </trkpt>
      <trkpt lat="40.16929" lon="-124.11021">
        <ele>783.0</ele>
      </trkpt>
      <trkpt lat="40.1693" lon="-124.1101">
        <ele>781.0</ele>
      </trkpt>
      <trkpt lat="40.16921" lon="-124.11009">
        <ele>781.0</ele>
      </trkpt>
      <trkpt lat="40.16909" lon="-124.11013">
        <ele>781.0</ele>
      </trkpt>
      <trkpt lat="40.16892" lon="-124.11012">
        <ele>788.0</ele>
      </trkpt>
      <trkpt lat="40.16876" lon="-124.11018">
        <ele>790.0</ele>
      </trkpt>
      <trkpt lat="40.16857" lon="-124.11034">
        <ele>793.0</ele>
      </trkpt>
      <trkpt lat="40.16848" lon="-124.11018">
        <ele>793.0</ele>
      </trkpt>
      <trkpt lat="40.16843" lon="-124.11015">
        <ele>794.0</ele>
      </trkpt>
      <trkpt lat="40.16825" lon="-124.11021">
        <ele>794.0</ele>
      </trkpt>
      <trkpt lat="40.16789" lon="-124.11043">
        <ele>807.0</ele>
      </trkpt>
      <trkpt lat="40.16721" lon="-124.11098">
        <ele>826.0</ele>
      </trkpt>
      <trkpt lat="40.16707" lon="-124.11098">
        <ele>839.0</ele>
      </trkpt>
      <trkpt lat="40.16673" lon="-124.11127">
        <ele>850.0</ele>
      </trkpt>
      <trkpt lat="40.16655979990313" lon="-124.1114969334625">
        <ele>850.0</ele>
      </trkpt>
      <trkpt lat="40.16655979995301" lon="-124.1114969334625">
        <ele>850.0</ele>
      </trkpt>
      <trkpt lat="40.16652" lon="-124.11155">
        <ele>857.0</ele>
      </trkpt>
      <trkpt lat="40.1664" lon="-124.11165">
        <ele>857.0</ele>
      </trkpt>
      <trkpt lat="40.16626" lon="-124.11181">
        <ele>854.0</ele>
      </trkpt>
      <trkpt lat="40.16636" lon="-124.11118">
        <ele>866.0</ele>
      </trkpt>
      <trkpt lat="40.16625" lon="-124.11109">
        <ele>872.0</ele>
      </trkpt>
      <trkpt lat="40.16616" lon="-124.11109">
        <ele>872.0</ele>
      </trkpt>
      <trkpt lat="40.16604" lon="-124.11123">
        <ele>872.0</ele>
      </trkpt>
      <trkpt lat="40.16594" lon="-124.11128">
        <ele>883.0</ele>
      </trkpt>
      <trkpt lat="40.16584" lon="-124.11123">
        <ele>883.0</ele>
      </trkpt>
      <trkpt lat="40.16577" lon="-124.11101">
        <ele>883.0</ele>
      </trkpt>
      <trkpt lat="40.16568" lon="-124.11088">
        <ele>888.0</ele>
      </trkpt>
      <trkpt lat="40.16559" lon="-124.11084">
        <ele>888.0</ele>
      </trkpt>
      <trkpt lat="40.16551" lon="-124.11089">
        <ele>888.0</ele>
      </trkpt>
      <trkpt lat="40.16542" lon="-124.11105">
        <ele>894.0</ele>
      </trkpt>
      <trkpt lat="40.16529" lon="-124.11131">
        <ele>909.0</ele>
      </trkpt>
      <trkpt lat="40.16528" lon="-124.11155">
        <ele>912.0</ele>
      </trkpt>
      <trkpt lat="40.1652" lon="-124.11149">
        <ele>909.0</ele>
      </trkpt>
      <trkpt lat="40.16513" lon="-124.11182">
        <ele>930.0</ele>
      </trkpt>
      <trkpt lat="40.165" lon="-124.112">
        <ele>930.0</ele>
      </trkpt>
      <trkpt lat="40.16483" lon="-124.11208">
        <ele>947.0</ele>
      </trkpt>
      <trkpt lat="40.16475" lon="-124.11207">
        <ele>947.0</ele>
      </trkpt>
      <trkpt lat="40.16483" lon="-124.11188">
        <ele>947.0</ele>
      </trkpt>
      <trkpt lat="40.1648" lon="-124.11182">
        <ele>947.0</ele>
      </trkpt>
      <trkpt lat="40.16471" lon="-124.11182">
        <ele>947.0</ele>
      </trkpt>
      <trkpt lat="40.16463" lon="-124.11192">
        <ele>947.0</ele>
      </trkpt>
      <trkpt lat="40.16443" lon="-124.11248">
        <ele>962.0</ele>
      </trkpt>
      <trkpt lat="40.16441" lon="-124.1127">
        <ele>962.0</ele>
      </trkpt>
      <trkpt lat="40.16433" lon="-124.1129">
        <ele>962.0</ele>
      </trkpt>
      <trkpt lat="40.16428" lon="-124.1134">
        <ele>982.0</ele>
      </trkpt>
      <trkpt lat="40.16433" lon="-124.11364">
        <ele>973.0</ele>
      </trkpt>
      <trkpt lat="40.16431" lon="-124.11371">
        <ele>973.0</ele>
      </trkpt>
      <trkpt lat="40.16427" lon="-124.11372">
        <ele>987.0</ele>
      </trkpt>
      <trkpt lat="40.16421" lon="-124.11369">
        <ele>987.0</ele>
      </trkpt>
      <trkpt lat="40.16408" lon="-124.11335">
        <ele>982.0</ele>
      </trkpt>
      <trkpt lat="40.16398" lon="-124.1125">
        <ele>966.0</ele>
      </trkpt>
      <trkpt lat="40.16395" lon="-124.11246">
        <ele>966.0</ele>
      </trkpt>
      <trkpt lat="40.16386" lon="-124.11263">
        <ele>966.0</ele>
      </trkpt>
      <trkpt lat="40.16382" lon="-124.11279">
        <ele>976.0</ele>
      </trkpt>
      <trkpt lat="40.16375" lon="-124.11284">
        <ele>969.0</ele>
      </trkpt>
      <trkpt lat="40.16373" lon="-124.1131">
        <ele>979.0</ele>
      </trkpt>
      <trkpt lat="40.16368" lon="-124.11335">
        <ele>990.0</ele>
      </trkpt>
      <trkpt lat="40.16368" lon="-124.11353">
        <ele>1001.0</ele>
      </trkpt>
      <trkpt lat="40.16365" lon="-124.11363">
        <ele>1001.0</ele>
      </trkpt>
      <trkpt lat="40.1636" lon="-124.11363">
        <ele>1001.0</ele>
      </trkpt>
      <trkpt lat="40.16351" lon="-124.11357">
        <ele>1001.0</ele>
      </trkpt>
      <trkpt lat="40.16346" lon="-124.11361">
        <ele>995.0</ele>
      </trkpt>
      <trkpt lat="40.16346" lon="-124.11405">
        <ele>1015.0</ele>
      </trkpt>
      <trkpt lat="40.16356" lon="-124.11453">
        <ele>1020.0</ele>
      </trkpt>
      <trkpt lat="40.16352" lon="-124.11455">
        <ele>1020.0</ele>
      </trkpt>
      <trkpt lat="40.16341" lon="-124.1145">
        <ele>1024.0</ele>
      </trkpt>
      <trkpt lat="40.16335" lon="-124.11453">
        <ele>1024.0</ele>
      </trkpt>
      <trkpt lat="40.16334" lon="-124.11458">
        <ele>1024.0</ele>
      </trkpt>
      <trkpt lat="40.16337" lon="-124.11476">
        <ele>1037.0</ele>
      </trkpt>
      <trkpt lat="40.16345" lon="-124.11495">
        <ele>1047.0</ele>
      </trkpt>
      <trkpt lat="40.16364" lon="-124.11518">
        <ele>1045.0</ele>
      </trkpt>
      <trkpt lat="40.16363" lon="-124.11527">
        <ele>1045.0</ele>
      </trkpt>
      <trkpt lat="40.16357" lon="-124.11547">
        <ele>1048.0</ele>
      </trkpt>
      <trkpt lat="40.16346" lon="-124.11569">
        <ele>1055.0</ele>
      </trkpt>
      <trkpt lat="40.16323" lon="-124.11639">
        <ele>1050.0</ele>
      </trkpt>
      <trkpt lat="40.16301" lon="-124.11672">
        <ele>1054.0</ele>
      </trkpt>
      <trkpt lat="40.16277" lon="-124.117">
        <ele>1053.0</ele>
      </trkpt>
      <trkpt lat="40.16273" lon="-124.11714">
        <ele>1056.0</ele>
      </trkpt>
      <trkpt lat="40.16269832061185" lon="-124.1173768043518">
        <ele>1061.0</ele>
      </trkpt>
      <trkpt lat="40.16271091760886" lon="-124.1173785298911">
        <ele>1061.0</ele>
      </trkpt>
      <trkpt lat="40.16271" lon="-124.11739">
        <ele>1061.0</ele>
      </trkpt>
      <trkpt lat="40.16266" lon="-124.11757">
        <ele>1061.0</ele>
      </trkpt>
      <trkpt lat="40.16258" lon="-124.11773">
        <ele>1067.0</ele>
      </trkpt>
      <trkpt lat="40.16235331331363" lon="-124.1178981868963">
        <ele>1064.0</ele>
      </trkpt>
      <trkpt lat="40.16233" lon="-124.11789">
        <ele>1064.0</ele>
      </trkpt>
      <trkpt lat="40.16231500697496" lon="-124.117886401674">
        <ele>1064.0</ele>
      </trkpt>
      <trkpt lat="40.16231500697496" lon="-124.117886401674">
        <ele>1064.0</ele>
      </trkpt>
      <trkpt lat="40.16208" lon="-124.11783">
        <ele>1057.0</ele>
      </trkpt>
      <trkpt lat="40.16208" lon="-124.11783">
        <ele>1057.0</ele>
      </trkpt>
      <trkpt lat="40.16204" lon="-124.11782">
        <ele>1057.0</ele>
      </trkpt>
      <trkpt lat="40.16171" lon="-124.11807">
        <ele>1058.0</ele>
      </trkpt>
      <trkpt lat="40.16164" lon="-124.11818">
        <ele>1058.0</ele>
      </trkpt>
      <trkpt lat="40.16153" lon="-124.11814">
        <ele>1058.0</ele>
      </trkpt>
      <trkpt lat="40.16138" lon="-124.11771">
        <ele>1046.0</ele>
      </trkpt>
      <trkpt lat="40.16134" lon="-124.11747">
        <ele>1040.0</ele>
      </trkpt>
      <trkpt lat="40.16134" lon="-124.11722">
        <ele>1036.0</ele>
      </trkpt>
      <trkpt lat="40.16126" lon="-124.11723">
        <ele>1036.0</ele>
      </trkpt>
      <trkpt lat="40.1611" lon="-124.11769">
        <ele>1043.0</ele>
      </trkpt>
      <trkpt lat="40.16085" lon="-124.11773">
        <ele>1044.0</ele>
      </trkpt>
      <trkpt lat="40.16062737947264" lon="-124.1180992242893">
        <ele>1054.0</ele>
      </trkpt>
      <trkpt lat="40.16062737977984" lon="-124.1180992242893">
        <ele>1054.0</ele>
      </trkpt>
      <trkpt lat="40.16044" lon="-124.11841">
        <ele>1054.0</ele>
      </trkpt>
      <trkpt lat="40.16011" lon="-124.1187">
        <ele>1064.0</ele>
      </trkpt>
      <trkpt lat="40.15962" lon="-124.11948">
        <ele>1072.0</ele>
      </trkpt>
      <trkpt lat="40.15943" lon="-124.1197">
        <ele>1077.0</ele>
      </trkpt>
      <trkpt lat="40.15922" lon="-124.11969">
        <ele>1091.0</ele>
      </trkpt>
      <trkpt lat="40.15917" lon="-124.11946">
        <ele>1092.0</ele>
      </trkpt>
      <trkpt lat="40.15937" lon="-124.11919">
        <ele>1083.0</ele>
      </trkpt>
      <trkpt lat="40.1592" lon="-124.11915">
        <ele>1095.0</ele>
      </trkpt>
      <trkpt lat="40.1592" lon="-124.11891">
        <ele>1098.0</ele>
      </trkpt>
      <trkpt lat="40.1591" lon="-124.11883">
        <ele>1098.0</ele>
      </trkpt>
      <trkpt lat="40.15906" lon="-124.11804">
        <ele>1104.0</ele>
      </trkpt>
      <trkpt lat="40.15891" lon="-124.11762">
        <ele>1097.0</ele>
      </trkpt>
      <trkpt lat="40.15862" lon="-124.11763">
        <ele>1098.0</ele>
      </trkpt>
      <trkpt lat="40.15846" lon="-124.11735">
        <ele>1091.0</ele>
      </trkpt>
      <trkpt lat="40.15812" lon="-124.11733">
        <ele>1089.0</ele>
      </trkpt>
      <trkpt lat="40.15824" lon="-124.11801">
        <ele>1114.0</ele>
      </trkpt>
      <trkpt lat="40.15814" lon="-124.11792">
        <ele>1111.0</ele>
      </trkpt>
      <trkpt lat="40.15803" lon="-124.11853">
        <ele>1128.0</ele>
      </trkpt>
      <trkpt lat="40.15814" lon="-124.11866">
        <ele>1128.0</ele>
      </trkpt>
      <trkpt lat="40.15765" lon="-124.11894">
        <ele>1136.0</ele>
      </trkpt>
      <trkpt lat="40.15753" lon="-124.11915">
        <ele>1144.0</ele>
      </trkpt>
      <trkpt lat="40.15746" lon="-124.11934">
        <ele>1151.0</ele>
      </trkpt>
      <trkpt lat="40.1576" lon="-124.11928">
        <ele>1144.0</ele>
      </trkpt>
      <trkpt lat="40.15753" lon="-124.11948">
        <ele>1151.0</ele>
      </trkpt>
      <trkpt lat="40.15742" lon="-124.11963">
        <ele>1154.0</ele>
      </trkpt>
      <trkpt lat="40.1573" lon="-124.11968">
        <ele>1152.0</ele>
      </trkpt>
      <trkpt lat="40.15705" lon="-124.1197">
        <ele>1154.0</ele>
      </trkpt>
      <trkpt lat="40.15688" lon="-124.11998">
        <ele>1160.0</ele>
      </trkpt>
      <trkpt lat="40.15688" lon="-124.11998">
        <ele>1160.0</ele>
      </trkpt>
      <trkpt lat="40.15688" lon="-124.11998">
        <ele>1160.0</ele>
      </trkpt>
      <trkpt lat="40.15681" lon="-124.12006">
        <ele>1160.0</ele>
      </trkpt>
      <trkpt lat="40.15663" lon="-124.12018">
        <ele>1169.0</ele>
      </trkpt>
      <trkpt lat="40.15652" lon="-124.1204">
        <ele>1170.0</ele>
      </trkpt>
      <trkpt lat="40.15652" lon="-124.12054">
        <ele>1174.0</ele>
      </trkpt>
      <trkpt lat="40.15657" lon="-124.12071">
        <ele>1175.0</ele>
      </trkpt>
      <trkpt lat="40.15676" lon="-124.12122">
        <ele>1175.0</ele>
      </trkpt>
      <trkpt lat="40.15678" lon="-124.12141">
        <ele>1177.0</ele>
      </trkpt>
      <trkpt lat="40.15665" lon="-124.12158">
        <ele>1184.0</ele>
      </trkpt>
      <trkpt lat="40.15655" lon="-124.12177">
        <ele>1184.0</ele>
      </trkpt>
      <trkpt lat="40.15656" lon="-124.12185">
        <ele>1189.0</ele>
      </trkpt>
      <trkpt lat="40.15666" lon="-124.12207">
        <ele>1189.0</ele>
      </trkpt>
      <trkpt lat="40.15666" lon="-124.12226">
        <ele>1194.0</ele>
      </trkpt>
      <trkpt lat="40.15658" lon="-124.12242">
        <ele>1197.0</ele>
      </trkpt>
      <trkpt lat="40.15647" lon="-124.12249">
        <ele>1201.0</ele>
      </trkpt>
      <trkpt lat="40.15638" lon="-124.12236">
        <ele>1197.0</ele>
      </trkpt>
      <trkpt lat="40.15632" lon="-124.12254">
        <ele>1201.0</ele>
      </trkpt>
      <trkpt lat="40.15633" lon="-124.12262">
        <ele>1201.0</ele>
      </trkpt>
      <trkpt lat="40.15632" lon="-124.1227">
        <ele>1205.0</ele>
      </trkpt>
      <trkpt lat="40.15622" lon="-124.12281">
        <ele>1205.0</ele>
      </trkpt>
      <trkpt lat="40.15616" lon="-124.1228">
        <ele>1205.0</ele>
      </trkpt>
      <trkpt lat="40.15622" lon="-124.12293">
        <ele>1210.0</ele>
      </trkpt>
      <trkpt lat="40.1563" lon="-124.12302">
        <ele>1210.0</ele>
      </trkpt>
      <trkpt lat="40.15642" lon="-124.12302">
        <ele>1210.0</ele>
      </trkpt>
      <trkpt lat="40.15642" lon="-124.12302">
        <ele>1210.0</ele>
      </trkpt>
      <trkpt lat="40.15637" lon="-124.12325">
        <ele>1215.0</ele>
      </trkpt>
      <trkpt lat="40.15627" lon="-124.1233">
        <ele>1215.0</ele>
      </trkpt>
      <trkpt lat="40.15625122387485" lon="-124.1233312935419">
        <ele>1215.0</ele>
      </trkpt>
      <trkpt lat="40.1562512238764" lon="-124.1233312935419">
        <ele>1215.0</ele>
      </trkpt>
      <trkpt lat="40.15624" lon="-124.12335">
        <ele>1214.0</ele>
      </trkpt>
      <trkpt lat="40.15622" lon="-124.12354">
        <ele>1217.0</ele>
      </trkpt>
      <trkpt lat="40.15622" lon="-124.12354">
        <ele>1217.0</ele>
      </trkpt>
      <trkpt lat="40.15626" lon="-124.12391">
        <ele>1226.0</ele>
      </trkpt>
      <trkpt lat="40.15633" lon="-124.12403">
        <ele>1227.0</ele>
      </trkpt>
      <trkpt lat="40.15637" lon="-124.12402">
        <ele>1226.0</ele>
      </trkpt>
      <trkpt lat="40.15641" lon="-124.12388">
        <ele>1226.0</ele>
      </trkpt>
      <trkpt lat="40.15659" lon="-124.12382">
        <ele>1226.0</ele>
      </trkpt>
      <trkpt lat="40.15666" lon="-124.12385">
        <ele>1226.0</ele>
      </trkpt>
      <trkpt lat="40.15672" lon="-124.12394">
        <ele>1226.0</ele>
      </trkpt>
      <trkpt lat="40.15663" lon="-124.12401">
        <ele>1226.0</ele>
      </trkpt>
      <trkpt lat="40.15662" lon="-124.12406">
        <ele>1230.0</ele>
      </trkpt>
      <trkpt lat="40.15669" lon="-124.1241">
        <ele>1230.0</ele>
      </trkpt>
      <trkpt lat="40.15669" lon="-124.1241">
        <ele>1230.0</ele>
      </trkpt>
      <trkpt lat="40.1568191334074" lon="-124.1242986667806">
        <ele>1225.0</ele>
      </trkpt>
      <trkpt lat="40.15681913340825" lon="-124.1242986667806">
        <ele>1225.0</ele>
      </trkpt>
      <trkpt lat="40.15669" lon="-124.1241">
        <ele>1230.0</ele>
      </trkpt>
      <trkpt lat="40.15669" lon="-124.1241">
        <ele>1230.0</ele>
      </trkpt>
      <trkpt lat="40.15669" lon="-124.1241">
        <ele>1230.0</ele>
      </trkpt>
      <trkpt lat="40.15684430339616" lon="-124.1241058227697">
        <ele>1225.0</ele>
      </trkpt>
      <trkpt lat="40.15684430382301" lon="-124.1241058227697">
        <ele>1225.0</ele>
      </trkpt>
      <trkpt lat="40.15722" lon="-124.12412">
        <ele>1225.0</ele>
      </trkpt>
      <trkpt lat="40.15765" lon="-124.12396">
        <ele>1214.0</ele>
      </trkpt>
      <trkpt lat="40.15762" lon="-124.12391">
        <ele>1217.0</ele>
      </trkpt>
      <trkpt lat="40.15779" lon="-124.12385">
        <ele>1214.0</ele>
      </trkpt>
      <trkpt lat="40.15797" lon="-124.12387">
        <ele>1209.0</ele>
      </trkpt>
      <trkpt lat="40.15802" lon="-124.12395">
        <ele>1209.0</ele>
      </trkpt>
      <trkpt lat="40.15813" lon="-124.12396">
        <ele>1209.0</ele>
      </trkpt>
      <trkpt lat="40.15803" lon="-124.12383">
        <ele>1209.0</ele>
      </trkpt>
      <trkpt lat="40.15799" lon="-124.1237">
        <ele>1201.0</ele>
      </trkpt>
      <trkpt lat="40.15831" lon="-124.12396">
        <ele>1201.0</ele>
      </trkpt>
      <trkpt lat="40.15848" lon="-124.12431">
        <ele>1193.0</ele>
      </trkpt>
      <trkpt lat="40.15854" lon="-124.12438">
        <ele>1193.0</ele>
      </trkpt>
      <trkpt lat="40.15867" lon="-124.12443">
        <ele>1193.0</ele>
      </trkpt>
      <trkpt lat="40.1588" lon="-124.12443">
        <ele>1193.0</ele>
      </trkpt>
      <trkpt lat="40.15893" lon="-124.12441">
        <ele>1193.0</ele>
      </trkpt>
      <trkpt lat="40.15906" lon="-124.12422">
        <ele>1189.0</ele>
      </trkpt>
      <trkpt lat="40.15915" lon="-124.12418">
        <ele>1189.0</ele>
      </trkpt>
      <trkpt lat="40.15932" lon="-124.12419">
        <ele>1190.0</ele>
      </trkpt>
      <trkpt lat="40.15951" lon="-124.12428">
        <ele>1190.0</ele>
      </trkpt>
      <trkpt lat="40.15964" lon="-124.12427">
        <ele>1191.0</ele>
      </trkpt>
      <trkpt lat="40.15972" lon="-124.12413">
        <ele>1191.0</ele>
      </trkpt>
      <trkpt lat="40.15975" lon="-124.12403">
        <ele>1191.0</ele>
      </trkpt>
      <trkpt lat="40.15975" lon="-124.12354">
        <ele>1195.0</ele>
      </trkpt>
      <trkpt lat="40.15975" lon="-124.12354">
        <ele>1195.0</ele>
      </trkpt>
      <trkpt lat="40.15972" lon="-124.12325">
        <ele>1194.0</ele>
      </trkpt>
      <trkpt lat="40.16005" lon="-124.12288">
        <ele>1188.0</ele>
      </trkpt>
      <trkpt lat="40.16019" lon="-124.1224">
        <ele>1184.0</ele>
      </trkpt>
      <trkpt lat="40.16046" lon="-124.1221">
        <ele>1170.0</ele>
      </trkpt>
      <trkpt lat="40.16048" lon="-124.12225">
        <ele>1170.0</ele>
      </trkpt>
      <trkpt lat="40.16053" lon="-124.12223">
        <ele>1170.0</ele>
      </trkpt>
      <trkpt lat="40.16058" lon="-124.12213">
        <ele>1170.0</ele>
      </trkpt>
      <trkpt lat="40.16077" lon="-124.12192">
        <ele>1159.0</ele>
      </trkpt>
      <trkpt lat="40.16083" lon="-124.12176">
        <ele>1153.0</ele>
      </trkpt>
      <trkpt lat="40.16107" lon="-124.12155">
        <ele>1149.0</ele>
      </trkpt>
      <trkpt lat="40.16126" lon="-124.12129">
        <ele>1144.0</ele>
      </trkpt>
      <trkpt lat="40.16129" lon="-124.12138">
        <ele>1144.0</ele>
      </trkpt>
      <trkpt lat="40.16139" lon="-124.12126">
        <ele>1144.0</ele>
      </trkpt>
      <trkpt lat="40.16132" lon="-124.12148">
        <ele>1144.0</ele>
      </trkpt>
      <trkpt lat="40.16156" lon="-124.12142">
        <ele>1138.0</ele>
      </trkpt>
      <trkpt lat="40.16156" lon="-124.12142">
        <ele>1138.0</ele>
      </trkpt>
      <trkpt lat="40.16203" lon="-124.12104">
        <ele>1134.0</ele>
      </trkpt>
      <trkpt lat="40.16208" lon="-124.1209">
        <ele>1137.0</ele>
      </trkpt>
      <trkpt lat="40.16208" lon="-124.1209">
        <ele>1137.0</ele>
      </trkpt>
      <trkpt lat="40.16213" lon="-124.12079">
        <ele>1129.0</ele>
      </trkpt>
      <trkpt lat="40.1621" lon="-124.12057">
        <ele>1122.0</ele>
      </trkpt>
      <trkpt lat="40.1623" lon="-124.12065">
        <ele>1122.0</ele>
      </trkpt>
      <trkpt lat="40.16218" lon="-124.1202">
        <ele>1115.0</ele>
      </trkpt>
      <trkpt lat="40.16208" lon="-124.11997">
        <ele>1113.0</ele>
      </trkpt>
      <trkpt lat="40.16208" lon="-124.11997">
        <ele>1113.0</ele>
      </trkpt>
      <trkpt lat="40.16196458152827" lon="-124.1198625414229">
        <ele>1113.0</ele>
      </trkpt>
      <trkpt lat="40.16187840075319" lon="-124.1198122501373">
        <ele>1103.0</ele>
      </trkpt>
      <trkpt lat="40.16188921132507" lon="-124.1197923690349">
        <ele>1103.0</ele>
      </trkpt>
      <trkpt lat="40.16179" lon="-124.1197">
        <ele>1104.0</ele>
      </trkpt>
      <trkpt lat="40.16208" lon="-124.1195">
        <ele>1095.0</ele>
      </trkpt>
      <trkpt lat="40.16208" lon="-124.1195">
        <ele>1095.0</ele>
      </trkpt>
      <trkpt lat="40.16212" lon="-124.11947">
        <ele>1096.0</ele>
      </trkpt>
      <trkpt lat="40.16214" lon="-124.11863">
        <ele>1084.0</ele>
      </trkpt>
      <trkpt lat="40.16208" lon="-124.11859">
        <ele>1076.0</ele>
      </trkpt>
      <trkpt lat="40.16208" lon="-124.11859">
        <ele>1076.0</ele>
      </trkpt>
      <trkpt lat="40.16203" lon="-124.11855">
        <ele>1076.0</ele>
      </trkpt>
      <trkpt lat="40.16186" lon="-124.11862">
        <ele>1076.0</ele>
      </trkpt>
      <trkpt lat="40.16188" lon="-124.11846">
        <ele>1069.0</ele>
      </trkpt>
      <trkpt lat="40.16202" lon="-124.11807">
        <ele>1064.0</ele>
      </trkpt>
      <trkpt lat="40.16208" lon="-124.11802">
        <ele>1064.0</ele>
      </trkpt>
      <trkpt lat="40.16208" lon="-124.11802">
        <ele>1064.0</ele>
      </trkpt>
      <trkpt lat="40.16227" lon="-124.11796">
        <ele>1072.0</ele>
      </trkpt>
      <trkpt lat="40.16233947414781" lon="-124.1179084546645">
        <ele>1064.0</ele>
      </trkpt>
      <trkpt lat="40.16235331331363" lon="-124.1178981868963">
        <ele>1064.0</ele>
      </trkpt>
      <trkpt lat="40.16258" lon="-124.11773">
        <ele>1067.0</ele>
      </trkpt>
      <trkpt lat="40.16266" lon="-124.11757">
        <ele>1061.0</ele>
      </trkpt>
      <trkpt lat="40.16271" lon="-124.11739">
        <ele>1061.0</ele>
      </trkpt>
      <trkpt lat="40.16273" lon="-124.11714">
        <ele>1056.0</ele>
      </trkpt>
      <trkpt lat="40.16277" lon="-124.117">
        <ele>1053.0</ele>
      </trkpt>
      <trkpt lat="40.16301" lon="-124.11672">
        <ele>1054.0</ele>
      </trkpt>
      <trkpt lat="40.16323" lon="-124.11639">
        <ele>1050.0</ele>
      </trkpt>
      <trkpt lat="40.16346" lon="-124.11569">
        <ele>1055.0</ele>
      </trkpt>
      <trkpt lat="40.16347444429167" lon="-124.1156611114167">
        <ele>1048.0</ele>
      </trkpt>
      <trkpt lat="40.16347444430183" lon="-124.1156611114166">
        <ele>1048.0</ele>
      </trkpt>
      <trkpt lat="40.16357" lon="-124.11547">
        <ele>1048.0</ele>
      </trkpt>
      <trkpt lat="40.16363" lon="-124.11527">
        <ele>1045.0</ele>
      </trkpt>
      <trkpt lat="40.16364" lon="-124.11518">
        <ele>1045.0</ele>
      </trkpt>
      <trkpt lat="40.16345" lon="-124.11495">
        <ele>1047.0</ele>
      </trkpt>
      <trkpt lat="40.16337" lon="-124.11476">
        <ele>1037.0</ele>
      </trkpt>
      <trkpt lat="40.16334" lon="-124.11458">
        <ele>1024.0</ele>
      </trkpt>
      <trkpt lat="40.16335" lon="-124.11453">
        <ele>1024.0</ele>
      </trkpt>
      <trkpt lat="40.16341" lon="-124.1145">
        <ele>1024.0</ele>
      </trkpt>
      <trkpt lat="40.16352" lon="-124.11455">
        <ele>1020.0</ele>
      </trkpt>
      <trkpt lat="40.16356" lon="-124.11453">
        <ele>1020.0</ele>
      </trkpt>
      <trkpt lat="40.16346" lon="-124.11405">
        <ele>1015.0</ele>
      </trkpt>
      <trkpt lat="40.16346" lon="-124.11361">
        <ele>995.0</ele>
      </trkpt>
      <trkpt lat="40.16351" lon="-124.11357">
        <ele>1001.0</ele>
      </trkpt>
      <trkpt lat="40.1636" lon="-124.11363">
        <ele>1001.0</ele>
      </trkpt>
      <trkpt lat="40.16365" lon="-124.11363">
        <ele>1001.0</ele>
      </trkpt>
      <trkpt lat="40.16368" lon="-124.11353">
        <ele>1001.0</ele>
      </trkpt>
      <trkpt lat="40.16368" lon="-124.11335">
        <ele>990.0</ele>
      </trkpt>
      <trkpt lat="40.16373" lon="-124.1131">
        <ele>979.0</ele>
      </trkpt>
      <trkpt lat="40.16375" lon="-124.11284">
        <ele>969.0</ele>
      </trkpt>
      <trkpt lat="40.16382" lon="-124.11279">
        <ele>976.0</ele>
      </trkpt>
      <trkpt lat="40.16386" lon="-124.11263">
        <ele>966.0</ele>
      </trkpt>
      <trkpt lat="40.16395" lon="-124.11246">
        <ele>966.0</ele>
      </trkpt>
      <trkpt lat="40.16398" lon="-124.1125">
        <ele>966.0</ele>
      </trkpt>
      <trkpt lat="40.16408" lon="-124.11335">
        <ele>982.0</ele>
      </trkpt>
      <trkpt lat="40.16421" lon="-124.11369">
        <ele>987.0</ele>
      </trkpt>
      <trkpt lat="40.16427" lon="-124.11372">
        <ele>987.0</ele>
      </trkpt>
      <trkpt lat="40.16431" lon="-124.11371">
        <ele>973.0</ele>
      </trkpt>
      <trkpt lat="40.16433" lon="-124.11364">
        <ele>973.0</ele>
      </trkpt>
      <trkpt lat="40.16428" lon="-124.1134">
        <ele>982.0</ele>
      </trkpt>
      <trkpt lat="40.16433" lon="-124.1129">
        <ele>962.0</ele>
      </trkpt>
      <trkpt lat="40.16441" lon="-124.1127">
        <ele>962.0</ele>
      </trkpt>
      <trkpt lat="40.16443" lon="-124.11248">
        <ele>962.0</ele>
      </trkpt>
      <trkpt lat="40.16463" lon="-124.11192">
        <ele>947.0</ele>
      </trkpt>
      <trkpt lat="40.16471" lon="-124.11182">
        <ele>947.0</ele>
      </trkpt>
      <trkpt lat="40.1648" lon="-124.11182">
        <ele>947.0</ele>
      </trkpt>
      <trkpt lat="40.16483" lon="-124.11188">
        <ele>947.0</ele>
      </trkpt>
      <trkpt lat="40.16475" lon="-124.11207">
        <ele>947.0</ele>
      </trkpt>
      <trkpt lat="40.16483" lon="-124.11208">
        <ele>947.0</ele>
      </trkpt>
      <trkpt lat="40.165" lon="-124.112">
        <ele>930.0</ele>
      </trkpt>
      <trkpt lat="40.16513" lon="-124.11182">
        <ele>930.0</ele>
      </trkpt>
      <trkpt lat="40.1652" lon="-124.11149">
        <ele>909.0</ele>
      </trkpt>
      <trkpt lat="40.16528" lon="-124.11155">
        <ele>912.0</ele>
      </trkpt>
      <trkpt lat="40.16529" lon="-124.11131">
        <ele>909.0</ele>
      </trkpt>
      <trkpt lat="40.16542" lon="-124.11105">
        <ele>894.0</ele>
      </trkpt>
      <trkpt lat="40.16551" lon="-124.11089">
        <ele>888.0</ele>
      </trkpt>
      <trkpt lat="40.16559" lon="-124.11084">
        <ele>888.0</ele>
      </trkpt>
      <trkpt lat="40.16568" lon="-124.11088">
        <ele>888.0</ele>
      </trkpt>
      <trkpt lat="40.16577" lon="-124.11101">
        <ele>883.0</ele>
      </trkpt>
      <trkpt lat="40.16584" lon="-124.11123">
        <ele>883.0</ele>
      </trkpt>
      <trkpt lat="40.16594" lon="-124.11128">
        <ele>883.0</ele>
      </trkpt>
      <trkpt lat="40.16604" lon="-124.11123">
        <ele>872.0</ele>
      </trkpt>
      <trkpt lat="40.16616" lon="-124.11109">
        <ele>872.0</ele>
      </trkpt>
      <trkpt lat="40.16625" lon="-124.11109">
        <ele>872.0</ele>
      </trkpt>
      <trkpt lat="40.16636" lon="-124.11118">
        <ele>866.0</ele>
      </trkpt>
      <trkpt lat="40.16626" lon="-124.11181">
        <ele>854.0</ele>
      </trkpt>
      <trkpt lat="40.1664" lon="-124.11165">
        <ele>857.0</ele>
      </trkpt>
      <trkpt lat="40.16652" lon="-124.11155">
        <ele>857.0</ele>
      </trkpt>
      <trkpt lat="40.16673" lon="-124.11127">
        <ele>850.0</ele>
      </trkpt>
      <trkpt lat="40.16707" lon="-124.11098">
        <ele>839.0</ele>
      </trkpt>
      <trkpt lat="40.16721" lon="-124.11098">
        <ele>826.0</ele>
      </trkpt>
      <trkpt lat="40.16789" lon="-124.11043">
        <ele>807.0</ele>
      </trkpt>
      <trkpt lat="40.16825" lon="-124.11021">
        <ele>794.0</ele>
      </trkpt>
      <trkpt lat="40.16843" lon="-124.11015">
        <ele>794.0</ele>
      </trkpt>
      <trkpt lat="40.16848" lon="-124.11018">
        <ele>793.0</ele>
      </trkpt>
      <trkpt lat="40.16857" lon="-124.11034">
        <ele>793.0</ele>
      </trkpt>
      <trkpt lat="40.16876" lon="-124.11018">
        <ele>790.0</ele>
      </trkpt>
      <trkpt lat="40.16892" lon="-124.11012">
        <ele>788.0</ele>
      </trkpt>
      <trkpt lat="40.16909" lon="-124.11013">
        <ele>781.0</ele>
      </trkpt>
      <trkpt lat="40.16921" lon="-124.11009">
        <ele>781.0</ele>
      </trkpt>
      <trkpt lat="40.1693" lon="-124.1101">
        <ele>781.0</ele>
      </trkpt>
      <trkpt lat="40.16929" lon="-124.11021">
        <ele>783.0</ele>
      </trkpt>
      <trkpt lat="40.16955" lon="-124.11023">
        <ele>771.0</ele>
      </trkpt>
      <trkpt lat="40.16972" lon="-124.11031">
        <ele>760.0</ele>
      </trkpt>
      <trkpt lat="40.16997" lon="-124.11033">
        <ele>752.0</ele>
      </trkpt>
      <trkpt lat="40.17033" lon="-124.11044">
        <ele>740.0</ele>
      </trkpt>
      <trkpt lat="40.17053" lon="-124.11057">
        <ele>739.0</ele>
      </trkpt>
      <trkpt lat="40.17096" lon="-124.11067">
        <ele>737.0</ele>
      </trkpt>
      <trkpt lat="40.17103" lon="-124.11072">
        <ele>733.0</ele>
      </trkpt>
      <trkpt lat="40.17107" lon="-124.11084">
        <ele>733.0</ele>
      </trkpt>
      <trkpt lat="40.17116" lon="-124.11087">
        <ele>733.0</ele>
      </trkpt>
      <trkpt lat="40.17124" lon="-124.11085">
        <ele>733.0</ele>
      </trkpt>
      <trkpt lat="40.17147" lon="-124.11091">
        <ele>731.0</ele>
      </trkpt>
      <trkpt lat="40.1717" lon="-124.11092">
        <ele>728.0</ele>
      </trkpt>
      <trkpt lat="40.17215" lon="-124.11106">
        <ele>716.0</ele>
      </trkpt>
      <trkpt lat="40.17246" lon="-124.11103">
        <ele>711.0</ele>
      </trkpt>
      <trkpt lat="40.17256" lon="-124.11092">
        <ele>709.0</ele>
      </trkpt>
      <trkpt lat="40.17266" lon="-124.1109">
        <ele>704.0</ele>
      </trkpt>
      <trkpt lat="40.17276" lon="-124.111">
        <ele>706.0</ele>
      </trkpt>
      <trkpt lat="40.1729" lon="-124.11098">
        <ele>706.0</ele>
      </trkpt>
      <trkpt lat="40.173" lon="-124.11092">
        <ele>705.0</ele>
      </trkpt>
      <trkpt lat="40.17308" lon="-124.11099">
        <ele>705.0</ele>
      </trkpt>
      <trkpt lat="40.17301" lon="-124.11129">
        <ele>703.0</ele>
      </trkpt>
      <trkpt lat="40.17302" lon="-124.11142">
        <ele>703.0</ele>
      </trkpt>
      <trkpt lat="40.17314" lon="-124.11149">
        <ele>703.0</ele>
      </trkpt>
      <trkpt lat="40.17331" lon="-124.11153">
        <ele>696.0</ele>
      </trkpt>
      <trkpt lat="40.17352" lon="-124.11153">
        <ele>694.0</ele>
      </trkpt>
      <trkpt lat="40.17367" lon="-124.11157">
        <ele>694.0</ele>
      </trkpt>
      <trkpt lat="40.17381" lon="-124.11165">
        <ele>691.0</ele>
      </trkpt>
      <trkpt lat="40.17393" lon="-124.11141">
        <ele>693.0</ele>
      </trkpt>
      <trkpt lat="40.17407" lon="-124.11138">
        <ele>690.0</ele>
      </trkpt>
      <trkpt lat="40.17423" lon="-124.11139">
        <ele>690.0</ele>
      </trkpt>
      <trkpt lat="40.17438" lon="-124.1115">
        <ele>688.0</ele>
      </trkpt>
    </trkseg>
  </trk>
</gpx>
