<?xml version="1.0" encoding="UTF-8"?>
<gpx xmlns:xsi="http://www.w3.org/2001/XMLSchema-instance" version="1.1" creator="The Outbound Collective, Inc. 1.1.1 -- https://www.theoutbound.com" xsi:schemaLocation="http://www.topografix.com/GPX/1/1 http://www.topografix.com/GPX/1/1/gpx.xsd">
  <metadata>
    <name/>
    <time>2026-02-19T21:57:20+00:00</time>
    <bound minlat="34.46439" minlon="-119.23136" maxlat="34.4686058940954" maxlon="-119.2272962147551"/>
  </metadata>
  <trk>
    <name/>
    <trkseg>
      <trkpt lat="34.46520482881294" lon="-119.2273020744324">
        <ele>305.0</ele>
      </trkpt>
      <trkpt lat="34.46518714340223" lon="-119.2273014073174">
        <ele>305.0</ele>
      </trkpt>
      <trkpt lat="34.46518" lon="-119.22758">
        <ele>306.0</ele>
      </trkpt>
      <trkpt lat="34.46514" lon="-119.22781">
        <ele>306.0</ele>
      </trkpt>
      <trkpt lat="34.46504" lon="-119.22814">
        <ele>303.0</ele>
      </trkpt>
      <trkpt lat="34.465" lon="-119.22822">
        <ele>308.0</ele>
      </trkpt>
      <trkpt lat="34.46493" lon="-119.2283">
        <ele>308.0</ele>
      </trkpt>
      <trkpt lat="34.46481" lon="-119.22831">
        <ele>303.0</ele>
      </trkpt>
      <trkpt lat="34.46465" lon="-119.22844">
        <ele>303.0</ele>
      </trkpt>
      <trkpt lat="34.46457" lon="-119.22861">
        <ele>304.0</ele>
      </trkpt>
      <trkpt lat="34.46441" lon="-119.22912">
        <ele>312.0</ele>
      </trkpt>
      <trkpt lat="34.46441488582972" lon="-119.2292274882538">
        <ele>312.0</ele>
      </trkpt>
      <trkpt lat="34.46441488583076" lon="-119.2292274882538">
        <ele>312.0</ele>
      </trkpt>
      <trkpt lat="34.46445" lon="-119.23">
        <ele>312.0</ele>
      </trkpt>
      <trkpt lat="34.46439" lon="-119.23033">
        <ele>311.0</ele>
      </trkpt>
      <trkpt lat="34.4644" lon="-119.23054">
        <ele>309.0</ele>
      </trkpt>
      <trkpt lat="34.46445" lon="-119.2307">
        <ele>305.0</ele>
      </trkpt>
      <trkpt lat="34.46458" lon="-119.23095">
        <ele>305.0</ele>
      </trkpt>
      <trkpt lat="34.46485" lon="-119.23131">
        <ele>298.0</ele>
      </trkpt>
      <trkpt lat="34.46498" lon="-119.23136">
        <ele>299.0</ele>
      </trkpt>
      <trkpt lat="34.46508983588734" lon="-119.2312556505203">
        <ele>299.0</ele>
      </trkpt>
      <trkpt lat="34.46512521834287" lon="-119.2310249805451">
        <ele>305.0</ele>
      </trkpt>
      <trkpt lat="34.4650942586951" lon="-119.2309606075287">
        <ele>310.0</ele>
      </trkpt>
      <trkpt lat="34.46505003060695" lon="-119.2308157682419">
        <ele>310.0</ele>
      </trkpt>
      <trkpt lat="34.46507214465397" lon="-119.2306709289551">
        <ele>317.0</ele>
      </trkpt>
      <trkpt lat="34.46505887622647" lon="-119.230477809906">
        <ele>317.0</ele>
      </trkpt>
      <trkpt lat="34.46505887622647" lon="-119.2303168773651">
        <ele>326.0</ele>
      </trkpt>
      <trkpt lat="34.4651119499238" lon="-119.2302310466766">
        <ele>326.0</ele>
      </trkpt>
      <trkpt lat="34.46507656746267" lon="-119.2301559448242">
        <ele>326.0</ele>
      </trkpt>
      <trkpt lat="34.46511637273039" lon="-119.2300271987915">
        <ele>333.0</ele>
      </trkpt>
      <trkpt lat="34.46516502358741" lon="-119.2299681901932">
        <ele>339.0</ele>
      </trkpt>
      <trkpt lat="34.46513848675983" lon="-119.2297697067261">
        <ele>338.0</ele>
      </trkpt>
      <trkpt lat="34.46525347961841" lon="-119.2295926809311">
        <ele>345.0</ele>
      </trkpt>
      <trkpt lat="34.46532424437574" lon="-119.2295336723328">
        <ele>346.0</ele>
      </trkpt>
      <trkpt lat="34.46533751276104" lon="-119.2294317483902">
        <ele>346.0</ele>
      </trkpt>
      <trkpt lat="34.46554096107184" lon="-119.2294049263001">
        <ele>354.0</ele>
      </trkpt>
      <trkpt lat="34.46561614836553" lon="-119.2293512821198">
        <ele>354.0</ele>
      </trkpt>
      <trkpt lat="34.46563826226258" lon="-119.229399561882">
        <ele>354.0</ele>
      </trkpt>
      <trkpt lat="34.46573998611343" lon="-119.2293727397919">
        <ele>362.0</ele>
      </trkpt>
      <trkpt lat="34.46581075045833" lon="-119.229394197464">
        <ele>362.0</ele>
      </trkpt>
      <trkpt lat="34.46585940091063" lon="-119.2293459177017">
        <ele>362.0</ele>
      </trkpt>
      <trkpt lat="34.46593016515428" lon="-119.2293727397919">
        <ele>362.0</ele>
      </trkpt>
      <trkpt lat="34.46606727070562" lon="-119.2293190956116">
        <ele>373.0</ele>
      </trkpt>
      <trkpt lat="34.4662176442772" lon="-119.229217171669">
        <ele>375.0</ele>
      </trkpt>
      <trkpt lat="34.46638570853662" lon="-119.229206442833">
        <ele>391.0</ele>
      </trkpt>
      <trkpt lat="34.46655819518782" lon="-119.2291152477264">
        <ele>409.0</ele>
      </trkpt>
      <trkpt lat="34.4669341263978" lon="-119.2292439937592">
        <ele>414.0</ele>
      </trkpt>
      <trkpt lat="34.46699604431704" lon="-119.2293781042099">
        <ele>416.0</ele>
      </trkpt>
      <trkpt lat="34.46703584866944" lon="-119.2293030023575">
        <ele>414.0</ele>
      </trkpt>
      <trkpt lat="34.46717295240464" lon="-119.2293512821198">
        <ele>421.0</ele>
      </trkpt>
      <trkpt lat="34.46729678784288" lon="-119.2294424772263">
        <ele>421.0</ele>
      </trkpt>
      <trkpt lat="34.46740293235798" lon="-119.2295122146607">
        <ele>420.0</ele>
      </trkpt>
      <trkpt lat="34.46763291167765" lon="-119.2295336723328">
        <ele>420.0</ele>
      </trkpt>
      <trkpt lat="34.46772136509342" lon="-119.2296731472016">
        <ele>432.0</ele>
      </trkpt>
      <trkpt lat="34.46780981841543" lon="-119.2296946048737">
        <ele>432.0</ele>
      </trkpt>
      <trkpt lat="34.4680176833532" lon="-119.2297106981278">
        <ele>447.0</ele>
      </trkpt>
      <trkpt lat="34.46827861945717" lon="-119.2297267913819">
        <ele>471.0</ele>
      </trkpt>
      <trkpt lat="34.46830073264885" lon="-119.229753613472">
        <ele>471.0</ele>
      </trkpt>
      <trkpt lat="34.46839803062253" lon="-119.2296892404556">
        <ele>471.0</ele>
      </trkpt>
      <trkpt lat="34.46843341167574" lon="-119.2297106981278">
        <ele>471.0</ele>
      </trkpt>
      <trkpt lat="34.46850859636402" lon="-119.2296838760376">
        <ele>468.0</ele>
      </trkpt>
      <trkpt lat="34.46855724524388" lon="-119.2297857999802">
        <ele>468.0</ele>
      </trkpt>
      <trkpt lat="34.4686058940954" lon="-119.2297697067261">
        <ele>468.0</ele>
      </trkpt>
      <trkpt lat="34.4685837809846" lon="-119.2297160625458">
        <ele>468.0</ele>
      </trkpt>
      <trkpt lat="34.4686014714737" lon="-119.2297643423081">
        <ele>468.0</ele>
      </trkpt>
      <trkpt lat="34.46854397737039" lon="-119.2297750711441">
        <ele>468.0</ele>
      </trkpt>
      <trkpt lat="34.46850417373717" lon="-119.2296838760376">
        <ele>468.0</ele>
      </trkpt>
      <trkpt lat="34.46838918535688" lon="-119.2297106981278">
        <ele>471.0</ele>
      </trkpt>
      <trkpt lat="34.4683803400903" lon="-119.2296946048737">
        <ele>471.0</ele>
      </trkpt>
      <trkpt lat="34.46829188737288" lon="-119.229753613472">
        <ele>471.0</ele>
      </trkpt>
      <trkpt lat="34.46796903415886" lon="-119.2297106981278">
        <ele>447.0</ele>
      </trkpt>
      <trkpt lat="34.46770367441776" lon="-119.2296785116196">
        <ele>432.0</ele>
      </trkpt>
      <trkpt lat="34.4676284890044" lon="-119.2295390367508">
        <ele>420.0</ele>
      </trkpt>
      <trkpt lat="34.46739850967255" lon="-119.2295122146607">
        <ele>420.0</ele>
      </trkpt>
      <trkpt lat="34.46709334381163" lon="-119.2293083667755">
        <ele>421.0</ele>
      </trkpt>
      <trkpt lat="34.4670402713741" lon="-119.2293083667755">
        <ele>416.0</ele>
      </trkpt>
      <trkpt lat="34.46700046702378" lon="-119.2293727397919">
        <ele>416.0</ele>
      </trkpt>
      <trkpt lat="34.46692085826627" lon="-119.2292279005051">
        <ele>414.0</ele>
      </trkpt>
      <trkpt lat="34.46657146337699" lon="-119.2291206121445">
        <ele>409.0</ele>
      </trkpt>
      <trkpt lat="34.46642993591706" lon="-119.2291903495789">
        <ele>391.0</ele>
      </trkpt>
      <trkpt lat="34.46618226228473" lon="-119.229217171669">
        <ele>375.0</ele>
      </trkpt>
      <trkpt lat="34.46603631140727" lon="-119.2293405532837">
        <ele>373.0</ele>
      </trkpt>
      <trkpt lat="34.46590805133458" lon="-119.2293620109558">
        <ele>362.0</ele>
      </trkpt>
      <trkpt lat="34.46581075045833" lon="-119.2293781042099">
        <ele>362.0</ele>
      </trkpt>
      <trkpt lat="34.46566037615375" lon="-119.2293727397919">
        <ele>354.0</ele>
      </trkpt>
      <trkpt lat="34.46563826226258" lon="-119.2293834686279">
        <ele>354.0</ele>
      </trkpt>
      <trkpt lat="34.46559403446266" lon="-119.2293512821198">
        <ele>354.0</ele>
      </trkpt>
      <trkpt lat="34.46558518889988" lon="-119.229388833046">
        <ele>354.0</ele>
      </trkpt>
      <trkpt lat="34.46532424437574" lon="-119.2294424772263">
        <ele>346.0</ele>
      </trkpt>
      <trkpt lat="34.46530655319203" lon="-119.2295390367508">
        <ele>346.0</ele>
      </trkpt>
      <trkpt lat="34.46520925161463" lon="-119.2296677827835">
        <ele>345.0</ele>
      </trkpt>
      <trkpt lat="34.4651340639544" lon="-119.2297375202179">
        <ele>338.0</ele>
      </trkpt>
      <trkpt lat="34.46516502358741" lon="-119.229936003685">
        <ele>339.0</ele>
      </trkpt>
      <trkpt lat="34.46508099027113" lon="-119.2301505804062">
        <ele>326.0</ele>
      </trkpt>
      <trkpt lat="34.46512964114875" lon="-119.2302364110947">
        <ele>326.0</ele>
      </trkpt>
      <trkpt lat="34.46507656746267" lon="-119.230295419693">
        <ele>326.0</ele>
      </trkpt>
      <trkpt lat="34.46506329903587" lon="-119.2304563522339">
        <ele>317.0</ele>
      </trkpt>
      <trkpt lat="34.46508099027113" lon="-119.2306816577912">
        <ele>317.0</ele>
      </trkpt>
      <trkpt lat="34.46504118498651" lon="-119.2308050394058">
        <ele>310.0</ele>
      </trkpt>
      <trkpt lat="34.46511637273039" lon="-119.2310035228729">
        <ele>305.0</ele>
      </trkpt>
      <trkpt lat="34.4650942586951" lon="-119.2312234640122">
        <ele>305.0</ele>
      </trkpt>
      <trkpt lat="34.46494830591529" lon="-119.2313414812088">
        <ele>299.0</ele>
      </trkpt>
      <trkpt lat="34.46481119852601" lon="-119.2312717437744">
        <ele>298.0</ele>
      </trkpt>
      <trkpt lat="34.4648167303179" lon="-119.231265640361">
        <ele>298.0</ele>
      </trkpt>
      <trkpt lat="34.46458" lon="-119.23095">
        <ele>305.0</ele>
      </trkpt>
      <trkpt lat="34.46445" lon="-119.2307">
        <ele>305.0</ele>
      </trkpt>
      <trkpt lat="34.4644" lon="-119.23054">
        <ele>309.0</ele>
      </trkpt>
      <trkpt lat="34.46439" lon="-119.23033">
        <ele>311.0</ele>
      </trkpt>
      <trkpt lat="34.46445" lon="-119.23">
        <ele>312.0</ele>
      </trkpt>
      <trkpt lat="34.46441" lon="-119.22912">
        <ele>312.0</ele>
      </trkpt>
      <trkpt lat="34.46457" lon="-119.22861">
        <ele>304.0</ele>
      </trkpt>
      <trkpt lat="34.46465" lon="-119.22844">
        <ele>303.0</ele>
      </trkpt>
      <trkpt lat="34.46480547684278" lon="-119.2283136750652">
        <ele>303.0</ele>
      </trkpt>
      <trkpt lat="34.46480547684701" lon="-119.2283136750652">
        <ele>303.0</ele>
      </trkpt>
      <trkpt lat="34.46481" lon="-119.22831">
        <ele>303.0</ele>
      </trkpt>
      <trkpt lat="34.46493" lon="-119.2283">
        <ele>308.0</ele>
      </trkpt>
      <trkpt lat="34.465" lon="-119.22822">
        <ele>308.0</ele>
      </trkpt>
      <trkpt lat="34.46504" lon="-119.22814">
        <ele>303.0</ele>
      </trkpt>
      <trkpt lat="34.46514" lon="-119.22781">
        <ele>306.0</ele>
      </trkpt>
      <trkpt lat="34.46515023228625" lon="-119.227751164354">
        <ele>306.0</ele>
      </trkpt>
      <trkpt lat="34.46515023228807" lon="-119.227751164354">
        <ele>306.0</ele>
      </trkpt>
      <trkpt lat="34.46518" lon="-119.22758">
        <ele>306.0</ele>
      </trkpt>
      <trkpt lat="34.46518727654474" lon="-119.2272962147551">
        <ele>305.0</ele>
      </trkpt>
    </trkseg>
  </trk>
</gpx>
