<?xml version="1.0" encoding="UTF-8"?>
<gpx xmlns:xsi="http://www.w3.org/2001/XMLSchema-instance" version="1.1" creator="The Outbound Collective, Inc. 1.1.1 -- https://www.theoutbound.com" xsi:schemaLocation="http://www.topografix.com/GPX/1/1 http://www.topografix.com/GPX/1/1/gpx.xsd">
  <metadata>
    <name/>
    <time>2026-02-19T21:57:09+00:00</time>
    <bound minlat="34.58511253696283" minlon="-119.27066" maxlat="34.6051595940007" maxlon="-119.26583"/>
  </metadata>
  <trk>
    <name/>
    <trkseg>
      <trkpt lat="34.58513565315684" lon="-119.268479347229">
        <ele>1118.0</ele>
      </trkpt>
      <trkpt lat="34.58512790556664" lon="-119.2684524037133">
        <ele>1118.0</ele>
      </trkpt>
      <trkpt lat="34.58544" lon="-119.26832">
        <ele>1137.0</ele>
      </trkpt>
      <trkpt lat="34.5856" lon="-119.26819">
        <ele>1137.0</ele>
      </trkpt>
      <trkpt lat="34.58578" lon="-119.26825">
        <ele>1142.0</ele>
      </trkpt>
      <trkpt lat="34.58595" lon="-119.2682">
        <ele>1142.0</ele>
      </trkpt>
      <trkpt lat="34.58604" lon="-119.26812">
        <ele>1144.0</ele>
      </trkpt>
      <trkpt lat="34.5864" lon="-119.26803">
        <ele>1147.0</ele>
      </trkpt>
      <trkpt lat="34.58648" lon="-119.26806">
        <ele>1147.0</ele>
      </trkpt>
      <trkpt lat="34.58695" lon="-119.26787">
        <ele>1151.0</ele>
      </trkpt>
      <trkpt lat="34.5871" lon="-119.26765">
        <ele>1154.0</ele>
      </trkpt>
      <trkpt lat="34.58717" lon="-119.26759">
        <ele>1154.0</ele>
      </trkpt>
      <trkpt lat="34.58722" lon="-119.26758">
        <ele>1154.0</ele>
      </trkpt>
      <trkpt lat="34.58722" lon="-119.26758">
        <ele>1154.0</ele>
      </trkpt>
      <trkpt lat="34.58753" lon="-119.26745">
        <ele>1147.0</ele>
      </trkpt>
      <trkpt lat="34.58773" lon="-119.26743">
        <ele>1152.0</ele>
      </trkpt>
      <trkpt lat="34.588" lon="-119.26748">
        <ele>1155.0</ele>
      </trkpt>
      <trkpt lat="34.58815" lon="-119.26758">
        <ele>1155.0</ele>
      </trkpt>
      <trkpt lat="34.58815" lon="-119.26758">
        <ele>1155.0</ele>
      </trkpt>
      <trkpt lat="34.58827" lon="-119.26766">
        <ele>1158.0</ele>
      </trkpt>
      <trkpt lat="34.58872" lon="-119.26774">
        <ele>1158.0</ele>
      </trkpt>
      <trkpt lat="34.58886" lon="-119.26772">
        <ele>1160.0</ele>
      </trkpt>
      <trkpt lat="34.5891" lon="-119.26782">
        <ele>1160.0</ele>
      </trkpt>
      <trkpt lat="34.5894" lon="-119.26787">
        <ele>1160.0</ele>
      </trkpt>
      <trkpt lat="34.5897" lon="-119.26803">
        <ele>1162.0</ele>
      </trkpt>
      <trkpt lat="34.58982" lon="-119.26799">
        <ele>1162.0</ele>
      </trkpt>
      <trkpt lat="34.59007" lon="-119.26807">
        <ele>1160.0</ele>
      </trkpt>
      <trkpt lat="34.5901249306137" lon="-119.2680674450877">
        <ele>1160.0</ele>
      </trkpt>
      <trkpt lat="34.59012493073769" lon="-119.2680674450877">
        <ele>1160.0</ele>
      </trkpt>
      <trkpt lat="34.5905" lon="-119.26805">
        <ele>1161.0</ele>
      </trkpt>
      <trkpt lat="34.59058" lon="-119.2679">
        <ele>1159.0</ele>
      </trkpt>
      <trkpt lat="34.59074" lon="-119.2679">
        <ele>1158.0</ele>
      </trkpt>
      <trkpt lat="34.59098" lon="-119.26803">
        <ele>1158.0</ele>
      </trkpt>
      <trkpt lat="34.59112" lon="-119.26805">
        <ele>1158.0</ele>
      </trkpt>
      <trkpt lat="34.59118" lon="-119.26821">
        <ele>1165.0</ele>
      </trkpt>
      <trkpt lat="34.59131" lon="-119.26826">
        <ele>1165.0</ele>
      </trkpt>
      <trkpt lat="34.59145" lon="-119.26824">
        <ele>1165.0</ele>
      </trkpt>
      <trkpt lat="34.5918" lon="-119.26805">
        <ele>1165.0</ele>
      </trkpt>
      <trkpt lat="34.59195" lon="-119.26802">
        <ele>1167.0</ele>
      </trkpt>
      <trkpt lat="34.59216" lon="-119.26786">
        <ele>1168.0</ele>
      </trkpt>
      <trkpt lat="34.5923" lon="-119.26789">
        <ele>1168.0</ele>
      </trkpt>
      <trkpt lat="34.59238" lon="-119.26764">
        <ele>1167.0</ele>
      </trkpt>
      <trkpt lat="34.59248" lon="-119.26758">
        <ele>1168.0</ele>
      </trkpt>
      <trkpt lat="34.59248" lon="-119.26758">
        <ele>1168.0</ele>
      </trkpt>
      <trkpt lat="34.5925" lon="-119.26755">
        <ele>1168.0</ele>
      </trkpt>
      <trkpt lat="34.59246" lon="-119.26738">
        <ele>1168.0</ele>
      </trkpt>
      <trkpt lat="34.59245" lon="-119.26715">
        <ele>1169.0</ele>
      </trkpt>
      <trkpt lat="34.59248" lon="-119.26707">
        <ele>1170.0</ele>
      </trkpt>
      <trkpt lat="34.59253" lon="-119.26708">
        <ele>1170.0</ele>
      </trkpt>
      <trkpt lat="34.59256" lon="-119.267">
        <ele>1170.0</ele>
      </trkpt>
      <trkpt lat="34.59251" lon="-119.26669">
        <ele>1174.0</ele>
      </trkpt>
      <trkpt lat="34.59244" lon="-119.2665">
        <ele>1179.0</ele>
      </trkpt>
      <trkpt lat="34.59242" lon="-119.26624">
        <ele>1185.0</ele>
      </trkpt>
      <trkpt lat="34.59242" lon="-119.26607">
        <ele>1185.0</ele>
      </trkpt>
      <trkpt lat="34.59245" lon="-119.26596">
        <ele>1193.0</ele>
      </trkpt>
      <trkpt lat="34.59259" lon="-119.26588">
        <ele>1193.0</ele>
      </trkpt>
      <trkpt lat="34.59279" lon="-119.26583">
        <ele>1190.0</ele>
      </trkpt>
      <trkpt lat="34.593" lon="-119.26589">
        <ele>1188.0</ele>
      </trkpt>
      <trkpt lat="34.59312" lon="-119.26597">
        <ele>1188.0</ele>
      </trkpt>
      <trkpt lat="34.59322" lon="-119.26611">
        <ele>1187.0</ele>
      </trkpt>
      <trkpt lat="34.59322" lon="-119.26611">
        <ele>1187.0</ele>
      </trkpt>
      <trkpt lat="34.59349" lon="-119.26625">
        <ele>1190.0</ele>
      </trkpt>
      <trkpt lat="34.59348" lon="-119.26635">
        <ele>1189.0</ele>
      </trkpt>
      <trkpt lat="34.59354" lon="-119.26644">
        <ele>1189.0</ele>
      </trkpt>
      <trkpt lat="34.59353" lon="-119.26648">
        <ele>1189.0</ele>
      </trkpt>
      <trkpt lat="34.59358" lon="-119.2665">
        <ele>1189.0</ele>
      </trkpt>
      <trkpt lat="34.59362" lon="-119.26643">
        <ele>1189.0</ele>
      </trkpt>
      <trkpt lat="34.59375" lon="-119.26651">
        <ele>1189.0</ele>
      </trkpt>
      <trkpt lat="34.59405" lon="-119.26661">
        <ele>1194.0</ele>
      </trkpt>
      <trkpt lat="34.59405" lon="-119.26676">
        <ele>1194.0</ele>
      </trkpt>
      <trkpt lat="34.59425" lon="-119.26682">
        <ele>1198.0</ele>
      </trkpt>
      <trkpt lat="34.59444" lon="-119.26698">
        <ele>1196.0</ele>
      </trkpt>
      <trkpt lat="34.59458" lon="-119.26702">
        <ele>1196.0</ele>
      </trkpt>
      <trkpt lat="34.59466" lon="-119.26699">
        <ele>1195.0</ele>
      </trkpt>
      <trkpt lat="34.59476" lon="-119.26708">
        <ele>1195.0</ele>
      </trkpt>
      <trkpt lat="34.59483" lon="-119.26726">
        <ele>1200.0</ele>
      </trkpt>
      <trkpt lat="34.59495" lon="-119.26733">
        <ele>1202.0</ele>
      </trkpt>
      <trkpt lat="34.59513" lon="-119.26734">
        <ele>1202.0</ele>
      </trkpt>
      <trkpt lat="34.5955" lon="-119.26748">
        <ele>1204.0</ele>
      </trkpt>
      <trkpt lat="34.59563" lon="-119.26756">
        <ele>1204.0</ele>
      </trkpt>
      <trkpt lat="34.59573" lon="-119.26758">
        <ele>1205.0</ele>
      </trkpt>
      <trkpt lat="34.59573" lon="-119.26758">
        <ele>1205.0</ele>
      </trkpt>
      <trkpt lat="34.59587" lon="-119.2676">
        <ele>1205.0</ele>
      </trkpt>
      <trkpt lat="34.59587" lon="-119.2676">
        <ele>1205.0</ele>
      </trkpt>
      <trkpt lat="34.59599" lon="-119.26777">
        <ele>1208.0</ele>
      </trkpt>
      <trkpt lat="34.59612" lon="-119.26781">
        <ele>1208.0</ele>
      </trkpt>
      <trkpt lat="34.59622" lon="-119.26796">
        <ele>1215.0</ele>
      </trkpt>
      <trkpt lat="34.59634" lon="-119.26788">
        <ele>1206.0</ele>
      </trkpt>
      <trkpt lat="34.59654" lon="-119.26796">
        <ele>1208.0</ele>
      </trkpt>
      <trkpt lat="34.59668" lon="-119.26796">
        <ele>1208.0</ele>
      </trkpt>
      <trkpt lat="34.59675" lon="-119.26786">
        <ele>1207.0</ele>
      </trkpt>
      <trkpt lat="34.59678" lon="-119.26803">
        <ele>1208.0</ele>
      </trkpt>
      <trkpt lat="34.59684" lon="-119.26821">
        <ele>1209.0</ele>
      </trkpt>
      <trkpt lat="34.59704" lon="-119.2684">
        <ele>1209.0</ele>
      </trkpt>
      <trkpt lat="34.59704" lon="-119.2684">
        <ele>1209.0</ele>
      </trkpt>
      <trkpt lat="34.59766" lon="-119.26911">
        <ele>1224.0</ele>
      </trkpt>
      <trkpt lat="34.59789" lon="-119.26928">
        <ele>1224.0</ele>
      </trkpt>
      <trkpt lat="34.59808" lon="-119.26947">
        <ele>1227.0</ele>
      </trkpt>
      <trkpt lat="34.59828" lon="-119.2695">
        <ele>1232.0</ele>
      </trkpt>
      <trkpt lat="34.59835" lon="-119.26958">
        <ele>1232.0</ele>
      </trkpt>
      <trkpt lat="34.59842" lon="-119.2699">
        <ele>1226.0</ele>
      </trkpt>
      <trkpt lat="34.59844" lon="-119.27026">
        <ele>1228.0</ele>
      </trkpt>
      <trkpt lat="34.59853" lon="-119.2704">
        <ele>1232.0</ele>
      </trkpt>
      <trkpt lat="34.59861" lon="-119.27061">
        <ele>1234.0</ele>
      </trkpt>
      <trkpt lat="34.59874" lon="-119.2706">
        <ele>1234.0</ele>
      </trkpt>
      <trkpt lat="34.5988" lon="-119.27056">
        <ele>1236.0</ele>
      </trkpt>
      <trkpt lat="34.59904" lon="-119.2706">
        <ele>1241.0</ele>
      </trkpt>
      <trkpt lat="34.59913" lon="-119.27066">
        <ele>1241.0</ele>
      </trkpt>
      <trkpt lat="34.59929" lon="-119.27061">
        <ele>1241.0</ele>
      </trkpt>
      <trkpt lat="34.59939" lon="-119.27062">
        <ele>1245.0</ele>
      </trkpt>
      <trkpt lat="34.59972" lon="-119.27045">
        <ele>1250.0</ele>
      </trkpt>
      <trkpt lat="34.59982" lon="-119.27036">
        <ele>1248.0</ele>
      </trkpt>
      <trkpt lat="34.59991" lon="-119.27045">
        <ele>1252.0</ele>
      </trkpt>
      <trkpt lat="34.60013" lon="-119.27016">
        <ele>1250.0</ele>
      </trkpt>
      <trkpt lat="34.60026" lon="-119.27014">
        <ele>1252.0</ele>
      </trkpt>
      <trkpt lat="34.60039" lon="-119.27018">
        <ele>1252.0</ele>
      </trkpt>
      <trkpt lat="34.60048" lon="-119.27005">
        <ele>1255.0</ele>
      </trkpt>
      <trkpt lat="34.60058" lon="-119.26996">
        <ele>1255.0</ele>
      </trkpt>
      <trkpt lat="34.60103" lon="-119.26984">
        <ele>1257.0</ele>
      </trkpt>
      <trkpt lat="34.60114" lon="-119.26994">
        <ele>1260.0</ele>
      </trkpt>
      <trkpt lat="34.60143" lon="-119.26989">
        <ele>1262.0</ele>
      </trkpt>
      <trkpt lat="34.60154" lon="-119.26979">
        <ele>1261.0</ele>
      </trkpt>
      <trkpt lat="34.60183" lon="-119.26962">
        <ele>1266.0</ele>
      </trkpt>
      <trkpt lat="34.60197" lon="-119.26965">
        <ele>1266.0</ele>
      </trkpt>
      <trkpt lat="34.60213" lon="-119.26961">
        <ele>1272.0</ele>
      </trkpt>
      <trkpt lat="34.60223" lon="-119.2695">
        <ele>1267.0</ele>
      </trkpt>
      <trkpt lat="34.60238" lon="-119.26945">
        <ele>1273.0</ele>
      </trkpt>
      <trkpt lat="34.60258" lon="-119.26927">
        <ele>1271.0</ele>
      </trkpt>
      <trkpt lat="34.60281" lon="-119.26926">
        <ele>1275.0</ele>
      </trkpt>
      <trkpt lat="34.60281" lon="-119.26926">
        <ele>1275.0</ele>
      </trkpt>
      <trkpt lat="34.60295" lon="-119.26914">
        <ele>1280.0</ele>
      </trkpt>
      <trkpt lat="34.60319" lon="-119.269">
        <ele>1280.0</ele>
      </trkpt>
      <trkpt lat="34.60351" lon="-119.26887">
        <ele>1283.0</ele>
      </trkpt>
      <trkpt lat="34.6036" lon="-119.26872">
        <ele>1281.0</ele>
      </trkpt>
      <trkpt lat="34.60396" lon="-119.26841">
        <ele>1284.0</ele>
      </trkpt>
      <trkpt lat="34.60404" lon="-119.26838">
        <ele>1287.0</ele>
      </trkpt>
      <trkpt lat="34.60417" lon="-119.26827">
        <ele>1287.0</ele>
      </trkpt>
      <trkpt lat="34.60417" lon="-119.26827">
        <ele>1287.0</ele>
      </trkpt>
      <trkpt lat="34.60431" lon="-119.2682">
        <ele>1297.0</ele>
      </trkpt>
      <trkpt lat="34.60434" lon="-119.26815">
        <ele>1292.0</ele>
      </trkpt>
      <trkpt lat="34.60438" lon="-119.26801">
        <ele>1292.0</ele>
      </trkpt>
      <trkpt lat="34.60444" lon="-119.26797">
        <ele>1292.0</ele>
      </trkpt>
      <trkpt lat="34.60457" lon="-119.268">
        <ele>1292.0</ele>
      </trkpt>
      <trkpt lat="34.60471" lon="-119.26808">
        <ele>1295.0</ele>
      </trkpt>
      <trkpt lat="34.60483" lon="-119.2681">
        <ele>1295.0</ele>
      </trkpt>
      <trkpt lat="34.60492" lon="-119.26803">
        <ele>1301.0</ele>
      </trkpt>
      <trkpt lat="34.605" lon="-119.26804">
        <ele>1301.0</ele>
      </trkpt>
      <trkpt lat="34.60515959400031" lon="-119.2679602029998">
        <ele>1309.0</ele>
      </trkpt>
      <trkpt lat="34.6051595940007" lon="-119.26796020299986">
        <ele>1309.0</ele>
      </trkpt>
      <trkpt lat="34.605" lon="-119.26804">
        <ele>1301.0</ele>
      </trkpt>
      <trkpt lat="34.60492" lon="-119.26803">
        <ele>1301.0</ele>
      </trkpt>
      <trkpt lat="34.60483" lon="-119.2681">
        <ele>1295.0</ele>
      </trkpt>
      <trkpt lat="34.60471" lon="-119.26808">
        <ele>1295.0</ele>
      </trkpt>
      <trkpt lat="34.60457" lon="-119.268">
        <ele>1292.0</ele>
      </trkpt>
      <trkpt lat="34.60444" lon="-119.26797">
        <ele>1292.0</ele>
      </trkpt>
      <trkpt lat="34.60438" lon="-119.26801">
        <ele>1292.0</ele>
      </trkpt>
      <trkpt lat="34.60434" lon="-119.26815">
        <ele>1292.0</ele>
      </trkpt>
      <trkpt lat="34.60431" lon="-119.2682">
        <ele>1297.0</ele>
      </trkpt>
      <trkpt lat="34.60417" lon="-119.26827">
        <ele>1287.0</ele>
      </trkpt>
      <trkpt lat="34.60417" lon="-119.26827">
        <ele>1287.0</ele>
      </trkpt>
      <trkpt lat="34.60404" lon="-119.26838">
        <ele>1287.0</ele>
      </trkpt>
      <trkpt lat="34.60396" lon="-119.26841">
        <ele>1284.0</ele>
      </trkpt>
      <trkpt lat="34.6036" lon="-119.26872">
        <ele>1281.0</ele>
      </trkpt>
      <trkpt lat="34.60351" lon="-119.26887">
        <ele>1283.0</ele>
      </trkpt>
      <trkpt lat="34.60319" lon="-119.269">
        <ele>1280.0</ele>
      </trkpt>
      <trkpt lat="34.60295" lon="-119.26914">
        <ele>1280.0</ele>
      </trkpt>
      <trkpt lat="34.60281" lon="-119.26926">
        <ele>1275.0</ele>
      </trkpt>
      <trkpt lat="34.60281" lon="-119.26926">
        <ele>1275.0</ele>
      </trkpt>
      <trkpt lat="34.60258" lon="-119.26927">
        <ele>1271.0</ele>
      </trkpt>
      <trkpt lat="34.60238" lon="-119.26945">
        <ele>1273.0</ele>
      </trkpt>
      <trkpt lat="34.60223" lon="-119.2695">
        <ele>1267.0</ele>
      </trkpt>
      <trkpt lat="34.60213" lon="-119.26961">
        <ele>1272.0</ele>
      </trkpt>
      <trkpt lat="34.60197" lon="-119.26965">
        <ele>1266.0</ele>
      </trkpt>
      <trkpt lat="34.60183" lon="-119.26962">
        <ele>1266.0</ele>
      </trkpt>
      <trkpt lat="34.60154" lon="-119.26979">
        <ele>1261.0</ele>
      </trkpt>
      <trkpt lat="34.60143" lon="-119.26989">
        <ele>1262.0</ele>
      </trkpt>
      <trkpt lat="34.60114" lon="-119.26994">
        <ele>1260.0</ele>
      </trkpt>
      <trkpt lat="34.60103" lon="-119.26984">
        <ele>1257.0</ele>
      </trkpt>
      <trkpt lat="34.60058" lon="-119.26996">
        <ele>1255.0</ele>
      </trkpt>
      <trkpt lat="34.60048" lon="-119.27005">
        <ele>1255.0</ele>
      </trkpt>
      <trkpt lat="34.60039" lon="-119.27018">
        <ele>1252.0</ele>
      </trkpt>
      <trkpt lat="34.60026" lon="-119.27014">
        <ele>1252.0</ele>
      </trkpt>
      <trkpt lat="34.60013" lon="-119.27016">
        <ele>1250.0</ele>
      </trkpt>
      <trkpt lat="34.60007921284021" lon="-119.2702269467106">
        <ele>1250.0</ele>
      </trkpt>
      <trkpt lat="34.60007921289195" lon="-119.2702269467106">
        <ele>1250.0</ele>
      </trkpt>
      <trkpt lat="34.59991" lon="-119.27045">
        <ele>1252.0</ele>
      </trkpt>
      <trkpt lat="34.59982" lon="-119.27036">
        <ele>1248.0</ele>
      </trkpt>
      <trkpt lat="34.59972" lon="-119.27045">
        <ele>1250.0</ele>
      </trkpt>
      <trkpt lat="34.59939" lon="-119.27062">
        <ele>1245.0</ele>
      </trkpt>
      <trkpt lat="34.59929" lon="-119.27061">
        <ele>1241.0</ele>
      </trkpt>
      <trkpt lat="34.59913" lon="-119.27066">
        <ele>1241.0</ele>
      </trkpt>
      <trkpt lat="34.59904" lon="-119.2706">
        <ele>1241.0</ele>
      </trkpt>
      <trkpt lat="34.5988" lon="-119.27056">
        <ele>1236.0</ele>
      </trkpt>
      <trkpt lat="34.59874" lon="-119.2706">
        <ele>1234.0</ele>
      </trkpt>
      <trkpt lat="34.59861" lon="-119.27061">
        <ele>1234.0</ele>
      </trkpt>
      <trkpt lat="34.59853" lon="-119.2704">
        <ele>1232.0</ele>
      </trkpt>
      <trkpt lat="34.59844" lon="-119.27026">
        <ele>1228.0</ele>
      </trkpt>
      <trkpt lat="34.59842" lon="-119.2699">
        <ele>1226.0</ele>
      </trkpt>
      <trkpt lat="34.59835" lon="-119.26958">
        <ele>1232.0</ele>
      </trkpt>
      <trkpt lat="34.59828" lon="-119.2695">
        <ele>1232.0</ele>
      </trkpt>
      <trkpt lat="34.59808" lon="-119.26947">
        <ele>1227.0</ele>
      </trkpt>
      <trkpt lat="34.59789" lon="-119.26928">
        <ele>1224.0</ele>
      </trkpt>
      <trkpt lat="34.59766" lon="-119.26911">
        <ele>1224.0</ele>
      </trkpt>
      <trkpt lat="34.59704" lon="-119.2684">
        <ele>1209.0</ele>
      </trkpt>
      <trkpt lat="34.59704" lon="-119.2684">
        <ele>1209.0</ele>
      </trkpt>
      <trkpt lat="34.59684" lon="-119.26821">
        <ele>1209.0</ele>
      </trkpt>
      <trkpt lat="34.59678" lon="-119.26803">
        <ele>1208.0</ele>
      </trkpt>
      <trkpt lat="34.59675" lon="-119.26786">
        <ele>1207.0</ele>
      </trkpt>
      <trkpt lat="34.59668" lon="-119.26796">
        <ele>1208.0</ele>
      </trkpt>
      <trkpt lat="34.59654" lon="-119.26796">
        <ele>1208.0</ele>
      </trkpt>
      <trkpt lat="34.59634" lon="-119.26788">
        <ele>1206.0</ele>
      </trkpt>
      <trkpt lat="34.59622" lon="-119.26796">
        <ele>1215.0</ele>
      </trkpt>
      <trkpt lat="34.59612" lon="-119.26781">
        <ele>1208.0</ele>
      </trkpt>
      <trkpt lat="34.59599" lon="-119.26777">
        <ele>1208.0</ele>
      </trkpt>
      <trkpt lat="34.59587" lon="-119.2676">
        <ele>1205.0</ele>
      </trkpt>
      <trkpt lat="34.59587" lon="-119.2676">
        <ele>1205.0</ele>
      </trkpt>
      <trkpt lat="34.59573" lon="-119.26758">
        <ele>1205.0</ele>
      </trkpt>
      <trkpt lat="34.59573" lon="-119.26758">
        <ele>1205.0</ele>
      </trkpt>
      <trkpt lat="34.59563" lon="-119.26756">
        <ele>1204.0</ele>
      </trkpt>
      <trkpt lat="34.5955" lon="-119.26748">
        <ele>1204.0</ele>
      </trkpt>
      <trkpt lat="34.59513" lon="-119.26734">
        <ele>1202.0</ele>
      </trkpt>
      <trkpt lat="34.59495" lon="-119.26733">
        <ele>1202.0</ele>
      </trkpt>
      <trkpt lat="34.59483" lon="-119.26726">
        <ele>1200.0</ele>
      </trkpt>
      <trkpt lat="34.59476" lon="-119.26708">
        <ele>1195.0</ele>
      </trkpt>
      <trkpt lat="34.59466" lon="-119.26699">
        <ele>1195.0</ele>
      </trkpt>
      <trkpt lat="34.59458" lon="-119.26702">
        <ele>1196.0</ele>
      </trkpt>
      <trkpt lat="34.59444" lon="-119.26698">
        <ele>1196.0</ele>
      </trkpt>
      <trkpt lat="34.59426743450106" lon="-119.2668346816851">
        <ele>1198.0</ele>
      </trkpt>
      <trkpt lat="34.59426743451915" lon="-119.2668346816851">
        <ele>1198.0</ele>
      </trkpt>
      <trkpt lat="34.59425" lon="-119.26682">
        <ele>1198.0</ele>
      </trkpt>
      <trkpt lat="34.59405" lon="-119.26676">
        <ele>1194.0</ele>
      </trkpt>
      <trkpt lat="34.59405" lon="-119.26661">
        <ele>1194.0</ele>
      </trkpt>
      <trkpt lat="34.59375" lon="-119.26651">
        <ele>1189.0</ele>
      </trkpt>
      <trkpt lat="34.59362" lon="-119.26643">
        <ele>1189.0</ele>
      </trkpt>
      <trkpt lat="34.59358" lon="-119.2665">
        <ele>1189.0</ele>
      </trkpt>
      <trkpt lat="34.59353" lon="-119.26648">
        <ele>1189.0</ele>
      </trkpt>
      <trkpt lat="34.59354" lon="-119.26644">
        <ele>1189.0</ele>
      </trkpt>
      <trkpt lat="34.59348" lon="-119.26635">
        <ele>1189.0</ele>
      </trkpt>
      <trkpt lat="34.59349" lon="-119.26625">
        <ele>1190.0</ele>
      </trkpt>
      <trkpt lat="34.59322" lon="-119.26611">
        <ele>1187.0</ele>
      </trkpt>
      <trkpt lat="34.59322" lon="-119.26611">
        <ele>1187.0</ele>
      </trkpt>
      <trkpt lat="34.59312" lon="-119.26597">
        <ele>1188.0</ele>
      </trkpt>
      <trkpt lat="34.593" lon="-119.26589">
        <ele>1188.0</ele>
      </trkpt>
      <trkpt lat="34.59279" lon="-119.26583">
        <ele>1190.0</ele>
      </trkpt>
      <trkpt lat="34.59259" lon="-119.26588">
        <ele>1193.0</ele>
      </trkpt>
      <trkpt lat="34.59245" lon="-119.26596">
        <ele>1193.0</ele>
      </trkpt>
      <trkpt lat="34.59242" lon="-119.26607">
        <ele>1185.0</ele>
      </trkpt>
      <trkpt lat="34.59242" lon="-119.26624">
        <ele>1185.0</ele>
      </trkpt>
      <trkpt lat="34.59244" lon="-119.2665">
        <ele>1179.0</ele>
      </trkpt>
      <trkpt lat="34.59251" lon="-119.26669">
        <ele>1174.0</ele>
      </trkpt>
      <trkpt lat="34.59256" lon="-119.267">
        <ele>1170.0</ele>
      </trkpt>
      <trkpt lat="34.59253" lon="-119.26708">
        <ele>1170.0</ele>
      </trkpt>
      <trkpt lat="34.59248" lon="-119.26707">
        <ele>1170.0</ele>
      </trkpt>
      <trkpt lat="34.59245" lon="-119.26715">
        <ele>1169.0</ele>
      </trkpt>
      <trkpt lat="34.59246" lon="-119.26738">
        <ele>1168.0</ele>
      </trkpt>
      <trkpt lat="34.5925" lon="-119.26755">
        <ele>1168.0</ele>
      </trkpt>
      <trkpt lat="34.59248" lon="-119.26758">
        <ele>1168.0</ele>
      </trkpt>
      <trkpt lat="34.59248" lon="-119.26758">
        <ele>1168.0</ele>
      </trkpt>
      <trkpt lat="34.59238" lon="-119.26764">
        <ele>1167.0</ele>
      </trkpt>
      <trkpt lat="34.5923" lon="-119.26789">
        <ele>1168.0</ele>
      </trkpt>
      <trkpt lat="34.59216" lon="-119.26786">
        <ele>1168.0</ele>
      </trkpt>
      <trkpt lat="34.59195" lon="-119.26802">
        <ele>1167.0</ele>
      </trkpt>
      <trkpt lat="34.5918" lon="-119.26805">
        <ele>1165.0</ele>
      </trkpt>
      <trkpt lat="34.59145" lon="-119.26824">
        <ele>1165.0</ele>
      </trkpt>
      <trkpt lat="34.59131" lon="-119.26826">
        <ele>1165.0</ele>
      </trkpt>
      <trkpt lat="34.59118" lon="-119.26821">
        <ele>1165.0</ele>
      </trkpt>
      <trkpt lat="34.59112" lon="-119.26805">
        <ele>1158.0</ele>
      </trkpt>
      <trkpt lat="34.59098" lon="-119.26803">
        <ele>1158.0</ele>
      </trkpt>
      <trkpt lat="34.59074" lon="-119.2679">
        <ele>1158.0</ele>
      </trkpt>
      <trkpt lat="34.59058" lon="-119.2679">
        <ele>1159.0</ele>
      </trkpt>
      <trkpt lat="34.5905" lon="-119.26805">
        <ele>1161.0</ele>
      </trkpt>
      <trkpt lat="34.59007" lon="-119.26807">
        <ele>1160.0</ele>
      </trkpt>
      <trkpt lat="34.58982" lon="-119.26799">
        <ele>1162.0</ele>
      </trkpt>
      <trkpt lat="34.5897" lon="-119.26803">
        <ele>1162.0</ele>
      </trkpt>
      <trkpt lat="34.5894" lon="-119.26787">
        <ele>1160.0</ele>
      </trkpt>
      <trkpt lat="34.5891" lon="-119.26782">
        <ele>1160.0</ele>
      </trkpt>
      <trkpt lat="34.58886" lon="-119.26772">
        <ele>1160.0</ele>
      </trkpt>
      <trkpt lat="34.58872" lon="-119.26774">
        <ele>1158.0</ele>
      </trkpt>
      <trkpt lat="34.58827" lon="-119.26766">
        <ele>1158.0</ele>
      </trkpt>
      <trkpt lat="34.58815" lon="-119.26758">
        <ele>1155.0</ele>
      </trkpt>
      <trkpt lat="34.58815" lon="-119.26758">
        <ele>1155.0</ele>
      </trkpt>
      <trkpt lat="34.588" lon="-119.26748">
        <ele>1155.0</ele>
      </trkpt>
      <trkpt lat="34.58773" lon="-119.26743">
        <ele>1152.0</ele>
      </trkpt>
      <trkpt lat="34.58753" lon="-119.26745">
        <ele>1147.0</ele>
      </trkpt>
      <trkpt lat="34.58722" lon="-119.26758">
        <ele>1154.0</ele>
      </trkpt>
      <trkpt lat="34.58722" lon="-119.26758">
        <ele>1154.0</ele>
      </trkpt>
      <trkpt lat="34.58717" lon="-119.26759">
        <ele>1154.0</ele>
      </trkpt>
      <trkpt lat="34.5871" lon="-119.26765">
        <ele>1154.0</ele>
      </trkpt>
      <trkpt lat="34.58695" lon="-119.26787">
        <ele>1151.0</ele>
      </trkpt>
      <trkpt lat="34.58649143225799" lon="-119.2680553784489">
        <ele>1147.0</ele>
      </trkpt>
      <trkpt lat="34.58649143228952" lon="-119.2680553784489">
        <ele>1147.0</ele>
      </trkpt>
      <trkpt lat="34.58648" lon="-119.26806">
        <ele>1147.0</ele>
      </trkpt>
      <trkpt lat="34.5864" lon="-119.26803">
        <ele>1147.0</ele>
      </trkpt>
      <trkpt lat="34.58604" lon="-119.26812">
        <ele>1144.0</ele>
      </trkpt>
      <trkpt lat="34.58595" lon="-119.2682">
        <ele>1142.0</ele>
      </trkpt>
      <trkpt lat="34.58578" lon="-119.26825">
        <ele>1142.0</ele>
      </trkpt>
      <trkpt lat="34.5856" lon="-119.26819">
        <ele>1137.0</ele>
      </trkpt>
      <trkpt lat="34.58544" lon="-119.26832">
        <ele>1137.0</ele>
      </trkpt>
      <trkpt lat="34.58511253696283" lon="-119.2684589237127">
        <ele>1118.0</ele>
      </trkpt>
    </trkseg>
  </trk>
</gpx>
