<?xml version="1.0" encoding="UTF-8"?>
<gpx xmlns:xsi="http://www.w3.org/2001/XMLSchema-instance" version="1.1" creator="The Outbound Collective, Inc. 1.1.1 -- https://www.theoutbound.com" xsi:schemaLocation="http://www.topografix.com/GPX/1/1 http://www.topografix.com/GPX/1/1/gpx.xsd">
  <metadata>
    <name/>
    <time>2026-02-19T21:58:48+00:00</time>
    <bound minlat="36.229639853" minlon="-116.784174442" maxlat="36.23124" maxlon="-116.767448187"/>
  </metadata>
  <trk>
    <name/>
    <trkseg>
      <trkpt lat="36.229648507" lon="-116.767566204">
        <ele>-82.0</ele>
      </trkpt>
      <trkpt lat="36.229821596" lon="-116.767448187">
        <ele>-82.0</ele>
      </trkpt>
      <trkpt lat="36.229856214" lon="-116.767770052">
        <ele>-86.0</ele>
      </trkpt>
      <trkpt lat="36.229857693" lon="-116.767769387">
        <ele>-86.0</ele>
      </trkpt>
      <trkpt lat="36.22986" lon="-116.76778">
        <ele>-86.0</ele>
      </trkpt>
      <trkpt lat="36.22986" lon="-116.76778">
        <ele>-86.0</ele>
      </trkpt>
      <trkpt lat="36.22986" lon="-116.76778">
        <ele>-86.0</ele>
      </trkpt>
      <trkpt lat="36.22992" lon="-116.76813">
        <ele>-82.0</ele>
      </trkpt>
      <trkpt lat="36.22992" lon="-116.76813">
        <ele>-82.0</ele>
      </trkpt>
      <trkpt lat="36.23051" lon="-116.77104">
        <ele>-87.0</ele>
      </trkpt>
      <trkpt lat="36.23054" lon="-116.77205">
        <ele>-89.0</ele>
      </trkpt>
      <trkpt lat="36.23062" lon="-116.77278">
        <ele>-91.0</ele>
      </trkpt>
      <trkpt lat="36.23101" lon="-116.77477">
        <ele>-91.0</ele>
      </trkpt>
      <trkpt lat="36.23111" lon="-116.7754">
        <ele>-93.0</ele>
      </trkpt>
      <trkpt lat="36.231122685" lon="-116.775543163">
        <ele>-93.0</ele>
      </trkpt>
      <trkpt lat="36.231122685" lon="-116.775543163">
        <ele>-93.0</ele>
      </trkpt>
      <trkpt lat="36.23118" lon="-116.77619">
        <ele>-91.0</ele>
      </trkpt>
      <trkpt lat="36.23124" lon="-116.77809">
        <ele>-93.0</ele>
      </trkpt>
      <trkpt lat="36.23118" lon="-116.77973">
        <ele>-92.0</ele>
      </trkpt>
      <trkpt lat="36.23107" lon="-116.78144">
        <ele>-92.0</ele>
      </trkpt>
      <trkpt lat="36.23087161" lon="-116.783725793">
        <ele>-92.0</ele>
      </trkpt>
      <trkpt lat="36.230721654" lon="-116.784174442">
        <ele>-87.0</ele>
      </trkpt>
      <trkpt lat="36.230860123" lon="-116.783788204">
        <ele>-91.0</ele>
      </trkpt>
      <trkpt lat="36.230866131" lon="-116.783788924">
        <ele>-91.0</ele>
      </trkpt>
      <trkpt lat="36.23107" lon="-116.78144">
        <ele>-92.0</ele>
      </trkpt>
      <trkpt lat="36.23118" lon="-116.77973">
        <ele>-92.0</ele>
      </trkpt>
      <trkpt lat="36.23124" lon="-116.77809">
        <ele>-93.0</ele>
      </trkpt>
      <trkpt lat="36.23118" lon="-116.77619">
        <ele>-91.0</ele>
      </trkpt>
      <trkpt lat="36.23111" lon="-116.7754">
        <ele>-93.0</ele>
      </trkpt>
      <trkpt lat="36.23101" lon="-116.77477">
        <ele>-91.0</ele>
      </trkpt>
      <trkpt lat="36.23062" lon="-116.77278">
        <ele>-91.0</ele>
      </trkpt>
      <trkpt lat="36.23054" lon="-116.77205">
        <ele>-89.0</ele>
      </trkpt>
      <trkpt lat="36.23051" lon="-116.77104">
        <ele>-87.0</ele>
      </trkpt>
      <trkpt lat="36.230362177" lon="-116.770310904">
        <ele>-88.0</ele>
      </trkpt>
      <trkpt lat="36.229812942" lon="-116.767469645">
        <ele>-82.0</ele>
      </trkpt>
      <trkpt lat="36.229639853" lon="-116.767576933">
        <ele>-82.0</ele>
      </trkpt>
    </trkseg>
  </trk>
</gpx>
