<?xml version="1.0" encoding="UTF-8"?>
<gpx xmlns:xsi="http://www.w3.org/2001/XMLSchema-instance" version="1.1" creator="The Outbound Collective, Inc. 1.1.1 -- https://www.theoutbound.com" xsi:schemaLocation="http://www.topografix.com/GPX/1/1 http://www.topografix.com/GPX/1/1/gpx.xsd">
  <metadata>
    <name/>
    <time>2026-02-19T21:50:43+00:00</time>
    <bound minlat="36.50729" minlon="-121.95391" maxlat="36.52294" maxlon="-121.93573"/>
  </metadata>
  <trk>
    <name/>
    <trkseg>
      <trkpt lat="36.51591372" lon="-121.938511133">
        <ele>32.0</ele>
      </trkpt>
      <trkpt lat="36.516275871" lon="-121.938328743">
        <ele>27.0</ele>
      </trkpt>
      <trkpt lat="36.516344852" lon="-121.938189268">
        <ele>27.0</ele>
      </trkpt>
      <trkpt lat="36.51634388" lon="-121.938188348">
        <ele>27.0</ele>
      </trkpt>
      <trkpt lat="36.51638" lon="-121.93813">
        <ele>27.0</ele>
      </trkpt>
      <trkpt lat="36.51655" lon="-121.93776">
        <ele>25.0</ele>
      </trkpt>
      <trkpt lat="36.517" lon="-121.93706">
        <ele>25.0</ele>
      </trkpt>
      <trkpt lat="36.51716" lon="-121.93705">
        <ele>25.0</ele>
      </trkpt>
      <trkpt lat="36.51751" lon="-121.9371">
        <ele>21.0</ele>
      </trkpt>
      <trkpt lat="36.5178" lon="-121.93703">
        <ele>31.0</ele>
      </trkpt>
      <trkpt lat="36.51841" lon="-121.93735">
        <ele>34.0</ele>
      </trkpt>
      <trkpt lat="36.51884" lon="-121.93768">
        <ele>16.0</ele>
      </trkpt>
      <trkpt lat="36.51884" lon="-121.93768">
        <ele>16.0</ele>
      </trkpt>
      <trkpt lat="36.51902" lon="-121.93729">
        <ele>35.0</ele>
      </trkpt>
      <trkpt lat="36.51908" lon="-121.93695">
        <ele>30.0</ele>
      </trkpt>
      <trkpt lat="36.51906" lon="-121.93676">
        <ele>30.0</ele>
      </trkpt>
      <trkpt lat="36.51909" lon="-121.93669">
        <ele>30.0</ele>
      </trkpt>
      <trkpt lat="36.5194" lon="-121.93665">
        <ele>27.0</ele>
      </trkpt>
      <trkpt lat="36.51947" lon="-121.9366">
        <ele>27.0</ele>
      </trkpt>
      <trkpt lat="36.51973" lon="-121.93625">
        <ele>21.0</ele>
      </trkpt>
      <trkpt lat="36.51981" lon="-121.93625">
        <ele>21.0</ele>
      </trkpt>
      <trkpt lat="36.51989" lon="-121.93631">
        <ele>19.0</ele>
      </trkpt>
      <trkpt lat="36.52019" lon="-121.93669">
        <ele>16.0</ele>
      </trkpt>
      <trkpt lat="36.52031" lon="-121.93671">
        <ele>16.0</ele>
      </trkpt>
      <trkpt lat="36.52063" lon="-121.93663">
        <ele>16.0</ele>
      </trkpt>
      <trkpt lat="36.52071" lon="-121.93667">
        <ele>18.0</ele>
      </trkpt>
      <trkpt lat="36.52071" lon="-121.93667">
        <ele>18.0</ele>
      </trkpt>
      <trkpt lat="36.52071" lon="-121.93667">
        <ele>18.0</ele>
      </trkpt>
      <trkpt lat="36.52092" lon="-121.93617">
        <ele>27.0</ele>
      </trkpt>
      <trkpt lat="36.521" lon="-121.93609">
        <ele>23.0</ele>
      </trkpt>
      <trkpt lat="36.52122" lon="-121.936">
        <ele>23.0</ele>
      </trkpt>
      <trkpt lat="36.52144" lon="-121.93602">
        <ele>18.0</ele>
      </trkpt>
      <trkpt lat="36.52156" lon="-121.93598">
        <ele>11.0</ele>
      </trkpt>
      <trkpt lat="36.52169" lon="-121.93594">
        <ele>13.0</ele>
      </trkpt>
      <trkpt lat="36.52186" lon="-121.93581">
        <ele>10.0</ele>
      </trkpt>
      <trkpt lat="36.52189" lon="-121.93575">
        <ele>10.0</ele>
      </trkpt>
      <trkpt lat="36.52197" lon="-121.93577">
        <ele>10.0</ele>
      </trkpt>
      <trkpt lat="36.522040394" lon="-121.935752402">
        <ele>10.0</ele>
      </trkpt>
      <trkpt lat="36.522040394" lon="-121.935752402">
        <ele>10.0</ele>
      </trkpt>
      <trkpt lat="36.52213" lon="-121.93573">
        <ele>12.0</ele>
      </trkpt>
      <trkpt lat="36.52219" lon="-121.93577">
        <ele>12.0</ele>
      </trkpt>
      <trkpt lat="36.52218" lon="-121.93587">
        <ele>12.0</ele>
      </trkpt>
      <trkpt lat="36.52213" lon="-121.93594">
        <ele>12.0</ele>
      </trkpt>
      <trkpt lat="36.52203" lon="-121.93596">
        <ele>10.0</ele>
      </trkpt>
      <trkpt lat="36.52189" lon="-121.93606">
        <ele>10.0</ele>
      </trkpt>
      <trkpt lat="36.52187" lon="-121.93617">
        <ele>10.0</ele>
      </trkpt>
      <trkpt lat="36.52192" lon="-121.93622">
        <ele>10.0</ele>
      </trkpt>
      <trkpt lat="36.52203" lon="-121.93625">
        <ele>10.0</ele>
      </trkpt>
      <trkpt lat="36.52205" lon="-121.93631">
        <ele>9.0</ele>
      </trkpt>
      <trkpt lat="36.52216" lon="-121.93643">
        <ele>10.0</ele>
      </trkpt>
      <trkpt lat="36.52217" lon="-121.93654">
        <ele>10.0</ele>
      </trkpt>
      <trkpt lat="36.52217" lon="-121.93654">
        <ele>10.0</ele>
      </trkpt>
      <trkpt lat="36.52221" lon="-121.93656">
        <ele>10.0</ele>
      </trkpt>
      <trkpt lat="36.52233" lon="-121.93655">
        <ele>10.0</ele>
      </trkpt>
      <trkpt lat="36.522384777" lon="-121.936572409">
        <ele>15.0</ele>
      </trkpt>
      <trkpt lat="36.522384777" lon="-121.936572409">
        <ele>15.0</ele>
      </trkpt>
      <trkpt lat="36.52255" lon="-121.93664">
        <ele>15.0</ele>
      </trkpt>
      <trkpt lat="36.52275" lon="-121.93656">
        <ele>17.0</ele>
      </trkpt>
      <trkpt lat="36.52281" lon="-121.93659">
        <ele>17.0</ele>
      </trkpt>
      <trkpt lat="36.52294" lon="-121.93679">
        <ele>14.0</ele>
      </trkpt>
      <trkpt lat="36.52292" lon="-121.93692">
        <ele>12.0</ele>
      </trkpt>
      <trkpt lat="36.52281" lon="-121.93694">
        <ele>14.0</ele>
      </trkpt>
      <trkpt lat="36.522761348" lon="-121.936908724">
        <ele>14.0</ele>
      </trkpt>
      <trkpt lat="36.522761348" lon="-121.936908724">
        <ele>14.0</ele>
      </trkpt>
      <trkpt lat="36.52281" lon="-121.93694">
        <ele>14.0</ele>
      </trkpt>
      <trkpt lat="36.52292" lon="-121.93692">
        <ele>12.0</ele>
      </trkpt>
      <trkpt lat="36.52294" lon="-121.93679">
        <ele>14.0</ele>
      </trkpt>
      <trkpt lat="36.52281" lon="-121.93659">
        <ele>17.0</ele>
      </trkpt>
      <trkpt lat="36.52275" lon="-121.93656">
        <ele>17.0</ele>
      </trkpt>
      <trkpt lat="36.52255" lon="-121.93664">
        <ele>15.0</ele>
      </trkpt>
      <trkpt lat="36.52233" lon="-121.93655">
        <ele>10.0</ele>
      </trkpt>
      <trkpt lat="36.52221" lon="-121.93656">
        <ele>10.0</ele>
      </trkpt>
      <trkpt lat="36.52217" lon="-121.93654">
        <ele>10.0</ele>
      </trkpt>
      <trkpt lat="36.52217" lon="-121.93654">
        <ele>10.0</ele>
      </trkpt>
      <trkpt lat="36.52216" lon="-121.93643">
        <ele>10.0</ele>
      </trkpt>
      <trkpt lat="36.52205" lon="-121.93631">
        <ele>9.0</ele>
      </trkpt>
      <trkpt lat="36.52203" lon="-121.93625">
        <ele>10.0</ele>
      </trkpt>
      <trkpt lat="36.52192" lon="-121.93622">
        <ele>10.0</ele>
      </trkpt>
      <trkpt lat="36.52187" lon="-121.93617">
        <ele>10.0</ele>
      </trkpt>
      <trkpt lat="36.52189" lon="-121.93606">
        <ele>10.0</ele>
      </trkpt>
      <trkpt lat="36.52203" lon="-121.93596">
        <ele>10.0</ele>
      </trkpt>
      <trkpt lat="36.52213" lon="-121.93594">
        <ele>12.0</ele>
      </trkpt>
      <trkpt lat="36.52218" lon="-121.93587">
        <ele>12.0</ele>
      </trkpt>
      <trkpt lat="36.52219" lon="-121.93577">
        <ele>12.0</ele>
      </trkpt>
      <trkpt lat="36.52213" lon="-121.93573">
        <ele>12.0</ele>
      </trkpt>
      <trkpt lat="36.522040394" lon="-121.935752402">
        <ele>10.0</ele>
      </trkpt>
      <trkpt lat="36.522040394" lon="-121.935752402">
        <ele>10.0</ele>
      </trkpt>
      <trkpt lat="36.52197" lon="-121.93577">
        <ele>10.0</ele>
      </trkpt>
      <trkpt lat="36.52189" lon="-121.93575">
        <ele>10.0</ele>
      </trkpt>
      <trkpt lat="36.52186" lon="-121.93581">
        <ele>10.0</ele>
      </trkpt>
      <trkpt lat="36.52169" lon="-121.93594">
        <ele>13.0</ele>
      </trkpt>
      <trkpt lat="36.52156" lon="-121.93598">
        <ele>11.0</ele>
      </trkpt>
      <trkpt lat="36.52144" lon="-121.93602">
        <ele>18.0</ele>
      </trkpt>
      <trkpt lat="36.52122" lon="-121.936">
        <ele>23.0</ele>
      </trkpt>
      <trkpt lat="36.521" lon="-121.93609">
        <ele>23.0</ele>
      </trkpt>
      <trkpt lat="36.52092" lon="-121.93617">
        <ele>27.0</ele>
      </trkpt>
      <trkpt lat="36.52071" lon="-121.93667">
        <ele>18.0</ele>
      </trkpt>
      <trkpt lat="36.52071" lon="-121.93667">
        <ele>18.0</ele>
      </trkpt>
      <trkpt lat="36.52068" lon="-121.93678">
        <ele>16.0</ele>
      </trkpt>
      <trkpt lat="36.52071" lon="-121.9369">
        <ele>16.0</ele>
      </trkpt>
      <trkpt lat="36.52071" lon="-121.9369">
        <ele>16.0</ele>
      </trkpt>
      <trkpt lat="36.52096" lon="-121.93719">
        <ele>14.0</ele>
      </trkpt>
      <trkpt lat="36.52102" lon="-121.93722">
        <ele>15.0</ele>
      </trkpt>
      <trkpt lat="36.52106" lon="-121.9372">
        <ele>15.0</ele>
      </trkpt>
      <trkpt lat="36.521122346" lon="-121.937254553">
        <ele>15.0</ele>
      </trkpt>
      <trkpt lat="36.521122346" lon="-121.937254553">
        <ele>15.0</ele>
      </trkpt>
      <trkpt lat="36.52114" lon="-121.93727">
        <ele>15.0</ele>
      </trkpt>
      <trkpt lat="36.5212" lon="-121.93725">
        <ele>15.0</ele>
      </trkpt>
      <trkpt lat="36.52124" lon="-121.93726">
        <ele>15.0</ele>
      </trkpt>
      <trkpt lat="36.52126" lon="-121.93737">
        <ele>12.0</ele>
      </trkpt>
      <trkpt lat="36.52125" lon="-121.93748">
        <ele>14.0</ele>
      </trkpt>
      <trkpt lat="36.5212" lon="-121.93749">
        <ele>14.0</ele>
      </trkpt>
      <trkpt lat="36.52109" lon="-121.93744">
        <ele>14.0</ele>
      </trkpt>
      <trkpt lat="36.521" lon="-121.93746">
        <ele>14.0</ele>
      </trkpt>
      <trkpt lat="36.52092" lon="-121.93741">
        <ele>11.0</ele>
      </trkpt>
      <trkpt lat="36.52086" lon="-121.93741">
        <ele>11.0</ele>
      </trkpt>
      <trkpt lat="36.520854827" lon="-121.93739647">
        <ele>11.0</ele>
      </trkpt>
      <trkpt lat="36.520854827" lon="-121.93739647">
        <ele>11.0</ele>
      </trkpt>
      <trkpt lat="36.52086" lon="-121.93741">
        <ele>11.0</ele>
      </trkpt>
      <trkpt lat="36.52092" lon="-121.93741">
        <ele>11.0</ele>
      </trkpt>
      <trkpt lat="36.521" lon="-121.93746">
        <ele>14.0</ele>
      </trkpt>
      <trkpt lat="36.52109" lon="-121.93744">
        <ele>14.0</ele>
      </trkpt>
      <trkpt lat="36.5212" lon="-121.93749">
        <ele>14.0</ele>
      </trkpt>
      <trkpt lat="36.52125" lon="-121.93748">
        <ele>14.0</ele>
      </trkpt>
      <trkpt lat="36.52126" lon="-121.93737">
        <ele>12.0</ele>
      </trkpt>
      <trkpt lat="36.52124" lon="-121.93726">
        <ele>15.0</ele>
      </trkpt>
      <trkpt lat="36.5212" lon="-121.93725">
        <ele>15.0</ele>
      </trkpt>
      <trkpt lat="36.52114" lon="-121.93727">
        <ele>15.0</ele>
      </trkpt>
      <trkpt lat="36.52106" lon="-121.9372">
        <ele>15.0</ele>
      </trkpt>
      <trkpt lat="36.52102" lon="-121.93722">
        <ele>15.0</ele>
      </trkpt>
      <trkpt lat="36.52096" lon="-121.93719">
        <ele>14.0</ele>
      </trkpt>
      <trkpt lat="36.52071" lon="-121.9369">
        <ele>16.0</ele>
      </trkpt>
      <trkpt lat="36.52071" lon="-121.9369">
        <ele>16.0</ele>
      </trkpt>
      <trkpt lat="36.52068" lon="-121.93678">
        <ele>16.0</ele>
      </trkpt>
      <trkpt lat="36.52071" lon="-121.93667">
        <ele>18.0</ele>
      </trkpt>
      <trkpt lat="36.52071" lon="-121.93667">
        <ele>18.0</ele>
      </trkpt>
      <trkpt lat="36.52071" lon="-121.93667">
        <ele>18.0</ele>
      </trkpt>
      <trkpt lat="36.52063" lon="-121.93663">
        <ele>16.0</ele>
      </trkpt>
      <trkpt lat="36.52031" lon="-121.93671">
        <ele>16.0</ele>
      </trkpt>
      <trkpt lat="36.52019" lon="-121.93669">
        <ele>16.0</ele>
      </trkpt>
      <trkpt lat="36.51989" lon="-121.93631">
        <ele>19.0</ele>
      </trkpt>
      <trkpt lat="36.51981" lon="-121.93625">
        <ele>21.0</ele>
      </trkpt>
      <trkpt lat="36.51973" lon="-121.93625">
        <ele>21.0</ele>
      </trkpt>
      <trkpt lat="36.51947" lon="-121.9366">
        <ele>27.0</ele>
      </trkpt>
      <trkpt lat="36.5194" lon="-121.93665">
        <ele>27.0</ele>
      </trkpt>
      <trkpt lat="36.51909" lon="-121.93669">
        <ele>30.0</ele>
      </trkpt>
      <trkpt lat="36.51906" lon="-121.93676">
        <ele>30.0</ele>
      </trkpt>
      <trkpt lat="36.51908" lon="-121.93695">
        <ele>30.0</ele>
      </trkpt>
      <trkpt lat="36.51902" lon="-121.93729">
        <ele>35.0</ele>
      </trkpt>
      <trkpt lat="36.51884" lon="-121.93768">
        <ele>16.0</ele>
      </trkpt>
      <trkpt lat="36.51884" lon="-121.93768">
        <ele>16.0</ele>
      </trkpt>
      <trkpt lat="36.51884" lon="-121.93768">
        <ele>16.0</ele>
      </trkpt>
      <trkpt lat="36.5188" lon="-121.93789">
        <ele>16.0</ele>
      </trkpt>
      <trkpt lat="36.5187" lon="-121.93818">
        <ele>17.0</ele>
      </trkpt>
      <trkpt lat="36.51871" lon="-121.93871">
        <ele>12.0</ele>
      </trkpt>
      <trkpt lat="36.51868" lon="-121.93908">
        <ele>8.0</ele>
      </trkpt>
      <trkpt lat="36.51868" lon="-121.93908">
        <ele>8.0</ele>
      </trkpt>
      <trkpt lat="36.51869" lon="-121.93918">
        <ele>8.0</ele>
      </trkpt>
      <trkpt lat="36.51869" lon="-121.93918">
        <ele>8.0</ele>
      </trkpt>
      <trkpt lat="36.5188" lon="-121.93953">
        <ele>9.0</ele>
      </trkpt>
      <trkpt lat="36.51885" lon="-121.93983">
        <ele>9.0</ele>
      </trkpt>
      <trkpt lat="36.5189" lon="-121.94">
        <ele>12.0</ele>
      </trkpt>
      <trkpt lat="36.51898" lon="-121.94012">
        <ele>12.0</ele>
      </trkpt>
      <trkpt lat="36.51899" lon="-121.94027">
        <ele>14.0</ele>
      </trkpt>
      <trkpt lat="36.51898552" lon="-121.940282545">
        <ele>14.0</ele>
      </trkpt>
      <trkpt lat="36.51894" lon="-121.94041">
        <ele>14.0</ele>
      </trkpt>
      <trkpt lat="36.518948925" lon="-121.940856243">
        <ele>22.0</ele>
      </trkpt>
      <trkpt lat="36.518948925" lon="-121.940856243">
        <ele>22.0</ele>
      </trkpt>
      <trkpt lat="36.51895" lon="-121.94091">
        <ele>22.0</ele>
      </trkpt>
      <trkpt lat="36.51908" lon="-121.94132">
        <ele>25.0</ele>
      </trkpt>
      <trkpt lat="36.51918" lon="-121.9414">
        <ele>25.0</ele>
      </trkpt>
      <trkpt lat="36.51923" lon="-121.94157">
        <ele>28.0</ele>
      </trkpt>
      <trkpt lat="36.51917" lon="-121.94194">
        <ele>29.0</ele>
      </trkpt>
      <trkpt lat="36.51928" lon="-121.9423">
        <ele>34.0</ele>
      </trkpt>
      <trkpt lat="36.51946" lon="-121.94256">
        <ele>34.0</ele>
      </trkpt>
      <trkpt lat="36.51967" lon="-121.94278">
        <ele>31.0</ele>
      </trkpt>
      <trkpt lat="36.51992" lon="-121.94295">
        <ele>33.0</ele>
      </trkpt>
      <trkpt lat="36.51992" lon="-121.94295">
        <ele>33.0</ele>
      </trkpt>
      <trkpt lat="36.52002" lon="-121.94283">
        <ele>29.0</ele>
      </trkpt>
      <trkpt lat="36.52034" lon="-121.94257">
        <ele>29.0</ele>
      </trkpt>
      <trkpt lat="36.52031" lon="-121.94228">
        <ele>29.0</ele>
      </trkpt>
      <trkpt lat="36.52041" lon="-121.94199">
        <ele>29.0</ele>
      </trkpt>
      <trkpt lat="36.52051" lon="-121.94186">
        <ele>28.0</ele>
      </trkpt>
      <trkpt lat="36.52052" lon="-121.94174">
        <ele>29.0</ele>
      </trkpt>
      <trkpt lat="36.52059" lon="-121.94166">
        <ele>29.0</ele>
      </trkpt>
      <trkpt lat="36.52059" lon="-121.94154">
        <ele>29.0</ele>
      </trkpt>
      <trkpt lat="36.52074" lon="-121.9414">
        <ele>29.0</ele>
      </trkpt>
      <trkpt lat="36.52088" lon="-121.94141">
        <ele>29.0</ele>
      </trkpt>
      <trkpt lat="36.52104" lon="-121.94147">
        <ele>27.0</ele>
      </trkpt>
      <trkpt lat="36.52104" lon="-121.94147">
        <ele>27.0</ele>
      </trkpt>
      <trkpt lat="36.52104" lon="-121.94147">
        <ele>27.0</ele>
      </trkpt>
      <trkpt lat="36.52096" lon="-121.94083">
        <ele>14.0</ele>
      </trkpt>
      <trkpt lat="36.52096" lon="-121.94083">
        <ele>14.0</ele>
      </trkpt>
      <trkpt lat="36.52096" lon="-121.94083">
        <ele>14.0</ele>
      </trkpt>
      <trkpt lat="36.5211" lon="-121.94067">
        <ele>12.0</ele>
      </trkpt>
      <trkpt lat="36.5211" lon="-121.94052">
        <ele>12.0</ele>
      </trkpt>
      <trkpt lat="36.52106" lon="-121.94043">
        <ele>12.0</ele>
      </trkpt>
      <trkpt lat="36.520989517" lon="-121.940372332">
        <ele>7.0</ele>
      </trkpt>
      <trkpt lat="36.520989517" lon="-121.940372332">
        <ele>7.0</ele>
      </trkpt>
      <trkpt lat="36.52084" lon="-121.94025">
        <ele>6.0</ele>
      </trkpt>
      <trkpt lat="36.5208" lon="-121.94034">
        <ele>6.0</ele>
      </trkpt>
      <trkpt lat="36.52083" lon="-121.94046">
        <ele>8.0</ele>
      </trkpt>
      <trkpt lat="36.52089" lon="-121.94055">
        <ele>8.0</ele>
      </trkpt>
      <trkpt lat="36.52091" lon="-121.94066">
        <ele>8.0</ele>
      </trkpt>
      <trkpt lat="36.52090076" lon="-121.940720058">
        <ele>14.0</ele>
      </trkpt>
      <trkpt lat="36.52090076" lon="-121.940720058">
        <ele>14.0</ele>
      </trkpt>
      <trkpt lat="36.52091" lon="-121.94066">
        <ele>8.0</ele>
      </trkpt>
      <trkpt lat="36.52089" lon="-121.94055">
        <ele>8.0</ele>
      </trkpt>
      <trkpt lat="36.52083" lon="-121.94046">
        <ele>8.0</ele>
      </trkpt>
      <trkpt lat="36.5208" lon="-121.94034">
        <ele>6.0</ele>
      </trkpt>
      <trkpt lat="36.52084" lon="-121.94025">
        <ele>6.0</ele>
      </trkpt>
      <trkpt lat="36.52106" lon="-121.94043">
        <ele>12.0</ele>
      </trkpt>
      <trkpt lat="36.5211" lon="-121.94052">
        <ele>12.0</ele>
      </trkpt>
      <trkpt lat="36.5211" lon="-121.94067">
        <ele>12.0</ele>
      </trkpt>
      <trkpt lat="36.52096" lon="-121.94083">
        <ele>14.0</ele>
      </trkpt>
      <trkpt lat="36.52096" lon="-121.94083">
        <ele>14.0</ele>
      </trkpt>
      <trkpt lat="36.52096" lon="-121.94083">
        <ele>14.0</ele>
      </trkpt>
      <trkpt lat="36.52104" lon="-121.94147">
        <ele>27.0</ele>
      </trkpt>
      <trkpt lat="36.52104" lon="-121.94147">
        <ele>27.0</ele>
      </trkpt>
      <trkpt lat="36.52104" lon="-121.94147">
        <ele>27.0</ele>
      </trkpt>
      <trkpt lat="36.52088" lon="-121.94141">
        <ele>29.0</ele>
      </trkpt>
      <trkpt lat="36.52074" lon="-121.9414">
        <ele>29.0</ele>
      </trkpt>
      <trkpt lat="36.52059" lon="-121.94154">
        <ele>29.0</ele>
      </trkpt>
      <trkpt lat="36.52059" lon="-121.94166">
        <ele>29.0</ele>
      </trkpt>
      <trkpt lat="36.52052" lon="-121.94174">
        <ele>29.0</ele>
      </trkpt>
      <trkpt lat="36.52051" lon="-121.94186">
        <ele>28.0</ele>
      </trkpt>
      <trkpt lat="36.52041" lon="-121.94199">
        <ele>29.0</ele>
      </trkpt>
      <trkpt lat="36.52031" lon="-121.94228">
        <ele>29.0</ele>
      </trkpt>
      <trkpt lat="36.52034" lon="-121.94257">
        <ele>29.0</ele>
      </trkpt>
      <trkpt lat="36.52002" lon="-121.94283">
        <ele>29.0</ele>
      </trkpt>
      <trkpt lat="36.51992" lon="-121.94295">
        <ele>33.0</ele>
      </trkpt>
      <trkpt lat="36.51992" lon="-121.94295">
        <ele>33.0</ele>
      </trkpt>
      <trkpt lat="36.51992" lon="-121.94295">
        <ele>33.0</ele>
      </trkpt>
      <trkpt lat="36.51993" lon="-121.94314">
        <ele>33.0</ele>
      </trkpt>
      <trkpt lat="36.52012" lon="-121.94344">
        <ele>42.0</ele>
      </trkpt>
      <trkpt lat="36.52034" lon="-121.94364">
        <ele>36.0</ele>
      </trkpt>
      <trkpt lat="36.52032" lon="-121.94397">
        <ele>44.0</ele>
      </trkpt>
      <trkpt lat="36.52025" lon="-121.94428">
        <ele>40.0</ele>
      </trkpt>
      <trkpt lat="36.520262605" lon="-121.944525806">
        <ele>37.0</ele>
      </trkpt>
      <trkpt lat="36.520262605" lon="-121.944525806">
        <ele>37.0</ele>
      </trkpt>
      <trkpt lat="36.52027" lon="-121.94467">
        <ele>38.0</ele>
      </trkpt>
      <trkpt lat="36.52042" lon="-121.94487">
        <ele>38.0</ele>
      </trkpt>
      <trkpt lat="36.52042" lon="-121.94487">
        <ele>38.0</ele>
      </trkpt>
      <trkpt lat="36.52028" lon="-121.94495">
        <ele>47.0</ele>
      </trkpt>
      <trkpt lat="36.51975" lon="-121.94494">
        <ele>51.0</ele>
      </trkpt>
      <trkpt lat="36.5196" lon="-121.9449">
        <ele>51.0</ele>
      </trkpt>
      <trkpt lat="36.51965" lon="-121.94515">
        <ele>55.0</ele>
      </trkpt>
      <trkpt lat="36.519707238" lon="-121.945232677">
        <ele>55.0</ele>
      </trkpt>
      <trkpt lat="36.5197" lon="-121.94524">
        <ele>55.0</ele>
      </trkpt>
      <trkpt lat="36.51948" lon="-121.9454">
        <ele>48.0</ele>
      </trkpt>
      <trkpt lat="36.51948" lon="-121.9454">
        <ele>48.0</ele>
      </trkpt>
      <trkpt lat="36.52001" lon="-121.94612">
        <ele>67.0</ele>
      </trkpt>
      <trkpt lat="36.52001" lon="-121.94612">
        <ele>67.0</ele>
      </trkpt>
      <trkpt lat="36.52001" lon="-121.94612">
        <ele>67.0</ele>
      </trkpt>
      <trkpt lat="36.52024" lon="-121.94632">
        <ele>73.0</ele>
      </trkpt>
      <trkpt lat="36.52031" lon="-121.94645">
        <ele>73.0</ele>
      </trkpt>
      <trkpt lat="36.52074" lon="-121.94662">
        <ele>75.0</ele>
      </trkpt>
      <trkpt lat="36.52084" lon="-121.94693">
        <ele>72.0</ele>
      </trkpt>
      <trkpt lat="36.520947254" lon="-121.94696387">
        <ele>72.0</ele>
      </trkpt>
      <trkpt lat="36.520947254" lon="-121.94696387">
        <ele>72.0</ele>
      </trkpt>
      <trkpt lat="36.52103" lon="-121.94699">
        <ele>66.0</ele>
      </trkpt>
      <trkpt lat="36.52119" lon="-121.9471">
        <ele>67.0</ele>
      </trkpt>
      <trkpt lat="36.52148" lon="-121.94741">
        <ele>59.0</ele>
      </trkpt>
      <trkpt lat="36.52141" lon="-121.94754">
        <ele>59.0</ele>
      </trkpt>
      <trkpt lat="36.52121" lon="-121.94764">
        <ele>64.0</ele>
      </trkpt>
      <trkpt lat="36.52091" lon="-121.94797">
        <ele>60.0</ele>
      </trkpt>
      <trkpt lat="36.52084" lon="-121.94806">
        <ele>60.0</ele>
      </trkpt>
      <trkpt lat="36.52083" lon="-121.94824">
        <ele>56.0</ele>
      </trkpt>
      <trkpt lat="36.52083" lon="-121.94824">
        <ele>56.0</ele>
      </trkpt>
      <trkpt lat="36.52079" lon="-121.94832">
        <ele>56.0</ele>
      </trkpt>
      <trkpt lat="36.52087" lon="-121.94832">
        <ele>56.0</ele>
      </trkpt>
      <trkpt lat="36.52097" lon="-121.94835">
        <ele>56.0</ele>
      </trkpt>
      <trkpt lat="36.52105" lon="-121.9484">
        <ele>54.0</ele>
      </trkpt>
      <trkpt lat="36.52107" lon="-121.94846">
        <ele>54.0</ele>
      </trkpt>
      <trkpt lat="36.52113" lon="-121.94842">
        <ele>54.0</ele>
      </trkpt>
      <trkpt lat="36.52121" lon="-121.94859">
        <ele>46.0</ele>
      </trkpt>
      <trkpt lat="36.5214" lon="-121.94861">
        <ele>46.0</ele>
      </trkpt>
      <trkpt lat="36.521394092" lon="-121.948607042">
        <ele>46.0</ele>
      </trkpt>
      <trkpt lat="36.52151" lon="-121.94824">
        <ele>49.0</ele>
      </trkpt>
      <trkpt lat="36.52151" lon="-121.94824">
        <ele>49.0</ele>
      </trkpt>
      <trkpt lat="36.52156" lon="-121.9481">
        <ele>46.0</ele>
      </trkpt>
      <trkpt lat="36.52174" lon="-121.94798">
        <ele>46.0</ele>
      </trkpt>
      <trkpt lat="36.521963862" lon="-121.947550931">
        <ele>46.0</ele>
      </trkpt>
      <trkpt lat="36.521963862" lon="-121.947550931">
        <ele>46.0</ele>
      </trkpt>
      <trkpt lat="36.52198" lon="-121.94752">
        <ele>46.0</ele>
      </trkpt>
      <trkpt lat="36.522" lon="-121.94721">
        <ele>44.0</ele>
      </trkpt>
      <trkpt lat="36.52196" lon="-121.94696">
        <ele>43.0</ele>
      </trkpt>
      <trkpt lat="36.52189" lon="-121.94676">
        <ele>43.0</ele>
      </trkpt>
      <trkpt lat="36.52192" lon="-121.94649">
        <ele>42.0</ele>
      </trkpt>
      <trkpt lat="36.52185" lon="-121.9462">
        <ele>43.0</ele>
      </trkpt>
      <trkpt lat="36.52167" lon="-121.9457">
        <ele>47.0</ele>
      </trkpt>
      <trkpt lat="36.52175" lon="-121.94554">
        <ele>43.0</ele>
      </trkpt>
      <trkpt lat="36.52186" lon="-121.94545">
        <ele>30.0</ele>
      </trkpt>
      <trkpt lat="36.52172" lon="-121.94534">
        <ele>32.0</ele>
      </trkpt>
      <trkpt lat="36.5217" lon="-121.94521">
        <ele>32.0</ele>
      </trkpt>
      <trkpt lat="36.5217" lon="-121.94521">
        <ele>32.0</ele>
      </trkpt>
      <trkpt lat="36.5217" lon="-121.94521">
        <ele>32.0</ele>
      </trkpt>
      <trkpt lat="36.52179" lon="-121.94517">
        <ele>32.0</ele>
      </trkpt>
      <trkpt lat="36.52183" lon="-121.94512">
        <ele>19.0</ele>
      </trkpt>
      <trkpt lat="36.52182" lon="-121.94501">
        <ele>19.0</ele>
      </trkpt>
      <trkpt lat="36.52189" lon="-121.94494">
        <ele>19.0</ele>
      </trkpt>
      <trkpt lat="36.521915542" lon="-121.944942554">
        <ele>19.0</ele>
      </trkpt>
      <trkpt lat="36.521915542" lon="-121.944942554">
        <ele>19.0</ele>
      </trkpt>
      <trkpt lat="36.52189" lon="-121.94494">
        <ele>19.0</ele>
      </trkpt>
      <trkpt lat="36.52182" lon="-121.94501">
        <ele>19.0</ele>
      </trkpt>
      <trkpt lat="36.52183" lon="-121.94512">
        <ele>19.0</ele>
      </trkpt>
      <trkpt lat="36.52179" lon="-121.94517">
        <ele>32.0</ele>
      </trkpt>
      <trkpt lat="36.5217" lon="-121.94521">
        <ele>32.0</ele>
      </trkpt>
      <trkpt lat="36.5217" lon="-121.94521">
        <ele>32.0</ele>
      </trkpt>
      <trkpt lat="36.5217" lon="-121.94521">
        <ele>32.0</ele>
      </trkpt>
      <trkpt lat="36.52172" lon="-121.94534">
        <ele>32.0</ele>
      </trkpt>
      <trkpt lat="36.52186" lon="-121.94545">
        <ele>30.0</ele>
      </trkpt>
      <trkpt lat="36.52175" lon="-121.94554">
        <ele>43.0</ele>
      </trkpt>
      <trkpt lat="36.52167" lon="-121.9457">
        <ele>47.0</ele>
      </trkpt>
      <trkpt lat="36.52185" lon="-121.9462">
        <ele>43.0</ele>
      </trkpt>
      <trkpt lat="36.52192" lon="-121.94649">
        <ele>42.0</ele>
      </trkpt>
      <trkpt lat="36.52189" lon="-121.94676">
        <ele>43.0</ele>
      </trkpt>
      <trkpt lat="36.52196" lon="-121.94696">
        <ele>43.0</ele>
      </trkpt>
      <trkpt lat="36.522" lon="-121.94721">
        <ele>44.0</ele>
      </trkpt>
      <trkpt lat="36.52198" lon="-121.94752">
        <ele>46.0</ele>
      </trkpt>
      <trkpt lat="36.52174" lon="-121.94798">
        <ele>46.0</ele>
      </trkpt>
      <trkpt lat="36.52156" lon="-121.9481">
        <ele>46.0</ele>
      </trkpt>
      <trkpt lat="36.52151" lon="-121.94824">
        <ele>49.0</ele>
      </trkpt>
      <trkpt lat="36.52151" lon="-121.94824">
        <ele>49.0</ele>
      </trkpt>
      <trkpt lat="36.521394092" lon="-121.948607042">
        <ele>46.0</ele>
      </trkpt>
      <trkpt lat="36.521394092" lon="-121.948607042">
        <ele>46.0</ele>
      </trkpt>
      <trkpt lat="36.52133" lon="-121.94881">
        <ele>36.0</ele>
      </trkpt>
      <trkpt lat="36.52096" lon="-121.94898">
        <ele>37.0</ele>
      </trkpt>
      <trkpt lat="36.5207" lon="-121.94897">
        <ele>37.0</ele>
      </trkpt>
      <trkpt lat="36.52066" lon="-121.94912">
        <ele>30.0</ele>
      </trkpt>
      <trkpt lat="36.5205" lon="-121.94926">
        <ele>30.0</ele>
      </trkpt>
      <trkpt lat="36.52037" lon="-121.94932">
        <ele>27.0</ele>
      </trkpt>
      <trkpt lat="36.52037" lon="-121.94932">
        <ele>27.0</ele>
      </trkpt>
      <trkpt lat="36.52037" lon="-121.94932">
        <ele>27.0</ele>
      </trkpt>
      <trkpt lat="36.5201" lon="-121.94934">
        <ele>27.0</ele>
      </trkpt>
      <trkpt lat="36.51986" lon="-121.9494">
        <ele>28.0</ele>
      </trkpt>
      <trkpt lat="36.519770072" lon="-121.949489928">
        <ele>28.0</ele>
      </trkpt>
      <trkpt lat="36.519770072" lon="-121.949489928">
        <ele>28.0</ele>
      </trkpt>
      <trkpt lat="36.51972" lon="-121.94954">
        <ele>28.0</ele>
      </trkpt>
      <trkpt lat="36.5193" lon="-121.94961">
        <ele>25.0</ele>
      </trkpt>
      <trkpt lat="36.51924" lon="-121.94965">
        <ele>25.0</ele>
      </trkpt>
      <trkpt lat="36.51924" lon="-121.94965">
        <ele>25.0</ele>
      </trkpt>
      <trkpt lat="36.51965" lon="-121.9502">
        <ele>23.0</ele>
      </trkpt>
      <trkpt lat="36.5199" lon="-121.95046">
        <ele>24.0</ele>
      </trkpt>
      <trkpt lat="36.52005" lon="-121.95057">
        <ele>24.0</ele>
      </trkpt>
      <trkpt lat="36.5202" lon="-121.95064">
        <ele>27.0</ele>
      </trkpt>
      <trkpt lat="36.52048" lon="-121.95063">
        <ele>29.0</ele>
      </trkpt>
      <trkpt lat="36.52067" lon="-121.95065">
        <ele>29.0</ele>
      </trkpt>
      <trkpt lat="36.52067" lon="-121.95065">
        <ele>29.0</ele>
      </trkpt>
      <trkpt lat="36.5208" lon="-121.95072">
        <ele>34.0</ele>
      </trkpt>
      <trkpt lat="36.52089" lon="-121.95072">
        <ele>34.0</ele>
      </trkpt>
      <trkpt lat="36.52118" lon="-121.95059">
        <ele>35.0</ele>
      </trkpt>
      <trkpt lat="36.52128" lon="-121.95079">
        <ele>33.0</ele>
      </trkpt>
      <trkpt lat="36.52149" lon="-121.95109">
        <ele>37.0</ele>
      </trkpt>
      <trkpt lat="36.52183" lon="-121.95134">
        <ele>31.0</ele>
      </trkpt>
      <trkpt lat="36.52199" lon="-121.95142">
        <ele>31.0</ele>
      </trkpt>
      <trkpt lat="36.52199" lon="-121.95142">
        <ele>31.0</ele>
      </trkpt>
      <trkpt lat="36.522090545" lon="-121.951182348">
        <ele>16.0</ele>
      </trkpt>
      <trkpt lat="36.522090545" lon="-121.951182348">
        <ele>16.0</ele>
      </trkpt>
      <trkpt lat="36.52199" lon="-121.95142">
        <ele>31.0</ele>
      </trkpt>
      <trkpt lat="36.52199" lon="-121.95142">
        <ele>31.0</ele>
      </trkpt>
      <trkpt lat="36.52199" lon="-121.95142">
        <ele>31.0</ele>
      </trkpt>
      <trkpt lat="36.52207" lon="-121.95159">
        <ele>33.0</ele>
      </trkpt>
      <trkpt lat="36.52225" lon="-121.95169">
        <ele>26.0</ele>
      </trkpt>
      <trkpt lat="36.52225" lon="-121.95169">
        <ele>26.0</ele>
      </trkpt>
      <trkpt lat="36.52255" lon="-121.95183">
        <ele>25.0</ele>
      </trkpt>
      <trkpt lat="36.522575726" lon="-121.951858942">
        <ele>25.0</ele>
      </trkpt>
      <trkpt lat="36.522575726" lon="-121.951858942">
        <ele>25.0</ele>
      </trkpt>
      <trkpt lat="36.52255" lon="-121.95183">
        <ele>25.0</ele>
      </trkpt>
      <trkpt lat="36.52225" lon="-121.95169">
        <ele>26.0</ele>
      </trkpt>
      <trkpt lat="36.52225" lon="-121.95169">
        <ele>26.0</ele>
      </trkpt>
      <trkpt lat="36.52225" lon="-121.95169">
        <ele>26.0</ele>
      </trkpt>
      <trkpt lat="36.52217" lon="-121.95186">
        <ele>26.0</ele>
      </trkpt>
      <trkpt lat="36.52218" lon="-121.95223">
        <ele>26.0</ele>
      </trkpt>
      <trkpt lat="36.52208" lon="-121.95236">
        <ele>31.0</ele>
      </trkpt>
      <trkpt lat="36.52207" lon="-121.95263">
        <ele>31.0</ele>
      </trkpt>
      <trkpt lat="36.52206" lon="-121.95289">
        <ele>28.0</ele>
      </trkpt>
      <trkpt lat="36.52221" lon="-121.95312">
        <ele>24.0</ele>
      </trkpt>
      <trkpt lat="36.52205" lon="-121.9533">
        <ele>22.0</ele>
      </trkpt>
      <trkpt lat="36.522" lon="-121.95333">
        <ele>22.0</ele>
      </trkpt>
      <trkpt lat="36.52218" lon="-121.95389">
        <ele>19.0</ele>
      </trkpt>
      <trkpt lat="36.52211" lon="-121.95391">
        <ele>19.0</ele>
      </trkpt>
      <trkpt lat="36.52194" lon="-121.95384">
        <ele>14.0</ele>
      </trkpt>
      <trkpt lat="36.52187" lon="-121.95366">
        <ele>19.0</ele>
      </trkpt>
      <trkpt lat="36.52185" lon="-121.95344">
        <ele>22.0</ele>
      </trkpt>
      <trkpt lat="36.52177" lon="-121.9532">
        <ele>15.0</ele>
      </trkpt>
      <trkpt lat="36.521675492" lon="-121.95307849">
        <ele>18.0</ele>
      </trkpt>
      <trkpt lat="36.521675492" lon="-121.95307849">
        <ele>18.0</ele>
      </trkpt>
      <trkpt lat="36.52163" lon="-121.95302">
        <ele>18.0</ele>
      </trkpt>
      <trkpt lat="36.52149" lon="-121.95299">
        <ele>14.0</ele>
      </trkpt>
      <trkpt lat="36.52151" lon="-121.95285">
        <ele>19.0</ele>
      </trkpt>
      <trkpt lat="36.5214" lon="-121.95251">
        <ele>27.0</ele>
      </trkpt>
      <trkpt lat="36.52141" lon="-121.95234">
        <ele>33.0</ele>
      </trkpt>
      <trkpt lat="36.52135" lon="-121.95223">
        <ele>33.0</ele>
      </trkpt>
      <trkpt lat="36.52105" lon="-121.95204">
        <ele>26.0</ele>
      </trkpt>
      <trkpt lat="36.52096" lon="-121.95134">
        <ele>22.0</ele>
      </trkpt>
      <trkpt lat="36.52067" lon="-121.95065">
        <ele>29.0</ele>
      </trkpt>
      <trkpt lat="36.52067" lon="-121.95065">
        <ele>29.0</ele>
      </trkpt>
      <trkpt lat="36.52048" lon="-121.95063">
        <ele>29.0</ele>
      </trkpt>
      <trkpt lat="36.5202" lon="-121.95064">
        <ele>27.0</ele>
      </trkpt>
      <trkpt lat="36.52005" lon="-121.95057">
        <ele>24.0</ele>
      </trkpt>
      <trkpt lat="36.5199" lon="-121.95046">
        <ele>24.0</ele>
      </trkpt>
      <trkpt lat="36.519766841" lon="-121.950321514">
        <ele>23.0</ele>
      </trkpt>
      <trkpt lat="36.519766841" lon="-121.950321514">
        <ele>23.0</ele>
      </trkpt>
      <trkpt lat="36.51965" lon="-121.9502">
        <ele>23.0</ele>
      </trkpt>
      <trkpt lat="36.51924" lon="-121.94965">
        <ele>25.0</ele>
      </trkpt>
      <trkpt lat="36.51924" lon="-121.94965">
        <ele>25.0</ele>
      </trkpt>
      <trkpt lat="36.51924" lon="-121.94965">
        <ele>25.0</ele>
      </trkpt>
      <trkpt lat="36.5191" lon="-121.9496">
        <ele>25.0</ele>
      </trkpt>
      <trkpt lat="36.51904" lon="-121.94962">
        <ele>25.0</ele>
      </trkpt>
      <trkpt lat="36.51904" lon="-121.94962">
        <ele>25.0</ele>
      </trkpt>
      <trkpt lat="36.51904" lon="-121.94962">
        <ele>25.0</ele>
      </trkpt>
      <trkpt lat="36.51896" lon="-121.94972">
        <ele>24.0</ele>
      </trkpt>
      <trkpt lat="36.51887" lon="-121.94975">
        <ele>24.0</ele>
      </trkpt>
      <trkpt lat="36.518739729" lon="-121.949760021">
        <ele>23.0</ele>
      </trkpt>
      <trkpt lat="36.518724459" lon="-121.949761195">
        <ele>23.0</ele>
      </trkpt>
      <trkpt lat="36.518689786" lon="-121.949763863">
        <ele>23.0</ele>
      </trkpt>
      <trkpt lat="36.518669898" lon="-121.949751282">
        <ele>23.0</ele>
      </trkpt>
      <trkpt lat="36.51861" lon="-121.94977">
        <ele>23.0</ele>
      </trkpt>
      <trkpt lat="36.51861" lon="-121.94977">
        <ele>23.0</ele>
      </trkpt>
      <trkpt lat="36.51861" lon="-121.94977">
        <ele>23.0</ele>
      </trkpt>
      <trkpt lat="36.51812" lon="-121.94981">
        <ele>20.0</ele>
      </trkpt>
      <trkpt lat="36.51795" lon="-121.94977">
        <ele>20.0</ele>
      </trkpt>
      <trkpt lat="36.51786" lon="-121.94969">
        <ele>20.0</ele>
      </trkpt>
      <trkpt lat="36.51786" lon="-121.94969">
        <ele>20.0</ele>
      </trkpt>
      <trkpt lat="36.51775" lon="-121.94987">
        <ele>20.0</ele>
      </trkpt>
      <trkpt lat="36.517752795" lon="-121.949883475">
        <ele>20.0</ele>
      </trkpt>
      <trkpt lat="36.51788" lon="-121.94985">
        <ele>20.0</ele>
      </trkpt>
      <trkpt lat="36.51807" lon="-121.95006">
        <ele>21.0</ele>
      </trkpt>
      <trkpt lat="36.51807" lon="-121.95006">
        <ele>21.0</ele>
      </trkpt>
      <trkpt lat="36.51807" lon="-121.95006">
        <ele>21.0</ele>
      </trkpt>
      <trkpt lat="36.51815" lon="-121.95027">
        <ele>21.0</ele>
      </trkpt>
      <trkpt lat="36.51817" lon="-121.95042">
        <ele>23.0</ele>
      </trkpt>
      <trkpt lat="36.51815" lon="-121.95053">
        <ele>23.0</ele>
      </trkpt>
      <trkpt lat="36.51805" lon="-121.95066">
        <ele>23.0</ele>
      </trkpt>
      <trkpt lat="36.51803" lon="-121.95074">
        <ele>25.0</ele>
      </trkpt>
      <trkpt lat="36.51809" lon="-121.95079">
        <ele>25.0</ele>
      </trkpt>
      <trkpt lat="36.51813" lon="-121.95088">
        <ele>25.0</ele>
      </trkpt>
      <trkpt lat="36.51815" lon="-121.95107">
        <ele>26.0</ele>
      </trkpt>
      <trkpt lat="36.51807" lon="-121.95121">
        <ele>26.0</ele>
      </trkpt>
      <trkpt lat="36.51801" lon="-121.95145">
        <ele>25.0</ele>
      </trkpt>
      <trkpt lat="36.51806" lon="-121.95178">
        <ele>23.0</ele>
      </trkpt>
      <trkpt lat="36.518043848" lon="-121.951816341">
        <ele>19.0</ele>
      </trkpt>
      <trkpt lat="36.518043848" lon="-121.951816341">
        <ele>19.0</ele>
      </trkpt>
      <trkpt lat="36.51802" lon="-121.95187">
        <ele>19.0</ele>
      </trkpt>
      <trkpt lat="36.51796" lon="-121.95195">
        <ele>19.0</ele>
      </trkpt>
      <trkpt lat="36.51796" lon="-121.95195">
        <ele>19.0</ele>
      </trkpt>
      <trkpt lat="36.51796" lon="-121.95195">
        <ele>19.0</ele>
      </trkpt>
      <trkpt lat="36.51811" lon="-121.95204">
        <ele>19.0</ele>
      </trkpt>
      <trkpt lat="36.51827" lon="-121.95209">
        <ele>14.0</ele>
      </trkpt>
      <trkpt lat="36.518468065" lon="-121.952391813">
        <ele>10.0</ele>
      </trkpt>
      <trkpt lat="36.51861257" lon="-121.952759027">
        <ele>11.0</ele>
      </trkpt>
      <trkpt lat="36.518690172" lon="-121.952930689">
        <ele>8.0</ele>
      </trkpt>
      <trkpt lat="36.518828129" lon="-121.953113079">
        <ele>13.0</ele>
      </trkpt>
      <trkpt lat="36.518629815" lon="-121.953113079">
        <ele>8.0</ele>
      </trkpt>
      <trkpt lat="36.518397011" lon="-121.953274012">
        <ele>8.0</ele>
      </trkpt>
      <trkpt lat="36.518388388" lon="-121.953402758">
        <ele>8.0</ele>
      </trkpt>
      <trkpt lat="36.518474612" lon="-121.953467131">
        <ele>9.0</ele>
      </trkpt>
      <trkpt lat="36.51861257" lon="-121.953724623">
        <ele>7.0</ele>
      </trkpt>
      <trkpt lat="36.518707416" lon="-121.953703165">
        <ele>7.0</ele>
      </trkpt>
      <trkpt lat="36.518672927" lon="-121.95356369">
        <ele>7.0</ele>
      </trkpt>
      <trkpt lat="36.518733283" lon="-121.953306198">
        <ele>9.0</ele>
      </trkpt>
      <trkpt lat="36.518785017" lon="-121.95319891">
        <ele>9.0</ele>
      </trkpt>
      <trkpt lat="36.518776395" lon="-121.953048706">
        <ele>13.0</ele>
      </trkpt>
      <trkpt lat="36.5184315" lon="-121.952286959">
        <ele>14.0</ele>
      </trkpt>
      <trkpt lat="36.51841122" lon="-121.952305193">
        <ele>14.0</ele>
      </trkpt>
      <trkpt lat="36.51827" lon="-121.95209">
        <ele>14.0</ele>
      </trkpt>
      <trkpt lat="36.51811" lon="-121.95204">
        <ele>19.0</ele>
      </trkpt>
      <trkpt lat="36.51796" lon="-121.95195">
        <ele>19.0</ele>
      </trkpt>
      <trkpt lat="36.51796" lon="-121.95195">
        <ele>19.0</ele>
      </trkpt>
      <trkpt lat="36.51796" lon="-121.95195">
        <ele>19.0</ele>
      </trkpt>
      <trkpt lat="36.51782" lon="-121.95188">
        <ele>18.0</ele>
      </trkpt>
      <trkpt lat="36.51774" lon="-121.95178">
        <ele>22.0</ele>
      </trkpt>
      <trkpt lat="36.51753" lon="-121.95191">
        <ele>18.0</ele>
      </trkpt>
      <trkpt lat="36.5175" lon="-121.95198">
        <ele>18.0</ele>
      </trkpt>
      <trkpt lat="36.51742" lon="-121.95195">
        <ele>18.0</ele>
      </trkpt>
      <trkpt lat="36.51739" lon="-121.95187">
        <ele>18.0</ele>
      </trkpt>
      <trkpt lat="36.51728" lon="-121.95179">
        <ele>15.0</ele>
      </trkpt>
      <trkpt lat="36.51714" lon="-121.9517">
        <ele>15.0</ele>
      </trkpt>
      <trkpt lat="36.51709" lon="-121.95161">
        <ele>15.0</ele>
      </trkpt>
      <trkpt lat="36.51705" lon="-121.9515">
        <ele>9.0</ele>
      </trkpt>
      <trkpt lat="36.51705" lon="-121.95128">
        <ele>9.0</ele>
      </trkpt>
      <trkpt lat="36.51711" lon="-121.95094">
        <ele>12.0</ele>
      </trkpt>
      <trkpt lat="36.51745" lon="-121.95064">
        <ele>16.0</ele>
      </trkpt>
      <trkpt lat="36.51745" lon="-121.95064">
        <ele>16.0</ele>
      </trkpt>
      <trkpt lat="36.5175" lon="-121.95042">
        <ele>16.0</ele>
      </trkpt>
      <trkpt lat="36.51721" lon="-121.94971">
        <ele>12.0</ele>
      </trkpt>
      <trkpt lat="36.517183601" lon="-121.949505406">
        <ele>13.0</ele>
      </trkpt>
      <trkpt lat="36.517183601" lon="-121.949505406">
        <ele>13.0</ele>
      </trkpt>
      <trkpt lat="36.51717" lon="-121.9494">
        <ele>13.0</ele>
      </trkpt>
      <trkpt lat="36.51708" lon="-121.94932">
        <ele>10.0</ele>
      </trkpt>
      <trkpt lat="36.51657" lon="-121.94925">
        <ele>12.0</ele>
      </trkpt>
      <trkpt lat="36.51653" lon="-121.94917">
        <ele>12.0</ele>
      </trkpt>
      <trkpt lat="36.51639" lon="-121.94904">
        <ele>9.0</ele>
      </trkpt>
      <trkpt lat="36.51618" lon="-121.94897">
        <ele>9.0</ele>
      </trkpt>
      <trkpt lat="36.51603" lon="-121.94886">
        <ele>9.0</ele>
      </trkpt>
      <trkpt lat="36.51584" lon="-121.94866">
        <ele>10.0</ele>
      </trkpt>
      <trkpt lat="36.51574" lon="-121.94861">
        <ele>10.0</ele>
      </trkpt>
      <trkpt lat="36.51567" lon="-121.94848">
        <ele>8.0</ele>
      </trkpt>
      <trkpt lat="36.51567" lon="-121.94824">
        <ele>9.0</ele>
      </trkpt>
      <trkpt lat="36.51567" lon="-121.94824">
        <ele>9.0</ele>
      </trkpt>
      <trkpt lat="36.51543" lon="-121.94789">
        <ele>13.0</ele>
      </trkpt>
      <trkpt lat="36.51543" lon="-121.94789">
        <ele>13.0</ele>
      </trkpt>
      <trkpt lat="36.51543" lon="-121.94789">
        <ele>13.0</ele>
      </trkpt>
      <trkpt lat="36.51527" lon="-121.94776">
        <ele>12.0</ele>
      </trkpt>
      <trkpt lat="36.51521" lon="-121.94772">
        <ele>12.0</ele>
      </trkpt>
      <trkpt lat="36.515" lon="-121.9477">
        <ele>11.0</ele>
      </trkpt>
      <trkpt lat="36.51486" lon="-121.94751">
        <ele>12.0</ele>
      </trkpt>
      <trkpt lat="36.51468" lon="-121.9475">
        <ele>12.0</ele>
      </trkpt>
      <trkpt lat="36.51459" lon="-121.94742">
        <ele>12.0</ele>
      </trkpt>
      <trkpt lat="36.51447" lon="-121.94714">
        <ele>10.0</ele>
      </trkpt>
      <trkpt lat="36.51438" lon="-121.94702">
        <ele>11.0</ele>
      </trkpt>
      <trkpt lat="36.51422" lon="-121.94692">
        <ele>9.0</ele>
      </trkpt>
      <trkpt lat="36.51413" lon="-121.94674">
        <ele>9.0</ele>
      </trkpt>
      <trkpt lat="36.51404" lon="-121.94648">
        <ele>11.0</ele>
      </trkpt>
      <trkpt lat="36.514002264" lon="-121.946223396">
        <ele>9.0</ele>
      </trkpt>
      <trkpt lat="36.514002264" lon="-121.946223396">
        <ele>9.0</ele>
      </trkpt>
      <trkpt lat="36.51399" lon="-121.94614">
        <ele>9.0</ele>
      </trkpt>
      <trkpt lat="36.5139" lon="-121.94605">
        <ele>9.0</ele>
      </trkpt>
      <trkpt lat="36.51392" lon="-121.9459">
        <ele>9.0</ele>
      </trkpt>
      <trkpt lat="36.51399" lon="-121.94573">
        <ele>9.0</ele>
      </trkpt>
      <trkpt lat="36.51394" lon="-121.94557">
        <ele>10.0</ele>
      </trkpt>
      <trkpt lat="36.51396" lon="-121.94546">
        <ele>10.0</ele>
      </trkpt>
      <trkpt lat="36.51396" lon="-121.94546">
        <ele>10.0</ele>
      </trkpt>
      <trkpt lat="36.513888233" lon="-121.945382491">
        <ele>12.0</ele>
      </trkpt>
      <trkpt lat="36.51389" lon="-121.94538">
        <ele>12.0</ele>
      </trkpt>
      <trkpt lat="36.51365" lon="-121.94541">
        <ele>10.0</ele>
      </trkpt>
      <trkpt lat="36.5135" lon="-121.94533">
        <ele>10.0</ele>
      </trkpt>
      <trkpt lat="36.51333" lon="-121.94513">
        <ele>11.0</ele>
      </trkpt>
      <trkpt lat="36.51331" lon="-121.94502">
        <ele>11.0</ele>
      </trkpt>
      <trkpt lat="36.51337" lon="-121.94497">
        <ele>11.0</ele>
      </trkpt>
      <trkpt lat="36.51352" lon="-121.94465">
        <ele>13.0</ele>
      </trkpt>
      <trkpt lat="36.51352" lon="-121.94445">
        <ele>12.0</ele>
      </trkpt>
      <trkpt lat="36.51343" lon="-121.94397">
        <ele>7.0</ele>
      </trkpt>
      <trkpt lat="36.51338" lon="-121.94392">
        <ele>7.0</ele>
      </trkpt>
      <trkpt lat="36.51328" lon="-121.94369">
        <ele>8.0</ele>
      </trkpt>
      <trkpt lat="36.51303" lon="-121.94342">
        <ele>11.0</ele>
      </trkpt>
      <trkpt lat="36.51298" lon="-121.94326">
        <ele>11.0</ele>
      </trkpt>
      <trkpt lat="36.51291" lon="-121.94318">
        <ele>12.0</ele>
      </trkpt>
      <trkpt lat="36.51271" lon="-121.94329">
        <ele>10.0</ele>
      </trkpt>
      <trkpt lat="36.51263" lon="-121.94324">
        <ele>9.0</ele>
      </trkpt>
      <trkpt lat="36.51239" lon="-121.94293">
        <ele>8.0</ele>
      </trkpt>
      <trkpt lat="36.51211" lon="-121.9428">
        <ele>8.0</ele>
      </trkpt>
      <trkpt lat="36.512060841" lon="-121.942791807">
        <ele>8.0</ele>
      </trkpt>
      <trkpt lat="36.512060841" lon="-121.942791807">
        <ele>8.0</ele>
      </trkpt>
      <trkpt lat="36.51205" lon="-121.94279">
        <ele>8.0</ele>
      </trkpt>
      <trkpt lat="36.51198" lon="-121.94262">
        <ele>8.0</ele>
      </trkpt>
      <trkpt lat="36.51206" lon="-121.94232">
        <ele>8.0</ele>
      </trkpt>
      <trkpt lat="36.51205" lon="-121.94213">
        <ele>8.0</ele>
      </trkpt>
      <trkpt lat="36.51198" lon="-121.94201">
        <ele>9.0</ele>
      </trkpt>
      <trkpt lat="36.51198" lon="-121.94201">
        <ele>9.0</ele>
      </trkpt>
      <trkpt lat="36.51198" lon="-121.94201">
        <ele>9.0</ele>
      </trkpt>
      <trkpt lat="36.5118" lon="-121.94191">
        <ele>11.0</ele>
      </trkpt>
      <trkpt lat="36.51174" lon="-121.94178">
        <ele>14.0</ele>
      </trkpt>
      <trkpt lat="36.51168" lon="-121.94179">
        <ele>14.0</ele>
      </trkpt>
      <trkpt lat="36.51163" lon="-121.94174">
        <ele>14.0</ele>
      </trkpt>
      <trkpt lat="36.51161" lon="-121.94167">
        <ele>14.0</ele>
      </trkpt>
      <trkpt lat="36.51154" lon="-121.94164">
        <ele>14.0</ele>
      </trkpt>
      <trkpt lat="36.51151" lon="-121.94159">
        <ele>14.0</ele>
      </trkpt>
      <trkpt lat="36.51136" lon="-121.94156">
        <ele>14.0</ele>
      </trkpt>
      <trkpt lat="36.51136" lon="-121.94143">
        <ele>15.0</ele>
      </trkpt>
      <trkpt lat="36.51132" lon="-121.94139">
        <ele>15.0</ele>
      </trkpt>
      <trkpt lat="36.51125" lon="-121.94138">
        <ele>13.0</ele>
      </trkpt>
      <trkpt lat="36.51115" lon="-121.94149">
        <ele>13.0</ele>
      </trkpt>
      <trkpt lat="36.51105" lon="-121.94152">
        <ele>13.0</ele>
      </trkpt>
      <trkpt lat="36.51099" lon="-121.94146">
        <ele>13.0</ele>
      </trkpt>
      <trkpt lat="36.51094" lon="-121.94136">
        <ele>14.0</ele>
      </trkpt>
      <trkpt lat="36.51086" lon="-121.94134">
        <ele>14.0</ele>
      </trkpt>
      <trkpt lat="36.51081" lon="-121.94137">
        <ele>14.0</ele>
      </trkpt>
      <trkpt lat="36.51075" lon="-121.94137">
        <ele>14.0</ele>
      </trkpt>
      <trkpt lat="36.51069" lon="-121.94123">
        <ele>15.0</ele>
      </trkpt>
      <trkpt lat="36.51058" lon="-121.9411">
        <ele>15.0</ele>
      </trkpt>
      <trkpt lat="36.51049" lon="-121.94113">
        <ele>15.0</ele>
      </trkpt>
      <trkpt lat="36.510441427" lon="-121.941202857">
        <ele>15.0</ele>
      </trkpt>
      <trkpt lat="36.510441427" lon="-121.941202857">
        <ele>15.0</ele>
      </trkpt>
      <trkpt lat="36.51039" lon="-121.94128">
        <ele>16.0</ele>
      </trkpt>
      <trkpt lat="36.51027" lon="-121.94135">
        <ele>16.0</ele>
      </trkpt>
      <trkpt lat="36.51021" lon="-121.94143">
        <ele>16.0</ele>
      </trkpt>
      <trkpt lat="36.51019" lon="-121.94156">
        <ele>14.0</ele>
      </trkpt>
      <trkpt lat="36.51008" lon="-121.94176">
        <ele>17.0</ele>
      </trkpt>
      <trkpt lat="36.51004" lon="-121.9418">
        <ele>17.0</ele>
      </trkpt>
      <trkpt lat="36.50999" lon="-121.9418">
        <ele>17.0</ele>
      </trkpt>
      <trkpt lat="36.50993" lon="-121.94173">
        <ele>17.0</ele>
      </trkpt>
      <trkpt lat="36.50993" lon="-121.94173">
        <ele>17.0</ele>
      </trkpt>
      <trkpt lat="36.50982" lon="-121.94163">
        <ele>17.0</ele>
      </trkpt>
      <trkpt lat="36.50982" lon="-121.94163">
        <ele>17.0</ele>
      </trkpt>
      <trkpt lat="36.509763232" lon="-121.94160477">
        <ele>17.0</ele>
      </trkpt>
      <trkpt lat="36.509273975" lon="-121.941515207">
        <ele>22.0</ele>
      </trkpt>
      <trkpt lat="36.508963531" lon="-121.941504478">
        <ele>16.0</ele>
      </trkpt>
      <trkpt lat="36.508963711" lon="-121.941495527">
        <ele>16.0</ele>
      </trkpt>
      <trkpt lat="36.50882" lon="-121.94149">
        <ele>16.0</ele>
      </trkpt>
      <trkpt lat="36.50877" lon="-121.94138">
        <ele>16.0</ele>
      </trkpt>
      <trkpt lat="36.50867" lon="-121.94083">
        <ele>13.0</ele>
      </trkpt>
      <trkpt lat="36.50863" lon="-121.94077">
        <ele>13.0</ele>
      </trkpt>
      <trkpt lat="36.50851" lon="-121.94068">
        <ele>17.0</ele>
      </trkpt>
      <trkpt lat="36.50833" lon="-121.94062">
        <ele>16.0</ele>
      </trkpt>
      <trkpt lat="36.50827" lon="-121.94039">
        <ele>22.0</ele>
      </trkpt>
      <trkpt lat="36.50827" lon="-121.94039">
        <ele>22.0</ele>
      </trkpt>
      <trkpt lat="36.5082" lon="-121.94024">
        <ele>22.0</ele>
      </trkpt>
      <trkpt lat="36.50792" lon="-121.94004">
        <ele>20.0</ele>
      </trkpt>
      <trkpt lat="36.50779" lon="-121.93966">
        <ele>20.0</ele>
      </trkpt>
      <trkpt lat="36.5077" lon="-121.9396">
        <ele>20.0</ele>
      </trkpt>
      <trkpt lat="36.5077" lon="-121.9396">
        <ele>20.0</ele>
      </trkpt>
      <trkpt lat="36.5077" lon="-121.9396">
        <ele>20.0</ele>
      </trkpt>
      <trkpt lat="36.50749" lon="-121.93976">
        <ele>9.0</ele>
      </trkpt>
      <trkpt lat="36.50735" lon="-121.93998">
        <ele>6.0</ele>
      </trkpt>
      <trkpt lat="36.50729" lon="-121.94014">
        <ele>9.0</ele>
      </trkpt>
      <trkpt lat="36.50729" lon="-121.94048">
        <ele>9.0</ele>
      </trkpt>
      <trkpt lat="36.50747" lon="-121.94078">
        <ele>13.0</ele>
      </trkpt>
      <trkpt lat="36.50738" lon="-121.94082">
        <ele>13.0</ele>
      </trkpt>
      <trkpt lat="36.50733" lon="-121.94089">
        <ele>8.0</ele>
      </trkpt>
      <trkpt lat="36.5073" lon="-121.94104">
        <ele>7.0</ele>
      </trkpt>
      <trkpt lat="36.5073" lon="-121.94104">
        <ele>7.0</ele>
      </trkpt>
      <trkpt lat="36.507307378" lon="-121.941116723">
        <ele>7.0</ele>
      </trkpt>
      <trkpt lat="36.507308986" lon="-121.941133453">
        <ele>7.0</ele>
      </trkpt>
      <trkpt lat="36.50743" lon="-121.94118">
        <ele>12.0</ele>
      </trkpt>
      <trkpt lat="36.507688407" lon="-121.941603501">
        <ele>14.0</ele>
      </trkpt>
      <trkpt lat="36.507688407" lon="-121.941603501">
        <ele>14.0</ele>
      </trkpt>
      <trkpt lat="36.50779" lon="-121.94177">
        <ele>14.0</ele>
      </trkpt>
      <trkpt lat="36.50782" lon="-121.94195">
        <ele>13.0</ele>
      </trkpt>
      <trkpt lat="36.50778" lon="-121.94203">
        <ele>13.0</ele>
      </trkpt>
      <trkpt lat="36.50773" lon="-121.94205">
        <ele>13.0</ele>
      </trkpt>
      <trkpt lat="36.50758" lon="-121.94204">
        <ele>12.0</ele>
      </trkpt>
      <trkpt lat="36.507428564" lon="-121.941888564">
        <ele>12.0</ele>
      </trkpt>
      <trkpt lat="36.507428564" lon="-121.941888564">
        <ele>12.0</ele>
      </trkpt>
      <trkpt lat="36.50758" lon="-121.94204">
        <ele>12.0</ele>
      </trkpt>
      <trkpt lat="36.50773" lon="-121.94205">
        <ele>13.0</ele>
      </trkpt>
      <trkpt lat="36.50778" lon="-121.94203">
        <ele>13.0</ele>
      </trkpt>
      <trkpt lat="36.50782" lon="-121.94195">
        <ele>13.0</ele>
      </trkpt>
      <trkpt lat="36.50779" lon="-121.94177">
        <ele>14.0</ele>
      </trkpt>
      <trkpt lat="36.50743" lon="-121.94118">
        <ele>12.0</ele>
      </trkpt>
      <trkpt lat="36.507308986" lon="-121.941133453">
        <ele>7.0</ele>
      </trkpt>
      <trkpt lat="36.507307378" lon="-121.941116723">
        <ele>7.0</ele>
      </trkpt>
      <trkpt lat="36.5073" lon="-121.94104">
        <ele>7.0</ele>
      </trkpt>
      <trkpt lat="36.5073" lon="-121.94104">
        <ele>7.0</ele>
      </trkpt>
      <trkpt lat="36.50733" lon="-121.94089">
        <ele>8.0</ele>
      </trkpt>
      <trkpt lat="36.50738" lon="-121.94082">
        <ele>13.0</ele>
      </trkpt>
      <trkpt lat="36.50747" lon="-121.94078">
        <ele>13.0</ele>
      </trkpt>
      <trkpt lat="36.50729" lon="-121.94048">
        <ele>9.0</ele>
      </trkpt>
      <trkpt lat="36.50729" lon="-121.94014">
        <ele>9.0</ele>
      </trkpt>
      <trkpt lat="36.50735" lon="-121.93998">
        <ele>6.0</ele>
      </trkpt>
      <trkpt lat="36.50749" lon="-121.93976">
        <ele>9.0</ele>
      </trkpt>
      <trkpt lat="36.5077" lon="-121.9396">
        <ele>20.0</ele>
      </trkpt>
      <trkpt lat="36.5077" lon="-121.9396">
        <ele>20.0</ele>
      </trkpt>
      <trkpt lat="36.5077" lon="-121.9396">
        <ele>20.0</ele>
      </trkpt>
      <trkpt lat="36.50774" lon="-121.93951">
        <ele>18.0</ele>
      </trkpt>
      <trkpt lat="36.507743609" lon="-121.93943422">
        <ele>18.0</ele>
      </trkpt>
      <trkpt lat="36.507743609" lon="-121.93943422">
        <ele>18.0</ele>
      </trkpt>
      <trkpt lat="36.507744363" lon="-121.939418377">
        <ele>18.0</ele>
      </trkpt>
      <trkpt lat="36.507745148" lon="-121.93940189">
        <ele>18.0</ele>
      </trkpt>
      <trkpt lat="36.50775" lon="-121.9393">
        <ele>20.0</ele>
      </trkpt>
      <trkpt lat="36.50786" lon="-121.93911">
        <ele>20.0</ele>
      </trkpt>
      <trkpt lat="36.50791" lon="-121.93912">
        <ele>20.0</ele>
      </trkpt>
      <trkpt lat="36.50797" lon="-121.93899">
        <ele>34.0</ele>
      </trkpt>
      <trkpt lat="36.50809" lon="-121.93894">
        <ele>34.0</ele>
      </trkpt>
      <trkpt lat="36.50818" lon="-121.93895">
        <ele>34.0</ele>
      </trkpt>
      <trkpt lat="36.50838" lon="-121.93884">
        <ele>43.0</ele>
      </trkpt>
      <trkpt lat="36.50853" lon="-121.9388">
        <ele>44.0</ele>
      </trkpt>
      <trkpt lat="36.50862" lon="-121.9388">
        <ele>44.0</ele>
      </trkpt>
      <trkpt lat="36.50886" lon="-121.93889">
        <ele>43.0</ele>
      </trkpt>
      <trkpt lat="36.508895593" lon="-121.938913729">
        <ele>43.0</ele>
      </trkpt>
      <trkpt lat="36.508895593" lon="-121.938913729">
        <ele>43.0</ele>
      </trkpt>
      <trkpt lat="36.50907" lon="-121.93903">
        <ele>39.0</ele>
      </trkpt>
      <trkpt lat="36.50954" lon="-121.93922">
        <ele>39.0</ele>
      </trkpt>
      <trkpt lat="36.50964" lon="-121.93922">
        <ele>39.0</ele>
      </trkpt>
      <trkpt lat="36.50964" lon="-121.93922">
        <ele>39.0</ele>
      </trkpt>
      <trkpt lat="36.50974" lon="-121.93922">
        <ele>39.0</ele>
      </trkpt>
      <trkpt lat="36.51004" lon="-121.93943">
        <ele>39.0</ele>
      </trkpt>
      <trkpt lat="36.51043" lon="-121.93955">
        <ele>40.0</ele>
      </trkpt>
      <trkpt lat="36.51056" lon="-121.93965">
        <ele>36.0</ele>
      </trkpt>
      <trkpt lat="36.51064" lon="-121.93979">
        <ele>36.0</ele>
      </trkpt>
      <trkpt lat="36.51086" lon="-121.93979">
        <ele>35.0</ele>
      </trkpt>
      <trkpt lat="36.51094" lon="-121.93974">
        <ele>35.0</ele>
      </trkpt>
      <trkpt lat="36.51101" lon="-121.93975">
        <ele>35.0</ele>
      </trkpt>
      <trkpt lat="36.51108" lon="-121.93992">
        <ele>33.0</ele>
      </trkpt>
      <trkpt lat="36.51116" lon="-121.93992">
        <ele>33.0</ele>
      </trkpt>
      <trkpt lat="36.51121" lon="-121.93996">
        <ele>33.0</ele>
      </trkpt>
      <trkpt lat="36.51173" lon="-121.93996">
        <ele>30.0</ele>
      </trkpt>
      <trkpt lat="36.51197" lon="-121.93991">
        <ele>28.0</ele>
      </trkpt>
      <trkpt lat="36.51226" lon="-121.93977">
        <ele>31.0</ele>
      </trkpt>
      <trkpt lat="36.5125" lon="-121.9398">
        <ele>33.0</ele>
      </trkpt>
      <trkpt lat="36.5126" lon="-121.93987">
        <ele>31.0</ele>
      </trkpt>
      <trkpt lat="36.512639892" lon="-121.939859362">
        <ele>32.0</ele>
      </trkpt>
      <trkpt lat="36.512639892" lon="-121.939859362">
        <ele>32.0</ele>
      </trkpt>
      <trkpt lat="36.51275" lon="-121.93983">
        <ele>32.0</ele>
      </trkpt>
      <trkpt lat="36.51296" lon="-121.93967">
        <ele>33.0</ele>
      </trkpt>
      <trkpt lat="36.51304" lon="-121.93949">
        <ele>33.0</ele>
      </trkpt>
      <trkpt lat="36.51308" lon="-121.93923">
        <ele>35.0</ele>
      </trkpt>
      <trkpt lat="36.51315" lon="-121.9391">
        <ele>35.0</ele>
      </trkpt>
      <trkpt lat="36.51334" lon="-121.93898">
        <ele>35.0</ele>
      </trkpt>
      <trkpt lat="36.51345" lon="-121.93874">
        <ele>34.0</ele>
      </trkpt>
      <trkpt lat="36.51361" lon="-121.93857">
        <ele>39.0</ele>
      </trkpt>
      <trkpt lat="36.5138" lon="-121.93803">
        <ele>42.0</ele>
      </trkpt>
      <trkpt lat="36.51397" lon="-121.93796">
        <ele>42.0</ele>
      </trkpt>
      <trkpt lat="36.51424" lon="-121.93794">
        <ele>45.0</ele>
      </trkpt>
      <trkpt lat="36.51452" lon="-121.93799">
        <ele>54.0</ele>
      </trkpt>
      <trkpt lat="36.515" lon="-121.93836">
        <ele>41.0</ele>
      </trkpt>
      <trkpt lat="36.51521" lon="-121.93842">
        <ele>38.0</ele>
      </trkpt>
      <trkpt lat="36.51548" lon="-121.93854">
        <ele>35.0</ele>
      </trkpt>
      <trkpt lat="36.51571" lon="-121.93856">
        <ele>32.0</ele>
      </trkpt>
      <trkpt lat="36.51571" lon="-121.93856">
        <ele>32.0</ele>
      </trkpt>
      <trkpt lat="36.51571" lon="-121.93856">
        <ele>32.0</ele>
      </trkpt>
      <trkpt lat="36.515798553" lon="-121.938529006">
        <ele>32.0</ele>
      </trkpt>
      <trkpt lat="36.515971923" lon="-121.938486993">
        <ele>32.0</ele>
      </trkpt>
    </trkseg>
  </trk>
</gpx>
