<?xml version="1.0" encoding="UTF-8"?>
<gpx xmlns:xsi="http://www.w3.org/2001/XMLSchema-instance" version="1.1" creator="The Outbound Collective, Inc. 1.1.1 -- https://www.theoutbound.com" xsi:schemaLocation="http://www.topografix.com/GPX/1/1 http://www.topografix.com/GPX/1/1/gpx.xsd">
  <metadata>
    <name/>
    <time>2026-02-19T21:53:27+00:00</time>
    <bound minlat="38.95222" minlon="-120.1101672649384" maxlat="38.95727" maxlon="-120.10494"/>
  </metadata>
  <trk>
    <name/>
    <trkseg>
      <trkpt lat="38.95426953191473" lon="-120.1101672649384">
        <ele>2013.0</ele>
      </trkpt>
      <trkpt lat="38.95424546231824" lon="-120.110151344222">
        <ele>2013.0</ele>
      </trkpt>
      <trkpt lat="38.95431" lon="-120.10999">
        <ele>2024.0</ele>
      </trkpt>
      <trkpt lat="38.95431" lon="-120.10999">
        <ele>2024.0</ele>
      </trkpt>
      <trkpt lat="38.95431" lon="-120.10999">
        <ele>2024.0</ele>
      </trkpt>
      <trkpt lat="38.95436" lon="-120.10997">
        <ele>2024.0</ele>
      </trkpt>
      <trkpt lat="38.95436" lon="-120.10997">
        <ele>2024.0</ele>
      </trkpt>
      <trkpt lat="38.95443" lon="-120.10985">
        <ele>2018.0</ele>
      </trkpt>
      <trkpt lat="38.95443" lon="-120.10985">
        <ele>2018.0</ele>
      </trkpt>
      <trkpt lat="38.95443" lon="-120.10985">
        <ele>2018.0</ele>
      </trkpt>
      <trkpt lat="38.95462" lon="-120.1097">
        <ele>2018.0</ele>
      </trkpt>
      <trkpt lat="38.95489" lon="-120.10972">
        <ele>2019.0</ele>
      </trkpt>
      <trkpt lat="38.955" lon="-120.10968">
        <ele>2019.0</ele>
      </trkpt>
      <trkpt lat="38.955" lon="-120.10968">
        <ele>2019.0</ele>
      </trkpt>
      <trkpt lat="38.955" lon="-120.10968">
        <ele>2019.0</ele>
      </trkpt>
      <trkpt lat="38.95517" lon="-120.10947">
        <ele>2010.0</ele>
      </trkpt>
      <trkpt lat="38.95572" lon="-120.10907">
        <ele>2011.0</ele>
      </trkpt>
      <trkpt lat="38.95619" lon="-120.10853">
        <ele>1993.0</ele>
      </trkpt>
      <trkpt lat="38.9566" lon="-120.10774">
        <ele>1985.0</ele>
      </trkpt>
      <trkpt lat="38.95683" lon="-120.1071">
        <ele>1991.0</ele>
      </trkpt>
      <trkpt lat="38.95702" lon="-120.10638">
        <ele>1975.0</ele>
      </trkpt>
      <trkpt lat="38.95727" lon="-120.1053">
        <ele>1969.0</ele>
      </trkpt>
      <trkpt lat="38.95726" lon="-120.10495">
        <ele>1965.0</ele>
      </trkpt>
      <trkpt lat="38.95723" lon="-120.10494">
        <ele>1965.0</ele>
      </trkpt>
      <trkpt lat="38.95717" lon="-120.10505">
        <ele>1965.0</ele>
      </trkpt>
      <trkpt lat="38.9569" lon="-120.10577">
        <ele>1958.0</ele>
      </trkpt>
      <trkpt lat="38.95662" lon="-120.10625">
        <ele>1951.0</ele>
      </trkpt>
      <trkpt lat="38.95651" lon="-120.1064">
        <ele>1949.0</ele>
      </trkpt>
      <trkpt lat="38.95634" lon="-120.10654">
        <ele>1954.0</ele>
      </trkpt>
      <trkpt lat="38.95621" lon="-120.10668">
        <ele>1944.0</ele>
      </trkpt>
      <trkpt lat="38.9561" lon="-120.10688">
        <ele>1950.0</ele>
      </trkpt>
      <trkpt lat="38.95555" lon="-120.10757">
        <ele>1942.0</ele>
      </trkpt>
      <trkpt lat="38.95538" lon="-120.10767">
        <ele>1946.0</ele>
      </trkpt>
      <trkpt lat="38.95528" lon="-120.10768">
        <ele>1946.0</ele>
      </trkpt>
      <trkpt lat="38.95524360916061" lon="-120.107671602114">
        <ele>1946.0</ele>
      </trkpt>
      <trkpt lat="38.95524360918466" lon="-120.107671602114">
        <ele>1946.0</ele>
      </trkpt>
      <trkpt lat="38.95515" lon="-120.10765">
        <ele>1946.0</ele>
      </trkpt>
      <trkpt lat="38.95508" lon="-120.10758">
        <ele>1931.0</ele>
      </trkpt>
      <trkpt lat="38.95503" lon="-120.10749">
        <ele>1931.0</ele>
      </trkpt>
      <trkpt lat="38.95505" lon="-120.10737">
        <ele>1931.0</ele>
      </trkpt>
      <trkpt lat="38.95512" lon="-120.10719">
        <ele>1927.0</ele>
      </trkpt>
      <trkpt lat="38.95516" lon="-120.10696">
        <ele>1930.0</ele>
      </trkpt>
      <trkpt lat="38.95516" lon="-120.10696">
        <ele>1930.0</ele>
      </trkpt>
      <trkpt lat="38.95495" lon="-120.10694">
        <ele>1925.0</ele>
      </trkpt>
      <trkpt lat="38.9548" lon="-120.10698">
        <ele>1922.0</ele>
      </trkpt>
      <trkpt lat="38.95402" lon="-120.10744">
        <ele>1915.0</ele>
      </trkpt>
      <trkpt lat="38.95357550049901" lon="-120.1075254806733">
        <ele>1916.0</ele>
      </trkpt>
      <trkpt lat="38.95357550073577" lon="-120.1075254806732">
        <ele>1916.0</ele>
      </trkpt>
      <trkpt lat="38.9535" lon="-120.10754">
        <ele>1916.0</ele>
      </trkpt>
      <trkpt lat="38.95289023330813" lon="-120.1075674052446">
        <ele>1926.0</ele>
      </trkpt>
      <trkpt lat="38.95289023330813" lon="-120.1075674052446">
        <ele>1926.0</ele>
      </trkpt>
      <trkpt lat="38.95261" lon="-120.10758">
        <ele>1925.0</ele>
      </trkpt>
      <trkpt lat="38.9524" lon="-120.10751">
        <ele>1925.0</ele>
      </trkpt>
      <trkpt lat="38.95222" lon="-120.10736">
        <ele>1914.0</ele>
      </trkpt>
      <trkpt lat="38.95222" lon="-120.10736">
        <ele>1914.0</ele>
      </trkpt>
      <trkpt lat="38.95222835604067" lon="-120.1073544293062">
        <ele>1914.0</ele>
      </trkpt>
      <trkpt lat="38.95222835604903" lon="-120.1073544293062">
        <ele>1914.0</ele>
      </trkpt>
      <trkpt lat="38.95237" lon="-120.10726">
        <ele>1915.0</ele>
      </trkpt>
      <trkpt lat="38.95249" lon="-120.10671">
        <ele>1904.0</ele>
      </trkpt>
      <trkpt lat="38.9526" lon="-120.10662">
        <ele>1904.0</ele>
      </trkpt>
      <trkpt lat="38.95267" lon="-120.10662">
        <ele>1906.0</ele>
      </trkpt>
      <trkpt lat="38.95286" lon="-120.10668">
        <ele>1906.0</ele>
      </trkpt>
      <trkpt lat="38.95288063783976" lon="-120.1067006378398">
        <ele>1906.0</ele>
      </trkpt>
      <trkpt lat="38.95288063784695" lon="-120.1067006378398">
        <ele>1906.0</ele>
      </trkpt>
      <trkpt lat="38.95286" lon="-120.10668">
        <ele>1906.0</ele>
      </trkpt>
      <trkpt lat="38.95267" lon="-120.10662">
        <ele>1906.0</ele>
      </trkpt>
      <trkpt lat="38.9526" lon="-120.10662">
        <ele>1904.0</ele>
      </trkpt>
      <trkpt lat="38.95249" lon="-120.10671">
        <ele>1904.0</ele>
      </trkpt>
      <trkpt lat="38.9524487660891" lon="-120.1068989887583">
        <ele>1908.0</ele>
      </trkpt>
      <trkpt lat="38.95244876611204" lon="-120.1068989887583">
        <ele>1908.0</ele>
      </trkpt>
      <trkpt lat="38.95237" lon="-120.10726">
        <ele>1915.0</ele>
      </trkpt>
      <trkpt lat="38.95222" lon="-120.10736">
        <ele>1914.0</ele>
      </trkpt>
      <trkpt lat="38.95222" lon="-120.10736">
        <ele>1914.0</ele>
      </trkpt>
      <trkpt lat="38.9524" lon="-120.10751">
        <ele>1925.0</ele>
      </trkpt>
      <trkpt lat="38.95261" lon="-120.10758">
        <ele>1925.0</ele>
      </trkpt>
      <trkpt lat="38.95289023330813" lon="-120.1075674052446">
        <ele>1926.0</ele>
      </trkpt>
      <trkpt lat="38.95289023330813" lon="-120.1075674052446">
        <ele>1926.0</ele>
      </trkpt>
      <trkpt lat="38.9535" lon="-120.10754">
        <ele>1916.0</ele>
      </trkpt>
      <trkpt lat="38.95402" lon="-120.10744">
        <ele>1915.0</ele>
      </trkpt>
      <trkpt lat="38.9548" lon="-120.10698">
        <ele>1922.0</ele>
      </trkpt>
      <trkpt lat="38.95495" lon="-120.10694">
        <ele>1925.0</ele>
      </trkpt>
      <trkpt lat="38.95516" lon="-120.10696">
        <ele>1930.0</ele>
      </trkpt>
      <trkpt lat="38.95516" lon="-120.10696">
        <ele>1930.0</ele>
      </trkpt>
      <trkpt lat="38.95512" lon="-120.10719">
        <ele>1927.0</ele>
      </trkpt>
      <trkpt lat="38.95505" lon="-120.10737">
        <ele>1931.0</ele>
      </trkpt>
      <trkpt lat="38.95503" lon="-120.10749">
        <ele>1931.0</ele>
      </trkpt>
      <trkpt lat="38.95508" lon="-120.10758">
        <ele>1931.0</ele>
      </trkpt>
      <trkpt lat="38.95515" lon="-120.10765">
        <ele>1946.0</ele>
      </trkpt>
      <trkpt lat="38.95528" lon="-120.10768">
        <ele>1946.0</ele>
      </trkpt>
      <trkpt lat="38.95538" lon="-120.10767">
        <ele>1946.0</ele>
      </trkpt>
      <trkpt lat="38.95555" lon="-120.10757">
        <ele>1942.0</ele>
      </trkpt>
      <trkpt lat="38.9561" lon="-120.10688">
        <ele>1950.0</ele>
      </trkpt>
      <trkpt lat="38.95621" lon="-120.10668">
        <ele>1944.0</ele>
      </trkpt>
      <trkpt lat="38.95634" lon="-120.10654">
        <ele>1954.0</ele>
      </trkpt>
      <trkpt lat="38.95651" lon="-120.1064">
        <ele>1949.0</ele>
      </trkpt>
      <trkpt lat="38.95662" lon="-120.10625">
        <ele>1951.0</ele>
      </trkpt>
      <trkpt lat="38.9569" lon="-120.10577">
        <ele>1958.0</ele>
      </trkpt>
      <trkpt lat="38.95717" lon="-120.10505">
        <ele>1965.0</ele>
      </trkpt>
      <trkpt lat="38.95723" lon="-120.10494">
        <ele>1965.0</ele>
      </trkpt>
      <trkpt lat="38.95726" lon="-120.10495">
        <ele>1965.0</ele>
      </trkpt>
      <trkpt lat="38.95727" lon="-120.1053">
        <ele>1969.0</ele>
      </trkpt>
      <trkpt lat="38.95702" lon="-120.10638">
        <ele>1975.0</ele>
      </trkpt>
      <trkpt lat="38.95683" lon="-120.1071">
        <ele>1991.0</ele>
      </trkpt>
      <trkpt lat="38.9566" lon="-120.10774">
        <ele>1985.0</ele>
      </trkpt>
      <trkpt lat="38.95619" lon="-120.10853">
        <ele>1993.0</ele>
      </trkpt>
      <trkpt lat="38.95572" lon="-120.10907">
        <ele>2011.0</ele>
      </trkpt>
      <trkpt lat="38.95555971042124" lon="-120.1091865742391">
        <ele>2001.0</ele>
      </trkpt>
      <trkpt lat="38.95555971086198" lon="-120.1091865742391">
        <ele>2001.0</ele>
      </trkpt>
      <trkpt lat="38.95517" lon="-120.10947">
        <ele>2010.0</ele>
      </trkpt>
      <trkpt lat="38.955" lon="-120.10968">
        <ele>2019.0</ele>
      </trkpt>
      <trkpt lat="38.955" lon="-120.10968">
        <ele>2019.0</ele>
      </trkpt>
      <trkpt lat="38.955" lon="-120.10968">
        <ele>2019.0</ele>
      </trkpt>
      <trkpt lat="38.95489" lon="-120.10972">
        <ele>2019.0</ele>
      </trkpt>
      <trkpt lat="38.95462" lon="-120.1097">
        <ele>2018.0</ele>
      </trkpt>
      <trkpt lat="38.95443" lon="-120.10985">
        <ele>2018.0</ele>
      </trkpt>
      <trkpt lat="38.95443" lon="-120.10985">
        <ele>2018.0</ele>
      </trkpt>
      <trkpt lat="38.95443" lon="-120.10985">
        <ele>2018.0</ele>
      </trkpt>
      <trkpt lat="38.95436" lon="-120.10997">
        <ele>2024.0</ele>
      </trkpt>
      <trkpt lat="38.95436" lon="-120.10997">
        <ele>2024.0</ele>
      </trkpt>
      <trkpt lat="38.95431" lon="-120.10999">
        <ele>2024.0</ele>
      </trkpt>
      <trkpt lat="38.95431" lon="-120.10999">
        <ele>2024.0</ele>
      </trkpt>
      <trkpt lat="38.95431" lon="-120.10999">
        <ele>2024.0</ele>
      </trkpt>
      <trkpt lat="38.95424711036386" lon="-120.1101472240904">
        <ele>2013.0</ele>
      </trkpt>
    </trkseg>
  </trk>
</gpx>
