<?xml version="1.0" encoding="UTF-8"?>
<gpx xmlns:xsi="http://www.w3.org/2001/XMLSchema-instance" version="1.1" creator="The Outbound Collective, Inc. 1.1.1 -- https://www.theoutbound.com" xsi:schemaLocation="http://www.topografix.com/GPX/1/1 http://www.topografix.com/GPX/1/1/gpx.xsd">
  <metadata>
    <name/>
    <time>2026-02-19T21:58:35+00:00</time>
    <bound minlat="34.026093718" minlon="-118.78022" maxlat="34.043040026" maxlon="-118.77216"/>
  </metadata>
  <trk>
    <name/>
    <trkseg>
      <trkpt lat="34.026103551" lon="-118.780016899">
        <ele>37.0</ele>
      </trkpt>
      <trkpt lat="34.026094" lon="-118.78001">
        <ele>37.0</ele>
      </trkpt>
      <trkpt lat="34.02614" lon="-118.77978">
        <ele>36.0</ele>
      </trkpt>
      <trkpt lat="34.026138505" lon="-118.779787469">
        <ele>36.0</ele>
      </trkpt>
      <trkpt lat="34.02649" lon="-118.77986">
        <ele>31.0</ele>
      </trkpt>
      <trkpt lat="34.02649" lon="-118.77986">
        <ele>31.0</ele>
      </trkpt>
      <trkpt lat="34.02704" lon="-118.78015">
        <ele>40.0</ele>
      </trkpt>
      <trkpt lat="34.02726" lon="-118.78022">
        <ele>42.0</ele>
      </trkpt>
      <trkpt lat="34.02754" lon="-118.78022">
        <ele>43.0</ele>
      </trkpt>
      <trkpt lat="34.02774" lon="-118.78017">
        <ele>47.0</ele>
      </trkpt>
      <trkpt lat="34.02798" lon="-118.78003">
        <ele>59.0</ele>
      </trkpt>
      <trkpt lat="34.02845" lon="-118.77966">
        <ele>66.0</ele>
      </trkpt>
      <trkpt lat="34.02861" lon="-118.7795">
        <ele>66.0</ele>
      </trkpt>
      <trkpt lat="34.028682617" lon="-118.779381998">
        <ele>66.0</ele>
      </trkpt>
      <trkpt lat="34.028682617" lon="-118.779381998">
        <ele>66.0</ele>
      </trkpt>
      <trkpt lat="34.02866" lon="-118.77934">
        <ele>66.0</ele>
      </trkpt>
      <trkpt lat="34.02871" lon="-118.77923">
        <ele>65.0</ele>
      </trkpt>
      <trkpt lat="34.02882338" lon="-118.778828808">
        <ele>64.0</ele>
      </trkpt>
      <trkpt lat="34.02882338" lon="-118.778828808">
        <ele>64.0</ele>
      </trkpt>
      <trkpt lat="34.02884" lon="-118.77877">
        <ele>64.0</ele>
      </trkpt>
      <trkpt lat="34.02891" lon="-118.7786">
        <ele>60.0</ele>
      </trkpt>
      <trkpt lat="34.02905" lon="-118.77841">
        <ele>62.0</ele>
      </trkpt>
      <trkpt lat="34.02924" lon="-118.77826">
        <ele>62.0</ele>
      </trkpt>
      <trkpt lat="34.02967" lon="-118.77807">
        <ele>64.0</ele>
      </trkpt>
      <trkpt lat="34.02975" lon="-118.7779">
        <ele>65.0</ele>
      </trkpt>
      <trkpt lat="34.02975" lon="-118.7778">
        <ele>65.0</ele>
      </trkpt>
      <trkpt lat="34.02971" lon="-118.77769">
        <ele>65.0</ele>
      </trkpt>
      <trkpt lat="34.02942" lon="-118.77749">
        <ele>63.0</ele>
      </trkpt>
      <trkpt lat="34.02934" lon="-118.77738">
        <ele>63.0</ele>
      </trkpt>
      <trkpt lat="34.029329443" lon="-118.77732986">
        <ele>68.0</ele>
      </trkpt>
      <trkpt lat="34.029329443" lon="-118.77732986">
        <ele>68.0</ele>
      </trkpt>
      <trkpt lat="34.0293" lon="-118.77719">
        <ele>62.0</ele>
      </trkpt>
      <trkpt lat="34.02933" lon="-118.77704">
        <ele>72.0</ele>
      </trkpt>
      <trkpt lat="34.02937" lon="-118.77695">
        <ele>72.0</ele>
      </trkpt>
      <trkpt lat="34.02955" lon="-118.77667">
        <ele>71.0</ele>
      </trkpt>
      <trkpt lat="34.02956" lon="-118.77658">
        <ele>71.0</ele>
      </trkpt>
      <trkpt lat="34.02951" lon="-118.77628">
        <ele>71.0</ele>
      </trkpt>
      <trkpt lat="34.02952" lon="-118.77613">
        <ele>70.0</ele>
      </trkpt>
      <trkpt lat="34.02956" lon="-118.77592">
        <ele>66.0</ele>
      </trkpt>
      <trkpt lat="34.029626912" lon="-118.77577363">
        <ele>76.0</ele>
      </trkpt>
      <trkpt lat="34.02965" lon="-118.77579">
        <ele>76.0</ele>
      </trkpt>
      <trkpt lat="34.02965" lon="-118.77579">
        <ele>76.0</ele>
      </trkpt>
      <trkpt lat="34.02976" lon="-118.7756">
        <ele>72.0</ele>
      </trkpt>
      <trkpt lat="34.02989" lon="-118.77546">
        <ele>79.0</ele>
      </trkpt>
      <trkpt lat="34.029949557" lon="-118.775419055">
        <ele>79.0</ele>
      </trkpt>
      <trkpt lat="34.029949557" lon="-118.775419055">
        <ele>79.0</ele>
      </trkpt>
      <trkpt lat="34.03005" lon="-118.77535">
        <ele>72.0</ele>
      </trkpt>
      <trkpt lat="34.03026" lon="-118.77528">
        <ele>77.0</ele>
      </trkpt>
      <trkpt lat="34.03041" lon="-118.77526">
        <ele>77.0</ele>
      </trkpt>
      <trkpt lat="34.03094" lon="-118.77533">
        <ele>80.0</ele>
      </trkpt>
      <trkpt lat="34.0310374" lon="-118.775297533">
        <ele>81.0</ele>
      </trkpt>
      <trkpt lat="34.0310374" lon="-118.775297533">
        <ele>81.0</ele>
      </trkpt>
      <trkpt lat="34.03121" lon="-118.77524">
        <ele>81.0</ele>
      </trkpt>
      <trkpt lat="34.03142" lon="-118.77507">
        <ele>87.0</ele>
      </trkpt>
      <trkpt lat="34.031497113" lon="-118.774947321">
        <ele>87.0</ele>
      </trkpt>
      <trkpt lat="34.031497113" lon="-118.774947321">
        <ele>87.0</ele>
      </trkpt>
      <trkpt lat="34.031524173" lon="-118.77490427">
        <ele>87.0</ele>
      </trkpt>
      <trkpt lat="34.031524173" lon="-118.77490427">
        <ele>87.0</ele>
      </trkpt>
      <trkpt lat="34.031570544" lon="-118.774830498">
        <ele>94.0</ele>
      </trkpt>
      <trkpt lat="34.031570544" lon="-118.774830498">
        <ele>94.0</ele>
      </trkpt>
      <trkpt lat="34.03164" lon="-118.77472">
        <ele>94.0</ele>
      </trkpt>
      <trkpt lat="34.031781779" lon="-118.774547401">
        <ele>95.0</ele>
      </trkpt>
      <trkpt lat="34.031781779" lon="-118.774547401">
        <ele>95.0</ele>
      </trkpt>
      <trkpt lat="34.03187" lon="-118.77444">
        <ele>93.0</ele>
      </trkpt>
      <trkpt lat="34.03187" lon="-118.77444">
        <ele>93.0</ele>
      </trkpt>
      <trkpt lat="34.03187" lon="-118.77444">
        <ele>93.0</ele>
      </trkpt>
      <trkpt lat="34.03195" lon="-118.77425">
        <ele>89.0</ele>
      </trkpt>
      <trkpt lat="34.031960748" lon="-118.774192679">
        <ele>89.0</ele>
      </trkpt>
      <trkpt lat="34.031960748" lon="-118.774192679">
        <ele>89.0</ele>
      </trkpt>
      <trkpt lat="34.03198" lon="-118.77409">
        <ele>89.0</ele>
      </trkpt>
      <trkpt lat="34.031971967" lon="-118.773840965">
        <ele>85.0</ele>
      </trkpt>
      <trkpt lat="34.031971967" lon="-118.773840965">
        <ele>85.0</ele>
      </trkpt>
      <trkpt lat="34.03197" lon="-118.77378">
        <ele>85.0</ele>
      </trkpt>
      <trkpt lat="34.03189" lon="-118.77345">
        <ele>77.0</ele>
      </trkpt>
      <trkpt lat="34.03169" lon="-118.77289">
        <ele>77.0</ele>
      </trkpt>
      <trkpt lat="34.03169" lon="-118.77289">
        <ele>77.0</ele>
      </trkpt>
      <trkpt lat="34.03182" lon="-118.77258">
        <ele>70.0</ele>
      </trkpt>
      <trkpt lat="34.0319" lon="-118.77249">
        <ele>70.0</ele>
      </trkpt>
      <trkpt lat="34.03198" lon="-118.77245">
        <ele>70.0</ele>
      </trkpt>
      <trkpt lat="34.03233" lon="-118.77242">
        <ele>64.0</ele>
      </trkpt>
      <trkpt lat="34.03266" lon="-118.77257">
        <ele>54.0</ele>
      </trkpt>
      <trkpt lat="34.03281" lon="-118.77258">
        <ele>54.0</ele>
      </trkpt>
      <trkpt lat="34.03284" lon="-118.77256">
        <ele>54.0</ele>
      </trkpt>
      <trkpt lat="34.03304" lon="-118.77221">
        <ele>55.0</ele>
      </trkpt>
      <trkpt lat="34.03312" lon="-118.77216">
        <ele>55.0</ele>
      </trkpt>
      <trkpt lat="34.03317" lon="-118.77219">
        <ele>55.0</ele>
      </trkpt>
      <trkpt lat="34.0332" lon="-118.77237">
        <ele>54.0</ele>
      </trkpt>
      <trkpt lat="34.0332" lon="-118.77237">
        <ele>54.0</ele>
      </trkpt>
      <trkpt lat="34.0332" lon="-118.77237">
        <ele>54.0</ele>
      </trkpt>
      <trkpt lat="34.03315" lon="-118.77245">
        <ele>49.0</ele>
      </trkpt>
      <trkpt lat="34.03314" lon="-118.77278">
        <ele>48.0</ele>
      </trkpt>
      <trkpt lat="34.03319" lon="-118.77296">
        <ele>48.0</ele>
      </trkpt>
      <trkpt lat="34.03327" lon="-118.77308">
        <ele>53.0</ele>
      </trkpt>
      <trkpt lat="34.03338" lon="-118.77336">
        <ele>53.0</ele>
      </trkpt>
      <trkpt lat="34.0335" lon="-118.77345">
        <ele>54.0</ele>
      </trkpt>
      <trkpt lat="34.03358" lon="-118.77357">
        <ele>55.0</ele>
      </trkpt>
      <trkpt lat="34.03364" lon="-118.77359">
        <ele>55.0</ele>
      </trkpt>
      <trkpt lat="34.03375" lon="-118.77355">
        <ele>55.0</ele>
      </trkpt>
      <trkpt lat="34.03384" lon="-118.77361">
        <ele>55.0</ele>
      </trkpt>
      <trkpt lat="34.0341" lon="-118.77386">
        <ele>53.0</ele>
      </trkpt>
      <trkpt lat="34.03425" lon="-118.77394">
        <ele>53.0</ele>
      </trkpt>
      <trkpt lat="34.03445" lon="-118.77445">
        <ele>57.0</ele>
      </trkpt>
      <trkpt lat="34.03445" lon="-118.77445">
        <ele>57.0</ele>
      </trkpt>
      <trkpt lat="34.03495" lon="-118.77602">
        <ele>62.0</ele>
      </trkpt>
      <trkpt lat="34.035009573" lon="-118.776051205">
        <ele>62.0</ele>
      </trkpt>
      <trkpt lat="34.035009573" lon="-118.776051205">
        <ele>62.0</ele>
      </trkpt>
      <trkpt lat="34.03516" lon="-118.77613">
        <ele>70.0</ele>
      </trkpt>
      <trkpt lat="34.03524" lon="-118.77631">
        <ele>69.0</ele>
      </trkpt>
      <trkpt lat="34.03535" lon="-118.77663">
        <ele>67.0</ele>
      </trkpt>
      <trkpt lat="34.03537" lon="-118.77682">
        <ele>66.0</ele>
      </trkpt>
      <trkpt lat="34.035454783" lon="-118.777031955">
        <ele>69.0</ele>
      </trkpt>
      <trkpt lat="34.035454783" lon="-118.777031955">
        <ele>69.0</ele>
      </trkpt>
      <trkpt lat="34.03553" lon="-118.77722">
        <ele>67.0</ele>
      </trkpt>
      <trkpt lat="34.03559" lon="-118.7773">
        <ele>67.0</ele>
      </trkpt>
      <trkpt lat="34.0358" lon="-118.77738">
        <ele>66.0</ele>
      </trkpt>
      <trkpt lat="34.03602" lon="-118.77737">
        <ele>71.0</ele>
      </trkpt>
      <trkpt lat="34.03609" lon="-118.77734">
        <ele>73.0</ele>
      </trkpt>
      <trkpt lat="34.03615" lon="-118.77739">
        <ele>71.0</ele>
      </trkpt>
      <trkpt lat="34.03636" lon="-118.77793">
        <ele>76.0</ele>
      </trkpt>
      <trkpt lat="34.03666" lon="-118.77817">
        <ele>75.0</ele>
      </trkpt>
      <trkpt lat="34.03717" lon="-118.77847">
        <ele>74.0</ele>
      </trkpt>
      <trkpt lat="34.03739" lon="-118.77865">
        <ele>80.0</ele>
      </trkpt>
      <trkpt lat="34.03761" lon="-118.77892">
        <ele>75.0</ele>
      </trkpt>
      <trkpt lat="34.03778" lon="-118.77905">
        <ele>71.0</ele>
      </trkpt>
      <trkpt lat="34.03809686" lon="-118.779093873">
        <ele>75.0</ele>
      </trkpt>
      <trkpt lat="34.03809686" lon="-118.779093873">
        <ele>75.0</ele>
      </trkpt>
      <trkpt lat="34.03843" lon="-118.77914">
        <ele>79.0</ele>
      </trkpt>
      <trkpt lat="34.03881" lon="-118.77922">
        <ele>79.0</ele>
      </trkpt>
      <trkpt lat="34.03914" lon="-118.77919">
        <ele>76.0</ele>
      </trkpt>
      <trkpt lat="34.0395" lon="-118.77927">
        <ele>89.0</ele>
      </trkpt>
      <trkpt lat="34.03968" lon="-118.77934">
        <ele>81.0</ele>
      </trkpt>
      <trkpt lat="34.03986" lon="-118.77934">
        <ele>81.0</ele>
      </trkpt>
      <trkpt lat="34.04025" lon="-118.77956">
        <ele>90.0</ele>
      </trkpt>
      <trkpt lat="34.04069" lon="-118.77957">
        <ele>93.0</ele>
      </trkpt>
      <trkpt lat="34.04082" lon="-118.77963">
        <ele>91.0</ele>
      </trkpt>
      <trkpt lat="34.04097" lon="-118.7798">
        <ele>91.0</ele>
      </trkpt>
      <trkpt lat="34.0411" lon="-118.77987">
        <ele>87.0</ele>
      </trkpt>
      <trkpt lat="34.04139" lon="-118.77988">
        <ele>93.0</ele>
      </trkpt>
      <trkpt lat="34.04193" lon="-118.78006">
        <ele>108.0</ele>
      </trkpt>
      <trkpt lat="34.04209" lon="-118.78005">
        <ele>117.0</ele>
      </trkpt>
      <trkpt lat="34.04218" lon="-118.77995">
        <ele>117.0</ele>
      </trkpt>
      <trkpt lat="34.0422" lon="-118.77978">
        <ele>125.0</ele>
      </trkpt>
      <trkpt lat="34.04228" lon="-118.77976">
        <ele>125.0</ele>
      </trkpt>
      <trkpt lat="34.04239" lon="-118.77981">
        <ele>135.0</ele>
      </trkpt>
      <trkpt lat="34.04244" lon="-118.77988">
        <ele>131.0</ele>
      </trkpt>
      <trkpt lat="34.04248" lon="-118.78001">
        <ele>131.0</ele>
      </trkpt>
      <trkpt lat="34.04266" lon="-118.77997">
        <ele>150.0</ele>
      </trkpt>
      <trkpt lat="34.04283" lon="-118.77999">
        <ele>150.0</ele>
      </trkpt>
      <trkpt lat="34.04288" lon="-118.77988">
        <ele>150.0</ele>
      </trkpt>
      <trkpt lat="34.04284" lon="-118.7796">
        <ele>154.0</ele>
      </trkpt>
      <trkpt lat="34.0429" lon="-118.77943">
        <ele>172.0</ele>
      </trkpt>
      <trkpt lat="34.043040026" lon="-118.77943">
        <ele>184.0</ele>
      </trkpt>
      <trkpt lat="34.043040026" lon="-118.77943">
        <ele>184.0</ele>
      </trkpt>
      <trkpt lat="34.0429" lon="-118.77943">
        <ele>172.0</ele>
      </trkpt>
      <trkpt lat="34.04284" lon="-118.7796">
        <ele>154.0</ele>
      </trkpt>
      <trkpt lat="34.04288" lon="-118.77988">
        <ele>150.0</ele>
      </trkpt>
      <trkpt lat="34.04283" lon="-118.77999">
        <ele>150.0</ele>
      </trkpt>
      <trkpt lat="34.04266" lon="-118.77997">
        <ele>150.0</ele>
      </trkpt>
      <trkpt lat="34.04248" lon="-118.78001">
        <ele>131.0</ele>
      </trkpt>
      <trkpt lat="34.04244" lon="-118.77988">
        <ele>131.0</ele>
      </trkpt>
      <trkpt lat="34.04239" lon="-118.77981">
        <ele>135.0</ele>
      </trkpt>
      <trkpt lat="34.04228" lon="-118.77976">
        <ele>125.0</ele>
      </trkpt>
      <trkpt lat="34.0422" lon="-118.77978">
        <ele>125.0</ele>
      </trkpt>
      <trkpt lat="34.04218" lon="-118.77995">
        <ele>117.0</ele>
      </trkpt>
      <trkpt lat="34.04209" lon="-118.78005">
        <ele>117.0</ele>
      </trkpt>
      <trkpt lat="34.04193" lon="-118.78006">
        <ele>108.0</ele>
      </trkpt>
      <trkpt lat="34.04139" lon="-118.77988">
        <ele>93.0</ele>
      </trkpt>
      <trkpt lat="34.0411" lon="-118.77987">
        <ele>87.0</ele>
      </trkpt>
      <trkpt lat="34.04097" lon="-118.7798">
        <ele>91.0</ele>
      </trkpt>
      <trkpt lat="34.04082" lon="-118.77963">
        <ele>91.0</ele>
      </trkpt>
      <trkpt lat="34.04069" lon="-118.77957">
        <ele>93.0</ele>
      </trkpt>
      <trkpt lat="34.04025" lon="-118.77956">
        <ele>90.0</ele>
      </trkpt>
      <trkpt lat="34.03986" lon="-118.77934">
        <ele>81.0</ele>
      </trkpt>
      <trkpt lat="34.03968" lon="-118.77934">
        <ele>81.0</ele>
      </trkpt>
      <trkpt lat="34.0395" lon="-118.77927">
        <ele>89.0</ele>
      </trkpt>
      <trkpt lat="34.03914" lon="-118.77919">
        <ele>76.0</ele>
      </trkpt>
      <trkpt lat="34.03881" lon="-118.77922">
        <ele>79.0</ele>
      </trkpt>
      <trkpt lat="34.03843" lon="-118.77914">
        <ele>79.0</ele>
      </trkpt>
      <trkpt lat="34.03778" lon="-118.77905">
        <ele>71.0</ele>
      </trkpt>
      <trkpt lat="34.03761" lon="-118.77892">
        <ele>75.0</ele>
      </trkpt>
      <trkpt lat="34.03739" lon="-118.77865">
        <ele>80.0</ele>
      </trkpt>
      <trkpt lat="34.03717" lon="-118.77847">
        <ele>74.0</ele>
      </trkpt>
      <trkpt lat="34.03666" lon="-118.77817">
        <ele>75.0</ele>
      </trkpt>
      <trkpt lat="34.03636" lon="-118.77793">
        <ele>76.0</ele>
      </trkpt>
      <trkpt lat="34.03615" lon="-118.77739">
        <ele>71.0</ele>
      </trkpt>
      <trkpt lat="34.03609" lon="-118.77734">
        <ele>73.0</ele>
      </trkpt>
      <trkpt lat="34.03602" lon="-118.77737">
        <ele>71.0</ele>
      </trkpt>
      <trkpt lat="34.0358" lon="-118.77738">
        <ele>66.0</ele>
      </trkpt>
      <trkpt lat="34.03559" lon="-118.7773">
        <ele>67.0</ele>
      </trkpt>
      <trkpt lat="34.03553" lon="-118.77722">
        <ele>67.0</ele>
      </trkpt>
      <trkpt lat="34.035454783" lon="-118.777031955">
        <ele>69.0</ele>
      </trkpt>
      <trkpt lat="34.035454783" lon="-118.777031955">
        <ele>69.0</ele>
      </trkpt>
      <trkpt lat="34.03537" lon="-118.77682">
        <ele>66.0</ele>
      </trkpt>
      <trkpt lat="34.03535" lon="-118.77663">
        <ele>67.0</ele>
      </trkpt>
      <trkpt lat="34.03524" lon="-118.77631">
        <ele>69.0</ele>
      </trkpt>
      <trkpt lat="34.035194288" lon="-118.776207147">
        <ele>70.0</ele>
      </trkpt>
      <trkpt lat="34.035194288" lon="-118.776207147">
        <ele>70.0</ele>
      </trkpt>
      <trkpt lat="34.03516" lon="-118.77613">
        <ele>70.0</ele>
      </trkpt>
      <trkpt lat="34.035009573" lon="-118.776051205">
        <ele>62.0</ele>
      </trkpt>
      <trkpt lat="34.035009573" lon="-118.776051205">
        <ele>62.0</ele>
      </trkpt>
      <trkpt lat="34.03495" lon="-118.77602">
        <ele>62.0</ele>
      </trkpt>
      <trkpt lat="34.03445" lon="-118.77445">
        <ele>57.0</ele>
      </trkpt>
      <trkpt lat="34.03445" lon="-118.77445">
        <ele>57.0</ele>
      </trkpt>
      <trkpt lat="34.03425" lon="-118.77394">
        <ele>53.0</ele>
      </trkpt>
      <trkpt lat="34.0341" lon="-118.77386">
        <ele>53.0</ele>
      </trkpt>
      <trkpt lat="34.03384" lon="-118.77361">
        <ele>55.0</ele>
      </trkpt>
      <trkpt lat="34.03375" lon="-118.77355">
        <ele>55.0</ele>
      </trkpt>
      <trkpt lat="34.03364" lon="-118.77359">
        <ele>55.0</ele>
      </trkpt>
      <trkpt lat="34.03358" lon="-118.77357">
        <ele>55.0</ele>
      </trkpt>
      <trkpt lat="34.0335" lon="-118.77345">
        <ele>54.0</ele>
      </trkpt>
      <trkpt lat="34.03338" lon="-118.77336">
        <ele>53.0</ele>
      </trkpt>
      <trkpt lat="34.03327" lon="-118.77308">
        <ele>53.0</ele>
      </trkpt>
      <trkpt lat="34.03319" lon="-118.77296">
        <ele>48.0</ele>
      </trkpt>
      <trkpt lat="34.03314" lon="-118.77278">
        <ele>48.0</ele>
      </trkpt>
      <trkpt lat="34.03315" lon="-118.77245">
        <ele>49.0</ele>
      </trkpt>
      <trkpt lat="34.0332" lon="-118.77237">
        <ele>54.0</ele>
      </trkpt>
      <trkpt lat="34.0332" lon="-118.77237">
        <ele>54.0</ele>
      </trkpt>
      <trkpt lat="34.0332" lon="-118.77237">
        <ele>54.0</ele>
      </trkpt>
      <trkpt lat="34.03317" lon="-118.77219">
        <ele>55.0</ele>
      </trkpt>
      <trkpt lat="34.03312" lon="-118.77216">
        <ele>55.0</ele>
      </trkpt>
      <trkpt lat="34.03304" lon="-118.77221">
        <ele>55.0</ele>
      </trkpt>
      <trkpt lat="34.03284" lon="-118.77256">
        <ele>54.0</ele>
      </trkpt>
      <trkpt lat="34.03281" lon="-118.77258">
        <ele>54.0</ele>
      </trkpt>
      <trkpt lat="34.03266" lon="-118.77257">
        <ele>54.0</ele>
      </trkpt>
      <trkpt lat="34.03233" lon="-118.77242">
        <ele>64.0</ele>
      </trkpt>
      <trkpt lat="34.03198" lon="-118.77245">
        <ele>70.0</ele>
      </trkpt>
      <trkpt lat="34.0319" lon="-118.77249">
        <ele>70.0</ele>
      </trkpt>
      <trkpt lat="34.03182" lon="-118.77258">
        <ele>70.0</ele>
      </trkpt>
      <trkpt lat="34.03169" lon="-118.77289">
        <ele>77.0</ele>
      </trkpt>
      <trkpt lat="34.03169" lon="-118.77289">
        <ele>77.0</ele>
      </trkpt>
      <trkpt lat="34.03189" lon="-118.77345">
        <ele>77.0</ele>
      </trkpt>
      <trkpt lat="34.03197" lon="-118.77378">
        <ele>85.0</ele>
      </trkpt>
      <trkpt lat="34.031971967" lon="-118.773840965">
        <ele>85.0</ele>
      </trkpt>
      <trkpt lat="34.031971967" lon="-118.773840965">
        <ele>85.0</ele>
      </trkpt>
      <trkpt lat="34.03198" lon="-118.77409">
        <ele>89.0</ele>
      </trkpt>
      <trkpt lat="34.03195401" lon="-118.774228615">
        <ele>89.0</ele>
      </trkpt>
      <trkpt lat="34.03195401" lon="-118.774228615">
        <ele>89.0</ele>
      </trkpt>
      <trkpt lat="34.03195" lon="-118.77425">
        <ele>89.0</ele>
      </trkpt>
      <trkpt lat="34.03187" lon="-118.77444">
        <ele>93.0</ele>
      </trkpt>
      <trkpt lat="34.03187" lon="-118.77444">
        <ele>93.0</ele>
      </trkpt>
      <trkpt lat="34.03187" lon="-118.77444">
        <ele>93.0</ele>
      </trkpt>
      <trkpt lat="34.031781779" lon="-118.774547401">
        <ele>95.0</ele>
      </trkpt>
      <trkpt lat="34.031781779" lon="-118.774547401">
        <ele>95.0</ele>
      </trkpt>
      <trkpt lat="34.03164" lon="-118.77472">
        <ele>94.0</ele>
      </trkpt>
      <trkpt lat="34.031570544" lon="-118.774830498">
        <ele>94.0</ele>
      </trkpt>
      <trkpt lat="34.031570544" lon="-118.774830498">
        <ele>94.0</ele>
      </trkpt>
      <trkpt lat="34.031524173" lon="-118.77490427">
        <ele>87.0</ele>
      </trkpt>
      <trkpt lat="34.031524173" lon="-118.77490427">
        <ele>87.0</ele>
      </trkpt>
      <trkpt lat="34.031497113" lon="-118.774947321">
        <ele>87.0</ele>
      </trkpt>
      <trkpt lat="34.031497113" lon="-118.774947321">
        <ele>87.0</ele>
      </trkpt>
      <trkpt lat="34.03142" lon="-118.77507">
        <ele>87.0</ele>
      </trkpt>
      <trkpt lat="34.03121" lon="-118.77524">
        <ele>81.0</ele>
      </trkpt>
      <trkpt lat="34.0310374" lon="-118.775297533">
        <ele>81.0</ele>
      </trkpt>
      <trkpt lat="34.0310374" lon="-118.775297533">
        <ele>81.0</ele>
      </trkpt>
      <trkpt lat="34.03094" lon="-118.77533">
        <ele>80.0</ele>
      </trkpt>
      <trkpt lat="34.03041" lon="-118.77526">
        <ele>77.0</ele>
      </trkpt>
      <trkpt lat="34.03026" lon="-118.77528">
        <ele>77.0</ele>
      </trkpt>
      <trkpt lat="34.03005" lon="-118.77535">
        <ele>72.0</ele>
      </trkpt>
      <trkpt lat="34.029949557" lon="-118.775419055">
        <ele>79.0</ele>
      </trkpt>
      <trkpt lat="34.029949557" lon="-118.775419055">
        <ele>79.0</ele>
      </trkpt>
      <trkpt lat="34.02989" lon="-118.77546">
        <ele>79.0</ele>
      </trkpt>
      <trkpt lat="34.02976" lon="-118.7756">
        <ele>72.0</ele>
      </trkpt>
      <trkpt lat="34.02965" lon="-118.77579">
        <ele>76.0</ele>
      </trkpt>
      <trkpt lat="34.02965" lon="-118.77579">
        <ele>76.0</ele>
      </trkpt>
      <trkpt lat="34.029626912" lon="-118.77577363">
        <ele>76.0</ele>
      </trkpt>
      <trkpt lat="34.02956" lon="-118.77592">
        <ele>66.0</ele>
      </trkpt>
      <trkpt lat="34.02952" lon="-118.77613">
        <ele>70.0</ele>
      </trkpt>
      <trkpt lat="34.02951" lon="-118.77628">
        <ele>71.0</ele>
      </trkpt>
      <trkpt lat="34.029521525" lon="-118.776349151">
        <ele>71.0</ele>
      </trkpt>
      <trkpt lat="34.029521525" lon="-118.776349151">
        <ele>71.0</ele>
      </trkpt>
      <trkpt lat="34.02956" lon="-118.77658">
        <ele>71.0</ele>
      </trkpt>
      <trkpt lat="34.02955" lon="-118.77667">
        <ele>71.0</ele>
      </trkpt>
      <trkpt lat="34.02937" lon="-118.77695">
        <ele>72.0</ele>
      </trkpt>
      <trkpt lat="34.02933" lon="-118.77704">
        <ele>72.0</ele>
      </trkpt>
      <trkpt lat="34.0293" lon="-118.77719">
        <ele>62.0</ele>
      </trkpt>
      <trkpt lat="34.029329443" lon="-118.77732986">
        <ele>68.0</ele>
      </trkpt>
      <trkpt lat="34.029329443" lon="-118.77732986">
        <ele>68.0</ele>
      </trkpt>
      <trkpt lat="34.02934" lon="-118.77738">
        <ele>63.0</ele>
      </trkpt>
      <trkpt lat="34.02942" lon="-118.77749">
        <ele>63.0</ele>
      </trkpt>
      <trkpt lat="34.02971" lon="-118.77769">
        <ele>65.0</ele>
      </trkpt>
      <trkpt lat="34.02975" lon="-118.7778">
        <ele>65.0</ele>
      </trkpt>
      <trkpt lat="34.02975" lon="-118.7779">
        <ele>65.0</ele>
      </trkpt>
      <trkpt lat="34.02967" lon="-118.77807">
        <ele>64.0</ele>
      </trkpt>
      <trkpt lat="34.02924" lon="-118.77826">
        <ele>62.0</ele>
      </trkpt>
      <trkpt lat="34.02905" lon="-118.77841">
        <ele>62.0</ele>
      </trkpt>
      <trkpt lat="34.02891" lon="-118.7786">
        <ele>60.0</ele>
      </trkpt>
      <trkpt lat="34.02884" lon="-118.77877">
        <ele>64.0</ele>
      </trkpt>
      <trkpt lat="34.02882338" lon="-118.778828808">
        <ele>64.0</ele>
      </trkpt>
      <trkpt lat="34.02882338" lon="-118.778828808">
        <ele>64.0</ele>
      </trkpt>
      <trkpt lat="34.02871" lon="-118.77923">
        <ele>65.0</ele>
      </trkpt>
      <trkpt lat="34.02866" lon="-118.77934">
        <ele>66.0</ele>
      </trkpt>
      <trkpt lat="34.028682617" lon="-118.779381998">
        <ele>66.0</ele>
      </trkpt>
      <trkpt lat="34.028682617" lon="-118.779381998">
        <ele>66.0</ele>
      </trkpt>
      <trkpt lat="34.02861" lon="-118.7795">
        <ele>66.0</ele>
      </trkpt>
      <trkpt lat="34.02845" lon="-118.77966">
        <ele>66.0</ele>
      </trkpt>
      <trkpt lat="34.02798" lon="-118.78003">
        <ele>59.0</ele>
      </trkpt>
      <trkpt lat="34.02774" lon="-118.78017">
        <ele>47.0</ele>
      </trkpt>
      <trkpt lat="34.02754" lon="-118.78022">
        <ele>43.0</ele>
      </trkpt>
      <trkpt lat="34.02726" lon="-118.78022">
        <ele>42.0</ele>
      </trkpt>
      <trkpt lat="34.02704" lon="-118.78015">
        <ele>40.0</ele>
      </trkpt>
      <trkpt lat="34.02649" lon="-118.77986">
        <ele>31.0</ele>
      </trkpt>
      <trkpt lat="34.02649" lon="-118.77986">
        <ele>31.0</ele>
      </trkpt>
      <trkpt lat="34.026282361" lon="-118.779817154">
        <ele>31.0</ele>
      </trkpt>
      <trkpt lat="34.026282361" lon="-118.779817154">
        <ele>31.0</ele>
      </trkpt>
      <trkpt lat="34.026138505" lon="-118.779787469">
        <ele>36.0</ele>
      </trkpt>
      <trkpt lat="34.02614" lon="-118.77978">
        <ele>36.0</ele>
      </trkpt>
      <trkpt lat="34.026093718" lon="-118.780011409">
        <ele>37.0</ele>
      </trkpt>
    </trkseg>
  </trk>
</gpx>
