<?xml version="1.0" encoding="UTF-8"?>
<gpx xmlns:xsi="http://www.w3.org/2001/XMLSchema-instance" version="1.1" creator="The Outbound Collective, Inc. 1.1.1 -- https://www.theoutbound.com" xsi:schemaLocation="http://www.topografix.com/GPX/1/1 http://www.topografix.com/GPX/1/1/gpx.xsd">
  <metadata>
    <name/>
    <time>2026-02-19T22:00:18+00:00</time>
    <bound minlat="34.15640523870337" minlon="-117.9284906387329" maxlat="34.18092065636235" maxlon="-117.92376"/>
  </metadata>
  <trk>
    <name/>
    <trkseg>
      <trkpt lat="34.15642926868347" lon="-117.9239845275879">
        <ele>214.0</ele>
      </trkpt>
      <trkpt lat="34.15640523870337" lon="-117.923983780948">
        <ele>214.0</ele>
      </trkpt>
      <trkpt lat="34.15641" lon="-117.92376">
        <ele>214.0</ele>
      </trkpt>
      <trkpt lat="34.15721" lon="-117.92378">
        <ele>216.0</ele>
      </trkpt>
      <trkpt lat="34.15802" lon="-117.92417">
        <ele>220.0</ele>
      </trkpt>
      <trkpt lat="34.15825" lon="-117.92416">
        <ele>224.0</ele>
      </trkpt>
      <trkpt lat="34.15875" lon="-117.9244">
        <ele>229.0</ele>
      </trkpt>
      <trkpt lat="34.15949" lon="-117.92441">
        <ele>237.0</ele>
      </trkpt>
      <trkpt lat="34.1596" lon="-117.92447">
        <ele>237.0</ele>
      </trkpt>
      <trkpt lat="34.15963718681231" lon="-117.924596434989">
        <ele>238.0</ele>
      </trkpt>
      <trkpt lat="34.15963718681231" lon="-117.924596434989">
        <ele>238.0</ele>
      </trkpt>
      <trkpt lat="34.15989" lon="-117.92455">
        <ele>235.0</ele>
      </trkpt>
      <trkpt lat="34.1605" lon="-117.92482">
        <ele>231.0</ele>
      </trkpt>
      <trkpt lat="34.161" lon="-117.92488">
        <ele>236.0</ele>
      </trkpt>
      <trkpt lat="34.16123" lon="-117.92483">
        <ele>241.0</ele>
      </trkpt>
      <trkpt lat="34.16123" lon="-117.92483">
        <ele>241.0</ele>
      </trkpt>
      <trkpt lat="34.16165" lon="-117.92482">
        <ele>244.0</ele>
      </trkpt>
      <trkpt lat="34.16182" lon="-117.92488">
        <ele>241.0</ele>
      </trkpt>
      <trkpt lat="34.16182" lon="-117.92488">
        <ele>241.0</ele>
      </trkpt>
      <trkpt lat="34.16298" lon="-117.92529">
        <ele>252.0</ele>
      </trkpt>
      <trkpt lat="34.16359" lon="-117.92574">
        <ele>257.0</ele>
      </trkpt>
      <trkpt lat="34.16388" lon="-117.92587">
        <ele>256.0</ele>
      </trkpt>
      <trkpt lat="34.16422" lon="-117.92592">
        <ele>258.0</ele>
      </trkpt>
      <trkpt lat="34.16436" lon="-117.92546">
        <ele>258.0</ele>
      </trkpt>
      <trkpt lat="34.16446" lon="-117.9253">
        <ele>261.0</ele>
      </trkpt>
      <trkpt lat="34.16459" lon="-117.9253">
        <ele>262.0</ele>
      </trkpt>
      <trkpt lat="34.16479" lon="-117.92536">
        <ele>262.0</ele>
      </trkpt>
      <trkpt lat="34.16495" lon="-117.92534">
        <ele>265.0</ele>
      </trkpt>
      <trkpt lat="34.16508" lon="-117.92526">
        <ele>265.0</ele>
      </trkpt>
      <trkpt lat="34.1651" lon="-117.92508">
        <ele>264.0</ele>
      </trkpt>
      <trkpt lat="34.16504" lon="-117.92489">
        <ele>264.0</ele>
      </trkpt>
      <trkpt lat="34.16508" lon="-117.92442">
        <ele>272.0</ele>
      </trkpt>
      <trkpt lat="34.16519" lon="-117.9244">
        <ele>279.0</ele>
      </trkpt>
      <trkpt lat="34.16529" lon="-117.92442">
        <ele>279.0</ele>
      </trkpt>
      <trkpt lat="34.16546" lon="-117.92461">
        <ele>284.0</ele>
      </trkpt>
      <trkpt lat="34.16544" lon="-117.92485">
        <ele>284.0</ele>
      </trkpt>
      <trkpt lat="34.16551761491827" lon="-117.9249179130535">
        <ele>284.0</ele>
      </trkpt>
      <trkpt lat="34.16753516049523" lon="-117.9247570037842">
        <ele>299.0</ele>
      </trkpt>
      <trkpt lat="34.1691330103139" lon="-117.9264307022095">
        <ele>313.0</ele>
      </trkpt>
      <trkpt lat="34.17026924067141" lon="-117.9264307022095">
        <ele>321.0</ele>
      </trkpt>
      <trkpt lat="34.17119241657419" lon="-117.9250144958496">
        <ele>329.0</ele>
      </trkpt>
      <trkpt lat="34.17289671478864" lon="-117.9253149032593">
        <ele>361.0</ele>
      </trkpt>
      <trkpt lat="34.17399738909411" lon="-117.9267740249634">
        <ele>372.0</ele>
      </trkpt>
      <trkpt lat="34.17697978925418" lon="-117.9276752471924">
        <ele>397.0</ele>
      </trkpt>
      <trkpt lat="34.17804490662353" lon="-117.9284906387329">
        <ele>415.0</ele>
      </trkpt>
      <trkpt lat="34.17935853286229" lon="-117.9262590408325">
        <ele>412.0</ele>
      </trkpt>
      <trkpt lat="34.18092065636235" lon="-117.9259157180786">
        <ele>448.0</ele>
      </trkpt>
      <trkpt lat="34.17935853286229" lon="-117.9261302947998">
        <ele>408.0</ele>
      </trkpt>
      <trkpt lat="34.17800940292786" lon="-117.9284906387329">
        <ele>415.0</ele>
      </trkpt>
      <trkpt lat="34.17708630159614" lon="-117.9277181625366">
        <ele>405.0</ele>
      </trkpt>
      <trkpt lat="34.17399738909411" lon="-117.9266881942749">
        <ele>372.0</ele>
      </trkpt>
      <trkpt lat="34.17279019715851" lon="-117.9253149032593">
        <ele>361.0</ele>
      </trkpt>
      <trkpt lat="34.17105039016947" lon="-117.9250574111939">
        <ele>329.0</ele>
      </trkpt>
      <trkpt lat="34.17037576148323" lon="-117.9264736175537">
        <ele>321.0</ele>
      </trkpt>
      <trkpt lat="34.16902648793368" lon="-117.9264307022095">
        <ele>311.0</ele>
      </trkpt>
      <trkpt lat="34.1674641442457" lon="-117.9246711730957">
        <ele>299.0</ele>
      </trkpt>
      <trkpt lat="34.16558219186307" lon="-117.9248428344727">
        <ele>284.0</ele>
      </trkpt>
      <trkpt lat="34.16553047549152" lon="-117.9249291660225">
        <ele>284.0</ele>
      </trkpt>
      <trkpt lat="34.16544" lon="-117.92485">
        <ele>284.0</ele>
      </trkpt>
      <trkpt lat="34.16546" lon="-117.92461">
        <ele>284.0</ele>
      </trkpt>
      <trkpt lat="34.16529" lon="-117.92442">
        <ele>279.0</ele>
      </trkpt>
      <trkpt lat="34.16519" lon="-117.9244">
        <ele>279.0</ele>
      </trkpt>
      <trkpt lat="34.16508" lon="-117.92442">
        <ele>272.0</ele>
      </trkpt>
      <trkpt lat="34.16504" lon="-117.92489">
        <ele>264.0</ele>
      </trkpt>
      <trkpt lat="34.1651" lon="-117.92508">
        <ele>264.0</ele>
      </trkpt>
      <trkpt lat="34.16508" lon="-117.92526">
        <ele>265.0</ele>
      </trkpt>
      <trkpt lat="34.16495" lon="-117.92534">
        <ele>265.0</ele>
      </trkpt>
      <trkpt lat="34.16479" lon="-117.92536">
        <ele>262.0</ele>
      </trkpt>
      <trkpt lat="34.16459" lon="-117.9253">
        <ele>262.0</ele>
      </trkpt>
      <trkpt lat="34.16446" lon="-117.9253">
        <ele>261.0</ele>
      </trkpt>
      <trkpt lat="34.16436" lon="-117.92546">
        <ele>258.0</ele>
      </trkpt>
      <trkpt lat="34.16422" lon="-117.92592">
        <ele>258.0</ele>
      </trkpt>
      <trkpt lat="34.16388" lon="-117.92587">
        <ele>256.0</ele>
      </trkpt>
      <trkpt lat="34.16359" lon="-117.92574">
        <ele>257.0</ele>
      </trkpt>
      <trkpt lat="34.16298" lon="-117.92529">
        <ele>252.0</ele>
      </trkpt>
      <trkpt lat="34.16182" lon="-117.92488">
        <ele>241.0</ele>
      </trkpt>
      <trkpt lat="34.16182" lon="-117.92488">
        <ele>241.0</ele>
      </trkpt>
      <trkpt lat="34.16165" lon="-117.92482">
        <ele>244.0</ele>
      </trkpt>
      <trkpt lat="34.16123" lon="-117.92483">
        <ele>241.0</ele>
      </trkpt>
      <trkpt lat="34.16123" lon="-117.92483">
        <ele>241.0</ele>
      </trkpt>
      <trkpt lat="34.161" lon="-117.92488">
        <ele>236.0</ele>
      </trkpt>
      <trkpt lat="34.1605" lon="-117.92482">
        <ele>231.0</ele>
      </trkpt>
      <trkpt lat="34.15989" lon="-117.92455">
        <ele>235.0</ele>
      </trkpt>
      <trkpt lat="34.15963718681231" lon="-117.924596434989">
        <ele>238.0</ele>
      </trkpt>
      <trkpt lat="34.15963718681231" lon="-117.924596434989">
        <ele>238.0</ele>
      </trkpt>
      <trkpt lat="34.1596" lon="-117.92447">
        <ele>237.0</ele>
      </trkpt>
      <trkpt lat="34.15949" lon="-117.92441">
        <ele>237.0</ele>
      </trkpt>
      <trkpt lat="34.15875" lon="-117.9244">
        <ele>229.0</ele>
      </trkpt>
      <trkpt lat="34.15825" lon="-117.92416">
        <ele>224.0</ele>
      </trkpt>
      <trkpt lat="34.15802" lon="-117.92417">
        <ele>220.0</ele>
      </trkpt>
      <trkpt lat="34.15721" lon="-117.92378">
        <ele>216.0</ele>
      </trkpt>
      <trkpt lat="34.15641" lon="-117.92376">
        <ele>214.0</ele>
      </trkpt>
      <trkpt lat="34.15640662503323" lon="-117.9239186234383">
        <ele>214.0</ele>
      </trkpt>
    </trkseg>
  </trk>
</gpx>
