<?xml version="1.0" encoding="UTF-8"?>
<gpx xmlns:xsi="http://www.w3.org/2001/XMLSchema-instance" version="1.1" creator="The Outbound Collective, Inc. 1.1.1 -- https://www.theoutbound.com" xsi:schemaLocation="http://www.topografix.com/GPX/1/1 http://www.topografix.com/GPX/1/1/gpx.xsd">
  <metadata>
    <name/>
    <time>2026-02-19T21:59:57+00:00</time>
    <bound minlat="34.34753548431252" minlon="-117.9108953475952" maxlat="34.36125945987629" maxlon="-117.9019199371086"/>
  </metadata>
  <trk>
    <name/>
    <trkseg>
      <trkpt lat="34.347541876756" lon="-117.9108953475952">
        <ele>1950.0</ele>
      </trkpt>
      <trkpt lat="34.34753548431252" lon="-117.9108917407977">
        <ele>1950.0</ele>
      </trkpt>
      <trkpt lat="34.34754" lon="-117.91088">
        <ele>1950.0</ele>
      </trkpt>
      <trkpt lat="34.34754" lon="-117.91088">
        <ele>1950.0</ele>
      </trkpt>
      <trkpt lat="34.34762" lon="-117.91063">
        <ele>1951.0</ele>
      </trkpt>
      <trkpt lat="34.34772" lon="-117.91049">
        <ele>1950.0</ele>
      </trkpt>
      <trkpt lat="34.3479" lon="-117.91032">
        <ele>1947.0</ele>
      </trkpt>
      <trkpt lat="34.34804" lon="-117.91012">
        <ele>1945.0</ele>
      </trkpt>
      <trkpt lat="34.34815" lon="-117.90988">
        <ele>1945.0</ele>
      </trkpt>
      <trkpt lat="34.34817" lon="-117.90975">
        <ele>1945.0</ele>
      </trkpt>
      <trkpt lat="34.3484" lon="-117.9096">
        <ele>1950.0</ele>
      </trkpt>
      <trkpt lat="34.34873" lon="-117.90927">
        <ele>1948.0</ele>
      </trkpt>
      <trkpt lat="34.34889" lon="-117.90919">
        <ele>1949.0</ele>
      </trkpt>
      <trkpt lat="34.34903" lon="-117.90898">
        <ele>1947.0</ele>
      </trkpt>
      <trkpt lat="34.34909" lon="-117.90879">
        <ele>1947.0</ele>
      </trkpt>
      <trkpt lat="34.34917" lon="-117.90861">
        <ele>1945.0</ele>
      </trkpt>
      <trkpt lat="34.34928" lon="-117.90849">
        <ele>1945.0</ele>
      </trkpt>
      <trkpt lat="34.34944" lon="-117.90841">
        <ele>1945.0</ele>
      </trkpt>
      <trkpt lat="34.34971" lon="-117.90842">
        <ele>1947.0</ele>
      </trkpt>
      <trkpt lat="34.35001" lon="-117.90829">
        <ele>1949.0</ele>
      </trkpt>
      <trkpt lat="34.35035" lon="-117.90837">
        <ele>1955.0</ele>
      </trkpt>
      <trkpt lat="34.35043" lon="-117.90833">
        <ele>1959.0</ele>
      </trkpt>
      <trkpt lat="34.35062" lon="-117.90819">
        <ele>1946.0</ele>
      </trkpt>
      <trkpt lat="34.35082" lon="-117.90796">
        <ele>1944.0</ele>
      </trkpt>
      <trkpt lat="34.35105" lon="-117.90746">
        <ele>1929.0</ele>
      </trkpt>
      <trkpt lat="34.3511" lon="-117.90743">
        <ele>1929.0</ele>
      </trkpt>
      <trkpt lat="34.35134" lon="-117.90761">
        <ele>1932.0</ele>
      </trkpt>
      <trkpt lat="34.35147" lon="-117.90752">
        <ele>1932.0</ele>
      </trkpt>
      <trkpt lat="34.35167" lon="-117.90744">
        <ele>1937.0</ele>
      </trkpt>
      <trkpt lat="34.35181" lon="-117.90734">
        <ele>1932.0</ele>
      </trkpt>
      <trkpt lat="34.35193" lon="-117.90709">
        <ele>1932.0</ele>
      </trkpt>
      <trkpt lat="34.35197" lon="-117.90692">
        <ele>1921.0</ele>
      </trkpt>
      <trkpt lat="34.35212" lon="-117.90662">
        <ele>1918.0</ele>
      </trkpt>
      <trkpt lat="34.35212" lon="-117.90649">
        <ele>1912.0</ele>
      </trkpt>
      <trkpt lat="34.35217" lon="-117.90636">
        <ele>1912.0</ele>
      </trkpt>
      <trkpt lat="34.35275" lon="-117.90603">
        <ele>1919.0</ele>
      </trkpt>
      <trkpt lat="34.35307" lon="-117.90561">
        <ele>1902.0</ele>
      </trkpt>
      <trkpt lat="34.35322" lon="-117.90552">
        <ele>1905.0</ele>
      </trkpt>
      <trkpt lat="34.35331" lon="-117.90541">
        <ele>1894.0</ele>
      </trkpt>
      <trkpt lat="34.3534" lon="-117.90535">
        <ele>1894.0</ele>
      </trkpt>
      <trkpt lat="34.3537" lon="-117.9055">
        <ele>1904.0</ele>
      </trkpt>
      <trkpt lat="34.35391" lon="-117.90572">
        <ele>1906.0</ele>
      </trkpt>
      <trkpt lat="34.3541" lon="-117.90609">
        <ele>1903.0</ele>
      </trkpt>
      <trkpt lat="34.35422" lon="-117.90621">
        <ele>1903.0</ele>
      </trkpt>
      <trkpt lat="34.35449" lon="-117.90637">
        <ele>1898.0</ele>
      </trkpt>
      <trkpt lat="34.35462" lon="-117.90653">
        <ele>1900.0</ele>
      </trkpt>
      <trkpt lat="34.35475" lon="-117.90656">
        <ele>1900.0</ele>
      </trkpt>
      <trkpt lat="34.35484" lon="-117.90642">
        <ele>1894.0</ele>
      </trkpt>
      <trkpt lat="34.35508" lon="-117.90635">
        <ele>1893.0</ele>
      </trkpt>
      <trkpt lat="34.35531" lon="-117.90646">
        <ele>1889.0</ele>
      </trkpt>
      <trkpt lat="34.35551" lon="-117.90639">
        <ele>1882.0</ele>
      </trkpt>
      <trkpt lat="34.35602" lon="-117.90637">
        <ele>1870.0</ele>
      </trkpt>
      <trkpt lat="34.35612" lon="-117.90634">
        <ele>1870.0</ele>
      </trkpt>
      <trkpt lat="34.35622" lon="-117.90623">
        <ele>1855.0</ele>
      </trkpt>
      <trkpt lat="34.35643" lon="-117.90627">
        <ele>1872.0</ele>
      </trkpt>
      <trkpt lat="34.35695" lon="-117.90595">
        <ele>1849.0</ele>
      </trkpt>
      <trkpt lat="34.35704" lon="-117.90587">
        <ele>1849.0</ele>
      </trkpt>
      <trkpt lat="34.3573" lon="-117.90595">
        <ele>1847.0</ele>
      </trkpt>
      <trkpt lat="34.3578" lon="-117.90574">
        <ele>1847.0</ele>
      </trkpt>
      <trkpt lat="34.35803" lon="-117.90576">
        <ele>1843.0</ele>
      </trkpt>
      <trkpt lat="34.35831" lon="-117.9057">
        <ele>1838.0</ele>
      </trkpt>
      <trkpt lat="34.35845" lon="-117.9057">
        <ele>1838.0</ele>
      </trkpt>
      <trkpt lat="34.35857" lon="-117.90573">
        <ele>1829.0</ele>
      </trkpt>
      <trkpt lat="34.35865" lon="-117.90569">
        <ele>1811.0</ele>
      </trkpt>
      <trkpt lat="34.35876" lon="-117.90578">
        <ele>1818.0</ele>
      </trkpt>
      <trkpt lat="34.35904" lon="-117.90583">
        <ele>1806.0</ele>
      </trkpt>
      <trkpt lat="34.35916" lon="-117.90591">
        <ele>1806.0</ele>
      </trkpt>
      <trkpt lat="34.35932" lon="-117.90595">
        <ele>1801.0</ele>
      </trkpt>
      <trkpt lat="34.35938" lon="-117.9062">
        <ele>1803.0</ele>
      </trkpt>
      <trkpt lat="34.35941" lon="-117.90655">
        <ele>1810.0</ele>
      </trkpt>
      <trkpt lat="34.3595" lon="-117.90678">
        <ele>1810.0</ele>
      </trkpt>
      <trkpt lat="34.35951" lon="-117.90726">
        <ele>1813.0</ele>
      </trkpt>
      <trkpt lat="34.35959" lon="-117.90752">
        <ele>1800.0</ele>
      </trkpt>
      <trkpt lat="34.35971" lon="-117.90771">
        <ele>1798.0</ele>
      </trkpt>
      <trkpt lat="34.35978" lon="-117.90737">
        <ele>1800.0</ele>
      </trkpt>
      <trkpt lat="34.35977" lon="-117.90703">
        <ele>1799.0</ele>
      </trkpt>
      <trkpt lat="34.35984" lon="-117.90652">
        <ele>1795.0</ele>
      </trkpt>
      <trkpt lat="34.35992" lon="-117.90622">
        <ele>1788.0</ele>
      </trkpt>
      <trkpt lat="34.35999" lon="-117.90583">
        <ele>1789.0</ele>
      </trkpt>
      <trkpt lat="34.35996" lon="-117.90567">
        <ele>1787.0</ele>
      </trkpt>
      <trkpt lat="34.35999" lon="-117.9055">
        <ele>1787.0</ele>
      </trkpt>
      <trkpt lat="34.36005" lon="-117.90546">
        <ele>1787.0</ele>
      </trkpt>
      <trkpt lat="34.36013" lon="-117.90527">
        <ele>1780.0</ele>
      </trkpt>
      <trkpt lat="34.36013" lon="-117.90527">
        <ele>1780.0</ele>
      </trkpt>
      <trkpt lat="34.36015" lon="-117.90521">
        <ele>1773.0</ele>
      </trkpt>
      <trkpt lat="34.36015" lon="-117.90504">
        <ele>1767.0</ele>
      </trkpt>
      <trkpt lat="34.36006" lon="-117.90491">
        <ele>1774.0</ele>
      </trkpt>
      <trkpt lat="34.36022" lon="-117.90443">
        <ele>1770.0</ele>
      </trkpt>
      <trkpt lat="34.36051" lon="-117.90406">
        <ele>1765.0</ele>
      </trkpt>
      <trkpt lat="34.36062" lon="-117.9034">
        <ele>1769.0</ele>
      </trkpt>
      <trkpt lat="34.36061" lon="-117.90306">
        <ele>1766.0</ele>
      </trkpt>
      <trkpt lat="34.36061" lon="-117.90306">
        <ele>1766.0</ele>
      </trkpt>
      <trkpt lat="34.3606" lon="-117.90267">
        <ele>1761.0</ele>
      </trkpt>
      <trkpt lat="34.36078" lon="-117.90235">
        <ele>1751.0</ele>
      </trkpt>
      <trkpt lat="34.36116" lon="-117.90205">
        <ele>1742.0</ele>
      </trkpt>
      <trkpt lat="34.36125945985816" lon="-117.9019199371086">
        <ele>1732.0</ele>
      </trkpt>
      <trkpt lat="34.36125945987629" lon="-117.9019199371086">
        <ele>1732.0</ele>
      </trkpt>
      <trkpt lat="34.36116" lon="-117.90205">
        <ele>1742.0</ele>
      </trkpt>
      <trkpt lat="34.36078" lon="-117.90235">
        <ele>1751.0</ele>
      </trkpt>
      <trkpt lat="34.3606" lon="-117.90267">
        <ele>1761.0</ele>
      </trkpt>
      <trkpt lat="34.36061" lon="-117.90306">
        <ele>1766.0</ele>
      </trkpt>
      <trkpt lat="34.36061" lon="-117.90306">
        <ele>1766.0</ele>
      </trkpt>
      <trkpt lat="34.36062" lon="-117.9034">
        <ele>1769.0</ele>
      </trkpt>
      <trkpt lat="34.36051" lon="-117.90406">
        <ele>1765.0</ele>
      </trkpt>
      <trkpt lat="34.36022" lon="-117.90443">
        <ele>1770.0</ele>
      </trkpt>
      <trkpt lat="34.36006" lon="-117.90491">
        <ele>1774.0</ele>
      </trkpt>
      <trkpt lat="34.36015" lon="-117.90504">
        <ele>1767.0</ele>
      </trkpt>
      <trkpt lat="34.36015" lon="-117.90521">
        <ele>1773.0</ele>
      </trkpt>
      <trkpt lat="34.36013" lon="-117.90527">
        <ele>1780.0</ele>
      </trkpt>
      <trkpt lat="34.36013" lon="-117.90527">
        <ele>1780.0</ele>
      </trkpt>
      <trkpt lat="34.36005" lon="-117.90546">
        <ele>1787.0</ele>
      </trkpt>
      <trkpt lat="34.35999" lon="-117.9055">
        <ele>1787.0</ele>
      </trkpt>
      <trkpt lat="34.35996" lon="-117.90567">
        <ele>1787.0</ele>
      </trkpt>
      <trkpt lat="34.35999" lon="-117.90583">
        <ele>1789.0</ele>
      </trkpt>
      <trkpt lat="34.35992" lon="-117.90622">
        <ele>1788.0</ele>
      </trkpt>
      <trkpt lat="34.35984" lon="-117.90652">
        <ele>1795.0</ele>
      </trkpt>
      <trkpt lat="34.35977" lon="-117.90703">
        <ele>1799.0</ele>
      </trkpt>
      <trkpt lat="34.35978" lon="-117.90737">
        <ele>1800.0</ele>
      </trkpt>
      <trkpt lat="34.35971" lon="-117.90771">
        <ele>1798.0</ele>
      </trkpt>
      <trkpt lat="34.35959" lon="-117.90752">
        <ele>1800.0</ele>
      </trkpt>
      <trkpt lat="34.35951" lon="-117.90726">
        <ele>1813.0</ele>
      </trkpt>
      <trkpt lat="34.3595" lon="-117.90678">
        <ele>1810.0</ele>
      </trkpt>
      <trkpt lat="34.35941" lon="-117.90655">
        <ele>1810.0</ele>
      </trkpt>
      <trkpt lat="34.35938" lon="-117.9062">
        <ele>1803.0</ele>
      </trkpt>
      <trkpt lat="34.35932" lon="-117.90595">
        <ele>1801.0</ele>
      </trkpt>
      <trkpt lat="34.35916" lon="-117.90591">
        <ele>1806.0</ele>
      </trkpt>
      <trkpt lat="34.35904" lon="-117.90583">
        <ele>1806.0</ele>
      </trkpt>
      <trkpt lat="34.35876" lon="-117.90578">
        <ele>1818.0</ele>
      </trkpt>
      <trkpt lat="34.35865" lon="-117.90569">
        <ele>1811.0</ele>
      </trkpt>
      <trkpt lat="34.35857" lon="-117.90573">
        <ele>1829.0</ele>
      </trkpt>
      <trkpt lat="34.35845" lon="-117.9057">
        <ele>1838.0</ele>
      </trkpt>
      <trkpt lat="34.35831" lon="-117.9057">
        <ele>1838.0</ele>
      </trkpt>
      <trkpt lat="34.35803" lon="-117.90576">
        <ele>1843.0</ele>
      </trkpt>
      <trkpt lat="34.3578" lon="-117.90574">
        <ele>1847.0</ele>
      </trkpt>
      <trkpt lat="34.3573" lon="-117.90595">
        <ele>1847.0</ele>
      </trkpt>
      <trkpt lat="34.35704" lon="-117.90587">
        <ele>1849.0</ele>
      </trkpt>
      <trkpt lat="34.35695" lon="-117.90595">
        <ele>1849.0</ele>
      </trkpt>
      <trkpt lat="34.35643" lon="-117.90627">
        <ele>1872.0</ele>
      </trkpt>
      <trkpt lat="34.35622" lon="-117.90623">
        <ele>1855.0</ele>
      </trkpt>
      <trkpt lat="34.35612" lon="-117.90634">
        <ele>1870.0</ele>
      </trkpt>
      <trkpt lat="34.35602" lon="-117.90637">
        <ele>1870.0</ele>
      </trkpt>
      <trkpt lat="34.35551" lon="-117.90639">
        <ele>1882.0</ele>
      </trkpt>
      <trkpt lat="34.35531" lon="-117.90646">
        <ele>1889.0</ele>
      </trkpt>
      <trkpt lat="34.35508" lon="-117.90635">
        <ele>1893.0</ele>
      </trkpt>
      <trkpt lat="34.35484" lon="-117.90642">
        <ele>1894.0</ele>
      </trkpt>
      <trkpt lat="34.35475" lon="-117.90656">
        <ele>1900.0</ele>
      </trkpt>
      <trkpt lat="34.35462" lon="-117.90653">
        <ele>1900.0</ele>
      </trkpt>
      <trkpt lat="34.35449" lon="-117.90637">
        <ele>1898.0</ele>
      </trkpt>
      <trkpt lat="34.35422" lon="-117.90621">
        <ele>1903.0</ele>
      </trkpt>
      <trkpt lat="34.3541" lon="-117.90609">
        <ele>1903.0</ele>
      </trkpt>
      <trkpt lat="34.35391" lon="-117.90572">
        <ele>1906.0</ele>
      </trkpt>
      <trkpt lat="34.3537" lon="-117.9055">
        <ele>1904.0</ele>
      </trkpt>
      <trkpt lat="34.3534" lon="-117.90535">
        <ele>1894.0</ele>
      </trkpt>
      <trkpt lat="34.35331" lon="-117.90541">
        <ele>1894.0</ele>
      </trkpt>
      <trkpt lat="34.35322" lon="-117.90552">
        <ele>1905.0</ele>
      </trkpt>
      <trkpt lat="34.35307" lon="-117.90561">
        <ele>1902.0</ele>
      </trkpt>
      <trkpt lat="34.35275" lon="-117.90603">
        <ele>1919.0</ele>
      </trkpt>
      <trkpt lat="34.35217" lon="-117.90636">
        <ele>1912.0</ele>
      </trkpt>
      <trkpt lat="34.35212" lon="-117.90649">
        <ele>1912.0</ele>
      </trkpt>
      <trkpt lat="34.35212" lon="-117.90662">
        <ele>1918.0</ele>
      </trkpt>
      <trkpt lat="34.35197" lon="-117.90692">
        <ele>1921.0</ele>
      </trkpt>
      <trkpt lat="34.35193" lon="-117.90709">
        <ele>1932.0</ele>
      </trkpt>
      <trkpt lat="34.35181" lon="-117.90734">
        <ele>1932.0</ele>
      </trkpt>
      <trkpt lat="34.35167" lon="-117.90744">
        <ele>1937.0</ele>
      </trkpt>
      <trkpt lat="34.35147" lon="-117.90752">
        <ele>1932.0</ele>
      </trkpt>
      <trkpt lat="34.35134" lon="-117.90761">
        <ele>1932.0</ele>
      </trkpt>
      <trkpt lat="34.3511" lon="-117.90743">
        <ele>1929.0</ele>
      </trkpt>
      <trkpt lat="34.35105" lon="-117.90746">
        <ele>1929.0</ele>
      </trkpt>
      <trkpt lat="34.35082" lon="-117.90796">
        <ele>1944.0</ele>
      </trkpt>
      <trkpt lat="34.35062" lon="-117.90819">
        <ele>1946.0</ele>
      </trkpt>
      <trkpt lat="34.35043" lon="-117.90833">
        <ele>1959.0</ele>
      </trkpt>
      <trkpt lat="34.35035" lon="-117.90837">
        <ele>1955.0</ele>
      </trkpt>
      <trkpt lat="34.35001" lon="-117.90829">
        <ele>1949.0</ele>
      </trkpt>
      <trkpt lat="34.34971" lon="-117.90842">
        <ele>1947.0</ele>
      </trkpt>
      <trkpt lat="34.34944" lon="-117.90841">
        <ele>1945.0</ele>
      </trkpt>
      <trkpt lat="34.34928" lon="-117.90849">
        <ele>1945.0</ele>
      </trkpt>
      <trkpt lat="34.34917" lon="-117.90861">
        <ele>1945.0</ele>
      </trkpt>
      <trkpt lat="34.34909" lon="-117.90879">
        <ele>1947.0</ele>
      </trkpt>
      <trkpt lat="34.34903" lon="-117.90898">
        <ele>1947.0</ele>
      </trkpt>
      <trkpt lat="34.34889" lon="-117.90919">
        <ele>1949.0</ele>
      </trkpt>
      <trkpt lat="34.34873" lon="-117.90927">
        <ele>1948.0</ele>
      </trkpt>
      <trkpt lat="34.3484" lon="-117.9096">
        <ele>1950.0</ele>
      </trkpt>
      <trkpt lat="34.34817" lon="-117.90975">
        <ele>1945.0</ele>
      </trkpt>
      <trkpt lat="34.34815" lon="-117.90988">
        <ele>1945.0</ele>
      </trkpt>
      <trkpt lat="34.34804" lon="-117.91012">
        <ele>1945.0</ele>
      </trkpt>
      <trkpt lat="34.3479" lon="-117.91032">
        <ele>1947.0</ele>
      </trkpt>
      <trkpt lat="34.34772" lon="-117.91049">
        <ele>1950.0</ele>
      </trkpt>
      <trkpt lat="34.34762" lon="-117.91063">
        <ele>1951.0</ele>
      </trkpt>
      <trkpt lat="34.34754" lon="-117.91088">
        <ele>1950.0</ele>
      </trkpt>
    </trkseg>
  </trk>
</gpx>
