<?xml version="1.0" encoding="UTF-8"?>
<gpx xmlns:xsi="http://www.w3.org/2001/XMLSchema-instance" version="1.1" creator="The Outbound Collective, Inc. 1.1.1 -- https://www.theoutbound.com" xsi:schemaLocation="http://www.topografix.com/GPX/1/1 http://www.topografix.com/GPX/1/1/gpx.xsd">
  <metadata>
    <name/>
    <time>2026-02-19T21:53:56+00:00</time>
    <bound minlat="39.20013709489435" minlon="-120.28599" maxlat="39.24622" maxlon="-120.23731"/>
  </metadata>
  <trk>
    <name/>
    <trkseg>
      <trkpt lat="39.20015090671084" lon="-120.2378189563751">
        <ele>1899.0</ele>
      </trkpt>
      <trkpt lat="39.20013746246905" lon="-120.2378152251992">
        <ele>1898.0</ele>
      </trkpt>
      <trkpt lat="39.20018" lon="-120.23756">
        <ele>1899.0</ele>
      </trkpt>
      <trkpt lat="39.2003" lon="-120.23743">
        <ele>1899.0</ele>
      </trkpt>
      <trkpt lat="39.20058401747245" lon="-120.2373234934478">
        <ele>1903.0</ele>
      </trkpt>
      <trkpt lat="39.20058401754521" lon="-120.2373234934478">
        <ele>1903.0</ele>
      </trkpt>
      <trkpt lat="39.20062" lon="-120.23731">
        <ele>1903.0</ele>
      </trkpt>
      <trkpt lat="39.20062" lon="-120.23731">
        <ele>1903.0</ele>
      </trkpt>
      <trkpt lat="39.2009412150955" lon="-120.2377869557479">
        <ele>1903.0</ele>
      </trkpt>
      <trkpt lat="39.20094121511561" lon="-120.2377869557479">
        <ele>1903.0</ele>
      </trkpt>
      <trkpt lat="39.20095" lon="-120.2378">
        <ele>1903.0</ele>
      </trkpt>
      <trkpt lat="39.20112" lon="-120.23816">
        <ele>1909.0</ele>
      </trkpt>
      <trkpt lat="39.20119" lon="-120.23847">
        <ele>1910.0</ele>
      </trkpt>
      <trkpt lat="39.20119" lon="-120.23871">
        <ele>1912.0</ele>
      </trkpt>
      <trkpt lat="39.20119" lon="-120.23871">
        <ele>1912.0</ele>
      </trkpt>
      <trkpt lat="39.20119" lon="-120.23886">
        <ele>1914.0</ele>
      </trkpt>
      <trkpt lat="39.20106" lon="-120.2395">
        <ele>1914.0</ele>
      </trkpt>
      <trkpt lat="39.2011" lon="-120.23985">
        <ele>1916.0</ele>
      </trkpt>
      <trkpt lat="39.20117" lon="-120.24016">
        <ele>1916.0</ele>
      </trkpt>
      <trkpt lat="39.20109" lon="-120.24044">
        <ele>1915.0</ele>
      </trkpt>
      <trkpt lat="39.2011114503489" lon="-120.240577282233">
        <ele>1915.0</ele>
      </trkpt>
      <trkpt lat="39.20111145035326" lon="-120.240577282233">
        <ele>1915.0</ele>
      </trkpt>
      <trkpt lat="39.20114" lon="-120.24076">
        <ele>1912.0</ele>
      </trkpt>
      <trkpt lat="39.20114" lon="-120.24145">
        <ele>1913.0</ele>
      </trkpt>
      <trkpt lat="39.20135" lon="-120.24166">
        <ele>1923.0</ele>
      </trkpt>
      <trkpt lat="39.20172" lon="-120.24237">
        <ele>1930.0</ele>
      </trkpt>
      <trkpt lat="39.20172" lon="-120.24237">
        <ele>1930.0</ele>
      </trkpt>
      <trkpt lat="39.20174" lon="-120.24234">
        <ele>1928.0</ele>
      </trkpt>
      <trkpt lat="39.20217" lon="-120.24214">
        <ele>1939.0</ele>
      </trkpt>
      <trkpt lat="39.20228" lon="-120.24207">
        <ele>1940.0</ele>
      </trkpt>
      <trkpt lat="39.20235581688056" lon="-120.2419631671229">
        <ele>1940.0</ele>
      </trkpt>
      <trkpt lat="39.20235581695837" lon="-120.2419631671228">
        <ele>1940.0</ele>
      </trkpt>
      <trkpt lat="39.2025" lon="-120.24176">
        <ele>1949.0</ele>
      </trkpt>
      <trkpt lat="39.20259" lon="-120.24151">
        <ele>1952.0</ele>
      </trkpt>
      <trkpt lat="39.20266" lon="-120.24143">
        <ele>1960.0</ele>
      </trkpt>
      <trkpt lat="39.20281" lon="-120.24141">
        <ele>1960.0</ele>
      </trkpt>
      <trkpt lat="39.2032" lon="-120.24154">
        <ele>1974.0</ele>
      </trkpt>
      <trkpt lat="39.20344" lon="-120.24149">
        <ele>1975.0</ele>
      </trkpt>
      <trkpt lat="39.20367" lon="-120.24154">
        <ele>1983.0</ele>
      </trkpt>
      <trkpt lat="39.2038" lon="-120.2415">
        <ele>1986.0</ele>
      </trkpt>
      <trkpt lat="39.20403" lon="-120.24133">
        <ele>1993.0</ele>
      </trkpt>
      <trkpt lat="39.20433" lon="-120.24136">
        <ele>2001.0</ele>
      </trkpt>
      <trkpt lat="39.20458" lon="-120.24133">
        <ele>2001.0</ele>
      </trkpt>
      <trkpt lat="39.20469" lon="-120.24129">
        <ele>2008.0</ele>
      </trkpt>
      <trkpt lat="39.20484" lon="-120.24116">
        <ele>2009.0</ele>
      </trkpt>
      <trkpt lat="39.20526" lon="-120.24092">
        <ele>2019.0</ele>
      </trkpt>
      <trkpt lat="39.20539" lon="-120.2408">
        <ele>2019.0</ele>
      </trkpt>
      <trkpt lat="39.20556" lon="-120.24086">
        <ele>2029.0</ele>
      </trkpt>
      <trkpt lat="39.20566" lon="-120.24107">
        <ele>2026.0</ele>
      </trkpt>
      <trkpt lat="39.20585" lon="-120.24127">
        <ele>2029.0</ele>
      </trkpt>
      <trkpt lat="39.20594001702803" lon="-120.241337512771">
        <ele>2029.0</ele>
      </trkpt>
      <trkpt lat="39.20594001732922" lon="-120.241337512771">
        <ele>2029.0</ele>
      </trkpt>
      <trkpt lat="39.20641" lon="-120.24169">
        <ele>2046.0</ele>
      </trkpt>
      <trkpt lat="39.2065" lon="-120.24182">
        <ele>2046.0</ele>
      </trkpt>
      <trkpt lat="39.20658" lon="-120.24195">
        <ele>2048.0</ele>
      </trkpt>
      <trkpt lat="39.20666" lon="-120.24221">
        <ele>2045.0</ele>
      </trkpt>
      <trkpt lat="39.20721" lon="-120.2429">
        <ele>2044.0</ele>
      </trkpt>
      <trkpt lat="39.20738" lon="-120.24337">
        <ele>2052.0</ele>
      </trkpt>
      <trkpt lat="39.2073849649767" lon="-120.2434246147437">
        <ele>2052.0</ele>
      </trkpt>
      <trkpt lat="39.20738496497898" lon="-120.2434246147437">
        <ele>2052.0</ele>
      </trkpt>
      <trkpt lat="39.20745" lon="-120.24414">
        <ele>2047.0</ele>
      </trkpt>
      <trkpt lat="39.20745" lon="-120.24414">
        <ele>2047.0</ele>
      </trkpt>
      <trkpt lat="39.20745" lon="-120.24414">
        <ele>2047.0</ele>
      </trkpt>
      <trkpt lat="39.20757" lon="-120.24425">
        <ele>2047.0</ele>
      </trkpt>
      <trkpt lat="39.20773" lon="-120.24466">
        <ele>2050.0</ele>
      </trkpt>
      <trkpt lat="39.20774" lon="-120.24484">
        <ele>2050.0</ele>
      </trkpt>
      <trkpt lat="39.20781" lon="-120.245">
        <ele>2050.0</ele>
      </trkpt>
      <trkpt lat="39.20797" lon="-120.24519">
        <ele>2051.0</ele>
      </trkpt>
      <trkpt lat="39.20812" lon="-120.2453">
        <ele>2051.0</ele>
      </trkpt>
      <trkpt lat="39.20843" lon="-120.24547">
        <ele>2055.0</ele>
      </trkpt>
      <trkpt lat="39.20849" lon="-120.24549">
        <ele>2062.0</ele>
      </trkpt>
      <trkpt lat="39.20862" lon="-120.24545">
        <ele>2062.0</ele>
      </trkpt>
      <trkpt lat="39.20869" lon="-120.24551">
        <ele>2062.0</ele>
      </trkpt>
      <trkpt lat="39.20873" lon="-120.24569">
        <ele>2062.0</ele>
      </trkpt>
      <trkpt lat="39.20873" lon="-120.24608">
        <ele>2076.0</ele>
      </trkpt>
      <trkpt lat="39.20877" lon="-120.24631">
        <ele>2087.0</ele>
      </trkpt>
      <trkpt lat="39.20883" lon="-120.24648">
        <ele>2087.0</ele>
      </trkpt>
      <trkpt lat="39.20896" lon="-120.24655">
        <ele>2094.0</ele>
      </trkpt>
      <trkpt lat="39.209" lon="-120.24665">
        <ele>2094.0</ele>
      </trkpt>
      <trkpt lat="39.209" lon="-120.2468901872635">
        <ele>2099.0</ele>
      </trkpt>
      <trkpt lat="39.209" lon="-120.2468901872635">
        <ele>2099.0</ele>
      </trkpt>
      <trkpt lat="39.209" lon="-120.24765">
        <ele>2105.0</ele>
      </trkpt>
      <trkpt lat="39.2089" lon="-120.24807">
        <ele>2109.0</ele>
      </trkpt>
      <trkpt lat="39.2089" lon="-120.24902">
        <ele>2119.0</ele>
      </trkpt>
      <trkpt lat="39.20893" lon="-120.2491">
        <ele>2121.0</ele>
      </trkpt>
      <trkpt lat="39.20904" lon="-120.24918">
        <ele>2130.0</ele>
      </trkpt>
      <trkpt lat="39.20912" lon="-120.24933">
        <ele>2135.0</ele>
      </trkpt>
      <trkpt lat="39.20922" lon="-120.24954">
        <ele>2135.0</ele>
      </trkpt>
      <trkpt lat="39.20943" lon="-120.25013">
        <ele>2146.0</ele>
      </trkpt>
      <trkpt lat="39.20953" lon="-120.25059">
        <ele>2140.0</ele>
      </trkpt>
      <trkpt lat="39.20953" lon="-120.25082">
        <ele>2139.0</ele>
      </trkpt>
      <trkpt lat="39.2095" lon="-120.251">
        <ele>2139.0</ele>
      </trkpt>
      <trkpt lat="39.20955" lon="-120.25109">
        <ele>2139.0</ele>
      </trkpt>
      <trkpt lat="39.20969" lon="-120.25119">
        <ele>2149.0</ele>
      </trkpt>
      <trkpt lat="39.20986" lon="-120.25137">
        <ele>2145.0</ele>
      </trkpt>
      <trkpt lat="39.21004" lon="-120.25165">
        <ele>2145.0</ele>
      </trkpt>
      <trkpt lat="39.21022447561663" lon="-120.2518114161646">
        <ele>2147.0</ele>
      </trkpt>
      <trkpt lat="39.21022447579462" lon="-120.2518114161646">
        <ele>2147.0</ele>
      </trkpt>
      <trkpt lat="39.21036" lon="-120.25193">
        <ele>2147.0</ele>
      </trkpt>
      <trkpt lat="39.21064" lon="-120.25233">
        <ele>2160.0</ele>
      </trkpt>
      <trkpt lat="39.21081" lon="-120.2525">
        <ele>2177.0</ele>
      </trkpt>
      <trkpt lat="39.21121" lon="-120.25306">
        <ele>2182.0</ele>
      </trkpt>
      <trkpt lat="39.21137" lon="-120.25322">
        <ele>2191.0</ele>
      </trkpt>
      <trkpt lat="39.21162" lon="-120.25388">
        <ele>2196.0</ele>
      </trkpt>
      <trkpt lat="39.21163" lon="-120.25399">
        <ele>2196.0</ele>
      </trkpt>
      <trkpt lat="39.2116" lon="-120.25412">
        <ele>2193.0</ele>
      </trkpt>
      <trkpt lat="39.21159" lon="-120.25442">
        <ele>2195.0</ele>
      </trkpt>
      <trkpt lat="39.21163" lon="-120.25465">
        <ele>2199.0</ele>
      </trkpt>
      <trkpt lat="39.21163" lon="-120.25499">
        <ele>2202.0</ele>
      </trkpt>
      <trkpt lat="39.21132" lon="-120.25527">
        <ele>2199.0</ele>
      </trkpt>
      <trkpt lat="39.2113155157426" lon="-120.2552852464752">
        <ele>2199.0</ele>
      </trkpt>
      <trkpt lat="39.21131551574405" lon="-120.2552852464752">
        <ele>2199.0</ele>
      </trkpt>
      <trkpt lat="39.21127" lon="-120.25544">
        <ele>2202.0</ele>
      </trkpt>
      <trkpt lat="39.21126" lon="-120.25602">
        <ele>2207.0</ele>
      </trkpt>
      <trkpt lat="39.21129" lon="-120.25613">
        <ele>2207.0</ele>
      </trkpt>
      <trkpt lat="39.2113" lon="-120.25635">
        <ele>2213.0</ele>
      </trkpt>
      <trkpt lat="39.2113" lon="-120.25635">
        <ele>2213.0</ele>
      </trkpt>
      <trkpt lat="39.21133" lon="-120.25654">
        <ele>2217.0</ele>
      </trkpt>
      <trkpt lat="39.2115" lon="-120.25681">
        <ele>2220.0</ele>
      </trkpt>
      <trkpt lat="39.2116" lon="-120.25703">
        <ele>2221.0</ele>
      </trkpt>
      <trkpt lat="39.21169" lon="-120.25733">
        <ele>2222.0</ele>
      </trkpt>
      <trkpt lat="39.2117" lon="-120.25746">
        <ele>2221.0</ele>
      </trkpt>
      <trkpt lat="39.21176" lon="-120.2578">
        <ele>2220.0</ele>
      </trkpt>
      <trkpt lat="39.21181" lon="-120.25792">
        <ele>2227.0</ele>
      </trkpt>
      <trkpt lat="39.21187" lon="-120.258">
        <ele>2227.0</ele>
      </trkpt>
      <trkpt lat="39.2121" lon="-120.25817">
        <ele>2234.0</ele>
      </trkpt>
      <trkpt lat="39.21228" lon="-120.25837">
        <ele>2227.0</ele>
      </trkpt>
      <trkpt lat="39.21233" lon="-120.25847">
        <ele>2227.0</ele>
      </trkpt>
      <trkpt lat="39.21236" lon="-120.25865">
        <ele>2222.0</ele>
      </trkpt>
      <trkpt lat="39.21236" lon="-120.25899">
        <ele>2218.0</ele>
      </trkpt>
      <trkpt lat="39.21242" lon="-120.25916">
        <ele>2221.0</ele>
      </trkpt>
      <trkpt lat="39.21243" lon="-120.25932">
        <ele>2218.0</ele>
      </trkpt>
      <trkpt lat="39.21246" lon="-120.25943">
        <ele>2218.0</ele>
      </trkpt>
      <trkpt lat="39.21245" lon="-120.25989">
        <ele>2219.0</ele>
      </trkpt>
      <trkpt lat="39.21241" lon="-120.26004">
        <ele>2219.0</ele>
      </trkpt>
      <trkpt lat="39.21234" lon="-120.26014">
        <ele>2220.0</ele>
      </trkpt>
      <trkpt lat="39.21193" lon="-120.26062">
        <ele>2217.0</ele>
      </trkpt>
      <trkpt lat="39.21182" lon="-120.26071">
        <ele>2227.0</ele>
      </trkpt>
      <trkpt lat="39.2117" lon="-120.2609">
        <ele>2217.0</ele>
      </trkpt>
      <trkpt lat="39.21167557483261" lon="-120.2609234074521">
        <ele>2217.0</ele>
      </trkpt>
      <trkpt lat="39.21167557487011" lon="-120.2609234074521">
        <ele>2217.0</ele>
      </trkpt>
      <trkpt lat="39.21146" lon="-120.26113">
        <ele>2220.0</ele>
      </trkpt>
      <trkpt lat="39.21153" lon="-120.26124">
        <ele>2231.0</ele>
      </trkpt>
      <trkpt lat="39.21115" lon="-120.26174">
        <ele>2232.0</ele>
      </trkpt>
      <trkpt lat="39.21107" lon="-120.26197">
        <ele>2240.0</ele>
      </trkpt>
      <trkpt lat="39.21069" lon="-120.26235">
        <ele>2231.0</ele>
      </trkpt>
      <trkpt lat="39.21032" lon="-120.26256">
        <ele>2241.0</ele>
      </trkpt>
      <trkpt lat="39.21011" lon="-120.26282">
        <ele>2256.0</ele>
      </trkpt>
      <trkpt lat="39.21003" lon="-120.26299">
        <ele>2268.0</ele>
      </trkpt>
      <trkpt lat="39.21" lon="-120.26316">
        <ele>2268.0</ele>
      </trkpt>
      <trkpt lat="39.21" lon="-120.26334">
        <ele>2275.0</ele>
      </trkpt>
      <trkpt lat="39.21005" lon="-120.26359">
        <ele>2280.0</ele>
      </trkpt>
      <trkpt lat="39.21002" lon="-120.26396">
        <ele>2284.0</ele>
      </trkpt>
      <trkpt lat="39.20995" lon="-120.26406">
        <ele>2289.0</ele>
      </trkpt>
      <trkpt lat="39.20981" lon="-120.26415">
        <ele>2285.0</ele>
      </trkpt>
      <trkpt lat="39.20967" lon="-120.26429">
        <ele>2285.0</ele>
      </trkpt>
      <trkpt lat="39.20943" lon="-120.26475">
        <ele>2285.0</ele>
      </trkpt>
      <trkpt lat="39.20938" lon="-120.26499">
        <ele>2291.0</ele>
      </trkpt>
      <trkpt lat="39.20933" lon="-120.26515">
        <ele>2293.0</ele>
      </trkpt>
      <trkpt lat="39.20925" lon="-120.26527">
        <ele>2282.0</ele>
      </trkpt>
      <trkpt lat="39.20925" lon="-120.26536">
        <ele>2282.0</ele>
      </trkpt>
      <trkpt lat="39.20937" lon="-120.26552">
        <ele>2299.0</ele>
      </trkpt>
      <trkpt lat="39.20943" lon="-120.26556">
        <ele>2299.0</ele>
      </trkpt>
      <trkpt lat="39.20952" lon="-120.26558">
        <ele>2299.0</ele>
      </trkpt>
      <trkpt lat="39.20957" lon="-120.26554">
        <ele>2299.0</ele>
      </trkpt>
      <trkpt lat="39.20959" lon="-120.2655">
        <ele>2308.0</ele>
      </trkpt>
      <trkpt lat="39.20958" lon="-120.26532">
        <ele>2293.0</ele>
      </trkpt>
      <trkpt lat="39.2096" lon="-120.26523">
        <ele>2304.0</ele>
      </trkpt>
      <trkpt lat="39.20966" lon="-120.26516">
        <ele>2304.0</ele>
      </trkpt>
      <trkpt lat="39.20977" lon="-120.26513">
        <ele>2299.0</ele>
      </trkpt>
      <trkpt lat="39.20983" lon="-120.26508">
        <ele>2299.0</ele>
      </trkpt>
      <trkpt lat="39.20993" lon="-120.2649">
        <ele>2308.0</ele>
      </trkpt>
      <trkpt lat="39.21007" lon="-120.26478">
        <ele>2302.0</ele>
      </trkpt>
      <trkpt lat="39.21025" lon="-120.26477">
        <ele>2310.0</ele>
      </trkpt>
      <trkpt lat="39.21037" lon="-120.26467">
        <ele>2310.0</ele>
      </trkpt>
      <trkpt lat="39.21042" lon="-120.26467">
        <ele>2320.0</ele>
      </trkpt>
      <trkpt lat="39.2107" lon="-120.26476">
        <ele>2326.0</ele>
      </trkpt>
      <trkpt lat="39.21074544127198" lon="-120.2647889171731">
        <ele>2326.0</ele>
      </trkpt>
      <trkpt lat="39.21074544129288" lon="-120.2647889171731">
        <ele>2326.0</ele>
      </trkpt>
      <trkpt lat="39.21081" lon="-120.26483">
        <ele>2326.0</ele>
      </trkpt>
      <trkpt lat="39.21088" lon="-120.26506">
        <ele>2331.0</ele>
      </trkpt>
      <trkpt lat="39.21093" lon="-120.26536">
        <ele>2334.0</ele>
      </trkpt>
      <trkpt lat="39.21093" lon="-120.26554">
        <ele>2334.0</ele>
      </trkpt>
      <trkpt lat="39.2109" lon="-120.26567">
        <ele>2334.0</ele>
      </trkpt>
      <trkpt lat="39.2109" lon="-120.266">
        <ele>2340.0</ele>
      </trkpt>
      <trkpt lat="39.21099" lon="-120.26627">
        <ele>2358.0</ele>
      </trkpt>
      <trkpt lat="39.211" lon="-120.26645">
        <ele>2358.0</ele>
      </trkpt>
      <trkpt lat="39.21106" lon="-120.26672">
        <ele>2358.0</ele>
      </trkpt>
      <trkpt lat="39.21107" lon="-120.2669">
        <ele>2358.0</ele>
      </trkpt>
      <trkpt lat="39.2111" lon="-120.26696">
        <ele>2358.0</ele>
      </trkpt>
      <trkpt lat="39.21126" lon="-120.26706">
        <ele>2367.0</ele>
      </trkpt>
      <trkpt lat="39.21148" lon="-120.2673">
        <ele>2364.0</ele>
      </trkpt>
      <trkpt lat="39.21159" lon="-120.26748">
        <ele>2371.0</ele>
      </trkpt>
      <trkpt lat="39.21163" lon="-120.26759">
        <ele>2371.0</ele>
      </trkpt>
      <trkpt lat="39.21163" lon="-120.26777">
        <ele>2370.0</ele>
      </trkpt>
      <trkpt lat="39.21166" lon="-120.26793">
        <ele>2370.0</ele>
      </trkpt>
      <trkpt lat="39.21167" lon="-120.26828">
        <ele>2372.0</ele>
      </trkpt>
      <trkpt lat="39.21173" lon="-120.26844">
        <ele>2372.0</ele>
      </trkpt>
      <trkpt lat="39.21185" lon="-120.2687">
        <ele>2380.0</ele>
      </trkpt>
      <trkpt lat="39.21191" lon="-120.26892">
        <ele>2379.0</ele>
      </trkpt>
      <trkpt lat="39.21203" lon="-120.26922">
        <ele>2378.0</ele>
      </trkpt>
      <trkpt lat="39.21219" lon="-120.26944">
        <ele>2381.0</ele>
      </trkpt>
      <trkpt lat="39.2124" lon="-120.27015">
        <ele>2382.0</ele>
      </trkpt>
      <trkpt lat="39.21273" lon="-120.27055">
        <ele>2384.0</ele>
      </trkpt>
      <trkpt lat="39.21282" lon="-120.27075">
        <ele>2383.0</ele>
      </trkpt>
      <trkpt lat="39.21289" lon="-120.27104">
        <ele>2385.0</ele>
      </trkpt>
      <trkpt lat="39.21291" lon="-120.27138">
        <ele>2389.0</ele>
      </trkpt>
      <trkpt lat="39.21289" lon="-120.2715">
        <ele>2389.0</ele>
      </trkpt>
      <trkpt lat="39.2129" lon="-120.27166">
        <ele>2391.0</ele>
      </trkpt>
      <trkpt lat="39.21288" lon="-120.2718">
        <ele>2391.0</ele>
      </trkpt>
      <trkpt lat="39.21273" lon="-120.27226">
        <ele>2393.0</ele>
      </trkpt>
      <trkpt lat="39.21262" lon="-120.27273">
        <ele>2402.0</ele>
      </trkpt>
      <trkpt lat="39.21249" lon="-120.27291">
        <ele>2402.0</ele>
      </trkpt>
      <trkpt lat="39.21236" lon="-120.27295">
        <ele>2411.0</ele>
      </trkpt>
      <trkpt lat="39.21232" lon="-120.27307">
        <ele>2411.0</ele>
      </trkpt>
      <trkpt lat="39.21242" lon="-120.27317">
        <ele>2409.0</ele>
      </trkpt>
      <trkpt lat="39.21253" lon="-120.27324">
        <ele>2417.0</ele>
      </trkpt>
      <trkpt lat="39.21272" lon="-120.27312">
        <ele>2410.0</ele>
      </trkpt>
      <trkpt lat="39.21268" lon="-120.27332">
        <ele>2419.0</ele>
      </trkpt>
      <trkpt lat="39.2126" lon="-120.27347">
        <ele>2417.0</ele>
      </trkpt>
      <trkpt lat="39.2124" lon="-120.27361">
        <ele>2421.0</ele>
      </trkpt>
      <trkpt lat="39.21222" lon="-120.27359">
        <ele>2421.0</ele>
      </trkpt>
      <trkpt lat="39.21206" lon="-120.27364">
        <ele>2428.0</ele>
      </trkpt>
      <trkpt lat="39.21209" lon="-120.27379">
        <ele>2423.0</ele>
      </trkpt>
      <trkpt lat="39.2123" lon="-120.27397">
        <ele>2423.0</ele>
      </trkpt>
      <trkpt lat="39.21245" lon="-120.27398">
        <ele>2425.0</ele>
      </trkpt>
      <trkpt lat="39.21266" lon="-120.27382">
        <ele>2433.0</ele>
      </trkpt>
      <trkpt lat="39.21246" lon="-120.27424">
        <ele>2432.0</ele>
      </trkpt>
      <trkpt lat="39.21226" lon="-120.27448">
        <ele>2439.0</ele>
      </trkpt>
      <trkpt lat="39.21208" lon="-120.27461">
        <ele>2445.0</ele>
      </trkpt>
      <trkpt lat="39.21197" lon="-120.27461">
        <ele>2445.0</ele>
      </trkpt>
      <trkpt lat="39.21183" lon="-120.27469">
        <ele>2445.0</ele>
      </trkpt>
      <trkpt lat="39.21208" lon="-120.2749">
        <ele>2456.0</ele>
      </trkpt>
      <trkpt lat="39.21244" lon="-120.27484">
        <ele>2450.0</ele>
      </trkpt>
      <trkpt lat="39.21241" lon="-120.27498">
        <ele>2458.0</ele>
      </trkpt>
      <trkpt lat="39.21228" lon="-120.27507">
        <ele>2457.0</ele>
      </trkpt>
      <trkpt lat="39.21226" lon="-120.27514">
        <ele>2463.0</ele>
      </trkpt>
      <trkpt lat="39.21203" lon="-120.27543">
        <ele>2467.0</ele>
      </trkpt>
      <trkpt lat="39.21185" lon="-120.27559">
        <ele>2467.0</ele>
      </trkpt>
      <trkpt lat="39.21169" lon="-120.27569">
        <ele>2472.0</ele>
      </trkpt>
      <trkpt lat="39.21117" lon="-120.27584">
        <ele>2488.0</ele>
      </trkpt>
      <trkpt lat="39.21112" lon="-120.27588">
        <ele>2488.0</ele>
      </trkpt>
      <trkpt lat="39.21093" lon="-120.2762">
        <ele>2493.0</ele>
      </trkpt>
      <trkpt lat="39.21061" lon="-120.27639">
        <ele>2495.0</ele>
      </trkpt>
      <trkpt lat="39.21061" lon="-120.27639">
        <ele>2495.0</ele>
      </trkpt>
      <trkpt lat="39.21061" lon="-120.27639">
        <ele>2495.0</ele>
      </trkpt>
      <trkpt lat="39.21083" lon="-120.27649">
        <ele>2497.0</ele>
      </trkpt>
      <trkpt lat="39.21112" lon="-120.27668">
        <ele>2494.0</ele>
      </trkpt>
      <trkpt lat="39.21119" lon="-120.2767">
        <ele>2494.0</ele>
      </trkpt>
      <trkpt lat="39.21147" lon="-120.27666">
        <ele>2487.0</ele>
      </trkpt>
      <trkpt lat="39.21154" lon="-120.27662">
        <ele>2483.0</ele>
      </trkpt>
      <trkpt lat="39.21158" lon="-120.27655">
        <ele>2483.0</ele>
      </trkpt>
      <trkpt lat="39.21165" lon="-120.27654">
        <ele>2483.0</ele>
      </trkpt>
      <trkpt lat="39.21189" lon="-120.27674">
        <ele>2481.0</ele>
      </trkpt>
      <trkpt lat="39.21217" lon="-120.27679">
        <ele>2481.0</ele>
      </trkpt>
      <trkpt lat="39.21241" lon="-120.27678">
        <ele>2484.0</ele>
      </trkpt>
      <trkpt lat="39.21275" lon="-120.27695">
        <ele>2479.0</ele>
      </trkpt>
      <trkpt lat="39.21295" lon="-120.27699">
        <ele>2476.0</ele>
      </trkpt>
      <trkpt lat="39.2132" lon="-120.27694">
        <ele>2474.0</ele>
      </trkpt>
      <trkpt lat="39.21356" lon="-120.27701">
        <ele>2474.0</ele>
      </trkpt>
      <trkpt lat="39.21397" lon="-120.27692">
        <ele>2475.0</ele>
      </trkpt>
      <trkpt lat="39.21409" lon="-120.27669">
        <ele>2477.0</ele>
      </trkpt>
      <trkpt lat="39.21416" lon="-120.27621">
        <ele>2478.0</ele>
      </trkpt>
      <trkpt lat="39.21421" lon="-120.27612">
        <ele>2478.0</ele>
      </trkpt>
      <trkpt lat="39.21425" lon="-120.27613">
        <ele>2478.0</ele>
      </trkpt>
      <trkpt lat="39.2144" lon="-120.27632">
        <ele>2473.0</ele>
      </trkpt>
      <trkpt lat="39.21484" lon="-120.27675">
        <ele>2464.0</ele>
      </trkpt>
      <trkpt lat="39.215" lon="-120.2768">
        <ele>2459.0</ele>
      </trkpt>
      <trkpt lat="39.21504652638086" lon="-120.2767667668708">
        <ele>2459.0</ele>
      </trkpt>
      <trkpt lat="39.21504652641183" lon="-120.2767667668708">
        <ele>2459.0</ele>
      </trkpt>
      <trkpt lat="39.21514" lon="-120.2767">
        <ele>2453.0</ele>
      </trkpt>
      <trkpt lat="39.21523" lon="-120.27694">
        <ele>2451.0</ele>
      </trkpt>
      <trkpt lat="39.21523" lon="-120.27694">
        <ele>2451.0</ele>
      </trkpt>
      <trkpt lat="39.21526" lon="-120.27702">
        <ele>2451.0</ele>
      </trkpt>
      <trkpt lat="39.21544" lon="-120.27706">
        <ele>2447.0</ele>
      </trkpt>
      <trkpt lat="39.21574" lon="-120.27696">
        <ele>2442.0</ele>
      </trkpt>
      <trkpt lat="39.2159" lon="-120.27695">
        <ele>2442.0</ele>
      </trkpt>
      <trkpt lat="39.21592" lon="-120.27705">
        <ele>2442.0</ele>
      </trkpt>
      <trkpt lat="39.21597" lon="-120.27711">
        <ele>2442.0</ele>
      </trkpt>
      <trkpt lat="39.21613" lon="-120.27718">
        <ele>2435.0</ele>
      </trkpt>
      <trkpt lat="39.21638" lon="-120.27723">
        <ele>2432.0</ele>
      </trkpt>
      <trkpt lat="39.21647" lon="-120.27721">
        <ele>2432.0</ele>
      </trkpt>
      <trkpt lat="39.21672" lon="-120.27729">
        <ele>2430.0</ele>
      </trkpt>
      <trkpt lat="39.21704" lon="-120.27728">
        <ele>2431.0</ele>
      </trkpt>
      <trkpt lat="39.21717" lon="-120.27738">
        <ele>2430.0</ele>
      </trkpt>
      <trkpt lat="39.21724" lon="-120.27749">
        <ele>2430.0</ele>
      </trkpt>
      <trkpt lat="39.21735" lon="-120.27757">
        <ele>2430.0</ele>
      </trkpt>
      <trkpt lat="39.21743" lon="-120.27753">
        <ele>2432.0</ele>
      </trkpt>
      <trkpt lat="39.2175" lon="-120.27744">
        <ele>2432.0</ele>
      </trkpt>
      <trkpt lat="39.21756" lon="-120.2773">
        <ele>2433.0</ele>
      </trkpt>
      <trkpt lat="39.21759" lon="-120.27734">
        <ele>2433.0</ele>
      </trkpt>
      <trkpt lat="39.21763" lon="-120.27726">
        <ele>2433.0</ele>
      </trkpt>
      <trkpt lat="39.21782" lon="-120.2774">
        <ele>2429.0</ele>
      </trkpt>
      <trkpt lat="39.2179" lon="-120.27741">
        <ele>2429.0</ele>
      </trkpt>
      <trkpt lat="39.21818" lon="-120.27757">
        <ele>2427.0</ele>
      </trkpt>
      <trkpt lat="39.21835" lon="-120.27763">
        <ele>2425.0</ele>
      </trkpt>
      <trkpt lat="39.21846" lon="-120.2776">
        <ele>2425.0</ele>
      </trkpt>
      <trkpt lat="39.21895" lon="-120.27771">
        <ele>2411.0</ele>
      </trkpt>
      <trkpt lat="39.21911" lon="-120.27771">
        <ele>2405.0</ele>
      </trkpt>
      <trkpt lat="39.21931" lon="-120.27763">
        <ele>2405.0</ele>
      </trkpt>
      <trkpt lat="39.21944" lon="-120.27765">
        <ele>2402.0</ele>
      </trkpt>
      <trkpt lat="39.21954" lon="-120.27756">
        <ele>2405.0</ele>
      </trkpt>
      <trkpt lat="39.21985" lon="-120.27742">
        <ele>2400.0</ele>
      </trkpt>
      <trkpt lat="39.21992" lon="-120.27728">
        <ele>2398.0</ele>
      </trkpt>
      <trkpt lat="39.22018" lon="-120.2771">
        <ele>2391.0</ele>
      </trkpt>
      <trkpt lat="39.22018" lon="-120.27696">
        <ele>2386.0</ele>
      </trkpt>
      <trkpt lat="39.22022" lon="-120.27689">
        <ele>2386.0</ele>
      </trkpt>
      <trkpt lat="39.22032" lon="-120.27691">
        <ele>2386.0</ele>
      </trkpt>
      <trkpt lat="39.2206" lon="-120.2769">
        <ele>2384.0</ele>
      </trkpt>
      <trkpt lat="39.2208" lon="-120.27701">
        <ele>2382.0</ele>
      </trkpt>
      <trkpt lat="39.22107" lon="-120.27707">
        <ele>2381.0</ele>
      </trkpt>
      <trkpt lat="39.22136" lon="-120.27722">
        <ele>2378.0</ele>
      </trkpt>
      <trkpt lat="39.22148" lon="-120.27718">
        <ele>2378.0</ele>
      </trkpt>
      <trkpt lat="39.22172" lon="-120.27721">
        <ele>2376.0</ele>
      </trkpt>
      <trkpt lat="39.22182" lon="-120.27726">
        <ele>2377.0</ele>
      </trkpt>
      <trkpt lat="39.2219" lon="-120.27733">
        <ele>2377.0</ele>
      </trkpt>
      <trkpt lat="39.22227" lon="-120.27744">
        <ele>2379.0</ele>
      </trkpt>
      <trkpt lat="39.22234" lon="-120.27758">
        <ele>2379.0</ele>
      </trkpt>
      <trkpt lat="39.22241" lon="-120.27765">
        <ele>2378.0</ele>
      </trkpt>
      <trkpt lat="39.22254" lon="-120.27772">
        <ele>2378.0</ele>
      </trkpt>
      <trkpt lat="39.22257" lon="-120.27771">
        <ele>2378.0</ele>
      </trkpt>
      <trkpt lat="39.22257" lon="-120.27764">
        <ele>2378.0</ele>
      </trkpt>
      <trkpt lat="39.22244" lon="-120.27733">
        <ele>2371.0</ele>
      </trkpt>
      <trkpt lat="39.22233" lon="-120.27722">
        <ele>2375.0</ele>
      </trkpt>
      <trkpt lat="39.22222" lon="-120.27717">
        <ele>2375.0</ele>
      </trkpt>
      <trkpt lat="39.2224" lon="-120.2771">
        <ele>2371.0</ele>
      </trkpt>
      <trkpt lat="39.2227" lon="-120.27715">
        <ele>2366.0</ele>
      </trkpt>
      <trkpt lat="39.22253" lon="-120.27694">
        <ele>2362.0</ele>
      </trkpt>
      <trkpt lat="39.22272" lon="-120.27699">
        <ele>2358.0</ele>
      </trkpt>
      <trkpt lat="39.223" lon="-120.27718">
        <ele>2367.0</ele>
      </trkpt>
      <trkpt lat="39.22321" lon="-120.27722">
        <ele>2363.0</ele>
      </trkpt>
      <trkpt lat="39.22356" lon="-120.27742">
        <ele>2359.0</ele>
      </trkpt>
      <trkpt lat="39.22352" lon="-120.27715">
        <ele>2358.0</ele>
      </trkpt>
      <trkpt lat="39.22383" lon="-120.27726">
        <ele>2349.0</ele>
      </trkpt>
      <trkpt lat="39.22359" lon="-120.27676">
        <ele>2347.0</ele>
      </trkpt>
      <trkpt lat="39.22333" lon="-120.27645">
        <ele>2349.0</ele>
      </trkpt>
      <trkpt lat="39.22317" lon="-120.27634">
        <ele>2352.0</ele>
      </trkpt>
      <trkpt lat="39.22332" lon="-120.27623">
        <ele>2343.0</ele>
      </trkpt>
      <trkpt lat="39.22398" lon="-120.2763">
        <ele>2331.0</ele>
      </trkpt>
      <trkpt lat="39.22453" lon="-120.27655">
        <ele>2314.0</ele>
      </trkpt>
      <trkpt lat="39.22446" lon="-120.27641">
        <ele>2313.0</ele>
      </trkpt>
      <trkpt lat="39.22473" lon="-120.27657">
        <ele>2309.0</ele>
      </trkpt>
      <trkpt lat="39.22537" lon="-120.2768">
        <ele>2309.0</ele>
      </trkpt>
      <trkpt lat="39.22537" lon="-120.2768">
        <ele>2309.0</ele>
      </trkpt>
      <trkpt lat="39.22537" lon="-120.2768">
        <ele>2309.0</ele>
      </trkpt>
      <trkpt lat="39.22533" lon="-120.27666">
        <ele>2309.0</ele>
      </trkpt>
      <trkpt lat="39.2254" lon="-120.27668">
        <ele>2309.0</ele>
      </trkpt>
      <trkpt lat="39.22541" lon="-120.27653">
        <ele>2309.0</ele>
      </trkpt>
      <trkpt lat="39.22569" lon="-120.27628">
        <ele>2305.0</ele>
      </trkpt>
      <trkpt lat="39.22581" lon="-120.27624">
        <ele>2300.0</ele>
      </trkpt>
      <trkpt lat="39.22586" lon="-120.27616">
        <ele>2300.0</ele>
      </trkpt>
      <trkpt lat="39.22604" lon="-120.27616">
        <ele>2302.0</ele>
      </trkpt>
      <trkpt lat="39.22614" lon="-120.27607">
        <ele>2302.0</ele>
      </trkpt>
      <trkpt lat="39.22626" lon="-120.27602">
        <ele>2307.0</ele>
      </trkpt>
      <trkpt lat="39.22636" lon="-120.27608">
        <ele>2307.0</ele>
      </trkpt>
      <trkpt lat="39.22641" lon="-120.27614">
        <ele>2307.0</ele>
      </trkpt>
      <trkpt lat="39.22651" lon="-120.27611">
        <ele>2307.0</ele>
      </trkpt>
      <trkpt lat="39.22677" lon="-120.27628">
        <ele>2304.0</ele>
      </trkpt>
      <trkpt lat="39.2268" lon="-120.27627">
        <ele>2304.0</ele>
      </trkpt>
      <trkpt lat="39.22688" lon="-120.27618">
        <ele>2325.0</ele>
      </trkpt>
      <trkpt lat="39.22703" lon="-120.27626">
        <ele>2312.0</ele>
      </trkpt>
      <trkpt lat="39.22719" lon="-120.2763">
        <ele>2320.0</ele>
      </trkpt>
      <trkpt lat="39.22744" lon="-120.27648">
        <ele>2325.0</ele>
      </trkpt>
      <trkpt lat="39.22793" lon="-120.27696">
        <ele>2323.0</ele>
      </trkpt>
      <trkpt lat="39.22809" lon="-120.27698">
        <ele>2323.0</ele>
      </trkpt>
      <trkpt lat="39.22815" lon="-120.27714">
        <ele>2311.0</ele>
      </trkpt>
      <trkpt lat="39.22819" lon="-120.27715">
        <ele>2311.0</ele>
      </trkpt>
      <trkpt lat="39.22834" lon="-120.27709">
        <ele>2314.0</ele>
      </trkpt>
      <trkpt lat="39.22829" lon="-120.27691">
        <ele>2325.0</ele>
      </trkpt>
      <trkpt lat="39.22832" lon="-120.2769">
        <ele>2325.0</ele>
      </trkpt>
      <trkpt lat="39.22838" lon="-120.27693">
        <ele>2325.0</ele>
      </trkpt>
      <trkpt lat="39.22845" lon="-120.27692">
        <ele>2325.0</ele>
      </trkpt>
      <trkpt lat="39.22868" lon="-120.27712">
        <ele>2315.0</ele>
      </trkpt>
      <trkpt lat="39.22902" lon="-120.27731">
        <ele>2324.0</ele>
      </trkpt>
      <trkpt lat="39.2291" lon="-120.27731">
        <ele>2334.0</ele>
      </trkpt>
      <trkpt lat="39.22894" lon="-120.27707">
        <ele>2335.0</ele>
      </trkpt>
      <trkpt lat="39.22915" lon="-120.27714">
        <ele>2334.0</ele>
      </trkpt>
      <trkpt lat="39.22904" lon="-120.27682">
        <ele>2346.0</ele>
      </trkpt>
      <trkpt lat="39.22942" lon="-120.27709">
        <ele>2342.0</ele>
      </trkpt>
      <trkpt lat="39.23007" lon="-120.27723">
        <ele>2357.0</ele>
      </trkpt>
      <trkpt lat="39.23015" lon="-120.2771">
        <ele>2356.0</ele>
      </trkpt>
      <trkpt lat="39.23027" lon="-120.27705">
        <ele>2357.0</ele>
      </trkpt>
      <trkpt lat="39.23047" lon="-120.27689">
        <ele>2355.0</ele>
      </trkpt>
      <trkpt lat="39.23074" lon="-120.27655">
        <ele>2359.0</ele>
      </trkpt>
      <trkpt lat="39.23094" lon="-120.27665">
        <ele>2359.0</ele>
      </trkpt>
      <trkpt lat="39.23115" lon="-120.2767">
        <ele>2364.0</ele>
      </trkpt>
      <trkpt lat="39.2312" lon="-120.27674">
        <ele>2364.0</ele>
      </trkpt>
      <trkpt lat="39.23127" lon="-120.27707">
        <ele>2365.0</ele>
      </trkpt>
      <trkpt lat="39.23136" lon="-120.27726">
        <ele>2363.0</ele>
      </trkpt>
      <trkpt lat="39.23131" lon="-120.27739">
        <ele>2363.0</ele>
      </trkpt>
      <trkpt lat="39.23129" lon="-120.27755">
        <ele>2363.0</ele>
      </trkpt>
      <trkpt lat="39.23135" lon="-120.27809">
        <ele>2363.0</ele>
      </trkpt>
      <trkpt lat="39.23138" lon="-120.27814">
        <ele>2363.0</ele>
      </trkpt>
      <trkpt lat="39.23145" lon="-120.27816">
        <ele>2363.0</ele>
      </trkpt>
      <trkpt lat="39.23175" lon="-120.27819">
        <ele>2370.0</ele>
      </trkpt>
      <trkpt lat="39.23192" lon="-120.27832">
        <ele>2375.0</ele>
      </trkpt>
      <trkpt lat="39.23192" lon="-120.27832">
        <ele>2375.0</ele>
      </trkpt>
      <trkpt lat="39.23204" lon="-120.27847">
        <ele>2375.0</ele>
      </trkpt>
      <trkpt lat="39.23225" lon="-120.27866">
        <ele>2378.0</ele>
      </trkpt>
      <trkpt lat="39.23225" lon="-120.27866">
        <ele>2378.0</ele>
      </trkpt>
      <trkpt lat="39.23225" lon="-120.27866">
        <ele>2378.0</ele>
      </trkpt>
      <trkpt lat="39.23224999999999" lon="-120.27866">
        <ele>2378.0</ele>
      </trkpt>
      <trkpt lat="39.23241" lon="-120.27876">
        <ele>2377.0</ele>
      </trkpt>
      <trkpt lat="39.23248" lon="-120.27876">
        <ele>2377.0</ele>
      </trkpt>
      <trkpt lat="39.23252" lon="-120.27891">
        <ele>2377.0</ele>
      </trkpt>
      <trkpt lat="39.2326" lon="-120.27904">
        <ele>2372.0</ele>
      </trkpt>
      <trkpt lat="39.23272" lon="-120.27915">
        <ele>2376.0</ele>
      </trkpt>
      <trkpt lat="39.23287" lon="-120.27922">
        <ele>2376.0</ele>
      </trkpt>
      <trkpt lat="39.23308" lon="-120.27952">
        <ele>2381.0</ele>
      </trkpt>
      <trkpt lat="39.23323" lon="-120.27991">
        <ele>2388.0</ele>
      </trkpt>
      <trkpt lat="39.23326" lon="-120.28009">
        <ele>2388.0</ele>
      </trkpt>
      <trkpt lat="39.23325" lon="-120.28028">
        <ele>2386.0</ele>
      </trkpt>
      <trkpt lat="39.23328" lon="-120.28036">
        <ele>2386.0</ele>
      </trkpt>
      <trkpt lat="39.23332" lon="-120.28039">
        <ele>2386.0</ele>
      </trkpt>
      <trkpt lat="39.23347" lon="-120.28033">
        <ele>2386.0</ele>
      </trkpt>
      <trkpt lat="39.23393" lon="-120.28041">
        <ele>2404.0</ele>
      </trkpt>
      <trkpt lat="39.23409" lon="-120.28047">
        <ele>2396.0</ele>
      </trkpt>
      <trkpt lat="39.23416" lon="-120.28046">
        <ele>2396.0</ele>
      </trkpt>
      <trkpt lat="39.23427" lon="-120.28038">
        <ele>2405.0</ele>
      </trkpt>
      <trkpt lat="39.23451" lon="-120.28002">
        <ele>2410.0</ele>
      </trkpt>
      <trkpt lat="39.23468" lon="-120.27987">
        <ele>2412.0</ele>
      </trkpt>
      <trkpt lat="39.23507" lon="-120.27921">
        <ele>2425.0</ele>
      </trkpt>
      <trkpt lat="39.23538" lon="-120.27902">
        <ele>2427.0</ele>
      </trkpt>
      <trkpt lat="39.2357" lon="-120.27894">
        <ele>2426.0</ele>
      </trkpt>
      <trkpt lat="39.23592" lon="-120.27901">
        <ele>2426.0</ele>
      </trkpt>
      <trkpt lat="39.236" lon="-120.27901">
        <ele>2428.0</ele>
      </trkpt>
      <trkpt lat="39.23622" lon="-120.2789">
        <ele>2428.0</ele>
      </trkpt>
      <trkpt lat="39.23641" lon="-120.27904">
        <ele>2422.0</ele>
      </trkpt>
      <trkpt lat="39.23651" lon="-120.27927">
        <ele>2422.0</ele>
      </trkpt>
      <trkpt lat="39.23656" lon="-120.27932">
        <ele>2421.0</ele>
      </trkpt>
      <trkpt lat="39.23683" lon="-120.27986">
        <ele>2426.0</ele>
      </trkpt>
      <trkpt lat="39.23697" lon="-120.28004">
        <ele>2421.0</ele>
      </trkpt>
      <trkpt lat="39.23708" lon="-120.28013">
        <ele>2421.0</ele>
      </trkpt>
      <trkpt lat="39.23726" lon="-120.28045">
        <ele>2419.0</ele>
      </trkpt>
      <trkpt lat="39.23734" lon="-120.28067">
        <ele>2419.0</ele>
      </trkpt>
      <trkpt lat="39.23755" lon="-120.28099">
        <ele>2412.0</ele>
      </trkpt>
      <trkpt lat="39.23778" lon="-120.2812">
        <ele>2419.0</ele>
      </trkpt>
      <trkpt lat="39.23825" lon="-120.28132">
        <ele>2438.0</ele>
      </trkpt>
      <trkpt lat="39.23838" lon="-120.28151">
        <ele>2438.0</ele>
      </trkpt>
      <trkpt lat="39.23853" lon="-120.28166">
        <ele>2437.0</ele>
      </trkpt>
      <trkpt lat="39.23871" lon="-120.28199">
        <ele>2431.0</ele>
      </trkpt>
      <trkpt lat="39.23882" lon="-120.28205">
        <ele>2437.0</ele>
      </trkpt>
      <trkpt lat="39.23895" lon="-120.28231">
        <ele>2433.0</ele>
      </trkpt>
      <trkpt lat="39.23903" lon="-120.28243">
        <ele>2441.0</ele>
      </trkpt>
      <trkpt lat="39.23907" lon="-120.28252">
        <ele>2441.0</ele>
      </trkpt>
      <trkpt lat="39.23905" lon="-120.2826">
        <ele>2441.0</ele>
      </trkpt>
      <trkpt lat="39.23886" lon="-120.28281">
        <ele>2436.0</ele>
      </trkpt>
      <trkpt lat="39.23867" lon="-120.28292">
        <ele>2435.0</ele>
      </trkpt>
      <trkpt lat="39.2385" lon="-120.28314">
        <ele>2435.0</ele>
      </trkpt>
      <trkpt lat="39.23844" lon="-120.28331">
        <ele>2433.0</ele>
      </trkpt>
      <trkpt lat="39.2384" lon="-120.28353">
        <ele>2437.0</ele>
      </trkpt>
      <trkpt lat="39.23841" lon="-120.28369">
        <ele>2437.0</ele>
      </trkpt>
      <trkpt lat="39.23856" lon="-120.28397">
        <ele>2448.0</ele>
      </trkpt>
      <trkpt lat="39.23872" lon="-120.28446">
        <ele>2442.0</ele>
      </trkpt>
      <trkpt lat="39.23893" lon="-120.28491">
        <ele>2452.0</ele>
      </trkpt>
      <trkpt lat="39.23892" lon="-120.28515">
        <ele>2454.0</ele>
      </trkpt>
      <trkpt lat="39.23887" lon="-120.28539">
        <ele>2454.0</ele>
      </trkpt>
      <trkpt lat="39.23882" lon="-120.28549">
        <ele>2458.0</ele>
      </trkpt>
      <trkpt lat="39.23883" lon="-120.28557">
        <ele>2458.0</ele>
      </trkpt>
      <trkpt lat="39.23899" lon="-120.28581">
        <ele>2457.0</ele>
      </trkpt>
      <trkpt lat="39.23921" lon="-120.28599">
        <ele>2459.0</ele>
      </trkpt>
      <trkpt lat="39.23922" lon="-120.28573">
        <ele>2461.0</ele>
      </trkpt>
      <trkpt lat="39.23928" lon="-120.28558">
        <ele>2459.0</ele>
      </trkpt>
      <trkpt lat="39.23946" lon="-120.28537">
        <ele>2462.0</ele>
      </trkpt>
      <trkpt lat="39.23962" lon="-120.28531">
        <ele>2473.0</ele>
      </trkpt>
      <trkpt lat="39.23976" lon="-120.28521">
        <ele>2473.0</ele>
      </trkpt>
      <trkpt lat="39.24001" lon="-120.2848">
        <ele>2486.0</ele>
      </trkpt>
      <trkpt lat="39.24023" lon="-120.28434">
        <ele>2498.0</ele>
      </trkpt>
      <trkpt lat="39.24025" lon="-120.28416">
        <ele>2497.0</ele>
      </trkpt>
      <trkpt lat="39.24039" lon="-120.28404">
        <ele>2497.0</ele>
      </trkpt>
      <trkpt lat="39.24049" lon="-120.28389">
        <ele>2500.0</ele>
      </trkpt>
      <trkpt lat="39.24055" lon="-120.28371">
        <ele>2492.0</ele>
      </trkpt>
      <trkpt lat="39.24077" lon="-120.28359">
        <ele>2501.0</ele>
      </trkpt>
      <trkpt lat="39.2409" lon="-120.28342">
        <ele>2492.0</ele>
      </trkpt>
      <trkpt lat="39.24132" lon="-120.2831">
        <ele>2513.0</ele>
      </trkpt>
      <trkpt lat="39.2415" lon="-120.28304">
        <ele>2513.0</ele>
      </trkpt>
      <trkpt lat="39.24161" lon="-120.28295">
        <ele>2523.0</ele>
      </trkpt>
      <trkpt lat="39.24176" lon="-120.28275">
        <ele>2517.0</ele>
      </trkpt>
      <trkpt lat="39.24225" lon="-120.28226">
        <ele>2542.0</ele>
      </trkpt>
      <trkpt lat="39.24246" lon="-120.28194">
        <ele>2548.0</ele>
      </trkpt>
      <trkpt lat="39.24277" lon="-120.28118">
        <ele>2559.0</ele>
      </trkpt>
      <trkpt lat="39.24284" lon="-120.28094">
        <ele>2564.0</ele>
      </trkpt>
      <trkpt lat="39.24276" lon="-120.28078">
        <ele>2564.0</ele>
      </trkpt>
      <trkpt lat="39.24272" lon="-120.28067">
        <ele>2571.0</ele>
      </trkpt>
      <trkpt lat="39.24271" lon="-120.28037">
        <ele>2578.0</ele>
      </trkpt>
      <trkpt lat="39.24266" lon="-120.28031">
        <ele>2578.0</ele>
      </trkpt>
      <trkpt lat="39.24251" lon="-120.28027">
        <ele>2577.0</ele>
      </trkpt>
      <trkpt lat="39.24231" lon="-120.28004">
        <ele>2583.0</ele>
      </trkpt>
      <trkpt lat="39.24208" lon="-120.27984">
        <ele>2592.0</ele>
      </trkpt>
      <trkpt lat="39.24205" lon="-120.27978">
        <ele>2592.0</ele>
      </trkpt>
      <trkpt lat="39.24206" lon="-120.27976">
        <ele>2592.0</ele>
      </trkpt>
      <trkpt lat="39.24245" lon="-120.27982">
        <ele>2596.0</ele>
      </trkpt>
      <trkpt lat="39.24304" lon="-120.2796">
        <ele>2596.0</ele>
      </trkpt>
      <trkpt lat="39.24316" lon="-120.27961">
        <ele>2596.0</ele>
      </trkpt>
      <trkpt lat="39.2437" lon="-120.27978">
        <ele>2595.0</ele>
      </trkpt>
      <trkpt lat="39.24402" lon="-120.27994">
        <ele>2602.0</ele>
      </trkpt>
      <trkpt lat="39.24441" lon="-120.28025">
        <ele>2611.0</ele>
      </trkpt>
      <trkpt lat="39.24449" lon="-120.28035">
        <ele>2611.0</ele>
      </trkpt>
      <trkpt lat="39.24469" lon="-120.28052">
        <ele>2617.0</ele>
      </trkpt>
      <trkpt lat="39.24469" lon="-120.28052">
        <ele>2617.0</ele>
      </trkpt>
      <trkpt lat="39.24482" lon="-120.28079">
        <ele>2622.0</ele>
      </trkpt>
      <trkpt lat="39.24487" lon="-120.28156">
        <ele>2636.0</ele>
      </trkpt>
      <trkpt lat="39.24497" lon="-120.28192">
        <ele>2639.0</ele>
      </trkpt>
      <trkpt lat="39.24543" lon="-120.28281">
        <ele>2653.0</ele>
      </trkpt>
      <trkpt lat="39.24574" lon="-120.28314">
        <ele>2655.0</ele>
      </trkpt>
      <trkpt lat="39.24591" lon="-120.2835">
        <ele>2664.0</ele>
      </trkpt>
      <trkpt lat="39.24592" lon="-120.28371">
        <ele>2664.0</ele>
      </trkpt>
      <trkpt lat="39.24602" lon="-120.28408">
        <ele>2667.0</ele>
      </trkpt>
      <trkpt lat="39.24621427060734" lon="-120.2843756291851">
        <ele>2667.0</ele>
      </trkpt>
      <trkpt lat="39.24622" lon="-120.28437">
        <ele>2667.0</ele>
      </trkpt>
      <trkpt lat="39.24605" lon="-120.28445">
        <ele>2667.0</ele>
      </trkpt>
      <trkpt lat="39.24592" lon="-120.28447">
        <ele>2676.0</ele>
      </trkpt>
      <trkpt lat="39.24546" lon="-120.28479">
        <ele>2688.0</ele>
      </trkpt>
      <trkpt lat="39.24537" lon="-120.28477">
        <ele>2695.0</ele>
      </trkpt>
      <trkpt lat="39.24521" lon="-120.28485">
        <ele>2695.0</ele>
      </trkpt>
      <trkpt lat="39.245" lon="-120.28484">
        <ele>2699.0</ele>
      </trkpt>
      <trkpt lat="39.24491" lon="-120.28464">
        <ele>2699.0</ele>
      </trkpt>
      <trkpt lat="39.24491" lon="-120.28464">
        <ele>2699.0</ele>
      </trkpt>
      <trkpt lat="39.24491" lon="-120.28464">
        <ele>2699.0</ele>
      </trkpt>
      <trkpt lat="39.24491" lon="-120.28464">
        <ele>2699.0</ele>
      </trkpt>
      <trkpt lat="39.245" lon="-120.28484">
        <ele>2699.0</ele>
      </trkpt>
      <trkpt lat="39.24521" lon="-120.28485">
        <ele>2695.0</ele>
      </trkpt>
      <trkpt lat="39.24537" lon="-120.28477">
        <ele>2695.0</ele>
      </trkpt>
      <trkpt lat="39.24546" lon="-120.28479">
        <ele>2688.0</ele>
      </trkpt>
      <trkpt lat="39.24592" lon="-120.28447">
        <ele>2676.0</ele>
      </trkpt>
      <trkpt lat="39.24605" lon="-120.28445">
        <ele>2667.0</ele>
      </trkpt>
      <trkpt lat="39.24622" lon="-120.28437">
        <ele>2667.0</ele>
      </trkpt>
      <trkpt lat="39.24621427060734" lon="-120.2843756291851">
        <ele>2667.0</ele>
      </trkpt>
      <trkpt lat="39.24602" lon="-120.28408">
        <ele>2667.0</ele>
      </trkpt>
      <trkpt lat="39.24592" lon="-120.28371">
        <ele>2664.0</ele>
      </trkpt>
      <trkpt lat="39.24591" lon="-120.2835">
        <ele>2664.0</ele>
      </trkpt>
      <trkpt lat="39.24574" lon="-120.28314">
        <ele>2655.0</ele>
      </trkpt>
      <trkpt lat="39.24543" lon="-120.28281">
        <ele>2653.0</ele>
      </trkpt>
      <trkpt lat="39.24497" lon="-120.28192">
        <ele>2639.0</ele>
      </trkpt>
      <trkpt lat="39.24487" lon="-120.28156">
        <ele>2636.0</ele>
      </trkpt>
      <trkpt lat="39.24482" lon="-120.28079">
        <ele>2622.0</ele>
      </trkpt>
      <trkpt lat="39.24469" lon="-120.28052">
        <ele>2617.0</ele>
      </trkpt>
      <trkpt lat="39.24469" lon="-120.28052">
        <ele>2617.0</ele>
      </trkpt>
      <trkpt lat="39.24449" lon="-120.28035">
        <ele>2611.0</ele>
      </trkpt>
      <trkpt lat="39.24441" lon="-120.28025">
        <ele>2611.0</ele>
      </trkpt>
      <trkpt lat="39.24402" lon="-120.27994">
        <ele>2602.0</ele>
      </trkpt>
      <trkpt lat="39.2437" lon="-120.27978">
        <ele>2595.0</ele>
      </trkpt>
      <trkpt lat="39.24316" lon="-120.27961">
        <ele>2596.0</ele>
      </trkpt>
      <trkpt lat="39.24304" lon="-120.2796">
        <ele>2596.0</ele>
      </trkpt>
      <trkpt lat="39.24245" lon="-120.27982">
        <ele>2596.0</ele>
      </trkpt>
      <trkpt lat="39.24206" lon="-120.27976">
        <ele>2592.0</ele>
      </trkpt>
      <trkpt lat="39.24205" lon="-120.27978">
        <ele>2592.0</ele>
      </trkpt>
      <trkpt lat="39.24208" lon="-120.27984">
        <ele>2592.0</ele>
      </trkpt>
      <trkpt lat="39.24231" lon="-120.28004">
        <ele>2583.0</ele>
      </trkpt>
      <trkpt lat="39.24251" lon="-120.28027">
        <ele>2577.0</ele>
      </trkpt>
      <trkpt lat="39.24266" lon="-120.28031">
        <ele>2578.0</ele>
      </trkpt>
      <trkpt lat="39.24271" lon="-120.28037">
        <ele>2578.0</ele>
      </trkpt>
      <trkpt lat="39.24272" lon="-120.28067">
        <ele>2571.0</ele>
      </trkpt>
      <trkpt lat="39.24276" lon="-120.28078">
        <ele>2564.0</ele>
      </trkpt>
      <trkpt lat="39.24284" lon="-120.28094">
        <ele>2564.0</ele>
      </trkpt>
      <trkpt lat="39.24277" lon="-120.28118">
        <ele>2559.0</ele>
      </trkpt>
      <trkpt lat="39.24246" lon="-120.28194">
        <ele>2548.0</ele>
      </trkpt>
      <trkpt lat="39.24225" lon="-120.28226">
        <ele>2542.0</ele>
      </trkpt>
      <trkpt lat="39.24176" lon="-120.28275">
        <ele>2517.0</ele>
      </trkpt>
      <trkpt lat="39.24161" lon="-120.28295">
        <ele>2523.0</ele>
      </trkpt>
      <trkpt lat="39.2415" lon="-120.28304">
        <ele>2513.0</ele>
      </trkpt>
      <trkpt lat="39.24132" lon="-120.2831">
        <ele>2513.0</ele>
      </trkpt>
      <trkpt lat="39.2409" lon="-120.28342">
        <ele>2492.0</ele>
      </trkpt>
      <trkpt lat="39.24077" lon="-120.28359">
        <ele>2501.0</ele>
      </trkpt>
      <trkpt lat="39.24055" lon="-120.28371">
        <ele>2492.0</ele>
      </trkpt>
      <trkpt lat="39.24049" lon="-120.28389">
        <ele>2500.0</ele>
      </trkpt>
      <trkpt lat="39.24039" lon="-120.28404">
        <ele>2497.0</ele>
      </trkpt>
      <trkpt lat="39.24025" lon="-120.28416">
        <ele>2497.0</ele>
      </trkpt>
      <trkpt lat="39.24023" lon="-120.28434">
        <ele>2498.0</ele>
      </trkpt>
      <trkpt lat="39.24001" lon="-120.2848">
        <ele>2486.0</ele>
      </trkpt>
      <trkpt lat="39.23976" lon="-120.28521">
        <ele>2473.0</ele>
      </trkpt>
      <trkpt lat="39.23962" lon="-120.28531">
        <ele>2473.0</ele>
      </trkpt>
      <trkpt lat="39.23946" lon="-120.28537">
        <ele>2462.0</ele>
      </trkpt>
      <trkpt lat="39.23928" lon="-120.28558">
        <ele>2459.0</ele>
      </trkpt>
      <trkpt lat="39.23922" lon="-120.28573">
        <ele>2461.0</ele>
      </trkpt>
      <trkpt lat="39.23921" lon="-120.28599">
        <ele>2459.0</ele>
      </trkpt>
      <trkpt lat="39.23899" lon="-120.28581">
        <ele>2457.0</ele>
      </trkpt>
      <trkpt lat="39.23883" lon="-120.28557">
        <ele>2458.0</ele>
      </trkpt>
      <trkpt lat="39.23882" lon="-120.28549">
        <ele>2458.0</ele>
      </trkpt>
      <trkpt lat="39.23887" lon="-120.28539">
        <ele>2454.0</ele>
      </trkpt>
      <trkpt lat="39.23892" lon="-120.28515">
        <ele>2454.0</ele>
      </trkpt>
      <trkpt lat="39.23893" lon="-120.28491">
        <ele>2452.0</ele>
      </trkpt>
      <trkpt lat="39.23872" lon="-120.28446">
        <ele>2442.0</ele>
      </trkpt>
      <trkpt lat="39.23856" lon="-120.28397">
        <ele>2448.0</ele>
      </trkpt>
      <trkpt lat="39.23841" lon="-120.28369">
        <ele>2437.0</ele>
      </trkpt>
      <trkpt lat="39.2384" lon="-120.28353">
        <ele>2437.0</ele>
      </trkpt>
      <trkpt lat="39.23844" lon="-120.28331">
        <ele>2433.0</ele>
      </trkpt>
      <trkpt lat="39.2385" lon="-120.28314">
        <ele>2435.0</ele>
      </trkpt>
      <trkpt lat="39.23867" lon="-120.28292">
        <ele>2435.0</ele>
      </trkpt>
      <trkpt lat="39.23886" lon="-120.28281">
        <ele>2436.0</ele>
      </trkpt>
      <trkpt lat="39.23905" lon="-120.2826">
        <ele>2441.0</ele>
      </trkpt>
      <trkpt lat="39.23907" lon="-120.28252">
        <ele>2441.0</ele>
      </trkpt>
      <trkpt lat="39.23903" lon="-120.28243">
        <ele>2441.0</ele>
      </trkpt>
      <trkpt lat="39.23895" lon="-120.28231">
        <ele>2433.0</ele>
      </trkpt>
      <trkpt lat="39.23882" lon="-120.28205">
        <ele>2437.0</ele>
      </trkpt>
      <trkpt lat="39.23871" lon="-120.28199">
        <ele>2431.0</ele>
      </trkpt>
      <trkpt lat="39.23853" lon="-120.28166">
        <ele>2437.0</ele>
      </trkpt>
      <trkpt lat="39.23838" lon="-120.28151">
        <ele>2438.0</ele>
      </trkpt>
      <trkpt lat="39.23825" lon="-120.28132">
        <ele>2438.0</ele>
      </trkpt>
      <trkpt lat="39.23778" lon="-120.2812">
        <ele>2419.0</ele>
      </trkpt>
      <trkpt lat="39.23755" lon="-120.28099">
        <ele>2412.0</ele>
      </trkpt>
      <trkpt lat="39.23734" lon="-120.28067">
        <ele>2419.0</ele>
      </trkpt>
      <trkpt lat="39.23726" lon="-120.28045">
        <ele>2419.0</ele>
      </trkpt>
      <trkpt lat="39.23708" lon="-120.28013">
        <ele>2421.0</ele>
      </trkpt>
      <trkpt lat="39.23697" lon="-120.28004">
        <ele>2421.0</ele>
      </trkpt>
      <trkpt lat="39.23683" lon="-120.27986">
        <ele>2426.0</ele>
      </trkpt>
      <trkpt lat="39.23656" lon="-120.27932">
        <ele>2421.0</ele>
      </trkpt>
      <trkpt lat="39.23651" lon="-120.27927">
        <ele>2422.0</ele>
      </trkpt>
      <trkpt lat="39.23641" lon="-120.27904">
        <ele>2422.0</ele>
      </trkpt>
      <trkpt lat="39.23622" lon="-120.2789">
        <ele>2428.0</ele>
      </trkpt>
      <trkpt lat="39.236" lon="-120.27901">
        <ele>2428.0</ele>
      </trkpt>
      <trkpt lat="39.23592" lon="-120.27901">
        <ele>2426.0</ele>
      </trkpt>
      <trkpt lat="39.2357" lon="-120.27894">
        <ele>2426.0</ele>
      </trkpt>
      <trkpt lat="39.23538" lon="-120.27902">
        <ele>2427.0</ele>
      </trkpt>
      <trkpt lat="39.23507" lon="-120.27921">
        <ele>2425.0</ele>
      </trkpt>
      <trkpt lat="39.23468" lon="-120.27987">
        <ele>2412.0</ele>
      </trkpt>
      <trkpt lat="39.23451" lon="-120.28002">
        <ele>2410.0</ele>
      </trkpt>
      <trkpt lat="39.23427" lon="-120.28038">
        <ele>2405.0</ele>
      </trkpt>
      <trkpt lat="39.23416" lon="-120.28046">
        <ele>2396.0</ele>
      </trkpt>
      <trkpt lat="39.23409" lon="-120.28047">
        <ele>2396.0</ele>
      </trkpt>
      <trkpt lat="39.23393" lon="-120.28041">
        <ele>2404.0</ele>
      </trkpt>
      <trkpt lat="39.23347" lon="-120.28033">
        <ele>2386.0</ele>
      </trkpt>
      <trkpt lat="39.23332" lon="-120.28039">
        <ele>2386.0</ele>
      </trkpt>
      <trkpt lat="39.23328" lon="-120.28036">
        <ele>2386.0</ele>
      </trkpt>
      <trkpt lat="39.23325" lon="-120.28028">
        <ele>2386.0</ele>
      </trkpt>
      <trkpt lat="39.23326" lon="-120.28009">
        <ele>2388.0</ele>
      </trkpt>
      <trkpt lat="39.23323" lon="-120.27991">
        <ele>2388.0</ele>
      </trkpt>
      <trkpt lat="39.23308" lon="-120.27952">
        <ele>2381.0</ele>
      </trkpt>
      <trkpt lat="39.23287" lon="-120.27922">
        <ele>2376.0</ele>
      </trkpt>
      <trkpt lat="39.23272" lon="-120.27915">
        <ele>2376.0</ele>
      </trkpt>
      <trkpt lat="39.23260970058494" lon="-120.2790488922029">
        <ele>2372.0</ele>
      </trkpt>
      <trkpt lat="39.23260970059258" lon="-120.2790488922029">
        <ele>2372.0</ele>
      </trkpt>
      <trkpt lat="39.2326" lon="-120.27904">
        <ele>2372.0</ele>
      </trkpt>
      <trkpt lat="39.23252" lon="-120.27891">
        <ele>2377.0</ele>
      </trkpt>
      <trkpt lat="39.23248" lon="-120.27876">
        <ele>2377.0</ele>
      </trkpt>
      <trkpt lat="39.23241" lon="-120.27876">
        <ele>2377.0</ele>
      </trkpt>
      <trkpt lat="39.23225" lon="-120.27866">
        <ele>2378.0</ele>
      </trkpt>
      <trkpt lat="39.23225" lon="-120.27866">
        <ele>2378.0</ele>
      </trkpt>
      <trkpt lat="39.23204" lon="-120.27847">
        <ele>2375.0</ele>
      </trkpt>
      <trkpt lat="39.23192" lon="-120.27832">
        <ele>2375.0</ele>
      </trkpt>
      <trkpt lat="39.23192" lon="-120.27832">
        <ele>2375.0</ele>
      </trkpt>
      <trkpt lat="39.23175" lon="-120.27819">
        <ele>2370.0</ele>
      </trkpt>
      <trkpt lat="39.23145" lon="-120.27816">
        <ele>2363.0</ele>
      </trkpt>
      <trkpt lat="39.23138" lon="-120.27814">
        <ele>2363.0</ele>
      </trkpt>
      <trkpt lat="39.23135" lon="-120.27809">
        <ele>2363.0</ele>
      </trkpt>
      <trkpt lat="39.23129" lon="-120.27755">
        <ele>2363.0</ele>
      </trkpt>
      <trkpt lat="39.23131" lon="-120.27739">
        <ele>2363.0</ele>
      </trkpt>
      <trkpt lat="39.23136" lon="-120.27726">
        <ele>2363.0</ele>
      </trkpt>
      <trkpt lat="39.23127" lon="-120.27707">
        <ele>2365.0</ele>
      </trkpt>
      <trkpt lat="39.2312" lon="-120.27674">
        <ele>2364.0</ele>
      </trkpt>
      <trkpt lat="39.23115" lon="-120.2767">
        <ele>2364.0</ele>
      </trkpt>
      <trkpt lat="39.23094" lon="-120.27665">
        <ele>2359.0</ele>
      </trkpt>
      <trkpt lat="39.23074" lon="-120.27655">
        <ele>2359.0</ele>
      </trkpt>
      <trkpt lat="39.23047" lon="-120.27689">
        <ele>2355.0</ele>
      </trkpt>
      <trkpt lat="39.23027" lon="-120.27705">
        <ele>2357.0</ele>
      </trkpt>
      <trkpt lat="39.23015" lon="-120.2771">
        <ele>2356.0</ele>
      </trkpt>
      <trkpt lat="39.23007" lon="-120.27723">
        <ele>2357.0</ele>
      </trkpt>
      <trkpt lat="39.22942" lon="-120.27709">
        <ele>2342.0</ele>
      </trkpt>
      <trkpt lat="39.22904" lon="-120.27682">
        <ele>2346.0</ele>
      </trkpt>
      <trkpt lat="39.22915" lon="-120.27714">
        <ele>2334.0</ele>
      </trkpt>
      <trkpt lat="39.22894" lon="-120.27707">
        <ele>2335.0</ele>
      </trkpt>
      <trkpt lat="39.2291" lon="-120.27731">
        <ele>2334.0</ele>
      </trkpt>
      <trkpt lat="39.22902" lon="-120.27731">
        <ele>2324.0</ele>
      </trkpt>
      <trkpt lat="39.22868" lon="-120.27712">
        <ele>2315.0</ele>
      </trkpt>
      <trkpt lat="39.22845" lon="-120.27692">
        <ele>2325.0</ele>
      </trkpt>
      <trkpt lat="39.22838" lon="-120.27693">
        <ele>2325.0</ele>
      </trkpt>
      <trkpt lat="39.22832" lon="-120.2769">
        <ele>2325.0</ele>
      </trkpt>
      <trkpt lat="39.22829" lon="-120.27691">
        <ele>2325.0</ele>
      </trkpt>
      <trkpt lat="39.22834" lon="-120.27709">
        <ele>2314.0</ele>
      </trkpt>
      <trkpt lat="39.22819" lon="-120.27715">
        <ele>2311.0</ele>
      </trkpt>
      <trkpt lat="39.22815" lon="-120.27714">
        <ele>2311.0</ele>
      </trkpt>
      <trkpt lat="39.22809" lon="-120.27698">
        <ele>2323.0</ele>
      </trkpt>
      <trkpt lat="39.22793" lon="-120.27696">
        <ele>2323.0</ele>
      </trkpt>
      <trkpt lat="39.22744" lon="-120.27648">
        <ele>2325.0</ele>
      </trkpt>
      <trkpt lat="39.22719" lon="-120.2763">
        <ele>2320.0</ele>
      </trkpt>
      <trkpt lat="39.22703" lon="-120.27626">
        <ele>2312.0</ele>
      </trkpt>
      <trkpt lat="39.22688" lon="-120.27618">
        <ele>2325.0</ele>
      </trkpt>
      <trkpt lat="39.2268" lon="-120.27627">
        <ele>2304.0</ele>
      </trkpt>
      <trkpt lat="39.22677" lon="-120.27628">
        <ele>2304.0</ele>
      </trkpt>
      <trkpt lat="39.22651" lon="-120.27611">
        <ele>2307.0</ele>
      </trkpt>
      <trkpt lat="39.22641" lon="-120.27614">
        <ele>2307.0</ele>
      </trkpt>
      <trkpt lat="39.22636" lon="-120.27608">
        <ele>2307.0</ele>
      </trkpt>
      <trkpt lat="39.22626" lon="-120.27602">
        <ele>2307.0</ele>
      </trkpt>
      <trkpt lat="39.22614" lon="-120.27607">
        <ele>2302.0</ele>
      </trkpt>
      <trkpt lat="39.22604" lon="-120.27616">
        <ele>2302.0</ele>
      </trkpt>
      <trkpt lat="39.22586" lon="-120.27616">
        <ele>2300.0</ele>
      </trkpt>
      <trkpt lat="39.22581" lon="-120.27624">
        <ele>2300.0</ele>
      </trkpt>
      <trkpt lat="39.22569" lon="-120.27628">
        <ele>2305.0</ele>
      </trkpt>
      <trkpt lat="39.22541" lon="-120.27653">
        <ele>2309.0</ele>
      </trkpt>
      <trkpt lat="39.2254" lon="-120.27668">
        <ele>2309.0</ele>
      </trkpt>
      <trkpt lat="39.22533" lon="-120.27666">
        <ele>2309.0</ele>
      </trkpt>
      <trkpt lat="39.22537" lon="-120.2768">
        <ele>2309.0</ele>
      </trkpt>
      <trkpt lat="39.22537" lon="-120.2768">
        <ele>2309.0</ele>
      </trkpt>
      <trkpt lat="39.22537" lon="-120.2768">
        <ele>2309.0</ele>
      </trkpt>
      <trkpt lat="39.22473" lon="-120.27657">
        <ele>2309.0</ele>
      </trkpt>
      <trkpt lat="39.22446" lon="-120.27641">
        <ele>2313.0</ele>
      </trkpt>
      <trkpt lat="39.22453" lon="-120.27655">
        <ele>2314.0</ele>
      </trkpt>
      <trkpt lat="39.22398" lon="-120.2763">
        <ele>2331.0</ele>
      </trkpt>
      <trkpt lat="39.22332" lon="-120.27623">
        <ele>2343.0</ele>
      </trkpt>
      <trkpt lat="39.22317" lon="-120.27634">
        <ele>2352.0</ele>
      </trkpt>
      <trkpt lat="39.22333" lon="-120.27645">
        <ele>2349.0</ele>
      </trkpt>
      <trkpt lat="39.22359" lon="-120.27676">
        <ele>2347.0</ele>
      </trkpt>
      <trkpt lat="39.22383" lon="-120.27726">
        <ele>2349.0</ele>
      </trkpt>
      <trkpt lat="39.22352" lon="-120.27715">
        <ele>2358.0</ele>
      </trkpt>
      <trkpt lat="39.22356" lon="-120.27742">
        <ele>2359.0</ele>
      </trkpt>
      <trkpt lat="39.22321" lon="-120.27722">
        <ele>2363.0</ele>
      </trkpt>
      <trkpt lat="39.223" lon="-120.27718">
        <ele>2367.0</ele>
      </trkpt>
      <trkpt lat="39.22272" lon="-120.27699">
        <ele>2358.0</ele>
      </trkpt>
      <trkpt lat="39.22253" lon="-120.27694">
        <ele>2362.0</ele>
      </trkpt>
      <trkpt lat="39.2227" lon="-120.27715">
        <ele>2366.0</ele>
      </trkpt>
      <trkpt lat="39.2224" lon="-120.2771">
        <ele>2371.0</ele>
      </trkpt>
      <trkpt lat="39.22222" lon="-120.27717">
        <ele>2375.0</ele>
      </trkpt>
      <trkpt lat="39.22233" lon="-120.27722">
        <ele>2375.0</ele>
      </trkpt>
      <trkpt lat="39.22244" lon="-120.27733">
        <ele>2371.0</ele>
      </trkpt>
      <trkpt lat="39.22257" lon="-120.27764">
        <ele>2378.0</ele>
      </trkpt>
      <trkpt lat="39.22257" lon="-120.27771">
        <ele>2378.0</ele>
      </trkpt>
      <trkpt lat="39.22254" lon="-120.27772">
        <ele>2378.0</ele>
      </trkpt>
      <trkpt lat="39.22241" lon="-120.27765">
        <ele>2378.0</ele>
      </trkpt>
      <trkpt lat="39.22234" lon="-120.27758">
        <ele>2379.0</ele>
      </trkpt>
      <trkpt lat="39.22227" lon="-120.27744">
        <ele>2379.0</ele>
      </trkpt>
      <trkpt lat="39.2219" lon="-120.27733">
        <ele>2377.0</ele>
      </trkpt>
      <trkpt lat="39.22182" lon="-120.27726">
        <ele>2377.0</ele>
      </trkpt>
      <trkpt lat="39.22172" lon="-120.27721">
        <ele>2376.0</ele>
      </trkpt>
      <trkpt lat="39.22148" lon="-120.27718">
        <ele>2378.0</ele>
      </trkpt>
      <trkpt lat="39.22136" lon="-120.27722">
        <ele>2378.0</ele>
      </trkpt>
      <trkpt lat="39.22107" lon="-120.27707">
        <ele>2381.0</ele>
      </trkpt>
      <trkpt lat="39.2208" lon="-120.27701">
        <ele>2382.0</ele>
      </trkpt>
      <trkpt lat="39.2206" lon="-120.2769">
        <ele>2384.0</ele>
      </trkpt>
      <trkpt lat="39.22032" lon="-120.27691">
        <ele>2386.0</ele>
      </trkpt>
      <trkpt lat="39.22022" lon="-120.27689">
        <ele>2386.0</ele>
      </trkpt>
      <trkpt lat="39.22018" lon="-120.27696">
        <ele>2386.0</ele>
      </trkpt>
      <trkpt lat="39.22018" lon="-120.2771">
        <ele>2391.0</ele>
      </trkpt>
      <trkpt lat="39.21992" lon="-120.27728">
        <ele>2398.0</ele>
      </trkpt>
      <trkpt lat="39.21985" lon="-120.27742">
        <ele>2400.0</ele>
      </trkpt>
      <trkpt lat="39.21954" lon="-120.27756">
        <ele>2405.0</ele>
      </trkpt>
      <trkpt lat="39.21944" lon="-120.27765">
        <ele>2402.0</ele>
      </trkpt>
      <trkpt lat="39.21931" lon="-120.27763">
        <ele>2405.0</ele>
      </trkpt>
      <trkpt lat="39.21911" lon="-120.27771">
        <ele>2405.0</ele>
      </trkpt>
      <trkpt lat="39.21895" lon="-120.27771">
        <ele>2411.0</ele>
      </trkpt>
      <trkpt lat="39.21846" lon="-120.2776">
        <ele>2425.0</ele>
      </trkpt>
      <trkpt lat="39.21835" lon="-120.27763">
        <ele>2425.0</ele>
      </trkpt>
      <trkpt lat="39.21818" lon="-120.27757">
        <ele>2427.0</ele>
      </trkpt>
      <trkpt lat="39.2179" lon="-120.27741">
        <ele>2429.0</ele>
      </trkpt>
      <trkpt lat="39.21782" lon="-120.2774">
        <ele>2429.0</ele>
      </trkpt>
      <trkpt lat="39.21763" lon="-120.27726">
        <ele>2433.0</ele>
      </trkpt>
      <trkpt lat="39.21759" lon="-120.27734">
        <ele>2433.0</ele>
      </trkpt>
      <trkpt lat="39.21756" lon="-120.2773">
        <ele>2433.0</ele>
      </trkpt>
      <trkpt lat="39.2175" lon="-120.27744">
        <ele>2432.0</ele>
      </trkpt>
      <trkpt lat="39.21743" lon="-120.27753">
        <ele>2432.0</ele>
      </trkpt>
      <trkpt lat="39.21735" lon="-120.27757">
        <ele>2430.0</ele>
      </trkpt>
      <trkpt lat="39.21724" lon="-120.27749">
        <ele>2430.0</ele>
      </trkpt>
      <trkpt lat="39.21717" lon="-120.27738">
        <ele>2430.0</ele>
      </trkpt>
      <trkpt lat="39.21704" lon="-120.27728">
        <ele>2431.0</ele>
      </trkpt>
      <trkpt lat="39.21672" lon="-120.27729">
        <ele>2430.0</ele>
      </trkpt>
      <trkpt lat="39.21647" lon="-120.27721">
        <ele>2432.0</ele>
      </trkpt>
      <trkpt lat="39.21638" lon="-120.27723">
        <ele>2432.0</ele>
      </trkpt>
      <trkpt lat="39.21613" lon="-120.27718">
        <ele>2435.0</ele>
      </trkpt>
      <trkpt lat="39.21597" lon="-120.27711">
        <ele>2442.0</ele>
      </trkpt>
      <trkpt lat="39.21592" lon="-120.27705">
        <ele>2442.0</ele>
      </trkpt>
      <trkpt lat="39.2159" lon="-120.27695">
        <ele>2442.0</ele>
      </trkpt>
      <trkpt lat="39.21574" lon="-120.27696">
        <ele>2442.0</ele>
      </trkpt>
      <trkpt lat="39.21544" lon="-120.27706">
        <ele>2447.0</ele>
      </trkpt>
      <trkpt lat="39.21526" lon="-120.27702">
        <ele>2451.0</ele>
      </trkpt>
      <trkpt lat="39.21523" lon="-120.27694">
        <ele>2451.0</ele>
      </trkpt>
      <trkpt lat="39.21523" lon="-120.27694">
        <ele>2451.0</ele>
      </trkpt>
      <trkpt lat="39.21514" lon="-120.2767">
        <ele>2453.0</ele>
      </trkpt>
      <trkpt lat="39.215" lon="-120.2768">
        <ele>2459.0</ele>
      </trkpt>
      <trkpt lat="39.21484" lon="-120.27675">
        <ele>2464.0</ele>
      </trkpt>
      <trkpt lat="39.2144" lon="-120.27632">
        <ele>2473.0</ele>
      </trkpt>
      <trkpt lat="39.21425" lon="-120.27613">
        <ele>2478.0</ele>
      </trkpt>
      <trkpt lat="39.21421" lon="-120.27612">
        <ele>2478.0</ele>
      </trkpt>
      <trkpt lat="39.21416" lon="-120.27621">
        <ele>2478.0</ele>
      </trkpt>
      <trkpt lat="39.21409" lon="-120.27669">
        <ele>2477.0</ele>
      </trkpt>
      <trkpt lat="39.21397" lon="-120.27692">
        <ele>2475.0</ele>
      </trkpt>
      <trkpt lat="39.21356" lon="-120.27701">
        <ele>2474.0</ele>
      </trkpt>
      <trkpt lat="39.2132" lon="-120.27694">
        <ele>2474.0</ele>
      </trkpt>
      <trkpt lat="39.21295" lon="-120.27699">
        <ele>2476.0</ele>
      </trkpt>
      <trkpt lat="39.21275" lon="-120.27695">
        <ele>2479.0</ele>
      </trkpt>
      <trkpt lat="39.21241" lon="-120.27678">
        <ele>2484.0</ele>
      </trkpt>
      <trkpt lat="39.21217" lon="-120.27679">
        <ele>2481.0</ele>
      </trkpt>
      <trkpt lat="39.21189" lon="-120.27674">
        <ele>2481.0</ele>
      </trkpt>
      <trkpt lat="39.21165" lon="-120.27654">
        <ele>2483.0</ele>
      </trkpt>
      <trkpt lat="39.21158" lon="-120.27655">
        <ele>2483.0</ele>
      </trkpt>
      <trkpt lat="39.21154" lon="-120.27662">
        <ele>2483.0</ele>
      </trkpt>
      <trkpt lat="39.21147" lon="-120.27666">
        <ele>2487.0</ele>
      </trkpt>
      <trkpt lat="39.21119" lon="-120.2767">
        <ele>2494.0</ele>
      </trkpt>
      <trkpt lat="39.21112" lon="-120.27668">
        <ele>2494.0</ele>
      </trkpt>
      <trkpt lat="39.21083" lon="-120.27649">
        <ele>2497.0</ele>
      </trkpt>
      <trkpt lat="39.21061" lon="-120.27639">
        <ele>2495.0</ele>
      </trkpt>
      <trkpt lat="39.21061" lon="-120.27639">
        <ele>2495.0</ele>
      </trkpt>
      <trkpt lat="39.21061" lon="-120.27639">
        <ele>2495.0</ele>
      </trkpt>
      <trkpt lat="39.21093" lon="-120.2762">
        <ele>2493.0</ele>
      </trkpt>
      <trkpt lat="39.21112" lon="-120.27588">
        <ele>2488.0</ele>
      </trkpt>
      <trkpt lat="39.21117" lon="-120.27584">
        <ele>2488.0</ele>
      </trkpt>
      <trkpt lat="39.21169" lon="-120.27569">
        <ele>2472.0</ele>
      </trkpt>
      <trkpt lat="39.21185" lon="-120.27559">
        <ele>2467.0</ele>
      </trkpt>
      <trkpt lat="39.21203" lon="-120.27543">
        <ele>2467.0</ele>
      </trkpt>
      <trkpt lat="39.21226" lon="-120.27514">
        <ele>2463.0</ele>
      </trkpt>
      <trkpt lat="39.21228" lon="-120.27507">
        <ele>2457.0</ele>
      </trkpt>
      <trkpt lat="39.21241" lon="-120.27498">
        <ele>2458.0</ele>
      </trkpt>
      <trkpt lat="39.21244" lon="-120.27484">
        <ele>2450.0</ele>
      </trkpt>
      <trkpt lat="39.21208" lon="-120.2749">
        <ele>2456.0</ele>
      </trkpt>
      <trkpt lat="39.21183" lon="-120.27469">
        <ele>2445.0</ele>
      </trkpt>
      <trkpt lat="39.21197" lon="-120.27461">
        <ele>2445.0</ele>
      </trkpt>
      <trkpt lat="39.21208" lon="-120.27461">
        <ele>2445.0</ele>
      </trkpt>
      <trkpt lat="39.21226" lon="-120.27448">
        <ele>2439.0</ele>
      </trkpt>
      <trkpt lat="39.21246" lon="-120.27424">
        <ele>2432.0</ele>
      </trkpt>
      <trkpt lat="39.21266" lon="-120.27382">
        <ele>2433.0</ele>
      </trkpt>
      <trkpt lat="39.21245" lon="-120.27398">
        <ele>2425.0</ele>
      </trkpt>
      <trkpt lat="39.2123" lon="-120.27397">
        <ele>2423.0</ele>
      </trkpt>
      <trkpt lat="39.21209" lon="-120.27379">
        <ele>2423.0</ele>
      </trkpt>
      <trkpt lat="39.21206" lon="-120.27364">
        <ele>2428.0</ele>
      </trkpt>
      <trkpt lat="39.21222" lon="-120.27359">
        <ele>2421.0</ele>
      </trkpt>
      <trkpt lat="39.2124" lon="-120.27361">
        <ele>2421.0</ele>
      </trkpt>
      <trkpt lat="39.2126" lon="-120.27347">
        <ele>2417.0</ele>
      </trkpt>
      <trkpt lat="39.21268" lon="-120.27332">
        <ele>2419.0</ele>
      </trkpt>
      <trkpt lat="39.21272" lon="-120.27312">
        <ele>2410.0</ele>
      </trkpt>
      <trkpt lat="39.21253" lon="-120.27324">
        <ele>2417.0</ele>
      </trkpt>
      <trkpt lat="39.21242" lon="-120.27317">
        <ele>2409.0</ele>
      </trkpt>
      <trkpt lat="39.21232" lon="-120.27307">
        <ele>2411.0</ele>
      </trkpt>
      <trkpt lat="39.21236" lon="-120.27295">
        <ele>2411.0</ele>
      </trkpt>
      <trkpt lat="39.21249" lon="-120.27291">
        <ele>2402.0</ele>
      </trkpt>
      <trkpt lat="39.21262" lon="-120.27273">
        <ele>2402.0</ele>
      </trkpt>
      <trkpt lat="39.21273" lon="-120.27226">
        <ele>2393.0</ele>
      </trkpt>
      <trkpt lat="39.21288" lon="-120.2718">
        <ele>2391.0</ele>
      </trkpt>
      <trkpt lat="39.2129" lon="-120.27166">
        <ele>2391.0</ele>
      </trkpt>
      <trkpt lat="39.21289" lon="-120.2715">
        <ele>2389.0</ele>
      </trkpt>
      <trkpt lat="39.21291" lon="-120.27138">
        <ele>2389.0</ele>
      </trkpt>
      <trkpt lat="39.21289" lon="-120.27104">
        <ele>2385.0</ele>
      </trkpt>
      <trkpt lat="39.21283243425934" lon="-120.2708015133601">
        <ele>2383.0</ele>
      </trkpt>
      <trkpt lat="39.21283243426444" lon="-120.2708015133601">
        <ele>2383.0</ele>
      </trkpt>
      <trkpt lat="39.21282" lon="-120.27075">
        <ele>2383.0</ele>
      </trkpt>
      <trkpt lat="39.21273" lon="-120.27055">
        <ele>2384.0</ele>
      </trkpt>
      <trkpt lat="39.2124" lon="-120.27015">
        <ele>2382.0</ele>
      </trkpt>
      <trkpt lat="39.21219" lon="-120.26944">
        <ele>2381.0</ele>
      </trkpt>
      <trkpt lat="39.21203" lon="-120.26922">
        <ele>2378.0</ele>
      </trkpt>
      <trkpt lat="39.21191" lon="-120.26892">
        <ele>2379.0</ele>
      </trkpt>
      <trkpt lat="39.21185" lon="-120.2687">
        <ele>2380.0</ele>
      </trkpt>
      <trkpt lat="39.21173" lon="-120.26844">
        <ele>2372.0</ele>
      </trkpt>
      <trkpt lat="39.21167" lon="-120.26828">
        <ele>2372.0</ele>
      </trkpt>
      <trkpt lat="39.21166" lon="-120.26793">
        <ele>2370.0</ele>
      </trkpt>
      <trkpt lat="39.21163" lon="-120.26777">
        <ele>2370.0</ele>
      </trkpt>
      <trkpt lat="39.21163" lon="-120.26759">
        <ele>2371.0</ele>
      </trkpt>
      <trkpt lat="39.21159" lon="-120.26748">
        <ele>2371.0</ele>
      </trkpt>
      <trkpt lat="39.21148" lon="-120.2673">
        <ele>2364.0</ele>
      </trkpt>
      <trkpt lat="39.21126" lon="-120.26706">
        <ele>2367.0</ele>
      </trkpt>
      <trkpt lat="39.2111" lon="-120.26696">
        <ele>2358.0</ele>
      </trkpt>
      <trkpt lat="39.21107" lon="-120.2669">
        <ele>2358.0</ele>
      </trkpt>
      <trkpt lat="39.21106" lon="-120.26672">
        <ele>2358.0</ele>
      </trkpt>
      <trkpt lat="39.211" lon="-120.26645">
        <ele>2358.0</ele>
      </trkpt>
      <trkpt lat="39.21099" lon="-120.26627">
        <ele>2358.0</ele>
      </trkpt>
      <trkpt lat="39.2109" lon="-120.266">
        <ele>2340.0</ele>
      </trkpt>
      <trkpt lat="39.2109" lon="-120.26567">
        <ele>2334.0</ele>
      </trkpt>
      <trkpt lat="39.21093" lon="-120.26554">
        <ele>2334.0</ele>
      </trkpt>
      <trkpt lat="39.21093" lon="-120.26536">
        <ele>2334.0</ele>
      </trkpt>
      <trkpt lat="39.21088" lon="-120.26506">
        <ele>2331.0</ele>
      </trkpt>
      <trkpt lat="39.21081" lon="-120.26483">
        <ele>2326.0</ele>
      </trkpt>
      <trkpt lat="39.2107" lon="-120.26476">
        <ele>2326.0</ele>
      </trkpt>
      <trkpt lat="39.21042" lon="-120.26467">
        <ele>2320.0</ele>
      </trkpt>
      <trkpt lat="39.21037" lon="-120.26467">
        <ele>2310.0</ele>
      </trkpt>
      <trkpt lat="39.21025" lon="-120.26477">
        <ele>2310.0</ele>
      </trkpt>
      <trkpt lat="39.21007" lon="-120.26478">
        <ele>2302.0</ele>
      </trkpt>
      <trkpt lat="39.20993" lon="-120.2649">
        <ele>2308.0</ele>
      </trkpt>
      <trkpt lat="39.20983" lon="-120.26508">
        <ele>2299.0</ele>
      </trkpt>
      <trkpt lat="39.20977" lon="-120.26513">
        <ele>2299.0</ele>
      </trkpt>
      <trkpt lat="39.20966" lon="-120.26516">
        <ele>2304.0</ele>
      </trkpt>
      <trkpt lat="39.2096" lon="-120.26523">
        <ele>2304.0</ele>
      </trkpt>
      <trkpt lat="39.20958" lon="-120.26532">
        <ele>2293.0</ele>
      </trkpt>
      <trkpt lat="39.20959" lon="-120.2655">
        <ele>2308.0</ele>
      </trkpt>
      <trkpt lat="39.20957" lon="-120.26554">
        <ele>2299.0</ele>
      </trkpt>
      <trkpt lat="39.20952" lon="-120.26558">
        <ele>2299.0</ele>
      </trkpt>
      <trkpt lat="39.20943" lon="-120.26556">
        <ele>2299.0</ele>
      </trkpt>
      <trkpt lat="39.20937" lon="-120.26552">
        <ele>2299.0</ele>
      </trkpt>
      <trkpt lat="39.20925" lon="-120.26536">
        <ele>2282.0</ele>
      </trkpt>
      <trkpt lat="39.20925" lon="-120.26527">
        <ele>2282.0</ele>
      </trkpt>
      <trkpt lat="39.20933" lon="-120.26515">
        <ele>2293.0</ele>
      </trkpt>
      <trkpt lat="39.20938" lon="-120.26499">
        <ele>2291.0</ele>
      </trkpt>
      <trkpt lat="39.20943" lon="-120.26475">
        <ele>2285.0</ele>
      </trkpt>
      <trkpt lat="39.20967" lon="-120.26429">
        <ele>2285.0</ele>
      </trkpt>
      <trkpt lat="39.20981" lon="-120.26415">
        <ele>2285.0</ele>
      </trkpt>
      <trkpt lat="39.20995" lon="-120.26406">
        <ele>2289.0</ele>
      </trkpt>
      <trkpt lat="39.21002" lon="-120.26396">
        <ele>2284.0</ele>
      </trkpt>
      <trkpt lat="39.21005" lon="-120.26359">
        <ele>2280.0</ele>
      </trkpt>
      <trkpt lat="39.21" lon="-120.26334">
        <ele>2275.0</ele>
      </trkpt>
      <trkpt lat="39.21" lon="-120.26316">
        <ele>2268.0</ele>
      </trkpt>
      <trkpt lat="39.21003" lon="-120.26299">
        <ele>2268.0</ele>
      </trkpt>
      <trkpt lat="39.21011" lon="-120.26282">
        <ele>2256.0</ele>
      </trkpt>
      <trkpt lat="39.21032" lon="-120.26256">
        <ele>2241.0</ele>
      </trkpt>
      <trkpt lat="39.21069" lon="-120.26235">
        <ele>2231.0</ele>
      </trkpt>
      <trkpt lat="39.21107" lon="-120.26197">
        <ele>2240.0</ele>
      </trkpt>
      <trkpt lat="39.21115" lon="-120.26174">
        <ele>2232.0</ele>
      </trkpt>
      <trkpt lat="39.21153" lon="-120.26124">
        <ele>2231.0</ele>
      </trkpt>
      <trkpt lat="39.21146" lon="-120.26113">
        <ele>2220.0</ele>
      </trkpt>
      <trkpt lat="39.2117" lon="-120.2609">
        <ele>2217.0</ele>
      </trkpt>
      <trkpt lat="39.21182" lon="-120.26071">
        <ele>2227.0</ele>
      </trkpt>
      <trkpt lat="39.21193" lon="-120.26062">
        <ele>2217.0</ele>
      </trkpt>
      <trkpt lat="39.21234" lon="-120.26014">
        <ele>2220.0</ele>
      </trkpt>
      <trkpt lat="39.21241" lon="-120.26004">
        <ele>2219.0</ele>
      </trkpt>
      <trkpt lat="39.21245" lon="-120.25989">
        <ele>2219.0</ele>
      </trkpt>
      <trkpt lat="39.21246" lon="-120.25943">
        <ele>2218.0</ele>
      </trkpt>
      <trkpt lat="39.21243" lon="-120.25932">
        <ele>2218.0</ele>
      </trkpt>
      <trkpt lat="39.21242" lon="-120.25916">
        <ele>2221.0</ele>
      </trkpt>
      <trkpt lat="39.21236" lon="-120.25899">
        <ele>2218.0</ele>
      </trkpt>
      <trkpt lat="39.21236" lon="-120.25865">
        <ele>2222.0</ele>
      </trkpt>
      <trkpt lat="39.21233" lon="-120.25847">
        <ele>2227.0</ele>
      </trkpt>
      <trkpt lat="39.21228" lon="-120.25837">
        <ele>2227.0</ele>
      </trkpt>
      <trkpt lat="39.2121" lon="-120.25817">
        <ele>2234.0</ele>
      </trkpt>
      <trkpt lat="39.21187" lon="-120.258">
        <ele>2227.0</ele>
      </trkpt>
      <trkpt lat="39.21181" lon="-120.25792">
        <ele>2227.0</ele>
      </trkpt>
      <trkpt lat="39.21176" lon="-120.2578">
        <ele>2220.0</ele>
      </trkpt>
      <trkpt lat="39.2117" lon="-120.25746">
        <ele>2221.0</ele>
      </trkpt>
      <trkpt lat="39.21169" lon="-120.25733">
        <ele>2222.0</ele>
      </trkpt>
      <trkpt lat="39.2116" lon="-120.25703">
        <ele>2221.0</ele>
      </trkpt>
      <trkpt lat="39.2115" lon="-120.25681">
        <ele>2220.0</ele>
      </trkpt>
      <trkpt lat="39.21133" lon="-120.25654">
        <ele>2217.0</ele>
      </trkpt>
      <trkpt lat="39.2113" lon="-120.25635">
        <ele>2213.0</ele>
      </trkpt>
      <trkpt lat="39.2113" lon="-120.25635">
        <ele>2213.0</ele>
      </trkpt>
      <trkpt lat="39.21129" lon="-120.25613">
        <ele>2207.0</ele>
      </trkpt>
      <trkpt lat="39.21126" lon="-120.25602">
        <ele>2207.0</ele>
      </trkpt>
      <trkpt lat="39.21127" lon="-120.25544">
        <ele>2202.0</ele>
      </trkpt>
      <trkpt lat="39.21132" lon="-120.25527">
        <ele>2199.0</ele>
      </trkpt>
      <trkpt lat="39.21163" lon="-120.25499">
        <ele>2202.0</ele>
      </trkpt>
      <trkpt lat="39.21163" lon="-120.25465">
        <ele>2199.0</ele>
      </trkpt>
      <trkpt lat="39.21159" lon="-120.25442">
        <ele>2195.0</ele>
      </trkpt>
      <trkpt lat="39.2116" lon="-120.25412">
        <ele>2193.0</ele>
      </trkpt>
      <trkpt lat="39.21163" lon="-120.25399">
        <ele>2196.0</ele>
      </trkpt>
      <trkpt lat="39.21162" lon="-120.25388">
        <ele>2196.0</ele>
      </trkpt>
      <trkpt lat="39.21137" lon="-120.25322">
        <ele>2191.0</ele>
      </trkpt>
      <trkpt lat="39.21121" lon="-120.25306">
        <ele>2182.0</ele>
      </trkpt>
      <trkpt lat="39.21081" lon="-120.2525">
        <ele>2177.0</ele>
      </trkpt>
      <trkpt lat="39.21064" lon="-120.25233">
        <ele>2160.0</ele>
      </trkpt>
      <trkpt lat="39.21036" lon="-120.25193">
        <ele>2147.0</ele>
      </trkpt>
      <trkpt lat="39.21004" lon="-120.25165">
        <ele>2145.0</ele>
      </trkpt>
      <trkpt lat="39.20986" lon="-120.25137">
        <ele>2145.0</ele>
      </trkpt>
      <trkpt lat="39.20969" lon="-120.25119">
        <ele>2149.0</ele>
      </trkpt>
      <trkpt lat="39.20955" lon="-120.25109">
        <ele>2139.0</ele>
      </trkpt>
      <trkpt lat="39.2095" lon="-120.251">
        <ele>2139.0</ele>
      </trkpt>
      <trkpt lat="39.20953" lon="-120.25082">
        <ele>2139.0</ele>
      </trkpt>
      <trkpt lat="39.20953" lon="-120.25059">
        <ele>2140.0</ele>
      </trkpt>
      <trkpt lat="39.20943" lon="-120.25013">
        <ele>2146.0</ele>
      </trkpt>
      <trkpt lat="39.20922" lon="-120.24954">
        <ele>2135.0</ele>
      </trkpt>
      <trkpt lat="39.20912" lon="-120.24933">
        <ele>2135.0</ele>
      </trkpt>
      <trkpt lat="39.20904" lon="-120.24918">
        <ele>2130.0</ele>
      </trkpt>
      <trkpt lat="39.20893" lon="-120.2491">
        <ele>2121.0</ele>
      </trkpt>
      <trkpt lat="39.2089" lon="-120.24902">
        <ele>2119.0</ele>
      </trkpt>
      <trkpt lat="39.2089" lon="-120.24807">
        <ele>2109.0</ele>
      </trkpt>
      <trkpt lat="39.209" lon="-120.24765">
        <ele>2105.0</ele>
      </trkpt>
      <trkpt lat="39.209" lon="-120.24665">
        <ele>2094.0</ele>
      </trkpt>
      <trkpt lat="39.20896" lon="-120.24655">
        <ele>2094.0</ele>
      </trkpt>
      <trkpt lat="39.20883" lon="-120.24648">
        <ele>2087.0</ele>
      </trkpt>
      <trkpt lat="39.20877" lon="-120.24631">
        <ele>2087.0</ele>
      </trkpt>
      <trkpt lat="39.20873" lon="-120.24608">
        <ele>2076.0</ele>
      </trkpt>
      <trkpt lat="39.20873" lon="-120.24569">
        <ele>2062.0</ele>
      </trkpt>
      <trkpt lat="39.20869" lon="-120.24551">
        <ele>2062.0</ele>
      </trkpt>
      <trkpt lat="39.20862" lon="-120.24545">
        <ele>2062.0</ele>
      </trkpt>
      <trkpt lat="39.20849" lon="-120.24549">
        <ele>2062.0</ele>
      </trkpt>
      <trkpt lat="39.20843" lon="-120.24547">
        <ele>2055.0</ele>
      </trkpt>
      <trkpt lat="39.20812" lon="-120.2453">
        <ele>2051.0</ele>
      </trkpt>
      <trkpt lat="39.20797" lon="-120.24519">
        <ele>2051.0</ele>
      </trkpt>
      <trkpt lat="39.20781" lon="-120.245">
        <ele>2050.0</ele>
      </trkpt>
      <trkpt lat="39.20774" lon="-120.24484">
        <ele>2050.0</ele>
      </trkpt>
      <trkpt lat="39.20773" lon="-120.24466">
        <ele>2050.0</ele>
      </trkpt>
      <trkpt lat="39.20757" lon="-120.24425">
        <ele>2047.0</ele>
      </trkpt>
      <trkpt lat="39.20745" lon="-120.24414">
        <ele>2047.0</ele>
      </trkpt>
      <trkpt lat="39.20745" lon="-120.24414">
        <ele>2047.0</ele>
      </trkpt>
      <trkpt lat="39.20745" lon="-120.24414">
        <ele>2047.0</ele>
      </trkpt>
      <trkpt lat="39.20738" lon="-120.24337">
        <ele>2052.0</ele>
      </trkpt>
      <trkpt lat="39.20721" lon="-120.2429">
        <ele>2044.0</ele>
      </trkpt>
      <trkpt lat="39.20666" lon="-120.24221">
        <ele>2045.0</ele>
      </trkpt>
      <trkpt lat="39.20658" lon="-120.24195">
        <ele>2048.0</ele>
      </trkpt>
      <trkpt lat="39.2065" lon="-120.24182">
        <ele>2046.0</ele>
      </trkpt>
      <trkpt lat="39.20641" lon="-120.24169">
        <ele>2046.0</ele>
      </trkpt>
      <trkpt lat="39.2059638172849" lon="-120.2413553629637">
        <ele>2029.0</ele>
      </trkpt>
      <trkpt lat="39.20596381764643" lon="-120.2413553629637">
        <ele>2029.0</ele>
      </trkpt>
      <trkpt lat="39.20585" lon="-120.24127">
        <ele>2029.0</ele>
      </trkpt>
      <trkpt lat="39.20566" lon="-120.24107">
        <ele>2026.0</ele>
      </trkpt>
      <trkpt lat="39.20556" lon="-120.24086">
        <ele>2029.0</ele>
      </trkpt>
      <trkpt lat="39.20539" lon="-120.2408">
        <ele>2019.0</ele>
      </trkpt>
      <trkpt lat="39.20526" lon="-120.24092">
        <ele>2019.0</ele>
      </trkpt>
      <trkpt lat="39.20484" lon="-120.24116">
        <ele>2009.0</ele>
      </trkpt>
      <trkpt lat="39.20469" lon="-120.24129">
        <ele>2008.0</ele>
      </trkpt>
      <trkpt lat="39.20458" lon="-120.24133">
        <ele>2001.0</ele>
      </trkpt>
      <trkpt lat="39.20433" lon="-120.24136">
        <ele>2001.0</ele>
      </trkpt>
      <trkpt lat="39.20403" lon="-120.24133">
        <ele>1993.0</ele>
      </trkpt>
      <trkpt lat="39.2038" lon="-120.2415">
        <ele>1986.0</ele>
      </trkpt>
      <trkpt lat="39.20367" lon="-120.24154">
        <ele>1983.0</ele>
      </trkpt>
      <trkpt lat="39.20344" lon="-120.24149">
        <ele>1975.0</ele>
      </trkpt>
      <trkpt lat="39.2032" lon="-120.24154">
        <ele>1974.0</ele>
      </trkpt>
      <trkpt lat="39.20281" lon="-120.24141">
        <ele>1960.0</ele>
      </trkpt>
      <trkpt lat="39.20266" lon="-120.24143">
        <ele>1960.0</ele>
      </trkpt>
      <trkpt lat="39.20259" lon="-120.24151">
        <ele>1952.0</ele>
      </trkpt>
      <trkpt lat="39.2025" lon="-120.24176">
        <ele>1949.0</ele>
      </trkpt>
      <trkpt lat="39.20228" lon="-120.24207">
        <ele>1940.0</ele>
      </trkpt>
      <trkpt lat="39.20217" lon="-120.24214">
        <ele>1939.0</ele>
      </trkpt>
      <trkpt lat="39.20174" lon="-120.24234">
        <ele>1928.0</ele>
      </trkpt>
      <trkpt lat="39.20172" lon="-120.24237">
        <ele>1930.0</ele>
      </trkpt>
      <trkpt lat="39.20172" lon="-120.24237">
        <ele>1930.0</ele>
      </trkpt>
      <trkpt lat="39.20135" lon="-120.24166">
        <ele>1923.0</ele>
      </trkpt>
      <trkpt lat="39.20114" lon="-120.24145">
        <ele>1913.0</ele>
      </trkpt>
      <trkpt lat="39.20114" lon="-120.24076">
        <ele>1912.0</ele>
      </trkpt>
      <trkpt lat="39.20109" lon="-120.24044">
        <ele>1915.0</ele>
      </trkpt>
      <trkpt lat="39.20117" lon="-120.24016">
        <ele>1916.0</ele>
      </trkpt>
      <trkpt lat="39.20114721743838" lon="-120.2400591057986">
        <ele>1917.0</ele>
      </trkpt>
      <trkpt lat="39.20114721744601" lon="-120.2400591057986">
        <ele>1917.0</ele>
      </trkpt>
      <trkpt lat="39.2011" lon="-120.23985">
        <ele>1916.0</ele>
      </trkpt>
      <trkpt lat="39.20106" lon="-120.2395">
        <ele>1914.0</ele>
      </trkpt>
      <trkpt lat="39.20119" lon="-120.23886">
        <ele>1914.0</ele>
      </trkpt>
      <trkpt lat="39.20119" lon="-120.23871">
        <ele>1912.0</ele>
      </trkpt>
      <trkpt lat="39.20119" lon="-120.23871">
        <ele>1912.0</ele>
      </trkpt>
      <trkpt lat="39.20119" lon="-120.23847">
        <ele>1910.0</ele>
      </trkpt>
      <trkpt lat="39.20112" lon="-120.23816">
        <ele>1909.0</ele>
      </trkpt>
      <trkpt lat="39.20095" lon="-120.2378">
        <ele>1903.0</ele>
      </trkpt>
      <trkpt lat="39.20076594499052" lon="-120.237526706198">
        <ele>1907.0</ele>
      </trkpt>
      <trkpt lat="39.20076594518172" lon="-120.237526706198">
        <ele>1907.0</ele>
      </trkpt>
      <trkpt lat="39.20062" lon="-120.23731">
        <ele>1903.0</ele>
      </trkpt>
      <trkpt lat="39.20062" lon="-120.23731">
        <ele>1903.0</ele>
      </trkpt>
      <trkpt lat="39.2003" lon="-120.23743">
        <ele>1899.0</ele>
      </trkpt>
      <trkpt lat="39.20018" lon="-120.23756">
        <ele>1899.0</ele>
      </trkpt>
      <trkpt lat="39.20013709489435" lon="-120.2378174306339">
        <ele>1898.0</ele>
      </trkpt>
    </trkseg>
  </trk>
</gpx>
