<?xml version="1.0" encoding="UTF-8"?>
<gpx xmlns:xsi="http://www.w3.org/2001/XMLSchema-instance" version="1.1" creator="The Outbound Collective, Inc. 1.1.1 -- https://www.theoutbound.com" xsi:schemaLocation="http://www.topografix.com/GPX/1/1 http://www.topografix.com/GPX/1/1/gpx.xsd">
  <metadata>
    <name/>
    <time>2026-02-19T21:54:55+00:00</time>
    <bound minlat="35.16015999999997" minlon="-120.761002629788" maxlat="35.17531" maxlon="-120.7557481527329"/>
  </metadata>
  <trk>
    <name/>
    <trkseg>
      <trkpt lat="35.17493084974928" lon="-120.7557481527329">
        <ele>14.0</ele>
      </trkpt>
      <trkpt lat="35.17493074248438" lon="-120.7557481673277">
        <ele>14.0</ele>
      </trkpt>
      <trkpt lat="35.17494" lon="-120.75585">
        <ele>14.0</ele>
      </trkpt>
      <trkpt lat="35.1752" lon="-120.75632">
        <ele>23.0</ele>
      </trkpt>
      <trkpt lat="35.17527" lon="-120.75665">
        <ele>27.0</ele>
      </trkpt>
      <trkpt lat="35.17531" lon="-120.75674">
        <ele>27.0</ele>
      </trkpt>
      <trkpt lat="35.17529" lon="-120.75676">
        <ele>27.0</ele>
      </trkpt>
      <trkpt lat="35.17522" lon="-120.75674">
        <ele>27.0</ele>
      </trkpt>
      <trkpt lat="35.1751" lon="-120.75677">
        <ele>28.0</ele>
      </trkpt>
      <trkpt lat="35.1752" lon="-120.75693">
        <ele>33.0</ele>
      </trkpt>
      <trkpt lat="35.17525" lon="-120.75709">
        <ele>38.0</ele>
      </trkpt>
      <trkpt lat="35.17524" lon="-120.75714">
        <ele>38.0</ele>
      </trkpt>
      <trkpt lat="35.17517" lon="-120.75712">
        <ele>38.0</ele>
      </trkpt>
      <trkpt lat="35.17509" lon="-120.75713">
        <ele>40.0</ele>
      </trkpt>
      <trkpt lat="35.17503" lon="-120.75718">
        <ele>40.0</ele>
      </trkpt>
      <trkpt lat="35.17503" lon="-120.75718">
        <ele>40.0</ele>
      </trkpt>
      <trkpt lat="35.17503" lon="-120.75718">
        <ele>40.0</ele>
      </trkpt>
      <trkpt lat="35.17488" lon="-120.75721">
        <ele>40.0</ele>
      </trkpt>
      <trkpt lat="35.17481119041931" lon="-120.7572707143359">
        <ele>40.0</ele>
      </trkpt>
      <trkpt lat="35.17481119053404" lon="-120.7572707143359">
        <ele>40.0</ele>
      </trkpt>
      <trkpt lat="35.17454" lon="-120.75751">
        <ele>47.0</ele>
      </trkpt>
      <trkpt lat="35.17443" lon="-120.75755">
        <ele>47.0</ele>
      </trkpt>
      <trkpt lat="35.17412" lon="-120.75739">
        <ele>56.0</ele>
      </trkpt>
      <trkpt lat="35.17394" lon="-120.75721">
        <ele>49.0</ele>
      </trkpt>
      <trkpt lat="35.17381" lon="-120.75721">
        <ele>49.0</ele>
      </trkpt>
      <trkpt lat="35.17381" lon="-120.75721">
        <ele>49.0</ele>
      </trkpt>
      <trkpt lat="35.17358" lon="-120.75726">
        <ele>57.0</ele>
      </trkpt>
      <trkpt lat="35.17329" lon="-120.75722">
        <ele>61.0</ele>
      </trkpt>
      <trkpt lat="35.17303" lon="-120.75727">
        <ele>60.0</ele>
      </trkpt>
      <trkpt lat="35.17268" lon="-120.75747">
        <ele>67.0</ele>
      </trkpt>
      <trkpt lat="35.17235" lon="-120.75772">
        <ele>72.0</ele>
      </trkpt>
      <trkpt lat="35.17206" lon="-120.75784">
        <ele>58.0</ele>
      </trkpt>
      <trkpt lat="35.17194" lon="-120.758">
        <ele>75.0</ele>
      </trkpt>
      <trkpt lat="35.17183" lon="-120.75821">
        <ele>85.0</ele>
      </trkpt>
      <trkpt lat="35.17172" lon="-120.75871">
        <ele>90.0</ele>
      </trkpt>
      <trkpt lat="35.17168" lon="-120.7588">
        <ele>101.0</ele>
      </trkpt>
      <trkpt lat="35.1716" lon="-120.75882">
        <ele>101.0</ele>
      </trkpt>
      <trkpt lat="35.1715" lon="-120.75877">
        <ele>102.0</ele>
      </trkpt>
      <trkpt lat="35.17121" lon="-120.75852">
        <ele>88.0</ele>
      </trkpt>
      <trkpt lat="35.17108" lon="-120.75849">
        <ele>88.0</ele>
      </trkpt>
      <trkpt lat="35.17092" lon="-120.75852">
        <ele>85.0</ele>
      </trkpt>
      <trkpt lat="35.17086" lon="-120.75857">
        <ele>85.0</ele>
      </trkpt>
      <trkpt lat="35.17067" lon="-120.75885">
        <ele>88.0</ele>
      </trkpt>
      <trkpt lat="35.17044" lon="-120.75912">
        <ele>100.0</ele>
      </trkpt>
      <trkpt lat="35.17041323519881" lon="-120.7591418984737">
        <ele>91.0</ele>
      </trkpt>
      <trkpt lat="35.17041323521251" lon="-120.7591418984737">
        <ele>91.0</ele>
      </trkpt>
      <trkpt lat="35.17033" lon="-120.75921">
        <ele>91.0</ele>
      </trkpt>
      <trkpt lat="35.17021" lon="-120.75924">
        <ele>91.0</ele>
      </trkpt>
      <trkpt lat="35.16983" lon="-120.75917">
        <ele>86.0</ele>
      </trkpt>
      <trkpt lat="35.16969" lon="-120.75918">
        <ele>86.0</ele>
      </trkpt>
      <trkpt lat="35.16964" lon="-120.75921">
        <ele>86.0</ele>
      </trkpt>
      <trkpt lat="35.16944" lon="-120.75945">
        <ele>96.0</ele>
      </trkpt>
      <trkpt lat="35.16928" lon="-120.7596">
        <ele>112.0</ele>
      </trkpt>
      <trkpt lat="35.1691783619338" lon="-120.7597742354391">
        <ele>112.0</ele>
      </trkpt>
      <trkpt lat="35.16918" lon="-120.75978">
        <ele>112.0</ele>
      </trkpt>
      <trkpt lat="35.16916" lon="-120.75971">
        <ele>112.0</ele>
      </trkpt>
      <trkpt lat="35.16916" lon="-120.75951">
        <ele>102.0</ele>
      </trkpt>
      <trkpt lat="35.16926" lon="-120.75937">
        <ele>102.0</ele>
      </trkpt>
      <trkpt lat="35.16929" lon="-120.75922">
        <ele>91.0</ele>
      </trkpt>
      <trkpt lat="35.16942" lon="-120.75884">
        <ele>77.0</ele>
      </trkpt>
      <trkpt lat="35.16943479691862" lon="-120.758669835436">
        <ele>70.0</ele>
      </trkpt>
      <trkpt lat="35.1694347969191" lon="-120.758669835436">
        <ele>70.0</ele>
      </trkpt>
      <trkpt lat="35.16944" lon="-120.75861">
        <ele>70.0</ele>
      </trkpt>
      <trkpt lat="35.16951" lon="-120.75849">
        <ele>70.0</ele>
      </trkpt>
      <trkpt lat="35.16969" lon="-120.75829">
        <ele>60.0</ele>
      </trkpt>
      <trkpt lat="35.16968" lon="-120.75826">
        <ele>60.0</ele>
      </trkpt>
      <trkpt lat="35.16952" lon="-120.75814">
        <ele>55.0</ele>
      </trkpt>
      <trkpt lat="35.16936371724326" lon="-120.7580581373527">
        <ele>55.0</ele>
      </trkpt>
      <trkpt lat="35.16936371724326" lon="-120.7580581373527">
        <ele>55.0</ele>
      </trkpt>
      <trkpt lat="35.16931" lon="-120.75803">
        <ele>55.0</ele>
      </trkpt>
      <trkpt lat="35.16922" lon="-120.75802">
        <ele>60.0</ele>
      </trkpt>
      <trkpt lat="35.16908" lon="-120.75811">
        <ele>60.0</ele>
      </trkpt>
      <trkpt lat="35.16892" lon="-120.75808">
        <ele>59.0</ele>
      </trkpt>
      <trkpt lat="35.16872" lon="-120.75816">
        <ele>56.0</ele>
      </trkpt>
      <trkpt lat="35.16856" lon="-120.75828">
        <ele>63.0</ele>
      </trkpt>
      <trkpt lat="35.16844465209168" lon="-120.7584850629481">
        <ele>73.0</ele>
      </trkpt>
      <trkpt lat="35.16844465213753" lon="-120.7584850629481">
        <ele>73.0</ele>
      </trkpt>
      <trkpt lat="35.16838" lon="-120.7586">
        <ele>73.0</ele>
      </trkpt>
      <trkpt lat="35.16831" lon="-120.75852">
        <ele>73.0</ele>
      </trkpt>
      <trkpt lat="35.16829" lon="-120.75812">
        <ele>57.0</ele>
      </trkpt>
      <trkpt lat="35.16825" lon="-120.75808">
        <ele>57.0</ele>
      </trkpt>
      <trkpt lat="35.1682" lon="-120.75806">
        <ele>57.0</ele>
      </trkpt>
      <trkpt lat="35.16793" lon="-120.7581">
        <ele>59.0</ele>
      </trkpt>
      <trkpt lat="35.16778" lon="-120.75803">
        <ele>60.0</ele>
      </trkpt>
      <trkpt lat="35.16766" lon="-120.75805">
        <ele>60.0</ele>
      </trkpt>
      <trkpt lat="35.16741" lon="-120.75816">
        <ele>51.0</ele>
      </trkpt>
      <trkpt lat="35.1672" lon="-120.75829">
        <ele>53.0</ele>
      </trkpt>
      <trkpt lat="35.16708" lon="-120.75841">
        <ele>52.0</ele>
      </trkpt>
      <trkpt lat="35.1669" lon="-120.75874">
        <ele>59.0</ele>
      </trkpt>
      <trkpt lat="35.16686" lon="-120.75873">
        <ele>59.0</ele>
      </trkpt>
      <trkpt lat="35.16655" lon="-120.75812">
        <ele>49.0</ele>
      </trkpt>
      <trkpt lat="35.16637" lon="-120.75792">
        <ele>60.0</ele>
      </trkpt>
      <trkpt lat="35.16624" lon="-120.75784">
        <ele>50.0</ele>
      </trkpt>
      <trkpt lat="35.16579" lon="-120.75784">
        <ele>55.0</ele>
      </trkpt>
      <trkpt lat="35.16564" lon="-120.75787">
        <ele>58.0</ele>
      </trkpt>
      <trkpt lat="35.16537" lon="-120.758">
        <ele>72.0</ele>
      </trkpt>
      <trkpt lat="35.1652" lon="-120.75797">
        <ele>72.0</ele>
      </trkpt>
      <trkpt lat="35.16516655717903" lon="-120.7579611992576">
        <ele>72.0</ele>
      </trkpt>
      <trkpt lat="35.16516655721122" lon="-120.7579611992577">
        <ele>72.0</ele>
      </trkpt>
      <trkpt lat="35.16501" lon="-120.75792">
        <ele>78.0</ele>
      </trkpt>
      <trkpt lat="35.16495" lon="-120.75785">
        <ele>65.0</ele>
      </trkpt>
      <trkpt lat="35.16484" lon="-120.75783">
        <ele>74.0</ele>
      </trkpt>
      <trkpt lat="35.16468" lon="-120.75754">
        <ele>57.0</ele>
      </trkpt>
      <trkpt lat="35.16425" lon="-120.75743">
        <ele>58.0</ele>
      </trkpt>
      <trkpt lat="35.16415" lon="-120.75735">
        <ele>42.0</ele>
      </trkpt>
      <trkpt lat="35.16405" lon="-120.75736">
        <ele>42.0</ele>
      </trkpt>
      <trkpt lat="35.16396" lon="-120.75748">
        <ele>57.0</ele>
      </trkpt>
      <trkpt lat="35.1637" lon="-120.75753">
        <ele>57.0</ele>
      </trkpt>
      <trkpt lat="35.16366" lon="-120.75731">
        <ele>49.0</ele>
      </trkpt>
      <trkpt lat="35.16361" lon="-120.75728">
        <ele>49.0</ele>
      </trkpt>
      <trkpt lat="35.16326" lon="-120.75731">
        <ele>50.0</ele>
      </trkpt>
      <trkpt lat="35.16313" lon="-120.75725">
        <ele>46.0</ele>
      </trkpt>
      <trkpt lat="35.16305" lon="-120.75714">
        <ele>46.0</ele>
      </trkpt>
      <trkpt lat="35.16301" lon="-120.75714">
        <ele>46.0</ele>
      </trkpt>
      <trkpt lat="35.16288" lon="-120.75716">
        <ele>46.0</ele>
      </trkpt>
      <trkpt lat="35.16283" lon="-120.75723">
        <ele>46.0</ele>
      </trkpt>
      <trkpt lat="35.16259" lon="-120.75723">
        <ele>42.0</ele>
      </trkpt>
      <trkpt lat="35.16234" lon="-120.75713">
        <ele>39.0</ele>
      </trkpt>
      <trkpt lat="35.16221" lon="-120.75714">
        <ele>39.0</ele>
      </trkpt>
      <trkpt lat="35.16217" lon="-120.75703">
        <ele>31.0</ele>
      </trkpt>
      <trkpt lat="35.16208" lon="-120.75705">
        <ele>26.0</ele>
      </trkpt>
      <trkpt lat="35.16199" lon="-120.75698">
        <ele>26.0</ele>
      </trkpt>
      <trkpt lat="35.16196" lon="-120.757">
        <ele>26.0</ele>
      </trkpt>
      <trkpt lat="35.16195" lon="-120.75713">
        <ele>34.0</ele>
      </trkpt>
      <trkpt lat="35.16186" lon="-120.75741">
        <ele>42.0</ele>
      </trkpt>
      <trkpt lat="35.16184122975532" lon="-120.7574287702447">
        <ele>42.0</ele>
      </trkpt>
      <trkpt lat="35.16184122975663" lon="-120.7574287702447">
        <ele>42.0</ele>
      </trkpt>
      <trkpt lat="35.16183" lon="-120.75744">
        <ele>42.0</ele>
      </trkpt>
      <trkpt lat="35.16163" lon="-120.75744">
        <ele>36.0</ele>
      </trkpt>
      <trkpt lat="35.16146" lon="-120.75759">
        <ele>30.0</ele>
      </trkpt>
      <trkpt lat="35.16136989536756" lon="-120.7577871038835">
        <ele>35.0</ele>
      </trkpt>
      <trkpt lat="35.16136989540626" lon="-120.7577871038835">
        <ele>35.0</ele>
      </trkpt>
      <trkpt lat="35.1613" lon="-120.75794">
        <ele>38.0</ele>
      </trkpt>
      <trkpt lat="35.16113317353693" lon="-120.7581425753307">
        <ele>28.0</ele>
      </trkpt>
      <trkpt lat="35.16113317353693" lon="-120.7581425753307">
        <ele>28.0</ele>
      </trkpt>
      <trkpt lat="35.16102" lon="-120.75828">
        <ele>29.0</ele>
      </trkpt>
      <trkpt lat="35.16097" lon="-120.75839">
        <ele>20.0</ele>
      </trkpt>
      <trkpt lat="35.16098" lon="-120.75849">
        <ele>30.0</ele>
      </trkpt>
      <trkpt lat="35.16102" lon="-120.75856">
        <ele>30.0</ele>
      </trkpt>
      <trkpt lat="35.16093422728698" lon="-120.7587381433271">
        <ele>22.0</ele>
      </trkpt>
      <trkpt lat="35.16093422731028" lon="-120.7587381433271">
        <ele>22.0</ele>
      </trkpt>
      <trkpt lat="35.16089" lon="-120.75883">
        <ele>24.0</ele>
      </trkpt>
      <trkpt lat="35.16085" lon="-120.75885">
        <ele>24.0</ele>
      </trkpt>
      <trkpt lat="35.16083" lon="-120.75875">
        <ele>22.0</ele>
      </trkpt>
      <trkpt lat="35.16077" lon="-120.7587">
        <ele>22.0</ele>
      </trkpt>
      <trkpt lat="35.16077" lon="-120.7587">
        <ele>22.0</ele>
      </trkpt>
      <trkpt lat="35.16071" lon="-120.75852">
        <ele>22.0</ele>
      </trkpt>
      <trkpt lat="35.16065" lon="-120.75844">
        <ele>16.0</ele>
      </trkpt>
      <trkpt lat="35.16062858950161" lon="-120.7584622820997">
        <ele>16.0</ele>
      </trkpt>
      <trkpt lat="35.16059" lon="-120.75847">
        <ele>16.0</ele>
      </trkpt>
      <trkpt lat="35.16059" lon="-120.75847">
        <ele>16.0</ele>
      </trkpt>
      <trkpt lat="35.16061" lon="-120.75873">
        <ele>18.0</ele>
      </trkpt>
      <trkpt lat="35.16057" lon="-120.75924">
        <ele>21.0</ele>
      </trkpt>
      <trkpt lat="35.1605" lon="-120.75951">
        <ele>24.0</ele>
      </trkpt>
      <trkpt lat="35.16035" lon="-120.75994">
        <ele>23.0</ele>
      </trkpt>
      <trkpt lat="35.16028" lon="-120.76025">
        <ele>24.0</ele>
      </trkpt>
      <trkpt lat="35.1602" lon="-120.76035">
        <ele>24.0</ele>
      </trkpt>
      <trkpt lat="35.16016" lon="-120.76045">
        <ele>24.0</ele>
      </trkpt>
      <trkpt lat="35.16016" lon="-120.76064">
        <ele>24.0</ele>
      </trkpt>
      <trkpt lat="35.16016" lon="-120.7608389854431">
        <ele>22.0</ele>
      </trkpt>
      <trkpt lat="35.16015999999997" lon="-120.7608389854431">
        <ele>22.0</ele>
      </trkpt>
      <trkpt lat="35.16016" lon="-120.76093">
        <ele>22.0</ele>
      </trkpt>
      <trkpt lat="35.16018" lon="-120.76097">
        <ele>22.0</ele>
      </trkpt>
      <trkpt lat="35.16022" lon="-120.761">
        <ele>17.0</ele>
      </trkpt>
      <trkpt lat="35.16024980426339" lon="-120.7610026297879">
        <ele>17.0</ele>
      </trkpt>
      <trkpt lat="35.16024980432022" lon="-120.761002629788">
        <ele>17.0</ele>
      </trkpt>
      <trkpt lat="35.16022" lon="-120.761">
        <ele>17.0</ele>
      </trkpt>
      <trkpt lat="35.16018" lon="-120.76097">
        <ele>22.0</ele>
      </trkpt>
      <trkpt lat="35.16016" lon="-120.76093">
        <ele>22.0</ele>
      </trkpt>
      <trkpt lat="35.16016" lon="-120.76064">
        <ele>24.0</ele>
      </trkpt>
      <trkpt lat="35.16016" lon="-120.76045">
        <ele>24.0</ele>
      </trkpt>
      <trkpt lat="35.1602" lon="-120.76035">
        <ele>24.0</ele>
      </trkpt>
      <trkpt lat="35.16028" lon="-120.76025">
        <ele>24.0</ele>
      </trkpt>
      <trkpt lat="35.16035" lon="-120.75994">
        <ele>23.0</ele>
      </trkpt>
      <trkpt lat="35.1605" lon="-120.75951">
        <ele>24.0</ele>
      </trkpt>
      <trkpt lat="35.16053749997732" lon="-120.7593653572304">
        <ele>24.0</ele>
      </trkpt>
      <trkpt lat="35.16053749998481" lon="-120.7593653572304">
        <ele>24.0</ele>
      </trkpt>
      <trkpt lat="35.16057" lon="-120.75924">
        <ele>21.0</ele>
      </trkpt>
      <trkpt lat="35.16061" lon="-120.75873">
        <ele>18.0</ele>
      </trkpt>
      <trkpt lat="35.16059" lon="-120.75847">
        <ele>16.0</ele>
      </trkpt>
      <trkpt lat="35.16059" lon="-120.75847">
        <ele>16.0</ele>
      </trkpt>
      <trkpt lat="35.16062858950161" lon="-120.7584622820997">
        <ele>16.0</ele>
      </trkpt>
      <trkpt lat="35.16065" lon="-120.75844">
        <ele>16.0</ele>
      </trkpt>
      <trkpt lat="35.16071" lon="-120.75852">
        <ele>22.0</ele>
      </trkpt>
      <trkpt lat="35.16077" lon="-120.7587">
        <ele>22.0</ele>
      </trkpt>
      <trkpt lat="35.16077" lon="-120.7587">
        <ele>22.0</ele>
      </trkpt>
      <trkpt lat="35.16083" lon="-120.75875">
        <ele>22.0</ele>
      </trkpt>
      <trkpt lat="35.16085" lon="-120.75885">
        <ele>24.0</ele>
      </trkpt>
      <trkpt lat="35.16089" lon="-120.75883">
        <ele>24.0</ele>
      </trkpt>
      <trkpt lat="35.16102" lon="-120.75856">
        <ele>30.0</ele>
      </trkpt>
      <trkpt lat="35.16098" lon="-120.75849">
        <ele>30.0</ele>
      </trkpt>
      <trkpt lat="35.16097" lon="-120.75839">
        <ele>20.0</ele>
      </trkpt>
      <trkpt lat="35.16102" lon="-120.75828">
        <ele>29.0</ele>
      </trkpt>
      <trkpt lat="35.16113317353693" lon="-120.7581425753307">
        <ele>28.0</ele>
      </trkpt>
      <trkpt lat="35.16113317353693" lon="-120.7581425753307">
        <ele>28.0</ele>
      </trkpt>
      <trkpt lat="35.1613" lon="-120.75794">
        <ele>38.0</ele>
      </trkpt>
      <trkpt lat="35.16146" lon="-120.75759">
        <ele>30.0</ele>
      </trkpt>
      <trkpt lat="35.16152778855727" lon="-120.7575301865671">
        <ele>36.0</ele>
      </trkpt>
      <trkpt lat="35.16152778859986" lon="-120.7575301865671">
        <ele>36.0</ele>
      </trkpt>
      <trkpt lat="35.16163" lon="-120.75744">
        <ele>36.0</ele>
      </trkpt>
      <trkpt lat="35.16183" lon="-120.75744">
        <ele>42.0</ele>
      </trkpt>
      <trkpt lat="35.16186" lon="-120.75741">
        <ele>42.0</ele>
      </trkpt>
      <trkpt lat="35.16195" lon="-120.75713">
        <ele>34.0</ele>
      </trkpt>
      <trkpt lat="35.16196" lon="-120.757">
        <ele>26.0</ele>
      </trkpt>
      <trkpt lat="35.16199" lon="-120.75698">
        <ele>26.0</ele>
      </trkpt>
      <trkpt lat="35.16208" lon="-120.75705">
        <ele>26.0</ele>
      </trkpt>
      <trkpt lat="35.16217" lon="-120.75703">
        <ele>31.0</ele>
      </trkpt>
      <trkpt lat="35.16221" lon="-120.75714">
        <ele>39.0</ele>
      </trkpt>
      <trkpt lat="35.16234" lon="-120.75713">
        <ele>39.0</ele>
      </trkpt>
      <trkpt lat="35.16259" lon="-120.75723">
        <ele>42.0</ele>
      </trkpt>
      <trkpt lat="35.16283" lon="-120.75723">
        <ele>46.0</ele>
      </trkpt>
      <trkpt lat="35.16288" lon="-120.75716">
        <ele>46.0</ele>
      </trkpt>
      <trkpt lat="35.16301" lon="-120.75714">
        <ele>46.0</ele>
      </trkpt>
      <trkpt lat="35.16305" lon="-120.75714">
        <ele>46.0</ele>
      </trkpt>
      <trkpt lat="35.16313" lon="-120.75725">
        <ele>46.0</ele>
      </trkpt>
      <trkpt lat="35.16326" lon="-120.75731">
        <ele>50.0</ele>
      </trkpt>
      <trkpt lat="35.16361" lon="-120.75728">
        <ele>49.0</ele>
      </trkpt>
      <trkpt lat="35.16366" lon="-120.75731">
        <ele>49.0</ele>
      </trkpt>
      <trkpt lat="35.1637" lon="-120.75753">
        <ele>57.0</ele>
      </trkpt>
      <trkpt lat="35.16396" lon="-120.75748">
        <ele>57.0</ele>
      </trkpt>
      <trkpt lat="35.16405" lon="-120.75736">
        <ele>42.0</ele>
      </trkpt>
      <trkpt lat="35.16415" lon="-120.75735">
        <ele>42.0</ele>
      </trkpt>
      <trkpt lat="35.16425" lon="-120.75743">
        <ele>58.0</ele>
      </trkpt>
      <trkpt lat="35.16468" lon="-120.75754">
        <ele>57.0</ele>
      </trkpt>
      <trkpt lat="35.16484" lon="-120.75783">
        <ele>74.0</ele>
      </trkpt>
      <trkpt lat="35.16495" lon="-120.75785">
        <ele>65.0</ele>
      </trkpt>
      <trkpt lat="35.16501" lon="-120.75792">
        <ele>78.0</ele>
      </trkpt>
      <trkpt lat="35.1652" lon="-120.75797">
        <ele>72.0</ele>
      </trkpt>
      <trkpt lat="35.16537" lon="-120.758">
        <ele>72.0</ele>
      </trkpt>
      <trkpt lat="35.16548215170334" lon="-120.7579460010317">
        <ele>71.0</ele>
      </trkpt>
      <trkpt lat="35.16548215181217" lon="-120.7579460010317">
        <ele>71.0</ele>
      </trkpt>
      <trkpt lat="35.16564" lon="-120.75787">
        <ele>58.0</ele>
      </trkpt>
      <trkpt lat="35.16579" lon="-120.75784">
        <ele>55.0</ele>
      </trkpt>
      <trkpt lat="35.16624" lon="-120.75784">
        <ele>50.0</ele>
      </trkpt>
      <trkpt lat="35.16637" lon="-120.75792">
        <ele>60.0</ele>
      </trkpt>
      <trkpt lat="35.16655" lon="-120.75812">
        <ele>49.0</ele>
      </trkpt>
      <trkpt lat="35.16686" lon="-120.75873">
        <ele>59.0</ele>
      </trkpt>
      <trkpt lat="35.1669" lon="-120.75874">
        <ele>59.0</ele>
      </trkpt>
      <trkpt lat="35.16708" lon="-120.75841">
        <ele>52.0</ele>
      </trkpt>
      <trkpt lat="35.1672" lon="-120.75829">
        <ele>53.0</ele>
      </trkpt>
      <trkpt lat="35.16741" lon="-120.75816">
        <ele>51.0</ele>
      </trkpt>
      <trkpt lat="35.16766" lon="-120.75805">
        <ele>60.0</ele>
      </trkpt>
      <trkpt lat="35.16778" lon="-120.75803">
        <ele>60.0</ele>
      </trkpt>
      <trkpt lat="35.16782876073728" lon="-120.7580527550107">
        <ele>60.0</ele>
      </trkpt>
      <trkpt lat="35.16782876076763" lon="-120.7580527550107">
        <ele>60.0</ele>
      </trkpt>
      <trkpt lat="35.16793" lon="-120.7581">
        <ele>59.0</ele>
      </trkpt>
      <trkpt lat="35.1682" lon="-120.75806">
        <ele>57.0</ele>
      </trkpt>
      <trkpt lat="35.16825" lon="-120.75808">
        <ele>57.0</ele>
      </trkpt>
      <trkpt lat="35.16829" lon="-120.75812">
        <ele>57.0</ele>
      </trkpt>
      <trkpt lat="35.16831" lon="-120.75852">
        <ele>73.0</ele>
      </trkpt>
      <trkpt lat="35.16838" lon="-120.7586">
        <ele>73.0</ele>
      </trkpt>
      <trkpt lat="35.16856" lon="-120.75828">
        <ele>63.0</ele>
      </trkpt>
      <trkpt lat="35.16872" lon="-120.75816">
        <ele>56.0</ele>
      </trkpt>
      <trkpt lat="35.16892" lon="-120.75808">
        <ele>59.0</ele>
      </trkpt>
      <trkpt lat="35.16908" lon="-120.75811">
        <ele>60.0</ele>
      </trkpt>
      <trkpt lat="35.16922" lon="-120.75802">
        <ele>60.0</ele>
      </trkpt>
      <trkpt lat="35.16931" lon="-120.75803">
        <ele>55.0</ele>
      </trkpt>
      <trkpt lat="35.16936371724326" lon="-120.7580581373527">
        <ele>55.0</ele>
      </trkpt>
      <trkpt lat="35.16936371724326" lon="-120.7580581373527">
        <ele>55.0</ele>
      </trkpt>
      <trkpt lat="35.16952" lon="-120.75814">
        <ele>55.0</ele>
      </trkpt>
      <trkpt lat="35.16968" lon="-120.75826">
        <ele>60.0</ele>
      </trkpt>
      <trkpt lat="35.16969" lon="-120.75829">
        <ele>60.0</ele>
      </trkpt>
      <trkpt lat="35.16951" lon="-120.75849">
        <ele>70.0</ele>
      </trkpt>
      <trkpt lat="35.16944" lon="-120.75861">
        <ele>70.0</ele>
      </trkpt>
      <trkpt lat="35.16942542468619" lon="-120.7587776161089">
        <ele>77.0</ele>
      </trkpt>
      <trkpt lat="35.16942542468669" lon="-120.7587776161088">
        <ele>77.0</ele>
      </trkpt>
      <trkpt lat="35.16942" lon="-120.75884">
        <ele>77.0</ele>
      </trkpt>
      <trkpt lat="35.16929" lon="-120.75922">
        <ele>91.0</ele>
      </trkpt>
      <trkpt lat="35.16926" lon="-120.75937">
        <ele>102.0</ele>
      </trkpt>
      <trkpt lat="35.16916" lon="-120.75951">
        <ele>102.0</ele>
      </trkpt>
      <trkpt lat="35.16916" lon="-120.75971">
        <ele>112.0</ele>
      </trkpt>
      <trkpt lat="35.16918" lon="-120.75978">
        <ele>112.0</ele>
      </trkpt>
      <trkpt lat="35.1691783619338" lon="-120.7597742354391">
        <ele>112.0</ele>
      </trkpt>
      <trkpt lat="35.16928" lon="-120.7596">
        <ele>112.0</ele>
      </trkpt>
      <trkpt lat="35.16944" lon="-120.75945">
        <ele>96.0</ele>
      </trkpt>
      <trkpt lat="35.16964" lon="-120.75921">
        <ele>86.0</ele>
      </trkpt>
      <trkpt lat="35.16969" lon="-120.75918">
        <ele>86.0</ele>
      </trkpt>
      <trkpt lat="35.16983" lon="-120.75917">
        <ele>86.0</ele>
      </trkpt>
      <trkpt lat="35.17021" lon="-120.75924">
        <ele>91.0</ele>
      </trkpt>
      <trkpt lat="35.17033" lon="-120.75921">
        <ele>91.0</ele>
      </trkpt>
      <trkpt lat="35.17044" lon="-120.75912">
        <ele>100.0</ele>
      </trkpt>
      <trkpt lat="35.17067" lon="-120.75885">
        <ele>88.0</ele>
      </trkpt>
      <trkpt lat="35.17086" lon="-120.75857">
        <ele>85.0</ele>
      </trkpt>
      <trkpt lat="35.17092" lon="-120.75852">
        <ele>85.0</ele>
      </trkpt>
      <trkpt lat="35.17108" lon="-120.75849">
        <ele>88.0</ele>
      </trkpt>
      <trkpt lat="35.17121" lon="-120.75852">
        <ele>88.0</ele>
      </trkpt>
      <trkpt lat="35.1715" lon="-120.75877">
        <ele>102.0</ele>
      </trkpt>
      <trkpt lat="35.1716" lon="-120.75882">
        <ele>101.0</ele>
      </trkpt>
      <trkpt lat="35.17168" lon="-120.7588">
        <ele>101.0</ele>
      </trkpt>
      <trkpt lat="35.17172" lon="-120.75871">
        <ele>90.0</ele>
      </trkpt>
      <trkpt lat="35.17183" lon="-120.75821">
        <ele>85.0</ele>
      </trkpt>
      <trkpt lat="35.17194" lon="-120.758">
        <ele>75.0</ele>
      </trkpt>
      <trkpt lat="35.17206" lon="-120.75784">
        <ele>58.0</ele>
      </trkpt>
      <trkpt lat="35.17235" lon="-120.75772">
        <ele>72.0</ele>
      </trkpt>
      <trkpt lat="35.17252442580943" lon="-120.7575878592353">
        <ele>65.0</ele>
      </trkpt>
      <trkpt lat="35.17252442597633" lon="-120.7575878592353">
        <ele>65.0</ele>
      </trkpt>
      <trkpt lat="35.17268" lon="-120.75747">
        <ele>67.0</ele>
      </trkpt>
      <trkpt lat="35.17303" lon="-120.75727">
        <ele>60.0</ele>
      </trkpt>
      <trkpt lat="35.17329" lon="-120.75722">
        <ele>61.0</ele>
      </trkpt>
      <trkpt lat="35.17358" lon="-120.75726">
        <ele>57.0</ele>
      </trkpt>
      <trkpt lat="35.17381" lon="-120.75721">
        <ele>49.0</ele>
      </trkpt>
      <trkpt lat="35.17381" lon="-120.75721">
        <ele>49.0</ele>
      </trkpt>
      <trkpt lat="35.17394" lon="-120.75721">
        <ele>49.0</ele>
      </trkpt>
      <trkpt lat="35.17412" lon="-120.75739">
        <ele>56.0</ele>
      </trkpt>
      <trkpt lat="35.17443" lon="-120.75755">
        <ele>47.0</ele>
      </trkpt>
      <trkpt lat="35.17454" lon="-120.75751">
        <ele>47.0</ele>
      </trkpt>
      <trkpt lat="35.17488" lon="-120.75721">
        <ele>40.0</ele>
      </trkpt>
      <trkpt lat="35.17503" lon="-120.75718">
        <ele>40.0</ele>
      </trkpt>
      <trkpt lat="35.17503" lon="-120.75718">
        <ele>40.0</ele>
      </trkpt>
      <trkpt lat="35.17503" lon="-120.75718">
        <ele>40.0</ele>
      </trkpt>
      <trkpt lat="35.17509" lon="-120.75713">
        <ele>40.0</ele>
      </trkpt>
      <trkpt lat="35.17517" lon="-120.75712">
        <ele>38.0</ele>
      </trkpt>
      <trkpt lat="35.17524" lon="-120.75714">
        <ele>38.0</ele>
      </trkpt>
      <trkpt lat="35.17525" lon="-120.75709">
        <ele>38.0</ele>
      </trkpt>
      <trkpt lat="35.1752" lon="-120.75693">
        <ele>33.0</ele>
      </trkpt>
      <trkpt lat="35.1751" lon="-120.75677">
        <ele>28.0</ele>
      </trkpt>
      <trkpt lat="35.17522" lon="-120.75674">
        <ele>27.0</ele>
      </trkpt>
      <trkpt lat="35.17529" lon="-120.75676">
        <ele>27.0</ele>
      </trkpt>
      <trkpt lat="35.17531" lon="-120.75674">
        <ele>27.0</ele>
      </trkpt>
      <trkpt lat="35.17527" lon="-120.75665">
        <ele>27.0</ele>
      </trkpt>
      <trkpt lat="35.1752" lon="-120.75632">
        <ele>23.0</ele>
      </trkpt>
      <trkpt lat="35.17494" lon="-120.75585">
        <ele>14.0</ele>
      </trkpt>
      <trkpt lat="35.1749311706248" lon="-120.7557528768727">
        <ele>14.0</ele>
      </trkpt>
    </trkseg>
  </trk>
</gpx>
