<?xml version="1.0" encoding="UTF-8"?>
<gpx xmlns:xsi="http://www.w3.org/2001/XMLSchema-instance" version="1.1" creator="The Outbound Collective, Inc. 1.1.1 -- https://www.theoutbound.com" xsi:schemaLocation="http://www.topografix.com/GPX/1/1 http://www.topografix.com/GPX/1/1/gpx.xsd">
  <metadata>
    <name/>
    <time>2026-02-19T21:50:56+00:00</time>
    <bound minlat="38.29905" minlon="-123.064486384" maxlat="38.305075805" maxlon="-123.05455"/>
  </metadata>
  <trk>
    <name/>
    <trkseg>
      <trkpt lat="38.303661375" lon="-123.064486384">
        <ele>15.0</ele>
      </trkpt>
      <trkpt lat="38.303968679" lon="-123.064196706">
        <ele>14.0</ele>
      </trkpt>
      <trkpt lat="38.30443" lon="-123.0639">
        <ele>13.0</ele>
      </trkpt>
      <trkpt lat="38.30457" lon="-123.06384">
        <ele>13.0</ele>
      </trkpt>
      <trkpt lat="38.30467" lon="-123.06389">
        <ele>15.0</ele>
      </trkpt>
      <trkpt lat="38.304882165" lon="-123.0636549">
        <ele>22.0</ele>
      </trkpt>
      <trkpt lat="38.30503371" lon="-123.063290119">
        <ele>23.0</ele>
      </trkpt>
      <trkpt lat="38.305075805" lon="-123.062335253">
        <ele>27.0</ele>
      </trkpt>
      <trkpt lat="38.30502" lon="-123.06189">
        <ele>29.0</ele>
      </trkpt>
      <trkpt lat="38.30482" lon="-123.06132">
        <ele>26.0</ele>
      </trkpt>
      <trkpt lat="38.30487" lon="-123.06089">
        <ele>27.0</ele>
      </trkpt>
      <trkpt lat="38.3048" lon="-123.06078">
        <ele>26.0</ele>
      </trkpt>
      <trkpt lat="38.3047" lon="-123.0605">
        <ele>26.0</ele>
      </trkpt>
      <trkpt lat="38.30456" lon="-123.06027">
        <ele>23.0</ele>
      </trkpt>
      <trkpt lat="38.30454" lon="-123.06015">
        <ele>23.0</ele>
      </trkpt>
      <trkpt lat="38.30443" lon="-123.05996">
        <ele>22.0</ele>
      </trkpt>
      <trkpt lat="38.30432" lon="-123.05985">
        <ele>21.0</ele>
      </trkpt>
      <trkpt lat="38.30427" lon="-123.05969">
        <ele>21.0</ele>
      </trkpt>
      <trkpt lat="38.30402" lon="-123.05945">
        <ele>22.0</ele>
      </trkpt>
      <trkpt lat="38.30383" lon="-123.05938">
        <ele>22.0</ele>
      </trkpt>
      <trkpt lat="38.30377" lon="-123.0593">
        <ele>23.0</ele>
      </trkpt>
      <trkpt lat="38.30373" lon="-123.05915">
        <ele>26.0</ele>
      </trkpt>
      <trkpt lat="38.3037" lon="-123.05866">
        <ele>29.0</ele>
      </trkpt>
      <trkpt lat="38.30351" lon="-123.05763">
        <ele>29.0</ele>
      </trkpt>
      <trkpt lat="38.30328" lon="-123.05733">
        <ele>35.0</ele>
      </trkpt>
      <trkpt lat="38.30316" lon="-123.05706">
        <ele>35.0</ele>
      </trkpt>
      <trkpt lat="38.30329" lon="-123.05616">
        <ele>32.0</ele>
      </trkpt>
      <trkpt lat="38.30327" lon="-123.05585">
        <ele>33.0</ele>
      </trkpt>
      <trkpt lat="38.30311" lon="-123.05521">
        <ele>37.0</ele>
      </trkpt>
      <trkpt lat="38.30276" lon="-123.05476">
        <ele>37.0</ele>
      </trkpt>
      <trkpt lat="38.30243" lon="-123.05464">
        <ele>35.0</ele>
      </trkpt>
      <trkpt lat="38.302" lon="-123.05462">
        <ele>36.0</ele>
      </trkpt>
      <trkpt lat="38.30175" lon="-123.05456">
        <ele>31.0</ele>
      </trkpt>
      <trkpt lat="38.30154" lon="-123.05459">
        <ele>37.0</ele>
      </trkpt>
      <trkpt lat="38.30103" lon="-123.05455">
        <ele>34.0</ele>
      </trkpt>
      <trkpt lat="38.30057" lon="-123.05461">
        <ele>40.0</ele>
      </trkpt>
      <trkpt lat="38.30036" lon="-123.05473">
        <ele>39.0</ele>
      </trkpt>
      <trkpt lat="38.30019" lon="-123.05493">
        <ele>44.0</ele>
      </trkpt>
      <trkpt lat="38.30005" lon="-123.05513">
        <ele>35.0</ele>
      </trkpt>
      <trkpt lat="38.29996" lon="-123.05534">
        <ele>38.0</ele>
      </trkpt>
      <trkpt lat="38.30005" lon="-123.0564">
        <ele>47.0</ele>
      </trkpt>
      <trkpt lat="38.30002" lon="-123.05671">
        <ele>46.0</ele>
      </trkpt>
      <trkpt lat="38.29994" lon="-123.05671">
        <ele>46.0</ele>
      </trkpt>
      <trkpt lat="38.29976" lon="-123.05678">
        <ele>24.0</ele>
      </trkpt>
      <trkpt lat="38.29955" lon="-123.0573">
        <ele>18.0</ele>
      </trkpt>
      <trkpt lat="38.29946" lon="-123.05743">
        <ele>25.0</ele>
      </trkpt>
      <trkpt lat="38.29938" lon="-123.05751">
        <ele>25.0</ele>
      </trkpt>
      <trkpt lat="38.29926" lon="-123.05753">
        <ele>17.0</ele>
      </trkpt>
      <trkpt lat="38.2991" lon="-123.05765">
        <ele>25.0</ele>
      </trkpt>
      <trkpt lat="38.29906" lon="-123.05773">
        <ele>25.0</ele>
      </trkpt>
      <trkpt lat="38.29905" lon="-123.05797">
        <ele>30.0</ele>
      </trkpt>
      <trkpt lat="38.29915" lon="-123.05807">
        <ele>30.0</ele>
      </trkpt>
      <trkpt lat="38.2993" lon="-123.05844">
        <ele>29.0</ele>
      </trkpt>
      <trkpt lat="38.29942" lon="-123.05883">
        <ele>36.0</ele>
      </trkpt>
      <trkpt lat="38.29947" lon="-123.05911">
        <ele>33.0</ele>
      </trkpt>
      <trkpt lat="38.29978" lon="-123.05938">
        <ele>39.0</ele>
      </trkpt>
      <trkpt lat="38.29992" lon="-123.05965">
        <ele>40.0</ele>
      </trkpt>
      <trkpt lat="38.30002" lon="-123.0601">
        <ele>38.0</ele>
      </trkpt>
      <trkpt lat="38.30015" lon="-123.06037">
        <ele>40.0</ele>
      </trkpt>
      <trkpt lat="38.30024" lon="-123.06068">
        <ele>38.0</ele>
      </trkpt>
      <trkpt lat="38.30025" lon="-123.06098">
        <ele>30.0</ele>
      </trkpt>
      <trkpt lat="38.30023" lon="-123.06109">
        <ele>30.0</ele>
      </trkpt>
      <trkpt lat="38.30016" lon="-123.06119">
        <ele>30.0</ele>
      </trkpt>
      <trkpt lat="38.30034" lon="-123.06138">
        <ele>23.0</ele>
      </trkpt>
      <trkpt lat="38.30068" lon="-123.06148">
        <ele>27.0</ele>
      </trkpt>
      <trkpt lat="38.30076" lon="-123.06155">
        <ele>27.0</ele>
      </trkpt>
      <trkpt lat="38.30083" lon="-123.06181">
        <ele>21.0</ele>
      </trkpt>
      <trkpt lat="38.30088" lon="-123.06188">
        <ele>21.0</ele>
      </trkpt>
      <trkpt lat="38.30096" lon="-123.06194">
        <ele>21.0</ele>
      </trkpt>
      <trkpt lat="38.30108" lon="-123.06192">
        <ele>28.0</ele>
      </trkpt>
      <trkpt lat="38.30142" lon="-123.06218">
        <ele>21.0</ele>
      </trkpt>
      <trkpt lat="38.30166" lon="-123.06213">
        <ele>22.0</ele>
      </trkpt>
      <trkpt lat="38.30204" lon="-123.06218">
        <ele>22.0</ele>
      </trkpt>
      <trkpt lat="38.30269" lon="-123.06247">
        <ele>19.0</ele>
      </trkpt>
      <trkpt lat="38.30278" lon="-123.06291">
        <ele>17.0</ele>
      </trkpt>
      <trkpt lat="38.30256" lon="-123.06348">
        <ele>10.0</ele>
      </trkpt>
      <trkpt lat="38.30254" lon="-123.06388">
        <ele>11.0</ele>
      </trkpt>
      <trkpt lat="38.30258" lon="-123.06397">
        <ele>11.0</ele>
      </trkpt>
      <trkpt lat="38.30265" lon="-123.06406">
        <ele>15.0</ele>
      </trkpt>
      <trkpt lat="38.30275" lon="-123.06405">
        <ele>15.0</ele>
      </trkpt>
      <trkpt lat="38.30288" lon="-123.06368">
        <ele>16.0</ele>
      </trkpt>
      <trkpt lat="38.30294" lon="-123.0636">
        <ele>20.0</ele>
      </trkpt>
      <trkpt lat="38.30312" lon="-123.06353">
        <ele>20.0</ele>
      </trkpt>
      <trkpt lat="38.30322" lon="-123.06355">
        <ele>19.0</ele>
      </trkpt>
      <trkpt lat="38.30332" lon="-123.06361">
        <ele>19.0</ele>
      </trkpt>
      <trkpt lat="38.30335" lon="-123.06369">
        <ele>19.0</ele>
      </trkpt>
      <trkpt lat="38.30345" lon="-123.06375">
        <ele>19.0</ele>
      </trkpt>
      <trkpt lat="38.30357" lon="-123.06411">
        <ele>16.0</ele>
      </trkpt>
      <trkpt lat="38.303454828" lon="-123.064455515">
        <ele>18.0</ele>
      </trkpt>
      <trkpt lat="38.303669794" lon="-123.064486384">
        <ele>15.0</ele>
      </trkpt>
    </trkseg>
  </trk>
</gpx>
