<?xml version="1.0" encoding="UTF-8"?>
<gpx xmlns:xsi="http://www.w3.org/2001/XMLSchema-instance" version="1.1" creator="The Outbound Collective, Inc. 1.1.1 -- https://www.theoutbound.com" xsi:schemaLocation="http://www.topografix.com/GPX/1/1 http://www.topografix.com/GPX/1/1/gpx.xsd">
  <metadata>
    <name/>
    <time>2026-02-19T21:48:59+00:00</time>
    <bound minlat="37.79442" minlon="-122.4823793753967" maxlat="37.8051" maxlon="-122.4765086174011"/>
  </metadata>
  <trk>
    <name/>
    <trkseg>
      <trkpt lat="37.80507096837568" lon="-122.4765086174011">
        <ele>68.0</ele>
      </trkpt>
      <trkpt lat="37.80506228018489" lon="-122.4765114009215">
        <ele>68.0</ele>
      </trkpt>
      <trkpt lat="37.8051" lon="-122.4767">
        <ele>70.0</ele>
      </trkpt>
      <trkpt lat="37.80509627316584" lon="-122.4766891512228">
        <ele>70.0</ele>
      </trkpt>
      <trkpt lat="37.80506747610767" lon="-122.4767083492615">
        <ele>70.0</ele>
      </trkpt>
      <trkpt lat="37.80506747611107" lon="-122.4767083492615">
        <ele>70.0</ele>
      </trkpt>
      <trkpt lat="37.80505" lon="-122.47672">
        <ele>70.0</ele>
      </trkpt>
      <trkpt lat="37.80495916924723" lon="-122.4767454326108">
        <ele>70.0</ele>
      </trkpt>
      <trkpt lat="37.80496" lon="-122.47675">
        <ele>70.0</ele>
      </trkpt>
      <trkpt lat="37.8049" lon="-122.47693">
        <ele>70.0</ele>
      </trkpt>
      <trkpt lat="37.80489869057715" lon="-122.4769343452886">
        <ele>70.0</ele>
      </trkpt>
      <trkpt lat="37.80483" lon="-122.4769">
        <ele>78.0</ele>
      </trkpt>
      <trkpt lat="37.8048181416772" lon="-122.4769033203304">
        <ele>78.0</ele>
      </trkpt>
      <trkpt lat="37.80481814169242" lon="-122.4769033203304">
        <ele>78.0</ele>
      </trkpt>
      <trkpt lat="37.8046285424863" lon="-122.4769564081038">
        <ele>78.0</ele>
      </trkpt>
      <trkpt lat="37.8046285424863" lon="-122.4769564081038">
        <ele>78.0</ele>
      </trkpt>
      <trkpt lat="37.80458" lon="-122.47697">
        <ele>83.0</ele>
      </trkpt>
      <trkpt lat="37.80446" lon="-122.47695">
        <ele>83.0</ele>
      </trkpt>
      <trkpt lat="37.80437252663814" lon="-122.476902898959">
        <ele>83.0</ele>
      </trkpt>
      <trkpt lat="37.80437252666334" lon="-122.476902898959">
        <ele>83.0</ele>
      </trkpt>
      <trkpt lat="37.80433" lon="-122.47688">
        <ele>83.0</ele>
      </trkpt>
      <trkpt lat="37.80423" lon="-122.47688">
        <ele>83.0</ele>
      </trkpt>
      <trkpt lat="37.80410563036401" lon="-122.4769591443138">
        <ele>83.0</ele>
      </trkpt>
      <trkpt lat="37.80410563036401" lon="-122.4769591443138">
        <ele>83.0</ele>
      </trkpt>
      <trkpt lat="37.80397453025548" lon="-122.4770425716556">
        <ele>88.0</ele>
      </trkpt>
      <trkpt lat="37.80395876061171" lon="-122.4770526068834">
        <ele>88.0</ele>
      </trkpt>
      <trkpt lat="37.80360029325934" lon="-122.4772807224713">
        <ele>85.0</ele>
      </trkpt>
      <trkpt lat="37.80360029325934" lon="-122.4772807224713">
        <ele>85.0</ele>
      </trkpt>
      <trkpt lat="37.80357" lon="-122.4773">
        <ele>85.0</ele>
      </trkpt>
      <trkpt lat="37.8032098778118" lon="-122.477368959568">
        <ele>79.0</ele>
      </trkpt>
      <trkpt lat="37.8032098778118" lon="-122.477368959568">
        <ele>79.0</ele>
      </trkpt>
      <trkpt lat="37.803203469331" lon="-122.4773701867238">
        <ele>79.0</ele>
      </trkpt>
      <trkpt lat="37.80320346933548" lon="-122.4773701867239">
        <ele>79.0</ele>
      </trkpt>
      <trkpt lat="37.8031" lon="-122.47739">
        <ele>80.0</ele>
      </trkpt>
      <trkpt lat="37.80299" lon="-122.47746">
        <ele>80.0</ele>
      </trkpt>
      <trkpt lat="37.80299" lon="-122.47746">
        <ele>80.0</ele>
      </trkpt>
      <trkpt lat="37.80291387219711" lon="-122.4775170958522">
        <ele>84.0</ele>
      </trkpt>
      <trkpt lat="37.80291387219711" lon="-122.4775170958522">
        <ele>84.0</ele>
      </trkpt>
      <trkpt lat="37.80283" lon="-122.47758">
        <ele>84.0</ele>
      </trkpt>
      <trkpt lat="37.8026786567794" lon="-122.4776556716103">
        <ele>81.0</ele>
      </trkpt>
      <trkpt lat="37.8026786567794" lon="-122.4776556716103">
        <ele>81.0</ele>
      </trkpt>
      <trkpt lat="37.80263673386502" lon="-122.4776766330675">
        <ele>86.0</ele>
      </trkpt>
      <trkpt lat="37.80263673388966" lon="-122.4776766330675">
        <ele>86.0</ele>
      </trkpt>
      <trkpt lat="37.80255" lon="-122.47772">
        <ele>86.0</ele>
      </trkpt>
      <trkpt lat="37.80241" lon="-122.4777">
        <ele>86.0</ele>
      </trkpt>
      <trkpt lat="37.80231" lon="-122.47774">
        <ele>89.0</ele>
      </trkpt>
      <trkpt lat="37.80224" lon="-122.47781">
        <ele>89.0</ele>
      </trkpt>
      <trkpt lat="37.80224" lon="-122.47781">
        <ele>89.0</ele>
      </trkpt>
      <trkpt lat="37.80224" lon="-122.47781">
        <ele>89.0</ele>
      </trkpt>
      <trkpt lat="37.80214" lon="-122.47782">
        <ele>89.0</ele>
      </trkpt>
      <trkpt lat="37.80205" lon="-122.47787">
        <ele>88.0</ele>
      </trkpt>
      <trkpt lat="37.80205" lon="-122.47787">
        <ele>88.0</ele>
      </trkpt>
      <trkpt lat="37.80206255071172" lon="-122.4779202028469">
        <ele>79.0</ele>
      </trkpt>
      <trkpt lat="37.80207" lon="-122.47795">
        <ele>79.0</ele>
      </trkpt>
      <trkpt lat="37.80203" lon="-122.47797">
        <ele>79.0</ele>
      </trkpt>
      <trkpt lat="37.80203" lon="-122.47797">
        <ele>79.0</ele>
      </trkpt>
      <trkpt lat="37.80202584700798" lon="-122.477968961752">
        <ele>79.0</ele>
      </trkpt>
      <trkpt lat="37.80202584701235" lon="-122.477968961752">
        <ele>79.0</ele>
      </trkpt>
      <trkpt lat="37.80187" lon="-122.47793">
        <ele>79.0</ele>
      </trkpt>
      <trkpt lat="37.8018" lon="-122.47786">
        <ele>82.0</ele>
      </trkpt>
      <trkpt lat="37.80176" lon="-122.47785">
        <ele>82.0</ele>
      </trkpt>
      <trkpt lat="37.80174" lon="-122.4779">
        <ele>82.0</ele>
      </trkpt>
      <trkpt lat="37.80174" lon="-122.4779">
        <ele>82.0</ele>
      </trkpt>
      <trkpt lat="37.80164" lon="-122.47797">
        <ele>75.0</ele>
      </trkpt>
      <trkpt lat="37.80167" lon="-122.47807">
        <ele>75.0</ele>
      </trkpt>
      <trkpt lat="37.80167" lon="-122.47807">
        <ele>75.0</ele>
      </trkpt>
      <trkpt lat="37.80176" lon="-122.47821">
        <ele>65.0</ele>
      </trkpt>
      <trkpt lat="37.80176" lon="-122.47821">
        <ele>65.0</ele>
      </trkpt>
      <trkpt lat="37.80174" lon="-122.47825">
        <ele>65.0</ele>
      </trkpt>
      <trkpt lat="37.80175" lon="-122.47829">
        <ele>65.0</ele>
      </trkpt>
      <trkpt lat="37.80187" lon="-122.47831">
        <ele>70.0</ele>
      </trkpt>
      <trkpt lat="37.80198" lon="-122.47846">
        <ele>70.0</ele>
      </trkpt>
      <trkpt lat="37.80204678609586" lon="-122.4785819649697">
        <ele>59.0</ele>
      </trkpt>
      <trkpt lat="37.80205010735406" lon="-122.4785816103107">
        <ele>59.0</ele>
      </trkpt>
      <trkpt lat="37.80206" lon="-122.47873">
        <ele>59.0</ele>
      </trkpt>
      <trkpt lat="37.80206" lon="-122.47873">
        <ele>59.0</ele>
      </trkpt>
      <trkpt lat="37.80204" lon="-122.47885">
        <ele>53.0</ele>
      </trkpt>
      <trkpt lat="37.80201" lon="-122.47888">
        <ele>53.0</ele>
      </trkpt>
      <trkpt lat="37.80194893207996" lon="-122.47890290047">
        <ele>53.0</ele>
      </trkpt>
      <trkpt lat="37.80195" lon="-122.47891">
        <ele>53.0</ele>
      </trkpt>
      <trkpt lat="37.80195" lon="-122.4789440631866">
        <ele>53.0</ele>
      </trkpt>
      <trkpt lat="37.80194999999999" lon="-122.4789440631866">
        <ele>53.0</ele>
      </trkpt>
      <trkpt lat="37.80195" lon="-122.47891">
        <ele>53.0</ele>
      </trkpt>
      <trkpt lat="37.80194893207996" lon="-122.47890290047">
        <ele>53.0</ele>
      </trkpt>
      <trkpt lat="37.80193" lon="-122.47891">
        <ele>53.0</ele>
      </trkpt>
      <trkpt lat="37.80189357986895" lon="-122.4788990739607">
        <ele>53.0</ele>
      </trkpt>
      <trkpt lat="37.8018935798846" lon="-122.4788990739607">
        <ele>53.0</ele>
      </trkpt>
      <trkpt lat="37.80183" lon="-122.47888">
        <ele>53.0</ele>
      </trkpt>
      <trkpt lat="37.80179" lon="-122.47895">
        <ele>49.0</ele>
      </trkpt>
      <trkpt lat="37.80178" lon="-122.47905">
        <ele>48.0</ele>
      </trkpt>
      <trkpt lat="37.80178" lon="-122.47905">
        <ele>48.0</ele>
      </trkpt>
      <trkpt lat="37.80169" lon="-122.47908">
        <ele>48.0</ele>
      </trkpt>
      <trkpt lat="37.80158" lon="-122.47922">
        <ele>48.0</ele>
      </trkpt>
      <trkpt lat="37.80136" lon="-122.47926">
        <ele>39.0</ele>
      </trkpt>
      <trkpt lat="37.80136" lon="-122.47926">
        <ele>39.0</ele>
      </trkpt>
      <trkpt lat="37.80125406304887" lon="-122.479265575629">
        <ele>39.0</ele>
      </trkpt>
      <trkpt lat="37.80125406310913" lon="-122.479265575629">
        <ele>39.0</ele>
      </trkpt>
      <trkpt lat="37.80117" lon="-122.47927">
        <ele>38.0</ele>
      </trkpt>
      <trkpt lat="37.8011" lon="-122.47924">
        <ele>38.0</ele>
      </trkpt>
      <trkpt lat="37.80101" lon="-122.47929">
        <ele>38.0</ele>
      </trkpt>
      <trkpt lat="37.80101" lon="-122.47929">
        <ele>38.0</ele>
      </trkpt>
      <trkpt lat="37.80091" lon="-122.47927">
        <ele>41.0</ele>
      </trkpt>
      <trkpt lat="37.80091" lon="-122.47927">
        <ele>41.0</ele>
      </trkpt>
      <trkpt lat="37.80071" lon="-122.47911">
        <ele>41.0</ele>
      </trkpt>
      <trkpt lat="37.80055" lon="-122.47913">
        <ele>37.0</ele>
      </trkpt>
      <trkpt lat="37.80049" lon="-122.47917">
        <ele>37.0</ele>
      </trkpt>
      <trkpt lat="37.80046" lon="-122.47926">
        <ele>37.0</ele>
      </trkpt>
      <trkpt lat="37.80038" lon="-122.47933">
        <ele>39.0</ele>
      </trkpt>
      <trkpt lat="37.8003" lon="-122.47949">
        <ele>39.0</ele>
      </trkpt>
      <trkpt lat="37.8003" lon="-122.47949">
        <ele>39.0</ele>
      </trkpt>
      <trkpt lat="37.80026" lon="-122.47957">
        <ele>39.0</ele>
      </trkpt>
      <trkpt lat="37.8002" lon="-122.47961">
        <ele>35.0</ele>
      </trkpt>
      <trkpt lat="37.8002" lon="-122.47961">
        <ele>35.0</ele>
      </trkpt>
      <trkpt lat="37.80015" lon="-122.47961">
        <ele>35.0</ele>
      </trkpt>
      <trkpt lat="37.80001" lon="-122.47952">
        <ele>39.0</ele>
      </trkpt>
      <trkpt lat="37.80005" lon="-122.47968">
        <ele>32.0</ele>
      </trkpt>
      <trkpt lat="37.80001828130453" lon="-122.4797487238402">
        <ele>32.0</ele>
      </trkpt>
      <trkpt lat="37.80002" lon="-122.47975">
        <ele>32.0</ele>
      </trkpt>
      <trkpt lat="37.80006" lon="-122.47979">
        <ele>32.0</ele>
      </trkpt>
      <trkpt lat="37.80006" lon="-122.47979">
        <ele>32.0</ele>
      </trkpt>
      <trkpt lat="37.80015" lon="-122.47981">
        <ele>35.0</ele>
      </trkpt>
      <trkpt lat="37.80029" lon="-122.48002">
        <ele>27.0</ele>
      </trkpt>
      <trkpt lat="37.80033" lon="-122.48004">
        <ele>27.0</ele>
      </trkpt>
      <trkpt lat="37.80041" lon="-122.48018">
        <ele>20.0</ele>
      </trkpt>
      <trkpt lat="37.80053" lon="-122.48027">
        <ele>20.0</ele>
      </trkpt>
      <trkpt lat="37.80059" lon="-122.48035">
        <ele>20.0</ele>
      </trkpt>
      <trkpt lat="37.80059" lon="-122.48035">
        <ele>20.0</ele>
      </trkpt>
      <trkpt lat="37.80063" lon="-122.48036">
        <ele>20.0</ele>
      </trkpt>
      <trkpt lat="37.80064" lon="-122.48027">
        <ele>20.0</ele>
      </trkpt>
      <trkpt lat="37.80064" lon="-122.48027">
        <ele>20.0</ele>
      </trkpt>
      <trkpt lat="37.80064" lon="-122.48027">
        <ele>20.0</ele>
      </trkpt>
      <trkpt lat="37.80064" lon="-122.48027">
        <ele>20.0</ele>
      </trkpt>
      <trkpt lat="37.80063" lon="-122.48036">
        <ele>20.0</ele>
      </trkpt>
      <trkpt lat="37.80059" lon="-122.48035">
        <ele>20.0</ele>
      </trkpt>
      <trkpt lat="37.80059" lon="-122.48035">
        <ele>20.0</ele>
      </trkpt>
      <trkpt lat="37.80053" lon="-122.48027">
        <ele>20.0</ele>
      </trkpt>
      <trkpt lat="37.80041" lon="-122.48018">
        <ele>20.0</ele>
      </trkpt>
      <trkpt lat="37.80033" lon="-122.48004">
        <ele>27.0</ele>
      </trkpt>
      <trkpt lat="37.80029" lon="-122.48002">
        <ele>27.0</ele>
      </trkpt>
      <trkpt lat="37.80015" lon="-122.47981">
        <ele>35.0</ele>
      </trkpt>
      <trkpt lat="37.80006" lon="-122.47979">
        <ele>32.0</ele>
      </trkpt>
      <trkpt lat="37.80006" lon="-122.47979">
        <ele>32.0</ele>
      </trkpt>
      <trkpt lat="37.80002" lon="-122.47975">
        <ele>32.0</ele>
      </trkpt>
      <trkpt lat="37.80001828130453" lon="-122.4797487238402">
        <ele>32.0</ele>
      </trkpt>
      <trkpt lat="37.79999" lon="-122.47981">
        <ele>32.0</ele>
      </trkpt>
      <trkpt lat="37.79999" lon="-122.47981">
        <ele>32.0</ele>
      </trkpt>
      <trkpt lat="37.79994" lon="-122.47983">
        <ele>32.0</ele>
      </trkpt>
      <trkpt lat="37.79994" lon="-122.47983">
        <ele>32.0</ele>
      </trkpt>
      <trkpt lat="37.79983" lon="-122.47985">
        <ele>35.0</ele>
      </trkpt>
      <trkpt lat="37.79981" lon="-122.47988">
        <ele>32.0</ele>
      </trkpt>
      <trkpt lat="37.7998" lon="-122.48">
        <ele>32.0</ele>
      </trkpt>
      <trkpt lat="37.79983" lon="-122.48011">
        <ele>32.0</ele>
      </trkpt>
      <trkpt lat="37.7998" lon="-122.4802">
        <ele>29.0</ele>
      </trkpt>
      <trkpt lat="37.7998" lon="-122.4802">
        <ele>29.0</ele>
      </trkpt>
      <trkpt lat="37.7997996742406" lon="-122.4802009772782">
        <ele>29.0</ele>
      </trkpt>
      <trkpt lat="37.79979967424063" lon="-122.4802009772782">
        <ele>29.0</ele>
      </trkpt>
      <trkpt lat="37.79978" lon="-122.48026">
        <ele>29.0</ele>
      </trkpt>
      <trkpt lat="37.79978" lon="-122.48026">
        <ele>29.0</ele>
      </trkpt>
      <trkpt lat="37.79972" lon="-122.48028">
        <ele>29.0</ele>
      </trkpt>
      <trkpt lat="37.79968" lon="-122.4804">
        <ele>29.0</ele>
      </trkpt>
      <trkpt lat="37.79962" lon="-122.48041">
        <ele>29.0</ele>
      </trkpt>
      <trkpt lat="37.79961" lon="-122.48046">
        <ele>23.0</ele>
      </trkpt>
      <trkpt lat="37.79953" lon="-122.48051">
        <ele>30.0</ele>
      </trkpt>
      <trkpt lat="37.79947" lon="-122.4806">
        <ele>30.0</ele>
      </trkpt>
      <trkpt lat="37.79947" lon="-122.4806">
        <ele>30.0</ele>
      </trkpt>
      <trkpt lat="37.79943" lon="-122.48058">
        <ele>30.0</ele>
      </trkpt>
      <trkpt lat="37.79938" lon="-122.48062">
        <ele>30.0</ele>
      </trkpt>
      <trkpt lat="37.79934" lon="-122.48057">
        <ele>30.0</ele>
      </trkpt>
      <trkpt lat="37.79934" lon="-122.48057">
        <ele>30.0</ele>
      </trkpt>
      <trkpt lat="37.79922" lon="-122.48072">
        <ele>26.0</ele>
      </trkpt>
      <trkpt lat="37.79922" lon="-122.48072">
        <ele>26.0</ele>
      </trkpt>
      <trkpt lat="37.79914" lon="-122.48081">
        <ele>26.0</ele>
      </trkpt>
      <trkpt lat="37.79909" lon="-122.48084">
        <ele>26.0</ele>
      </trkpt>
      <trkpt lat="37.79909" lon="-122.48084">
        <ele>26.0</ele>
      </trkpt>
      <trkpt lat="37.79909" lon="-122.48084">
        <ele>26.0</ele>
      </trkpt>
      <trkpt lat="37.79904" lon="-122.48082">
        <ele>26.0</ele>
      </trkpt>
      <trkpt lat="37.79893" lon="-122.48065">
        <ele>48.0</ele>
      </trkpt>
      <trkpt lat="37.79893" lon="-122.48045">
        <ele>48.0</ele>
      </trkpt>
      <trkpt lat="37.79886717198347" lon="-122.4803950254855">
        <ele>55.0</ele>
      </trkpt>
      <trkpt lat="37.79886717199077" lon="-122.4803950254855">
        <ele>55.0</ele>
      </trkpt>
      <trkpt lat="37.79885" lon="-122.48038">
        <ele>55.0</ele>
      </trkpt>
      <trkpt lat="37.79869" lon="-122.48029">
        <ele>56.0</ele>
      </trkpt>
      <trkpt lat="37.79864" lon="-122.48029">
        <ele>56.0</ele>
      </trkpt>
      <trkpt lat="37.79864" lon="-122.48029">
        <ele>56.0</ele>
      </trkpt>
      <trkpt lat="37.79857" lon="-122.48034">
        <ele>56.0</ele>
      </trkpt>
      <trkpt lat="37.79851" lon="-122.48035">
        <ele>56.0</ele>
      </trkpt>
      <trkpt lat="37.79834" lon="-122.48052">
        <ele>46.0</ele>
      </trkpt>
      <trkpt lat="37.79817" lon="-122.48055">
        <ele>42.0</ele>
      </trkpt>
      <trkpt lat="37.79817" lon="-122.48055">
        <ele>42.0</ele>
      </trkpt>
      <trkpt lat="37.79795" lon="-122.4805">
        <ele>42.0</ele>
      </trkpt>
      <trkpt lat="37.79793" lon="-122.48045">
        <ele>42.0</ele>
      </trkpt>
      <trkpt lat="37.79795" lon="-122.48037">
        <ele>46.0</ele>
      </trkpt>
      <trkpt lat="37.79795" lon="-122.48037">
        <ele>46.0</ele>
      </trkpt>
      <trkpt lat="37.79782" lon="-122.48008">
        <ele>47.0</ele>
      </trkpt>
      <trkpt lat="37.79770305575857" lon="-122.4799122104362">
        <ele>47.0</ele>
      </trkpt>
      <trkpt lat="37.79770305584806" lon="-122.4799122104362">
        <ele>47.0</ele>
      </trkpt>
      <trkpt lat="37.79759" lon="-122.47975">
        <ele>48.0</ele>
      </trkpt>
      <trkpt lat="37.79743" lon="-122.47935">
        <ele>54.0</ele>
      </trkpt>
      <trkpt lat="37.79735" lon="-122.47933">
        <ele>55.0</ele>
      </trkpt>
      <trkpt lat="37.79718" lon="-122.47935">
        <ele>55.0</ele>
      </trkpt>
      <trkpt lat="37.79686" lon="-122.47946">
        <ele>62.0</ele>
      </trkpt>
      <trkpt lat="37.79681" lon="-122.47944">
        <ele>62.0</ele>
      </trkpt>
      <trkpt lat="37.79681" lon="-122.47944">
        <ele>62.0</ele>
      </trkpt>
      <trkpt lat="37.79681" lon="-122.47944">
        <ele>62.0</ele>
      </trkpt>
      <trkpt lat="37.79665569482701" lon="-122.4795129442636">
        <ele>66.0</ele>
      </trkpt>
      <trkpt lat="37.79665569524027" lon="-122.4795129442636">
        <ele>66.0</ele>
      </trkpt>
      <trkpt lat="37.79626" lon="-122.4797">
        <ele>61.0</ele>
      </trkpt>
      <trkpt lat="37.79626" lon="-122.4797">
        <ele>61.0</ele>
      </trkpt>
      <trkpt lat="37.79626" lon="-122.4797">
        <ele>61.0</ele>
      </trkpt>
      <trkpt lat="37.79578" lon="-122.47981">
        <ele>65.0</ele>
      </trkpt>
      <trkpt lat="37.79569" lon="-122.47991">
        <ele>64.0</ele>
      </trkpt>
      <trkpt lat="37.79548" lon="-122.48033">
        <ele>59.0</ele>
      </trkpt>
      <trkpt lat="37.79548" lon="-122.48033">
        <ele>59.0</ele>
      </trkpt>
      <trkpt lat="37.79548" lon="-122.48033">
        <ele>59.0</ele>
      </trkpt>
      <trkpt lat="37.79547" lon="-122.48072">
        <ele>45.0</ele>
      </trkpt>
      <trkpt lat="37.79545" lon="-122.48081">
        <ele>45.0</ele>
      </trkpt>
      <trkpt lat="37.79542" lon="-122.48087">
        <ele>45.0</ele>
      </trkpt>
      <trkpt lat="37.79531" lon="-122.48089">
        <ele>47.0</ele>
      </trkpt>
      <trkpt lat="37.7952" lon="-122.48079">
        <ele>47.0</ele>
      </trkpt>
      <trkpt lat="37.79509" lon="-122.48076">
        <ele>45.0</ele>
      </trkpt>
      <trkpt lat="37.79495" lon="-122.48093">
        <ele>45.0</ele>
      </trkpt>
      <trkpt lat="37.79485" lon="-122.48101">
        <ele>33.0</ele>
      </trkpt>
      <trkpt lat="37.79476" lon="-122.48102">
        <ele>33.0</ele>
      </trkpt>
      <trkpt lat="37.79459" lon="-122.48089">
        <ele>38.0</ele>
      </trkpt>
      <trkpt lat="37.79453" lon="-122.48088">
        <ele>34.0</ele>
      </trkpt>
      <trkpt lat="37.79444" lon="-122.48094">
        <ele>34.0</ele>
      </trkpt>
      <trkpt lat="37.79442" lon="-122.481">
        <ele>30.0</ele>
      </trkpt>
      <trkpt lat="37.79442" lon="-122.481">
        <ele>30.0</ele>
      </trkpt>
      <trkpt lat="37.79442" lon="-122.481">
        <ele>30.0</ele>
      </trkpt>
      <trkpt lat="37.79446" lon="-122.48125">
        <ele>30.0</ele>
      </trkpt>
      <trkpt lat="37.79443" lon="-122.48151">
        <ele>26.0</ele>
      </trkpt>
      <trkpt lat="37.79446" lon="-122.48163">
        <ele>21.0</ele>
      </trkpt>
      <trkpt lat="37.79457" lon="-122.48172">
        <ele>21.0</ele>
      </trkpt>
      <trkpt lat="37.79507" lon="-122.48193">
        <ele>20.0</ele>
      </trkpt>
      <trkpt lat="37.79519" lon="-122.48207">
        <ele>21.0</ele>
      </trkpt>
      <trkpt lat="37.79519" lon="-122.48213">
        <ele>20.0</ele>
      </trkpt>
      <trkpt lat="37.79519" lon="-122.48213">
        <ele>20.0</ele>
      </trkpt>
      <trkpt lat="37.79543" lon="-122.48222">
        <ele>17.0</ele>
      </trkpt>
      <trkpt lat="37.79543" lon="-122.48222">
        <ele>17.0</ele>
      </trkpt>
      <trkpt lat="37.79555" lon="-122.48229">
        <ele>17.0</ele>
      </trkpt>
      <trkpt lat="37.79562944479708" lon="-122.4823793753967">
        <ele>17.0</ele>
      </trkpt>
      <trkpt lat="37.79548301565539" lon="-122.4822324514389">
        <ele>17.0</ele>
      </trkpt>
      <trkpt lat="37.79522019836674" lon="-122.4821573495865">
        <ele>20.0</ele>
      </trkpt>
      <trkpt lat="37.79522364791706" lon="-122.4821426179513">
        <ele>20.0</ele>
      </trkpt>
      <trkpt lat="37.79519" lon="-122.48213">
        <ele>20.0</ele>
      </trkpt>
      <trkpt lat="37.79519" lon="-122.48213">
        <ele>20.0</ele>
      </trkpt>
      <trkpt lat="37.79519" lon="-122.48207">
        <ele>21.0</ele>
      </trkpt>
      <trkpt lat="37.79507" lon="-122.48193">
        <ele>20.0</ele>
      </trkpt>
      <trkpt lat="37.79457" lon="-122.48172">
        <ele>21.0</ele>
      </trkpt>
      <trkpt lat="37.79446" lon="-122.48163">
        <ele>21.0</ele>
      </trkpt>
      <trkpt lat="37.79443" lon="-122.48151">
        <ele>26.0</ele>
      </trkpt>
      <trkpt lat="37.79446" lon="-122.48125">
        <ele>30.0</ele>
      </trkpt>
      <trkpt lat="37.79442" lon="-122.481">
        <ele>30.0</ele>
      </trkpt>
      <trkpt lat="37.79442" lon="-122.481">
        <ele>30.0</ele>
      </trkpt>
      <trkpt lat="37.79442" lon="-122.481">
        <ele>30.0</ele>
      </trkpt>
      <trkpt lat="37.79444" lon="-122.48094">
        <ele>34.0</ele>
      </trkpt>
      <trkpt lat="37.79453" lon="-122.48088">
        <ele>34.0</ele>
      </trkpt>
      <trkpt lat="37.79459" lon="-122.48089">
        <ele>38.0</ele>
      </trkpt>
      <trkpt lat="37.79476" lon="-122.48102">
        <ele>33.0</ele>
      </trkpt>
      <trkpt lat="37.79485" lon="-122.48101">
        <ele>33.0</ele>
      </trkpt>
      <trkpt lat="37.79495" lon="-122.48093">
        <ele>45.0</ele>
      </trkpt>
      <trkpt lat="37.79509" lon="-122.48076">
        <ele>45.0</ele>
      </trkpt>
      <trkpt lat="37.7952" lon="-122.48079">
        <ele>47.0</ele>
      </trkpt>
      <trkpt lat="37.79531" lon="-122.48089">
        <ele>47.0</ele>
      </trkpt>
      <trkpt lat="37.79542" lon="-122.48087">
        <ele>45.0</ele>
      </trkpt>
      <trkpt lat="37.79542734336626" lon="-122.4808553132675">
        <ele>45.0</ele>
      </trkpt>
      <trkpt lat="37.79542734336739" lon="-122.4808553132675">
        <ele>45.0</ele>
      </trkpt>
      <trkpt lat="37.79545" lon="-122.48081">
        <ele>45.0</ele>
      </trkpt>
      <trkpt lat="37.79547" lon="-122.48072">
        <ele>45.0</ele>
      </trkpt>
      <trkpt lat="37.79548" lon="-122.48033">
        <ele>59.0</ele>
      </trkpt>
      <trkpt lat="37.79548" lon="-122.48033">
        <ele>59.0</ele>
      </trkpt>
      <trkpt lat="37.79548" lon="-122.48033">
        <ele>59.0</ele>
      </trkpt>
      <trkpt lat="37.79569" lon="-122.47991">
        <ele>64.0</ele>
      </trkpt>
      <trkpt lat="37.79578" lon="-122.47981">
        <ele>65.0</ele>
      </trkpt>
      <trkpt lat="37.79626" lon="-122.4797">
        <ele>61.0</ele>
      </trkpt>
      <trkpt lat="37.79626" lon="-122.4797">
        <ele>61.0</ele>
      </trkpt>
      <trkpt lat="37.79626" lon="-122.4797">
        <ele>61.0</ele>
      </trkpt>
      <trkpt lat="37.79672077082121" lon="-122.4794821810663">
        <ele>66.0</ele>
      </trkpt>
      <trkpt lat="37.79672077109947" lon="-122.4794821810663">
        <ele>66.0</ele>
      </trkpt>
      <trkpt lat="37.79681" lon="-122.47944">
        <ele>62.0</ele>
      </trkpt>
      <trkpt lat="37.79681" lon="-122.47944">
        <ele>62.0</ele>
      </trkpt>
      <trkpt lat="37.79681" lon="-122.47944">
        <ele>62.0</ele>
      </trkpt>
      <trkpt lat="37.79694" lon="-122.47929">
        <ele>69.0</ele>
      </trkpt>
      <trkpt lat="37.79718" lon="-122.47878">
        <ele>73.0</ele>
      </trkpt>
      <trkpt lat="37.79728" lon="-122.47871">
        <ele>77.0</ele>
      </trkpt>
      <trkpt lat="37.79743" lon="-122.47869">
        <ele>77.0</ele>
      </trkpt>
      <trkpt lat="37.79787883116362" lon="-122.4788940141653">
        <ele>70.0</ele>
      </trkpt>
      <trkpt lat="37.79787883180514" lon="-122.4788940141653">
        <ele>70.0</ele>
      </trkpt>
      <trkpt lat="37.79809" lon="-122.47899">
        <ele>74.0</ele>
      </trkpt>
      <trkpt lat="37.79829" lon="-122.47901">
        <ele>79.0</ele>
      </trkpt>
      <trkpt lat="37.79853" lon="-122.47892">
        <ele>79.0</ele>
      </trkpt>
      <trkpt lat="37.79937835451146" lon="-122.4785005887809">
        <ele>80.0</ele>
      </trkpt>
      <trkpt lat="37.79937835475062" lon="-122.4785005887809">
        <ele>80.0</ele>
      </trkpt>
      <trkpt lat="37.79942" lon="-122.47848">
        <ele>80.0</ele>
      </trkpt>
      <trkpt lat="37.79958" lon="-122.47842">
        <ele>84.0</ele>
      </trkpt>
      <trkpt lat="37.80001" lon="-122.47837">
        <ele>87.0</ele>
      </trkpt>
      <trkpt lat="37.80022" lon="-122.47831">
        <ele>88.0</ele>
      </trkpt>
      <trkpt lat="37.80042" lon="-122.47819">
        <ele>96.0</ele>
      </trkpt>
      <trkpt lat="37.80042" lon="-122.47819">
        <ele>96.0</ele>
      </trkpt>
      <trkpt lat="37.80047844135096" lon="-122.4781427973704">
        <ele>96.0</ele>
      </trkpt>
      <trkpt lat="37.80047844147017" lon="-122.4781427973704">
        <ele>96.0</ele>
      </trkpt>
      <trkpt lat="37.80077972415593" lon="-122.4778994535664">
        <ele>94.0</ele>
      </trkpt>
      <trkpt lat="37.80077972415593" lon="-122.4778994535664">
        <ele>94.0</ele>
      </trkpt>
      <trkpt lat="37.80094" lon="-122.47777">
        <ele>94.0</ele>
      </trkpt>
      <trkpt lat="37.80116398137148" lon="-122.4776763350629">
        <ele>87.0</ele>
      </trkpt>
      <trkpt lat="37.80116398186578" lon="-122.4776763350628">
        <ele>87.0</ele>
      </trkpt>
      <trkpt lat="37.80149" lon="-122.47754">
        <ele>92.0</ele>
      </trkpt>
      <trkpt lat="37.80149" lon="-122.47754">
        <ele>92.0</ele>
      </trkpt>
      <trkpt lat="37.80186" lon="-122.47767">
        <ele>88.0</ele>
      </trkpt>
      <trkpt lat="37.80186" lon="-122.47767">
        <ele>88.0</ele>
      </trkpt>
      <trkpt lat="37.80186" lon="-122.47767">
        <ele>88.0</ele>
      </trkpt>
      <trkpt lat="37.80199706902845" lon="-122.4778142831878">
        <ele>88.0</ele>
      </trkpt>
      <trkpt lat="37.80199706902845" lon="-122.4778142831878">
        <ele>88.0</ele>
      </trkpt>
      <trkpt lat="37.80205" lon="-122.47787">
        <ele>88.0</ele>
      </trkpt>
      <trkpt lat="37.80205" lon="-122.47787">
        <ele>88.0</ele>
      </trkpt>
      <trkpt lat="37.80205" lon="-122.47787">
        <ele>88.0</ele>
      </trkpt>
      <trkpt lat="37.80214" lon="-122.47782">
        <ele>89.0</ele>
      </trkpt>
      <trkpt lat="37.80217044896982" lon="-122.4778169551044">
        <ele>89.0</ele>
      </trkpt>
      <trkpt lat="37.80224" lon="-122.47781">
        <ele>89.0</ele>
      </trkpt>
      <trkpt lat="37.80224" lon="-122.47781">
        <ele>89.0</ele>
      </trkpt>
      <trkpt lat="37.80224" lon="-122.47781">
        <ele>89.0</ele>
      </trkpt>
      <trkpt lat="37.80231" lon="-122.47774">
        <ele>89.0</ele>
      </trkpt>
      <trkpt lat="37.80241" lon="-122.4777">
        <ele>86.0</ele>
      </trkpt>
      <trkpt lat="37.80255" lon="-122.47772">
        <ele>86.0</ele>
      </trkpt>
      <trkpt lat="37.8026786567794" lon="-122.4776556716103">
        <ele>81.0</ele>
      </trkpt>
      <trkpt lat="37.8026786567794" lon="-122.4776556716103">
        <ele>81.0</ele>
      </trkpt>
      <trkpt lat="37.80283" lon="-122.47758">
        <ele>84.0</ele>
      </trkpt>
      <trkpt lat="37.80291387219711" lon="-122.4775170958522">
        <ele>84.0</ele>
      </trkpt>
      <trkpt lat="37.80291387219711" lon="-122.4775170958522">
        <ele>84.0</ele>
      </trkpt>
      <trkpt lat="37.80299" lon="-122.47746">
        <ele>80.0</ele>
      </trkpt>
      <trkpt lat="37.80299" lon="-122.47746">
        <ele>80.0</ele>
      </trkpt>
      <trkpt lat="37.8031" lon="-122.47739">
        <ele>80.0</ele>
      </trkpt>
      <trkpt lat="37.8032098778118" lon="-122.477368959568">
        <ele>79.0</ele>
      </trkpt>
      <trkpt lat="37.8032098778118" lon="-122.477368959568">
        <ele>79.0</ele>
      </trkpt>
      <trkpt lat="37.80357" lon="-122.4773">
        <ele>85.0</ele>
      </trkpt>
      <trkpt lat="37.80360029325934" lon="-122.4772807224713">
        <ele>85.0</ele>
      </trkpt>
      <trkpt lat="37.80360029325934" lon="-122.4772807224713">
        <ele>85.0</ele>
      </trkpt>
      <trkpt lat="37.80395876061171" lon="-122.4770526068834">
        <ele>88.0</ele>
      </trkpt>
      <trkpt lat="37.80397453025548" lon="-122.4770425716556">
        <ele>88.0</ele>
      </trkpt>
      <trkpt lat="37.80410563036401" lon="-122.4769591443138">
        <ele>83.0</ele>
      </trkpt>
      <trkpt lat="37.80410563036401" lon="-122.4769591443138">
        <ele>83.0</ele>
      </trkpt>
      <trkpt lat="37.80423" lon="-122.47688">
        <ele>83.0</ele>
      </trkpt>
      <trkpt lat="37.80433" lon="-122.47688">
        <ele>83.0</ele>
      </trkpt>
      <trkpt lat="37.80446" lon="-122.47695">
        <ele>83.0</ele>
      </trkpt>
      <trkpt lat="37.80458" lon="-122.47697">
        <ele>83.0</ele>
      </trkpt>
      <trkpt lat="37.8046285424863" lon="-122.4769564081038">
        <ele>78.0</ele>
      </trkpt>
      <trkpt lat="37.8046285424863" lon="-122.4769564081038">
        <ele>78.0</ele>
      </trkpt>
      <trkpt lat="37.80479840324481" lon="-122.4769088470915">
        <ele>78.0</ele>
      </trkpt>
      <trkpt lat="37.80479840328113" lon="-122.4769088470915">
        <ele>78.0</ele>
      </trkpt>
      <trkpt lat="37.80483" lon="-122.4769">
        <ele>78.0</ele>
      </trkpt>
      <trkpt lat="37.80489869057715" lon="-122.4769343452886">
        <ele>70.0</ele>
      </trkpt>
      <trkpt lat="37.8049" lon="-122.47693">
        <ele>70.0</ele>
      </trkpt>
      <trkpt lat="37.80496" lon="-122.47675">
        <ele>70.0</ele>
      </trkpt>
      <trkpt lat="37.80495916924723" lon="-122.4767454326108">
        <ele>70.0</ele>
      </trkpt>
      <trkpt lat="37.80505" lon="-122.47672">
        <ele>70.0</ele>
      </trkpt>
      <trkpt lat="37.80508388814616" lon="-122.4766974079025">
        <ele>70.0</ele>
      </trkpt>
      <trkpt lat="37.80508388814899" lon="-122.4766974079025">
        <ele>70.0</ele>
      </trkpt>
      <trkpt lat="37.80509627316584" lon="-122.4766891512228">
        <ele>70.0</ele>
      </trkpt>
      <trkpt lat="37.8051" lon="-122.4767">
        <ele>70.0</ele>
      </trkpt>
      <trkpt lat="37.80506252277894" lon="-122.4765126138947">
        <ele>68.0</ele>
      </trkpt>
    </trkseg>
  </trk>
</gpx>
