<?xml version="1.0" encoding="UTF-8"?>
<gpx xmlns:xsi="http://www.w3.org/2001/XMLSchema-instance" version="1.1" creator="The Outbound Collective, Inc. 1.1.1 -- https://www.theoutbound.com" xsi:schemaLocation="http://www.topografix.com/GPX/1/1 http://www.topografix.com/GPX/1/1/gpx.xsd">
  <metadata>
    <name/>
    <time>2026-02-19T21:57:44+00:00</time>
    <bound minlat="34.04798825414275" minlon="-119.5617683065509" maxlat="34.04922816303309" maxlon="-119.5564"/>
  </metadata>
  <trk>
    <name/>
    <trkseg>
      <trkpt lat="34.04922816303309" lon="-119.5564037561417">
        <ele>7.0</ele>
      </trkpt>
      <trkpt lat="34.04918371577044" lon="-119.5564413070679">
        <ele>7.0</ele>
      </trkpt>
      <trkpt lat="34.04907704224505" lon="-119.5566719770432">
        <ele>8.0</ele>
      </trkpt>
      <trkpt lat="34.04906485128036" lon="-119.5566640846374">
        <ele>8.0</ele>
      </trkpt>
      <trkpt lat="34.04904" lon="-119.55672">
        <ele>8.0</ele>
      </trkpt>
      <trkpt lat="34.04904" lon="-119.55691">
        <ele>8.0</ele>
      </trkpt>
      <trkpt lat="34.04904" lon="-119.55691">
        <ele>8.0</ele>
      </trkpt>
      <trkpt lat="34.04904" lon="-119.55691">
        <ele>8.0</ele>
      </trkpt>
      <trkpt lat="34.04909" lon="-119.55727">
        <ele>9.0</ele>
      </trkpt>
      <trkpt lat="34.04908" lon="-119.55739">
        <ele>9.0</ele>
      </trkpt>
      <trkpt lat="34.04905" lon="-119.55748">
        <ele>9.0</ele>
      </trkpt>
      <trkpt lat="34.04905" lon="-119.55748">
        <ele>9.0</ele>
      </trkpt>
      <trkpt lat="34.04905" lon="-119.55748">
        <ele>9.0</ele>
      </trkpt>
      <trkpt lat="34.04894" lon="-119.55774">
        <ele>10.0</ele>
      </trkpt>
      <trkpt lat="34.04885" lon="-119.55815">
        <ele>10.0</ele>
      </trkpt>
      <trkpt lat="34.048851693777" lon="-119.5581616612446">
        <ele>10.0</ele>
      </trkpt>
      <trkpt lat="34.04879927382821" lon="-119.5581721452344">
        <ele>10.0</ele>
      </trkpt>
      <trkpt lat="34.04879927382821" lon="-119.5581721452344">
        <ele>10.0</ele>
      </trkpt>
      <trkpt lat="34.04876" lon="-119.55818">
        <ele>10.0</ele>
      </trkpt>
      <trkpt lat="34.04859" lon="-119.55814">
        <ele>8.0</ele>
      </trkpt>
      <trkpt lat="34.0485" lon="-119.5582">
        <ele>8.0</ele>
      </trkpt>
      <trkpt lat="34.0485" lon="-119.5582">
        <ele>8.0</ele>
      </trkpt>
      <trkpt lat="34.04842" lon="-119.55833">
        <ele>8.0</ele>
      </trkpt>
      <trkpt lat="34.04834016860156" lon="-119.5585232760173">
        <ele>9.0</ele>
      </trkpt>
      <trkpt lat="34.04834016865341" lon="-119.5585232760173">
        <ele>9.0</ele>
      </trkpt>
      <trkpt lat="34.04823" lon="-119.55879">
        <ele>8.0</ele>
      </trkpt>
      <trkpt lat="34.04823" lon="-119.5594">
        <ele>8.0</ele>
      </trkpt>
      <trkpt lat="34.04823" lon="-119.5594">
        <ele>8.0</ele>
      </trkpt>
      <trkpt lat="34.04823" lon="-119.5594">
        <ele>8.0</ele>
      </trkpt>
      <trkpt lat="34.04817441833586" lon="-119.5597273129557">
        <ele>7.0</ele>
      </trkpt>
      <trkpt lat="34.04817441833586" lon="-119.5597273129557">
        <ele>7.0</ele>
      </trkpt>
      <trkpt lat="34.04814" lon="-119.55993">
        <ele>7.0</ele>
      </trkpt>
      <trkpt lat="34.04811711182774" lon="-119.5599986645168">
        <ele>7.0</ele>
      </trkpt>
      <trkpt lat="34.04811711182774" lon="-119.5599986645168">
        <ele>7.0</ele>
      </trkpt>
      <trkpt lat="34.04805" lon="-119.5602">
        <ele>7.0</ele>
      </trkpt>
      <trkpt lat="34.04798825414275" lon="-119.5609497711237">
        <ele>9.0</ele>
      </trkpt>
      <trkpt lat="34.04799" lon="-119.56095">
        <ele>9.0</ele>
      </trkpt>
      <trkpt lat="34.04812" lon="-119.56116">
        <ele>9.0</ele>
      </trkpt>
      <trkpt lat="34.04824" lon="-119.56131">
        <ele>13.0</ele>
      </trkpt>
      <trkpt lat="34.04846" lon="-119.56163">
        <ele>13.0</ele>
      </trkpt>
      <trkpt lat="34.04852699223561" lon="-119.5617683065509">
        <ele>20.0</ele>
      </trkpt>
      <trkpt lat="34.04852699233163" lon="-119.5617683065509">
        <ele>20.0</ele>
      </trkpt>
      <trkpt lat="34.04846" lon="-119.56163">
        <ele>13.0</ele>
      </trkpt>
      <trkpt lat="34.04824" lon="-119.56131">
        <ele>13.0</ele>
      </trkpt>
      <trkpt lat="34.04812" lon="-119.56116">
        <ele>9.0</ele>
      </trkpt>
      <trkpt lat="34.04799" lon="-119.56095">
        <ele>9.0</ele>
      </trkpt>
      <trkpt lat="34.04798825414275" lon="-119.5609497711237">
        <ele>9.0</ele>
      </trkpt>
      <trkpt lat="34.04805" lon="-119.5602">
        <ele>7.0</ele>
      </trkpt>
      <trkpt lat="34.04811711182774" lon="-119.5599986645168">
        <ele>7.0</ele>
      </trkpt>
      <trkpt lat="34.04811711182774" lon="-119.5599986645168">
        <ele>7.0</ele>
      </trkpt>
      <trkpt lat="34.04814" lon="-119.55993">
        <ele>7.0</ele>
      </trkpt>
      <trkpt lat="34.04817441833586" lon="-119.5597273129557">
        <ele>7.0</ele>
      </trkpt>
      <trkpt lat="34.04817441833586" lon="-119.5597273129557">
        <ele>7.0</ele>
      </trkpt>
      <trkpt lat="34.04823" lon="-119.5594">
        <ele>8.0</ele>
      </trkpt>
      <trkpt lat="34.04823" lon="-119.5594">
        <ele>8.0</ele>
      </trkpt>
      <trkpt lat="34.04823" lon="-119.5594">
        <ele>8.0</ele>
      </trkpt>
      <trkpt lat="34.04823" lon="-119.559166431427">
        <ele>9.0</ele>
      </trkpt>
      <trkpt lat="34.04822999999999" lon="-119.559166431427">
        <ele>9.0</ele>
      </trkpt>
      <trkpt lat="34.04823" lon="-119.55879">
        <ele>8.0</ele>
      </trkpt>
      <trkpt lat="34.04842" lon="-119.55833">
        <ele>8.0</ele>
      </trkpt>
      <trkpt lat="34.0485" lon="-119.5582">
        <ele>8.0</ele>
      </trkpt>
      <trkpt lat="34.0485" lon="-119.5582">
        <ele>8.0</ele>
      </trkpt>
      <trkpt lat="34.04859" lon="-119.55814">
        <ele>8.0</ele>
      </trkpt>
      <trkpt lat="34.04876" lon="-119.55818">
        <ele>10.0</ele>
      </trkpt>
      <trkpt lat="34.04879927382821" lon="-119.5581721452344">
        <ele>10.0</ele>
      </trkpt>
      <trkpt lat="34.04879927382821" lon="-119.5581721452344">
        <ele>10.0</ele>
      </trkpt>
      <trkpt lat="34.048851693777" lon="-119.5581616612446">
        <ele>10.0</ele>
      </trkpt>
      <trkpt lat="34.04885" lon="-119.55815">
        <ele>10.0</ele>
      </trkpt>
      <trkpt lat="34.04892105746913" lon="-119.5578262937517">
        <ele>10.0</ele>
      </trkpt>
      <trkpt lat="34.04892105747708" lon="-119.5578262937517">
        <ele>10.0</ele>
      </trkpt>
      <trkpt lat="34.04894" lon="-119.55774">
        <ele>10.0</ele>
      </trkpt>
      <trkpt lat="34.04905" lon="-119.55748">
        <ele>9.0</ele>
      </trkpt>
      <trkpt lat="34.04905" lon="-119.55748">
        <ele>9.0</ele>
      </trkpt>
      <trkpt lat="34.04905" lon="-119.55748">
        <ele>9.0</ele>
      </trkpt>
      <trkpt lat="34.04908" lon="-119.55739">
        <ele>9.0</ele>
      </trkpt>
      <trkpt lat="34.04909" lon="-119.55727">
        <ele>9.0</ele>
      </trkpt>
      <trkpt lat="34.04904" lon="-119.55691">
        <ele>8.0</ele>
      </trkpt>
      <trkpt lat="34.04904" lon="-119.55691">
        <ele>8.0</ele>
      </trkpt>
      <trkpt lat="34.04904" lon="-119.55691">
        <ele>8.0</ele>
      </trkpt>
      <trkpt lat="34.04904" lon="-119.55672">
        <ele>8.0</ele>
      </trkpt>
      <trkpt lat="34.04912" lon="-119.55654">
        <ele>8.0</ele>
      </trkpt>
      <trkpt lat="34.04922" lon="-119.5564">
        <ele>7.0</ele>
      </trkpt>
    </trkseg>
  </trk>
</gpx>
