<?xml version="1.0" encoding="UTF-8"?>
<gpx xmlns:xsi="http://www.w3.org/2001/XMLSchema-instance" version="1.1" creator="The Outbound Collective, Inc. 1.1.1 -- https://www.theoutbound.com" xsi:schemaLocation="http://www.topografix.com/GPX/1/1 http://www.topografix.com/GPX/1/1/gpx.xsd">
  <metadata>
    <name/>
    <time>2026-02-19T21:57:42+00:00</time>
    <bound minlat="34.01277" minlon="-119.3742" maxlat="34.01694" maxlon="-119.3599939881398"/>
  </metadata>
  <trk>
    <name/>
    <trkseg>
      <trkpt lat="34.01682881950956" lon="-119.3624424934387">
        <ele>17.0</ele>
      </trkpt>
      <trkpt lat="34.0168225854491" lon="-119.3624462481644">
        <ele>17.0</ele>
      </trkpt>
      <trkpt lat="34.01694" lon="-119.36273">
        <ele>27.0</ele>
      </trkpt>
      <trkpt lat="34.01687" lon="-119.36306">
        <ele>30.0</ele>
      </trkpt>
      <trkpt lat="34.01674" lon="-119.3633">
        <ele>36.0</ele>
      </trkpt>
      <trkpt lat="34.01669" lon="-119.36336">
        <ele>36.0</ele>
      </trkpt>
      <trkpt lat="34.01656" lon="-119.36342">
        <ele>36.0</ele>
      </trkpt>
      <trkpt lat="34.01651979253204" lon="-119.36342">
        <ele>37.0</ele>
      </trkpt>
      <trkpt lat="34.01651979256041" lon="-119.36342">
        <ele>37.0</ele>
      </trkpt>
      <trkpt lat="34.0164000000004" lon="-119.36342">
        <ele>37.0</ele>
      </trkpt>
      <trkpt lat="34.0164000000004" lon="-119.36342">
        <ele>37.0</ele>
      </trkpt>
      <trkpt lat="34.01624" lon="-119.36342">
        <ele>42.0</ele>
      </trkpt>
      <trkpt lat="34.01624" lon="-119.36342">
        <ele>42.0</ele>
      </trkpt>
      <trkpt lat="34.01549041166336" lon="-119.3634382826424">
        <ele>48.0</ele>
      </trkpt>
      <trkpt lat="34.01549041166336" lon="-119.3634382826424">
        <ele>48.0</ele>
      </trkpt>
      <trkpt lat="34.01542" lon="-119.36344">
        <ele>48.0</ele>
      </trkpt>
      <trkpt lat="34.01542" lon="-119.36344">
        <ele>48.0</ele>
      </trkpt>
      <trkpt lat="34.01538" lon="-119.36324">
        <ele>52.0</ele>
      </trkpt>
      <trkpt lat="34.01539" lon="-119.36307">
        <ele>52.0</ele>
      </trkpt>
      <trkpt lat="34.01546" lon="-119.36251">
        <ele>44.0</ele>
      </trkpt>
      <trkpt lat="34.01556" lon="-119.36195">
        <ele>48.0</ele>
      </trkpt>
      <trkpt lat="34.01557603515293" lon="-119.3617134814943">
        <ele>50.0</ele>
      </trkpt>
      <trkpt lat="34.01557603515519" lon="-119.3617134814943">
        <ele>50.0</ele>
      </trkpt>
      <trkpt lat="34.0156" lon="-119.36136">
        <ele>51.0</ele>
      </trkpt>
      <trkpt lat="34.01551" lon="-119.36097">
        <ele>56.0</ele>
      </trkpt>
      <trkpt lat="34.01551" lon="-119.36081">
        <ele>56.0</ele>
      </trkpt>
      <trkpt lat="34.01573" lon="-119.36028">
        <ele>52.0</ele>
      </trkpt>
      <trkpt lat="34.01581876230143" lon="-119.3599939881398">
        <ele>38.0</ele>
      </trkpt>
      <trkpt lat="34.01581876230209" lon="-119.3599939881398">
        <ele>38.0</ele>
      </trkpt>
      <trkpt lat="34.01573" lon="-119.36028">
        <ele>52.0</ele>
      </trkpt>
      <trkpt lat="34.01551" lon="-119.36081">
        <ele>56.0</ele>
      </trkpt>
      <trkpt lat="34.01551" lon="-119.36097">
        <ele>56.0</ele>
      </trkpt>
      <trkpt lat="34.0156" lon="-119.36136">
        <ele>51.0</ele>
      </trkpt>
      <trkpt lat="34.01556" lon="-119.36195">
        <ele>48.0</ele>
      </trkpt>
      <trkpt lat="34.01546" lon="-119.36251">
        <ele>44.0</ele>
      </trkpt>
      <trkpt lat="34.01539" lon="-119.36307">
        <ele>52.0</ele>
      </trkpt>
      <trkpt lat="34.01538" lon="-119.36324">
        <ele>52.0</ele>
      </trkpt>
      <trkpt lat="34.01542" lon="-119.36344">
        <ele>48.0</ele>
      </trkpt>
      <trkpt lat="34.01542" lon="-119.36344">
        <ele>48.0</ele>
      </trkpt>
      <trkpt lat="34.01525" lon="-119.36363">
        <ele>51.0</ele>
      </trkpt>
      <trkpt lat="34.01522279338234" lon="-119.3636810124081">
        <ele>51.0</ele>
      </trkpt>
      <trkpt lat="34.01522279340362" lon="-119.3636810124081">
        <ele>51.0</ele>
      </trkpt>
      <trkpt lat="34.01509" lon="-119.36393">
        <ele>56.0</ele>
      </trkpt>
      <trkpt lat="34.01509" lon="-119.36393">
        <ele>56.0</ele>
      </trkpt>
      <trkpt lat="34.01501" lon="-119.36414">
        <ele>55.0</ele>
      </trkpt>
      <trkpt lat="34.01495" lon="-119.36449">
        <ele>54.0</ele>
      </trkpt>
      <trkpt lat="34.01495" lon="-119.36449">
        <ele>54.0</ele>
      </trkpt>
      <trkpt lat="34.01495" lon="-119.36449">
        <ele>54.0</ele>
      </trkpt>
      <trkpt lat="34.01463" lon="-119.36523">
        <ele>52.0</ele>
      </trkpt>
      <trkpt lat="34.01461412889598" lon="-119.36524763456">
        <ele>52.0</ele>
      </trkpt>
      <trkpt lat="34.01461412890291" lon="-119.36524763456">
        <ele>52.0</ele>
      </trkpt>
      <trkpt lat="34.01454" lon="-119.36533">
        <ele>50.0</ele>
      </trkpt>
      <trkpt lat="34.01445" lon="-119.36536">
        <ele>50.0</ele>
      </trkpt>
      <trkpt lat="34.01433" lon="-119.36537">
        <ele>50.0</ele>
      </trkpt>
      <trkpt lat="34.01422" lon="-119.36543">
        <ele>50.0</ele>
      </trkpt>
      <trkpt lat="34.01411" lon="-119.36531">
        <ele>38.0</ele>
      </trkpt>
      <trkpt lat="34.01384" lon="-119.36618">
        <ele>50.0</ele>
      </trkpt>
      <trkpt lat="34.01384" lon="-119.36618">
        <ele>50.0</ele>
      </trkpt>
      <trkpt lat="34.01384" lon="-119.36618">
        <ele>50.0</ele>
      </trkpt>
      <trkpt lat="34.0136983278083" lon="-119.3662800039">
        <ele>37.0</ele>
      </trkpt>
      <trkpt lat="34.0136983278083" lon="-119.3662800039">
        <ele>37.0</ele>
      </trkpt>
      <trkpt lat="34.01367" lon="-119.3663">
        <ele>37.0</ele>
      </trkpt>
      <trkpt lat="34.01369" lon="-119.36676">
        <ele>46.0</ele>
      </trkpt>
      <trkpt lat="34.01431" lon="-119.36686">
        <ele>55.0</ele>
      </trkpt>
      <trkpt lat="34.01439" lon="-119.36695">
        <ele>55.0</ele>
      </trkpt>
      <trkpt lat="34.01439" lon="-119.36695">
        <ele>55.0</ele>
      </trkpt>
      <trkpt lat="34.01439" lon="-119.36695">
        <ele>55.0</ele>
      </trkpt>
      <trkpt lat="34.01443" lon="-119.3678">
        <ele>57.0</ele>
      </trkpt>
      <trkpt lat="34.01443" lon="-119.3678">
        <ele>57.0</ele>
      </trkpt>
      <trkpt lat="34.01459" lon="-119.36791">
        <ele>58.0</ele>
      </trkpt>
      <trkpt lat="34.01459" lon="-119.36791">
        <ele>58.0</ele>
      </trkpt>
      <trkpt lat="34.01459" lon="-119.36791">
        <ele>58.0</ele>
      </trkpt>
      <trkpt lat="34.01443" lon="-119.36827">
        <ele>65.0</ele>
      </trkpt>
      <trkpt lat="34.01422" lon="-119.36852">
        <ele>65.0</ele>
      </trkpt>
      <trkpt lat="34.01398" lon="-119.36917">
        <ele>67.0</ele>
      </trkpt>
      <trkpt lat="34.0138" lon="-119.36957">
        <ele>67.0</ele>
      </trkpt>
      <trkpt lat="34.01367" lon="-119.37013">
        <ele>68.0</ele>
      </trkpt>
      <trkpt lat="34.01355" lon="-119.37041">
        <ele>70.0</ele>
      </trkpt>
      <trkpt lat="34.01345" lon="-119.37057">
        <ele>65.0</ele>
      </trkpt>
      <trkpt lat="34.01345" lon="-119.37057">
        <ele>65.0</ele>
      </trkpt>
      <trkpt lat="34.01325" lon="-119.37079">
        <ele>65.0</ele>
      </trkpt>
      <trkpt lat="34.01310456838027" lon="-119.3710466440348">
        <ele>58.0</ele>
      </trkpt>
      <trkpt lat="34.01310456840133" lon="-119.3710466440348">
        <ele>58.0</ele>
      </trkpt>
      <trkpt lat="34.01308" lon="-119.37109">
        <ele>58.0</ele>
      </trkpt>
      <trkpt lat="34.01296" lon="-119.37145">
        <ele>63.0</ele>
      </trkpt>
      <trkpt lat="34.01287" lon="-119.37185">
        <ele>62.0</ele>
      </trkpt>
      <trkpt lat="34.01282" lon="-119.37231">
        <ele>62.0</ele>
      </trkpt>
      <trkpt lat="34.01283" lon="-119.37272">
        <ele>67.0</ele>
      </trkpt>
      <trkpt lat="34.01277" lon="-119.37323">
        <ele>64.0</ele>
      </trkpt>
      <trkpt lat="34.01277" lon="-119.37341">
        <ele>64.0</ele>
      </trkpt>
      <trkpt lat="34.01286" lon="-119.37372">
        <ele>59.0</ele>
      </trkpt>
      <trkpt lat="34.01287445312624" lon="-119.3737943303635">
        <ele>55.0</ele>
      </trkpt>
      <trkpt lat="34.01287445313097" lon="-119.3737943303635">
        <ele>55.0</ele>
      </trkpt>
      <trkpt lat="34.01293" lon="-119.37408">
        <ele>58.0</ele>
      </trkpt>
      <trkpt lat="34.01293" lon="-119.37418">
        <ele>58.0</ele>
      </trkpt>
      <trkpt lat="34.01293" lon="-119.37418">
        <ele>58.0</ele>
      </trkpt>
      <trkpt lat="34.0129383777974" lon="-119.3741807285041">
        <ele>58.0</ele>
      </trkpt>
      <trkpt lat="34.01293837780833" lon="-119.3741807285041">
        <ele>58.0</ele>
      </trkpt>
      <trkpt lat="34.01316" lon="-119.3742">
        <ele>58.0</ele>
      </trkpt>
      <trkpt lat="34.01333" lon="-119.37416">
        <ele>60.0</ele>
      </trkpt>
      <trkpt lat="34.01361" lon="-119.374">
        <ele>59.0</ele>
      </trkpt>
      <trkpt lat="34.01378" lon="-119.37383">
        <ele>52.0</ele>
      </trkpt>
      <trkpt lat="34.01394" lon="-119.37372">
        <ele>55.0</ele>
      </trkpt>
      <trkpt lat="34.01397" lon="-119.37366">
        <ele>55.0</ele>
      </trkpt>
      <trkpt lat="34.01401" lon="-119.37345">
        <ele>54.0</ele>
      </trkpt>
      <trkpt lat="34.01396" lon="-119.37334">
        <ele>54.0</ele>
      </trkpt>
      <trkpt lat="34.01397" lon="-119.37323">
        <ele>54.0</ele>
      </trkpt>
      <trkpt lat="34.01396" lon="-119.37312">
        <ele>54.0</ele>
      </trkpt>
      <trkpt lat="34.01384" lon="-119.37298">
        <ele>54.0</ele>
      </trkpt>
      <trkpt lat="34.01381" lon="-119.37277">
        <ele>54.0</ele>
      </trkpt>
      <trkpt lat="34.01373" lon="-119.37271">
        <ele>57.0</ele>
      </trkpt>
      <trkpt lat="34.0136" lon="-119.37251">
        <ele>57.0</ele>
      </trkpt>
      <trkpt lat="34.01361" lon="-119.37229">
        <ele>58.0</ele>
      </trkpt>
      <trkpt lat="34.01354" lon="-119.37214">
        <ele>58.0</ele>
      </trkpt>
      <trkpt lat="34.01354070157299" lon="-119.3721301779782">
        <ele>58.0</ele>
      </trkpt>
      <trkpt lat="34.01354070157306" lon="-119.3721301779782">
        <ele>58.0</ele>
      </trkpt>
      <trkpt lat="34.01356" lon="-119.37186">
        <ele>60.0</ele>
      </trkpt>
      <trkpt lat="34.0136" lon="-119.37179">
        <ele>60.0</ele>
      </trkpt>
      <trkpt lat="34.01371" lon="-119.3717">
        <ele>60.0</ele>
      </trkpt>
      <trkpt lat="34.01377" lon="-119.37159">
        <ele>57.0</ele>
      </trkpt>
      <trkpt lat="34.01377" lon="-119.37144">
        <ele>57.0</ele>
      </trkpt>
      <trkpt lat="34.01381" lon="-119.3713">
        <ele>57.0</ele>
      </trkpt>
      <trkpt lat="34.01379" lon="-119.37114">
        <ele>57.0</ele>
      </trkpt>
      <trkpt lat="34.01382" lon="-119.37095">
        <ele>58.0</ele>
      </trkpt>
      <trkpt lat="34.01357" lon="-119.37078">
        <ele>65.0</ele>
      </trkpt>
      <trkpt lat="34.01351138705938" lon="-119.3707213870594">
        <ele>65.0</ele>
      </trkpt>
      <trkpt lat="34.01351138706331" lon="-119.3707213870594">
        <ele>65.0</ele>
      </trkpt>
      <trkpt lat="34.0135" lon="-119.37071">
        <ele>65.0</ele>
      </trkpt>
      <trkpt lat="34.01345" lon="-119.37057">
        <ele>65.0</ele>
      </trkpt>
      <trkpt lat="34.01345" lon="-119.37057">
        <ele>65.0</ele>
      </trkpt>
      <trkpt lat="34.01345" lon="-119.37057">
        <ele>65.0</ele>
      </trkpt>
      <trkpt lat="34.01355" lon="-119.37041">
        <ele>70.0</ele>
      </trkpt>
      <trkpt lat="34.01367" lon="-119.37013">
        <ele>68.0</ele>
      </trkpt>
      <trkpt lat="34.0138" lon="-119.36957">
        <ele>67.0</ele>
      </trkpt>
      <trkpt lat="34.01398" lon="-119.36917">
        <ele>67.0</ele>
      </trkpt>
      <trkpt lat="34.0140392742768" lon="-119.3690094655003">
        <ele>65.0</ele>
      </trkpt>
      <trkpt lat="34.01403927433988" lon="-119.3690094655003">
        <ele>65.0</ele>
      </trkpt>
      <trkpt lat="34.01422" lon="-119.36852">
        <ele>65.0</ele>
      </trkpt>
      <trkpt lat="34.01443" lon="-119.36827">
        <ele>65.0</ele>
      </trkpt>
      <trkpt lat="34.01459" lon="-119.36791">
        <ele>58.0</ele>
      </trkpt>
      <trkpt lat="34.01459" lon="-119.36791">
        <ele>58.0</ele>
      </trkpt>
      <trkpt lat="34.01468872112871" lon="-119.3679327817989">
        <ele>62.0</ele>
      </trkpt>
      <trkpt lat="34.01468872114687" lon="-119.3679327817989">
        <ele>62.0</ele>
      </trkpt>
      <trkpt lat="34.01472" lon="-119.36794">
        <ele>62.0</ele>
      </trkpt>
      <trkpt lat="34.0149" lon="-119.36794">
        <ele>60.0</ele>
      </trkpt>
      <trkpt lat="34.01499" lon="-119.36791">
        <ele>57.0</ele>
      </trkpt>
      <trkpt lat="34.01508" lon="-119.36776">
        <ele>57.0</ele>
      </trkpt>
      <trkpt lat="34.01516" lon="-119.3677">
        <ele>50.0</ele>
      </trkpt>
      <trkpt lat="34.0152" lon="-119.36771">
        <ele>50.0</ele>
      </trkpt>
      <trkpt lat="34.01523" lon="-119.36784">
        <ele>50.0</ele>
      </trkpt>
      <trkpt lat="34.01533" lon="-119.3679">
        <ele>50.0</ele>
      </trkpt>
      <trkpt lat="34.01538" lon="-119.36758">
        <ele>49.0</ele>
      </trkpt>
      <trkpt lat="34.0154" lon="-119.36757">
        <ele>49.0</ele>
      </trkpt>
      <trkpt lat="34.0155" lon="-119.36773">
        <ele>44.0</ele>
      </trkpt>
      <trkpt lat="34.01555" lon="-119.36771">
        <ele>44.0</ele>
      </trkpt>
      <trkpt lat="34.01555" lon="-119.36771">
        <ele>44.0</ele>
      </trkpt>
      <trkpt lat="34.01555" lon="-119.36771">
        <ele>44.0</ele>
      </trkpt>
      <trkpt lat="34.0156" lon="-119.36784">
        <ele>44.0</ele>
      </trkpt>
      <trkpt lat="34.01554" lon="-119.36787">
        <ele>44.0</ele>
      </trkpt>
      <trkpt lat="34.01556155053584" lon="-119.3679400392415">
        <ele>41.0</ele>
      </trkpt>
      <trkpt lat="34.01556155053819" lon="-119.3679400392415">
        <ele>41.0</ele>
      </trkpt>
      <trkpt lat="34.01554" lon="-119.36787">
        <ele>44.0</ele>
      </trkpt>
      <trkpt lat="34.0156" lon="-119.36784">
        <ele>44.0</ele>
      </trkpt>
      <trkpt lat="34.01555" lon="-119.36771">
        <ele>44.0</ele>
      </trkpt>
      <trkpt lat="34.01555" lon="-119.36771">
        <ele>44.0</ele>
      </trkpt>
      <trkpt lat="34.01551" lon="-119.36744">
        <ele>43.0</ele>
      </trkpt>
      <trkpt lat="34.01541" lon="-119.36728">
        <ele>49.0</ele>
      </trkpt>
      <trkpt lat="34.01528" lon="-119.36695">
        <ele>50.0</ele>
      </trkpt>
      <trkpt lat="34.01522847660392" lon="-119.3669113574529">
        <ele>50.0</ele>
      </trkpt>
      <trkpt lat="34.01522847664895" lon="-119.3669113574529">
        <ele>50.0</ele>
      </trkpt>
      <trkpt lat="34.01508" lon="-119.3668">
        <ele>46.0</ele>
      </trkpt>
      <trkpt lat="34.01507" lon="-119.36667">
        <ele>46.0</ele>
      </trkpt>
      <trkpt lat="34.01521" lon="-119.36652">
        <ele>47.0</ele>
      </trkpt>
      <trkpt lat="34.01537" lon="-119.36613">
        <ele>44.0</ele>
      </trkpt>
      <trkpt lat="34.01542" lon="-119.36609">
        <ele>44.0</ele>
      </trkpt>
      <trkpt lat="34.01548" lon="-119.36608">
        <ele>44.0</ele>
      </trkpt>
      <trkpt lat="34.01552" lon="-119.36611">
        <ele>44.0</ele>
      </trkpt>
      <trkpt lat="34.0157" lon="-119.36605">
        <ele>39.0</ele>
      </trkpt>
      <trkpt lat="34.01575" lon="-119.36591">
        <ele>38.0</ele>
      </trkpt>
      <trkpt lat="34.01584" lon="-119.36582">
        <ele>38.0</ele>
      </trkpt>
      <trkpt lat="34.01585" lon="-119.36575">
        <ele>38.0</ele>
      </trkpt>
      <trkpt lat="34.01597" lon="-119.36561">
        <ele>40.0</ele>
      </trkpt>
      <trkpt lat="34.016" lon="-119.36541">
        <ele>38.0</ele>
      </trkpt>
      <trkpt lat="34.01597" lon="-119.36536">
        <ele>42.0</ele>
      </trkpt>
      <trkpt lat="34.01595" lon="-119.36513">
        <ele>42.0</ele>
      </trkpt>
      <trkpt lat="34.01586" lon="-119.36498">
        <ele>42.0</ele>
      </trkpt>
      <trkpt lat="34.01586" lon="-119.36498">
        <ele>42.0</ele>
      </trkpt>
      <trkpt lat="34.01584" lon="-119.36481">
        <ele>41.0</ele>
      </trkpt>
      <trkpt lat="34.01587" lon="-119.36466">
        <ele>41.0</ele>
      </trkpt>
      <trkpt lat="34.01587236780468" lon="-119.3645534487895">
        <ele>41.0</ele>
      </trkpt>
      <trkpt lat="34.0158723678048" lon="-119.3645534487895">
        <ele>41.0</ele>
      </trkpt>
      <trkpt lat="34.01588" lon="-119.36421">
        <ele>41.0</ele>
      </trkpt>
      <trkpt lat="34.01588" lon="-119.36421">
        <ele>41.0</ele>
      </trkpt>
      <trkpt lat="34.01596" lon="-119.36407">
        <ele>41.0</ele>
      </trkpt>
      <trkpt lat="34.01624" lon="-119.36382">
        <ele>39.0</ele>
      </trkpt>
      <trkpt lat="34.01624" lon="-119.36382">
        <ele>39.0</ele>
      </trkpt>
      <trkpt lat="34.01636" lon="-119.36366">
        <ele>38.0</ele>
      </trkpt>
      <trkpt lat="34.01636831119871" lon="-119.363608055008">
        <ele>38.0</ele>
      </trkpt>
      <trkpt lat="34.01636831120027" lon="-119.363608055008">
        <ele>38.0</ele>
      </trkpt>
      <trkpt lat="34.0164" lon="-119.36341">
        <ele>37.0</ele>
      </trkpt>
      <trkpt lat="34.0164000000004" lon="-119.36342">
        <ele>37.0</ele>
      </trkpt>
      <trkpt lat="34.01656" lon="-119.36342">
        <ele>36.0</ele>
      </trkpt>
      <trkpt lat="34.01669" lon="-119.36336">
        <ele>36.0</ele>
      </trkpt>
      <trkpt lat="34.01674" lon="-119.3633">
        <ele>36.0</ele>
      </trkpt>
      <trkpt lat="34.01687" lon="-119.36306">
        <ele>30.0</ele>
      </trkpt>
      <trkpt lat="34.01694" lon="-119.36273">
        <ele>27.0</ele>
      </trkpt>
      <trkpt lat="34.01682524943288" lon="-119.3624526861295">
        <ele>17.0</ele>
      </trkpt>
    </trkseg>
  </trk>
</gpx>
