<?xml version="1.0" encoding="UTF-8"?>
<gpx xmlns:xsi="http://www.w3.org/2001/XMLSchema-instance" version="1.1" creator="The Outbound Collective, Inc. 1.1.1 -- https://www.theoutbound.com" xsi:schemaLocation="http://www.topografix.com/GPX/1/1 http://www.topografix.com/GPX/1/1/gpx.xsd">
  <metadata>
    <name/>
    <time>2026-02-19T21:57:05+00:00</time>
    <bound minlat="34.455920852" minlon="-119.659132361" maxlat="34.469830951" maxlon="-119.653153718"/>
  </metadata>
  <trk>
    <name/>
    <trkseg>
      <trkpt lat="34.455920852" lon="-119.653153718">
        <ele>239.0</ele>
      </trkpt>
      <trkpt lat="34.455980566" lon="-119.653255641">
        <ele>240.0</ele>
      </trkpt>
      <trkpt lat="34.456029222" lon="-119.653258324">
        <ele>240.0</ele>
      </trkpt>
      <trkpt lat="34.456520272" lon="-119.653546287">
        <ele>245.0</ele>
      </trkpt>
      <trkpt lat="34.4568" lon="-119.65356">
        <ele>248.0</ele>
      </trkpt>
      <trkpt lat="34.45706" lon="-119.65375">
        <ele>250.0</ele>
      </trkpt>
      <trkpt lat="34.45716" lon="-119.65372">
        <ele>254.0</ele>
      </trkpt>
      <trkpt lat="34.45721" lon="-119.65362">
        <ele>254.0</ele>
      </trkpt>
      <trkpt lat="34.45756" lon="-119.65367">
        <ele>258.0</ele>
      </trkpt>
      <trkpt lat="34.45797" lon="-119.65399">
        <ele>265.0</ele>
      </trkpt>
      <trkpt lat="34.45883" lon="-119.65421">
        <ele>279.0</ele>
      </trkpt>
      <trkpt lat="34.45894" lon="-119.6543">
        <ele>279.0</ele>
      </trkpt>
      <trkpt lat="34.45894" lon="-119.65463">
        <ele>284.0</ele>
      </trkpt>
      <trkpt lat="34.45912" lon="-119.65471">
        <ele>286.0</ele>
      </trkpt>
      <trkpt lat="34.45928" lon="-119.65472">
        <ele>286.0</ele>
      </trkpt>
      <trkpt lat="34.45954" lon="-119.65487">
        <ele>290.0</ele>
      </trkpt>
      <trkpt lat="34.45965" lon="-119.65488">
        <ele>287.0</ele>
      </trkpt>
      <trkpt lat="34.46024" lon="-119.65525">
        <ele>295.0</ele>
      </trkpt>
      <trkpt lat="34.46068" lon="-119.65546">
        <ele>302.0</ele>
      </trkpt>
      <trkpt lat="34.46094" lon="-119.65569">
        <ele>304.0</ele>
      </trkpt>
      <trkpt lat="34.46104" lon="-119.65574">
        <ele>313.0</ele>
      </trkpt>
      <trkpt lat="34.46126" lon="-119.65558">
        <ele>316.0</ele>
      </trkpt>
      <trkpt lat="34.46145" lon="-119.65561">
        <ele>316.0</ele>
      </trkpt>
      <trkpt lat="34.46175" lon="-119.65546">
        <ele>319.0</ele>
      </trkpt>
      <trkpt lat="34.46186" lon="-119.65545">
        <ele>316.0</ele>
      </trkpt>
      <trkpt lat="34.46197" lon="-119.65549">
        <ele>316.0</ele>
      </trkpt>
      <trkpt lat="34.46218" lon="-119.65581">
        <ele>316.0</ele>
      </trkpt>
      <trkpt lat="34.46233" lon="-119.65628">
        <ele>337.0</ele>
      </trkpt>
      <trkpt lat="34.46247" lon="-119.65637">
        <ele>331.0</ele>
      </trkpt>
      <trkpt lat="34.46269" lon="-119.65643">
        <ele>331.0</ele>
      </trkpt>
      <trkpt lat="34.46307" lon="-119.65648">
        <ele>329.0</ele>
      </trkpt>
      <trkpt lat="34.46327" lon="-119.65667">
        <ele>331.0</ele>
      </trkpt>
      <trkpt lat="34.46338" lon="-119.65671">
        <ele>331.0</ele>
      </trkpt>
      <trkpt lat="34.46344" lon="-119.65677">
        <ele>331.0</ele>
      </trkpt>
      <trkpt lat="34.46352" lon="-119.65712">
        <ele>339.0</ele>
      </trkpt>
      <trkpt lat="34.46382" lon="-119.6577">
        <ele>346.0</ele>
      </trkpt>
      <trkpt lat="34.46408" lon="-119.658">
        <ele>355.0</ele>
      </trkpt>
      <trkpt lat="34.464678514" lon="-119.658418894">
        <ele>364.0</ele>
      </trkpt>
      <trkpt lat="34.465014648" lon="-119.658397436">
        <ele>365.0</ele>
      </trkpt>
      <trkpt lat="34.465054453" lon="-119.658306241">
        <ele>365.0</ele>
      </trkpt>
      <trkpt lat="34.46548" lon="-119.65831">
        <ele>377.0</ele>
      </trkpt>
      <trkpt lat="34.465687293" lon="-119.658417792">
        <ele>377.0</ele>
      </trkpt>
      <trkpt lat="34.465686913" lon="-119.658526182">
        <ele>375.0</ele>
      </trkpt>
      <trkpt lat="34.46604958" lon="-119.658601284">
        <ele>385.0</ele>
      </trkpt>
      <trkpt lat="34.466478586" lon="-119.65854764">
        <ele>391.0</ele>
      </trkpt>
      <trkpt lat="34.466752795" lon="-119.658772945">
        <ele>402.0</ele>
      </trkpt>
      <trkpt lat="34.466978353" lon="-119.659100175">
        <ele>413.0</ele>
      </trkpt>
      <trkpt lat="34.467217179" lon="-119.659132361">
        <ele>418.0</ele>
      </trkpt>
      <trkpt lat="34.467380819" lon="-119.65909481">
        <ele>423.0</ele>
      </trkpt>
      <trkpt lat="34.467677138" lon="-119.658928514">
        <ele>432.0</ele>
      </trkpt>
      <trkpt lat="34.467964612" lon="-119.659035802">
        <ele>435.0</ele>
      </trkpt>
      <trkpt lat="34.468168053" lon="-119.659041166">
        <ele>435.0</ele>
      </trkpt>
      <trkpt lat="34.468340536" lon="-119.658789039">
        <ele>443.0</ele>
      </trkpt>
      <trkpt lat="34.468504174" lon="-119.658687115">
        <ele>452.0</ele>
      </trkpt>
      <trkpt lat="34.468977393" lon="-119.658660293">
        <ele>456.0</ele>
      </trkpt>
      <trkpt lat="34.469729232" lon="-119.659019709">
        <ele>509.0</ele>
      </trkpt>
      <trkpt lat="34.469830951" lon="-119.658917785">
        <ele>509.0</ele>
      </trkpt>
    </trkseg>
  </trk>
</gpx>
