<?xml version="1.0" encoding="UTF-8"?>
<gpx xmlns:xsi="http://www.w3.org/2001/XMLSchema-instance" version="1.1" creator="The Outbound Collective, Inc. 1.1.1 -- https://www.theoutbound.com" xsi:schemaLocation="http://www.topografix.com/GPX/1/1 http://www.topografix.com/GPX/1/1/gpx.xsd">
  <metadata>
    <name/>
    <time>2026-02-19T21:59:34+00:00</time>
    <bound minlat="34.12379" minlon="-118.30114" maxlat="34.13592" maxlon="-118.28026"/>
  </metadata>
  <trk>
    <name/>
    <trkseg>
      <trkpt lat="34.13102493246885" lon="-118.2840442657471">
        <ele>155.0</ele>
      </trkpt>
      <trkpt lat="34.13097538360434" lon="-118.2839809901741">
        <ele>153.0</ele>
      </trkpt>
      <trkpt lat="34.13095" lon="-118.28401">
        <ele>152.0</ele>
      </trkpt>
      <trkpt lat="34.13094" lon="-118.28425">
        <ele>153.0</ele>
      </trkpt>
      <trkpt lat="34.13096" lon="-118.28446">
        <ele>158.0</ele>
      </trkpt>
      <trkpt lat="34.13096" lon="-118.28446">
        <ele>158.0</ele>
      </trkpt>
      <trkpt lat="34.13096" lon="-118.28446">
        <ele>158.0</ele>
      </trkpt>
      <trkpt lat="34.13109" lon="-118.28476">
        <ele>163.0</ele>
      </trkpt>
      <trkpt lat="34.13109" lon="-118.28476">
        <ele>163.0</ele>
      </trkpt>
      <trkpt lat="34.13109" lon="-118.28476">
        <ele>163.0</ele>
      </trkpt>
      <trkpt lat="34.13105" lon="-118.28494">
        <ele>167.0</ele>
      </trkpt>
      <trkpt lat="34.13096" lon="-118.28514">
        <ele>169.0</ele>
      </trkpt>
      <trkpt lat="34.13088" lon="-118.2852">
        <ele>169.0</ele>
      </trkpt>
      <trkpt lat="34.13076" lon="-118.28523">
        <ele>169.0</ele>
      </trkpt>
      <trkpt lat="34.13076" lon="-118.28523">
        <ele>169.0</ele>
      </trkpt>
      <trkpt lat="34.13053" lon="-118.28503">
        <ele>166.0</ele>
      </trkpt>
      <trkpt lat="34.13032" lon="-118.28495">
        <ele>171.0</ele>
      </trkpt>
      <trkpt lat="34.13022" lon="-118.28496">
        <ele>171.0</ele>
      </trkpt>
      <trkpt lat="34.13001" lon="-118.28505">
        <ele>176.0</ele>
      </trkpt>
      <trkpt lat="34.12989" lon="-118.28514">
        <ele>180.0</ele>
      </trkpt>
      <trkpt lat="34.12972" lon="-118.28537">
        <ele>181.0</ele>
      </trkpt>
      <trkpt lat="34.12972" lon="-118.28537">
        <ele>181.0</ele>
      </trkpt>
      <trkpt lat="34.12972" lon="-118.28537">
        <ele>181.0</ele>
      </trkpt>
      <trkpt lat="34.12965" lon="-118.28552">
        <ele>185.0</ele>
      </trkpt>
      <trkpt lat="34.12953" lon="-118.28565">
        <ele>186.0</ele>
      </trkpt>
      <trkpt lat="34.12932" lon="-118.28571">
        <ele>190.0</ele>
      </trkpt>
      <trkpt lat="34.12911" lon="-118.28582">
        <ele>193.0</ele>
      </trkpt>
      <trkpt lat="34.12903954392747" lon="-118.2859609121451">
        <ele>193.0</ele>
      </trkpt>
      <trkpt lat="34.12903954393562" lon="-118.2859609121451">
        <ele>193.0</ele>
      </trkpt>
      <trkpt lat="34.12902" lon="-118.286">
        <ele>196.0</ele>
      </trkpt>
      <trkpt lat="34.12896" lon="-118.28629">
        <ele>199.0</ele>
      </trkpt>
      <trkpt lat="34.12885" lon="-118.28652">
        <ele>199.0</ele>
      </trkpt>
      <trkpt lat="34.12877" lon="-118.28689">
        <ele>209.0</ele>
      </trkpt>
      <trkpt lat="34.12862" lon="-118.28724">
        <ele>215.0</ele>
      </trkpt>
      <trkpt lat="34.12861" lon="-118.28735">
        <ele>215.0</ele>
      </trkpt>
      <trkpt lat="34.12868" lon="-118.28759">
        <ele>219.0</ele>
      </trkpt>
      <trkpt lat="34.12864" lon="-118.28765">
        <ele>227.0</ele>
      </trkpt>
      <trkpt lat="34.12836" lon="-118.28758">
        <ele>227.0</ele>
      </trkpt>
      <trkpt lat="34.12828" lon="-118.28752">
        <ele>227.0</ele>
      </trkpt>
      <trkpt lat="34.12828" lon="-118.28729">
        <ele>225.0</ele>
      </trkpt>
      <trkpt lat="34.12832" lon="-118.28699">
        <ele>225.0</ele>
      </trkpt>
      <trkpt lat="34.12824" lon="-118.28675">
        <ele>220.0</ele>
      </trkpt>
      <trkpt lat="34.12821" lon="-118.28648">
        <ele>215.0</ele>
      </trkpt>
      <trkpt lat="34.12819" lon="-118.28644">
        <ele>229.0</ele>
      </trkpt>
      <trkpt lat="34.12812" lon="-118.28639">
        <ele>229.0</ele>
      </trkpt>
      <trkpt lat="34.12796" lon="-118.28636">
        <ele>229.0</ele>
      </trkpt>
      <trkpt lat="34.1279599988399" lon="-118.2863600014231">
        <ele>229.0</ele>
      </trkpt>
      <trkpt lat="34.1279599988399" lon="-118.2863600014231">
        <ele>229.0</ele>
      </trkpt>
      <trkpt lat="34.12771" lon="-118.28637">
        <ele>239.0</ele>
      </trkpt>
      <trkpt lat="34.12762" lon="-118.28679">
        <ele>242.0</ele>
      </trkpt>
      <trkpt lat="34.12754" lon="-118.28693">
        <ele>246.0</ele>
      </trkpt>
      <trkpt lat="34.12746" lon="-118.28701">
        <ele>246.0</ele>
      </trkpt>
      <trkpt lat="34.12718" lon="-118.28718">
        <ele>257.0</ele>
      </trkpt>
      <trkpt lat="34.12713" lon="-118.28717">
        <ele>257.0</ele>
      </trkpt>
      <trkpt lat="34.12706" lon="-118.28706">
        <ele>258.0</ele>
      </trkpt>
      <trkpt lat="34.12706" lon="-118.28697">
        <ele>258.0</ele>
      </trkpt>
      <trkpt lat="34.12714" lon="-118.28676">
        <ele>245.0</ele>
      </trkpt>
      <trkpt lat="34.12714" lon="-118.28664">
        <ele>245.0</ele>
      </trkpt>
      <trkpt lat="34.12706" lon="-118.28642">
        <ele>252.0</ele>
      </trkpt>
      <trkpt lat="34.127" lon="-118.28617">
        <ele>248.0</ele>
      </trkpt>
      <trkpt lat="34.12695" lon="-118.2861">
        <ele>248.0</ele>
      </trkpt>
      <trkpt lat="34.12679" lon="-118.28592">
        <ele>252.0</ele>
      </trkpt>
      <trkpt lat="34.12667204397406" lon="-118.2858492263844">
        <ele>252.0</ele>
      </trkpt>
      <trkpt lat="34.12667204399642" lon="-118.2858492263844">
        <ele>252.0</ele>
      </trkpt>
      <trkpt lat="34.12664" lon="-118.28583">
        <ele>252.0</ele>
      </trkpt>
      <trkpt lat="34.12645" lon="-118.28577">
        <ele>262.0</ele>
      </trkpt>
      <trkpt lat="34.12618" lon="-118.28576">
        <ele>266.0</ele>
      </trkpt>
      <trkpt lat="34.12614" lon="-118.28573">
        <ele>266.0</ele>
      </trkpt>
      <trkpt lat="34.12612" lon="-118.28563">
        <ele>263.0</ele>
      </trkpt>
      <trkpt lat="34.12617" lon="-118.28555">
        <ele>263.0</ele>
      </trkpt>
      <trkpt lat="34.12617" lon="-118.28555">
        <ele>263.0</ele>
      </trkpt>
      <trkpt lat="34.12617" lon="-118.28555">
        <ele>263.0</ele>
      </trkpt>
      <trkpt lat="34.12669" lon="-118.28542">
        <ele>252.0</ele>
      </trkpt>
      <trkpt lat="34.12682" lon="-118.28529">
        <ele>258.0</ele>
      </trkpt>
      <trkpt lat="34.12683" lon="-118.28524">
        <ele>258.0</ele>
      </trkpt>
      <trkpt lat="34.12683" lon="-118.28524">
        <ele>258.0</ele>
      </trkpt>
      <trkpt lat="34.12683" lon="-118.28524">
        <ele>258.0</ele>
      </trkpt>
      <trkpt lat="34.12681" lon="-118.28516">
        <ele>258.0</ele>
      </trkpt>
      <trkpt lat="34.12675" lon="-118.28509">
        <ele>260.0</ele>
      </trkpt>
      <trkpt lat="34.12648" lon="-118.28489">
        <ele>263.0</ele>
      </trkpt>
      <trkpt lat="34.12614" lon="-118.28478">
        <ele>270.0</ele>
      </trkpt>
      <trkpt lat="34.12608" lon="-118.2847">
        <ele>270.0</ele>
      </trkpt>
      <trkpt lat="34.12596" lon="-118.28446">
        <ele>277.0</ele>
      </trkpt>
      <trkpt lat="34.12592" lon="-118.2843">
        <ele>278.0</ele>
      </trkpt>
      <trkpt lat="34.12595" lon="-118.28411">
        <ele>278.0</ele>
      </trkpt>
      <trkpt lat="34.12611" lon="-118.28386">
        <ele>279.0</ele>
      </trkpt>
      <trkpt lat="34.1263" lon="-118.28368">
        <ele>276.0</ele>
      </trkpt>
      <trkpt lat="34.12679" lon="-118.28347">
        <ele>270.0</ele>
      </trkpt>
      <trkpt lat="34.12686" lon="-118.28337">
        <ele>259.0</ele>
      </trkpt>
      <trkpt lat="34.12695" lon="-118.28309">
        <ele>261.0</ele>
      </trkpt>
      <trkpt lat="34.12697" lon="-118.28292">
        <ele>261.0</ele>
      </trkpt>
      <trkpt lat="34.12701" lon="-118.28278">
        <ele>266.0</ele>
      </trkpt>
      <trkpt lat="34.12714" lon="-118.28256">
        <ele>266.0</ele>
      </trkpt>
      <trkpt lat="34.12717" lon="-118.28243">
        <ele>266.0</ele>
      </trkpt>
      <trkpt lat="34.12716500951746" lon="-118.2823501473081">
        <ele>268.0</ele>
      </trkpt>
      <trkpt lat="34.12716500951746" lon="-118.2823501473081">
        <ele>268.0</ele>
      </trkpt>
      <trkpt lat="34.12716" lon="-118.28227">
        <ele>268.0</ele>
      </trkpt>
      <trkpt lat="34.12713" lon="-118.28219">
        <ele>268.0</ele>
      </trkpt>
      <trkpt lat="34.12688" lon="-118.28198">
        <ele>270.0</ele>
      </trkpt>
      <trkpt lat="34.12658" lon="-118.2818">
        <ele>281.0</ele>
      </trkpt>
      <trkpt lat="34.12656" lon="-118.28175">
        <ele>281.0</ele>
      </trkpt>
      <trkpt lat="34.12657" lon="-118.28168">
        <ele>281.0</ele>
      </trkpt>
      <trkpt lat="34.12677" lon="-118.28143">
        <ele>287.0</ele>
      </trkpt>
      <trkpt lat="34.12684" lon="-118.28122">
        <ele>284.0</ele>
      </trkpt>
      <trkpt lat="34.12695614355462" lon="-118.2810573990235">
        <ele>284.0</ele>
      </trkpt>
      <trkpt lat="34.12695614357786" lon="-118.2810573990235">
        <ele>284.0</ele>
      </trkpt>
      <trkpt lat="34.12699" lon="-118.28101">
        <ele>284.0</ele>
      </trkpt>
      <trkpt lat="34.12701" lon="-118.2809">
        <ele>287.0</ele>
      </trkpt>
      <trkpt lat="34.12701" lon="-118.2809">
        <ele>287.0</ele>
      </trkpt>
      <trkpt lat="34.12701" lon="-118.2809">
        <ele>287.0</ele>
      </trkpt>
      <trkpt lat="34.12691" lon="-118.28073">
        <ele>287.0</ele>
      </trkpt>
      <trkpt lat="34.12686" lon="-118.28057">
        <ele>288.0</ele>
      </trkpt>
      <trkpt lat="34.1269" lon="-118.28026">
        <ele>290.0</ele>
      </trkpt>
      <trkpt lat="34.1269" lon="-118.28026">
        <ele>290.0</ele>
      </trkpt>
      <trkpt lat="34.12682" lon="-118.28036">
        <ele>290.0</ele>
      </trkpt>
      <trkpt lat="34.1268" lon="-118.28093">
        <ele>291.0</ele>
      </trkpt>
      <trkpt lat="34.12676" lon="-118.28108">
        <ele>292.0</ele>
      </trkpt>
      <trkpt lat="34.12663" lon="-118.28134">
        <ele>287.0</ele>
      </trkpt>
      <trkpt lat="34.12653" lon="-118.28147">
        <ele>287.0</ele>
      </trkpt>
      <trkpt lat="34.12624" lon="-118.28156">
        <ele>300.0</ele>
      </trkpt>
      <trkpt lat="34.12617154275233" lon="-118.2816370144036">
        <ele>300.0</ele>
      </trkpt>
      <trkpt lat="34.12617154275699" lon="-118.2816370144036">
        <ele>300.0</ele>
      </trkpt>
      <trkpt lat="34.12616" lon="-118.28165">
        <ele>300.0</ele>
      </trkpt>
      <trkpt lat="34.1262" lon="-118.28173">
        <ele>300.0</ele>
      </trkpt>
      <trkpt lat="34.12649" lon="-118.28203">
        <ele>287.0</ele>
      </trkpt>
      <trkpt lat="34.12656" lon="-118.28228">
        <ele>278.0</ele>
      </trkpt>
      <trkpt lat="34.12656263372511" lon="-118.2823458177249">
        <ele>278.0</ele>
      </trkpt>
      <trkpt lat="34.12656263372511" lon="-118.2823458177249">
        <ele>278.0</ele>
      </trkpt>
      <trkpt lat="34.12656315286981" lon="-118.2823587913352">
        <ele>278.0</ele>
      </trkpt>
      <trkpt lat="34.12656374985681" lon="-118.2823737186617">
        <ele>276.0</ele>
      </trkpt>
      <trkpt lat="34.12657" lon="-118.28253">
        <ele>276.0</ele>
      </trkpt>
      <trkpt lat="34.12619" lon="-118.28272">
        <ele>292.0</ele>
      </trkpt>
      <trkpt lat="34.12556" lon="-118.28297">
        <ele>299.0</ele>
      </trkpt>
      <trkpt lat="34.12545" lon="-118.28304">
        <ele>299.0</ele>
      </trkpt>
      <trkpt lat="34.12545" lon="-118.28304">
        <ele>299.0</ele>
      </trkpt>
      <trkpt lat="34.12534488786051" lon="-118.2831068895433">
        <ele>307.0</ele>
      </trkpt>
      <trkpt lat="34.12534488786352" lon="-118.2831068895433">
        <ele>307.0</ele>
      </trkpt>
      <trkpt lat="34.12534" lon="-118.28311">
        <ele>307.0</ele>
      </trkpt>
      <trkpt lat="34.12516" lon="-118.28347">
        <ele>300.0</ele>
      </trkpt>
      <trkpt lat="34.12493" lon="-118.28382">
        <ele>307.0</ele>
      </trkpt>
      <trkpt lat="34.12488" lon="-118.28424">
        <ele>309.0</ele>
      </trkpt>
      <trkpt lat="34.12475" lon="-118.28469">
        <ele>322.0</ele>
      </trkpt>
      <trkpt lat="34.1248" lon="-118.2848">
        <ele>322.0</ele>
      </trkpt>
      <trkpt lat="34.12494" lon="-118.28489">
        <ele>311.0</ele>
      </trkpt>
      <trkpt lat="34.12498" lon="-118.28495">
        <ele>311.0</ele>
      </trkpt>
      <trkpt lat="34.12498" lon="-118.28495">
        <ele>311.0</ele>
      </trkpt>
      <trkpt lat="34.12498" lon="-118.28495">
        <ele>311.0</ele>
      </trkpt>
      <trkpt lat="34.12473" lon="-118.28502">
        <ele>318.0</ele>
      </trkpt>
      <trkpt lat="34.1246" lon="-118.28502">
        <ele>318.0</ele>
      </trkpt>
      <trkpt lat="34.12403" lon="-118.28484">
        <ele>331.0</ele>
      </trkpt>
      <trkpt lat="34.12394" lon="-118.28485">
        <ele>327.0</ele>
      </trkpt>
      <trkpt lat="34.12386" lon="-118.28492">
        <ele>325.0</ele>
      </trkpt>
      <trkpt lat="34.12382" lon="-118.285">
        <ele>325.0</ele>
      </trkpt>
      <trkpt lat="34.12381" lon="-118.28528">
        <ele>322.0</ele>
      </trkpt>
      <trkpt lat="34.12381" lon="-118.28528">
        <ele>322.0</ele>
      </trkpt>
      <trkpt lat="34.12379" lon="-118.28532">
        <ele>322.0</ele>
      </trkpt>
      <trkpt lat="34.12379173372231" lon="-118.2853184491567">
        <ele>322.0</ele>
      </trkpt>
      <trkpt lat="34.12381" lon="-118.28535">
        <ele>322.0</ele>
      </trkpt>
      <trkpt lat="34.12403" lon="-118.28561">
        <ele>319.0</ele>
      </trkpt>
      <trkpt lat="34.12429561396665" lon="-118.2858608576352">
        <ele>317.0</ele>
      </trkpt>
      <trkpt lat="34.12429" lon="-118.28587">
        <ele>317.0</ele>
      </trkpt>
      <trkpt lat="34.12423" lon="-118.28599">
        <ele>316.0</ele>
      </trkpt>
      <trkpt lat="34.12421" lon="-118.28612">
        <ele>316.0</ele>
      </trkpt>
      <trkpt lat="34.12421" lon="-118.28612">
        <ele>316.0</ele>
      </trkpt>
      <trkpt lat="34.12421" lon="-118.28612">
        <ele>316.0</ele>
      </trkpt>
      <trkpt lat="34.12421938498957" lon="-118.2862100958999">
        <ele>316.0</ele>
      </trkpt>
      <trkpt lat="34.12421938498957" lon="-118.2862100958999">
        <ele>316.0</ele>
      </trkpt>
      <trkpt lat="34.12426" lon="-118.2866">
        <ele>319.0</ele>
      </trkpt>
      <trkpt lat="34.12417" lon="-118.28693">
        <ele>321.0</ele>
      </trkpt>
      <trkpt lat="34.12428" lon="-118.28737">
        <ele>325.0</ele>
      </trkpt>
      <trkpt lat="34.12417" lon="-118.28764">
        <ele>329.0</ele>
      </trkpt>
      <trkpt lat="34.12417" lon="-118.28764">
        <ele>329.0</ele>
      </trkpt>
      <trkpt lat="34.12417" lon="-118.28764">
        <ele>329.0</ele>
      </trkpt>
      <trkpt lat="34.12403" lon="-118.28776">
        <ele>329.0</ele>
      </trkpt>
      <trkpt lat="34.12403" lon="-118.28776">
        <ele>329.0</ele>
      </trkpt>
      <trkpt lat="34.12403" lon="-118.28776">
        <ele>329.0</ele>
      </trkpt>
      <trkpt lat="34.12405" lon="-118.28781">
        <ele>329.0</ele>
      </trkpt>
      <trkpt lat="34.12422" lon="-118.28794">
        <ele>332.0</ele>
      </trkpt>
      <trkpt lat="34.12427" lon="-118.28802">
        <ele>332.0</ele>
      </trkpt>
      <trkpt lat="34.1243" lon="-118.28811">
        <ele>332.0</ele>
      </trkpt>
      <trkpt lat="34.12431" lon="-118.28833">
        <ele>338.0</ele>
      </trkpt>
      <trkpt lat="34.12437" lon="-118.28837">
        <ele>338.0</ele>
      </trkpt>
      <trkpt lat="34.12465" lon="-118.2883">
        <ele>341.0</ele>
      </trkpt>
      <trkpt lat="34.12479" lon="-118.28834">
        <ele>341.0</ele>
      </trkpt>
      <trkpt lat="34.12501" lon="-118.28857">
        <ele>332.0</ele>
      </trkpt>
      <trkpt lat="34.12539300845361" lon="-118.2885525905248">
        <ele>330.0</ele>
      </trkpt>
      <trkpt lat="34.12539300858271" lon="-118.2885525905248">
        <ele>330.0</ele>
      </trkpt>
      <trkpt lat="34.12545" lon="-118.28855">
        <ele>327.0</ele>
      </trkpt>
      <trkpt lat="34.12545" lon="-118.28855">
        <ele>327.0</ele>
      </trkpt>
      <trkpt lat="34.12572" lon="-118.28849">
        <ele>323.0</ele>
      </trkpt>
      <trkpt lat="34.12593" lon="-118.28853">
        <ele>323.0</ele>
      </trkpt>
      <trkpt lat="34.12607" lon="-118.28858">
        <ele>320.0</ele>
      </trkpt>
      <trkpt lat="34.12607" lon="-118.28858">
        <ele>320.0</ele>
      </trkpt>
      <trkpt lat="34.12607" lon="-118.28858">
        <ele>320.0</ele>
      </trkpt>
      <trkpt lat="34.12613" lon="-118.28867">
        <ele>320.0</ele>
      </trkpt>
      <trkpt lat="34.12613" lon="-118.28867">
        <ele>320.0</ele>
      </trkpt>
      <trkpt lat="34.12625" lon="-118.28876">
        <ele>323.0</ele>
      </trkpt>
      <trkpt lat="34.12625" lon="-118.28876">
        <ele>323.0</ele>
      </trkpt>
      <trkpt lat="34.12629" lon="-118.28879">
        <ele>324.0</ele>
      </trkpt>
      <trkpt lat="34.12635" lon="-118.2889">
        <ele>324.0</ele>
      </trkpt>
      <trkpt lat="34.12644" lon="-118.289">
        <ele>324.0</ele>
      </trkpt>
      <trkpt lat="34.12644" lon="-118.289">
        <ele>324.0</ele>
      </trkpt>
      <trkpt lat="34.12644" lon="-118.289">
        <ele>324.0</ele>
      </trkpt>
      <trkpt lat="34.12651" lon="-118.28913">
        <ele>330.0</ele>
      </trkpt>
      <trkpt lat="34.1266" lon="-118.28921">
        <ele>334.0</ele>
      </trkpt>
      <trkpt lat="34.12662" lon="-118.28935">
        <ele>340.0</ele>
      </trkpt>
      <trkpt lat="34.12657" lon="-118.28964">
        <ele>341.0</ele>
      </trkpt>
      <trkpt lat="34.12682" lon="-118.28996">
        <ele>344.0</ele>
      </trkpt>
      <trkpt lat="34.12682691902817" lon="-118.2899576761127">
        <ele>344.0</ele>
      </trkpt>
      <trkpt lat="34.12689" lon="-118.29021">
        <ele>349.0</ele>
      </trkpt>
      <trkpt lat="34.12722790687248" lon="-118.2905272186966">
        <ele>362.0</ele>
      </trkpt>
      <trkpt lat="34.12722790687248" lon="-118.2905272186966">
        <ele>362.0</ele>
      </trkpt>
      <trkpt lat="34.12734288978095" lon="-118.2906351618352">
        <ele>362.0</ele>
      </trkpt>
      <trkpt lat="34.12734288978095" lon="-118.2906351618352">
        <ele>362.0</ele>
      </trkpt>
      <trkpt lat="34.12738" lon="-118.29067">
        <ele>370.0</ele>
      </trkpt>
      <trkpt lat="34.12749185514522" lon="-118.2906849140194">
        <ele>370.0</ele>
      </trkpt>
      <trkpt lat="34.12749185514522" lon="-118.2906849140194">
        <ele>370.0</ele>
      </trkpt>
      <trkpt lat="34.12783" lon="-118.29073">
        <ele>376.0</ele>
      </trkpt>
      <trkpt lat="34.12797" lon="-118.29092">
        <ele>378.0</ele>
      </trkpt>
      <trkpt lat="34.12821" lon="-118.29113">
        <ele>386.0</ele>
      </trkpt>
      <trkpt lat="34.12851" lon="-118.29131">
        <ele>395.0</ele>
      </trkpt>
      <trkpt lat="34.12856" lon="-118.29143">
        <ele>395.0</ele>
      </trkpt>
      <trkpt lat="34.12867" lon="-118.29224">
        <ele>407.0</ele>
      </trkpt>
      <trkpt lat="34.12874" lon="-118.29257">
        <ele>410.0</ele>
      </trkpt>
      <trkpt lat="34.1288" lon="-118.29272">
        <ele>420.0</ele>
      </trkpt>
      <trkpt lat="34.12873" lon="-118.29312">
        <ele>418.0</ele>
      </trkpt>
      <trkpt lat="34.12872" lon="-118.29333">
        <ele>426.0</ele>
      </trkpt>
      <trkpt lat="34.12863568416663" lon="-118.2936321291993">
        <ele>434.0</ele>
      </trkpt>
      <trkpt lat="34.12863568416663" lon="-118.2936321291993">
        <ele>434.0</ele>
      </trkpt>
      <trkpt lat="34.1286" lon="-118.29376">
        <ele>436.0</ele>
      </trkpt>
      <trkpt lat="34.12861" lon="-118.29405">
        <ele>436.0</ele>
      </trkpt>
      <trkpt lat="34.12851" lon="-118.29434">
        <ele>436.0</ele>
      </trkpt>
      <trkpt lat="34.12853" lon="-118.2944">
        <ele>436.0</ele>
      </trkpt>
      <trkpt lat="34.12853" lon="-118.2944">
        <ele>436.0</ele>
      </trkpt>
      <trkpt lat="34.12853" lon="-118.2944">
        <ele>436.0</ele>
      </trkpt>
      <trkpt lat="34.12862" lon="-118.29451">
        <ele>436.0</ele>
      </trkpt>
      <trkpt lat="34.12862" lon="-118.29451">
        <ele>436.0</ele>
      </trkpt>
      <trkpt lat="34.12862" lon="-118.29451">
        <ele>436.0</ele>
      </trkpt>
      <trkpt lat="34.12861" lon="-118.29456">
        <ele>436.0</ele>
      </trkpt>
      <trkpt lat="34.12861" lon="-118.29456">
        <ele>436.0</ele>
      </trkpt>
      <trkpt lat="34.12861" lon="-118.29456">
        <ele>436.0</ele>
      </trkpt>
      <trkpt lat="34.12884" lon="-118.29468">
        <ele>434.0</ele>
      </trkpt>
      <trkpt lat="34.12894" lon="-118.29481">
        <ele>434.0</ele>
      </trkpt>
      <trkpt lat="34.12896" lon="-118.29511">
        <ele>431.0</ele>
      </trkpt>
      <trkpt lat="34.129" lon="-118.29514">
        <ele>428.0</ele>
      </trkpt>
      <trkpt lat="34.129" lon="-118.29514">
        <ele>428.0</ele>
      </trkpt>
      <trkpt lat="34.12901" lon="-118.29529">
        <ele>428.0</ele>
      </trkpt>
      <trkpt lat="34.12894" lon="-118.29564">
        <ele>424.0</ele>
      </trkpt>
      <trkpt lat="34.12902" lon="-118.29592">
        <ele>420.0</ele>
      </trkpt>
      <trkpt lat="34.12896" lon="-118.29635">
        <ele>416.0</ele>
      </trkpt>
      <trkpt lat="34.12902" lon="-118.29655">
        <ele>416.0</ele>
      </trkpt>
      <trkpt lat="34.12902" lon="-118.29655">
        <ele>416.0</ele>
      </trkpt>
      <trkpt lat="34.12902" lon="-118.29655">
        <ele>416.0</ele>
      </trkpt>
      <trkpt lat="34.12931" lon="-118.29718">
        <ele>428.0</ele>
      </trkpt>
      <trkpt lat="34.12930964427161" lon="-118.2971792276814">
        <ele>428.0</ele>
      </trkpt>
      <trkpt lat="34.12935" lon="-118.29737">
        <ele>431.0</ele>
      </trkpt>
      <trkpt lat="34.1293567155353" lon="-118.2974158894912">
        <ele>431.0</ele>
      </trkpt>
      <trkpt lat="34.12935671553741" lon="-118.2974158894912">
        <ele>431.0</ele>
      </trkpt>
      <trkpt lat="34.12941" lon="-118.29778">
        <ele>434.0</ele>
      </trkpt>
      <trkpt lat="34.12950499655654" lon="-118.2979663393994">
        <ele>438.0</ele>
      </trkpt>
      <trkpt lat="34.12950499655654" lon="-118.2979663393994">
        <ele>438.0</ele>
      </trkpt>
      <trkpt lat="34.12967" lon="-118.29829">
        <ele>442.0</ele>
      </trkpt>
      <trkpt lat="34.12967" lon="-118.29829">
        <ele>442.0</ele>
      </trkpt>
      <trkpt lat="34.12953485578829" lon="-118.2985062307387">
        <ele>449.0</ele>
      </trkpt>
      <trkpt lat="34.12951477542074" lon="-118.2985399741968">
        <ele>449.0</ele>
      </trkpt>
      <trkpt lat="34.12941" lon="-118.29874">
        <ele>449.0</ele>
      </trkpt>
      <trkpt lat="34.12927" lon="-118.29905">
        <ele>450.0</ele>
      </trkpt>
      <trkpt lat="34.12921" lon="-118.29928">
        <ele>450.0</ele>
      </trkpt>
      <trkpt lat="34.1291" lon="-118.29938">
        <ele>456.0</ele>
      </trkpt>
      <trkpt lat="34.12904" lon="-118.29962">
        <ele>465.0</ele>
      </trkpt>
      <trkpt lat="34.12896" lon="-118.29983">
        <ele>449.0</ele>
      </trkpt>
      <trkpt lat="34.12868" lon="-118.29999">
        <ele>447.0</ele>
      </trkpt>
      <trkpt lat="34.1284" lon="-118.30007">
        <ele>437.0</ele>
      </trkpt>
      <trkpt lat="34.12826" lon="-118.30022">
        <ele>448.0</ele>
      </trkpt>
      <trkpt lat="34.12817" lon="-118.30026">
        <ele>441.0</ele>
      </trkpt>
      <trkpt lat="34.12806" lon="-118.30024">
        <ele>441.0</ele>
      </trkpt>
      <trkpt lat="34.12719" lon="-118.29991">
        <ele>425.0</ele>
      </trkpt>
      <trkpt lat="34.12713" lon="-118.29993">
        <ele>425.0</ele>
      </trkpt>
      <trkpt lat="34.12709" lon="-118.3">
        <ele>425.0</ele>
      </trkpt>
      <trkpt lat="34.12706685265798" lon="-118.3001793919007">
        <ele>423.0</ele>
      </trkpt>
      <trkpt lat="34.12707" lon="-118.30018">
        <ele>423.0</ele>
      </trkpt>
      <trkpt lat="34.12726" lon="-118.30019">
        <ele>430.0</ele>
      </trkpt>
      <trkpt lat="34.12733" lon="-118.30025">
        <ele>430.0</ele>
      </trkpt>
      <trkpt lat="34.12736" lon="-118.30036">
        <ele>430.0</ele>
      </trkpt>
      <trkpt lat="34.127419077448" lon="-118.3003872665145">
        <ele>434.0</ele>
      </trkpt>
      <trkpt lat="34.12741907747278" lon="-118.3003872665145">
        <ele>434.0</ele>
      </trkpt>
      <trkpt lat="34.12749" lon="-118.30042">
        <ele>439.0</ele>
      </trkpt>
      <trkpt lat="34.12771" lon="-118.30075">
        <ele>457.0</ele>
      </trkpt>
      <trkpt lat="34.12771" lon="-118.30075">
        <ele>457.0</ele>
      </trkpt>
      <trkpt lat="34.12771" lon="-118.30075">
        <ele>457.0</ele>
      </trkpt>
      <trkpt lat="34.12774" lon="-118.30078">
        <ele>457.0</ele>
      </trkpt>
      <trkpt lat="34.12774" lon="-118.30078">
        <ele>457.0</ele>
      </trkpt>
      <trkpt lat="34.12788" lon="-118.30096">
        <ele>457.0</ele>
      </trkpt>
      <trkpt lat="34.12798" lon="-118.30105">
        <ele>469.0</ele>
      </trkpt>
      <trkpt lat="34.12816" lon="-118.30102">
        <ele>469.0</ele>
      </trkpt>
      <trkpt lat="34.12822" lon="-118.30104">
        <ele>476.0</ele>
      </trkpt>
      <trkpt lat="34.12826" lon="-118.30112">
        <ele>476.0</ele>
      </trkpt>
      <trkpt lat="34.12825" lon="-118.30114">
        <ele>476.0</ele>
      </trkpt>
      <trkpt lat="34.12825" lon="-118.30114">
        <ele>476.0</ele>
      </trkpt>
      <trkpt lat="34.1283494620134" lon="-118.3011170472277">
        <ele>476.0</ele>
      </trkpt>
      <trkpt lat="34.1283494620134" lon="-118.3011170472277">
        <ele>476.0</ele>
      </trkpt>
      <trkpt lat="34.12838" lon="-118.30111">
        <ele>476.0</ele>
      </trkpt>
      <trkpt lat="34.12864666065356" lon="-118.3008843640624">
        <ele>481.0</ele>
      </trkpt>
      <trkpt lat="34.12864666065356" lon="-118.3008843640624">
        <ele>481.0</ele>
      </trkpt>
      <trkpt lat="34.12877" lon="-118.30078">
        <ele>485.0</ele>
      </trkpt>
      <trkpt lat="34.12877" lon="-118.30078">
        <ele>485.0</ele>
      </trkpt>
      <trkpt lat="34.12902" lon="-118.30056">
        <ele>480.0</ele>
      </trkpt>
      <trkpt lat="34.12915" lon="-118.30038">
        <ele>477.0</ele>
      </trkpt>
      <trkpt lat="34.12954" lon="-118.29939">
        <ele>464.0</ele>
      </trkpt>
      <trkpt lat="34.12954" lon="-118.29939">
        <ele>464.0</ele>
      </trkpt>
      <trkpt lat="34.12954" lon="-118.29939">
        <ele>464.0</ele>
      </trkpt>
      <trkpt lat="34.12968" lon="-118.29926">
        <ele>465.0</ele>
      </trkpt>
      <trkpt lat="34.12968" lon="-118.29926">
        <ele>465.0</ele>
      </trkpt>
      <trkpt lat="34.12968" lon="-118.29926">
        <ele>465.0</ele>
      </trkpt>
      <trkpt lat="34.12991" lon="-118.29922">
        <ele>462.0</ele>
      </trkpt>
      <trkpt lat="34.12991" lon="-118.29922">
        <ele>462.0</ele>
      </trkpt>
      <trkpt lat="34.12991" lon="-118.29922">
        <ele>462.0</ele>
      </trkpt>
      <trkpt lat="34.13005" lon="-118.29939">
        <ele>463.0</ele>
      </trkpt>
      <trkpt lat="34.13005" lon="-118.29939">
        <ele>463.0</ele>
      </trkpt>
      <trkpt lat="34.13005" lon="-118.29939">
        <ele>463.0</ele>
      </trkpt>
      <trkpt lat="34.13021" lon="-118.29935">
        <ele>461.0</ele>
      </trkpt>
      <trkpt lat="34.13021" lon="-118.29935">
        <ele>461.0</ele>
      </trkpt>
      <trkpt lat="34.13057" lon="-118.29934">
        <ele>454.0</ele>
      </trkpt>
      <trkpt lat="34.13091" lon="-118.2994">
        <ele>437.0</ele>
      </trkpt>
      <trkpt lat="34.13146793231052" lon="-118.2996898349665">
        <ele>444.0</ele>
      </trkpt>
      <trkpt lat="34.13146793301043" lon="-118.2996898349665">
        <ele>444.0</ele>
      </trkpt>
      <trkpt lat="34.13168" lon="-118.2998">
        <ele>439.0</ele>
      </trkpt>
      <trkpt lat="34.13198" lon="-118.29988">
        <ele>437.0</ele>
      </trkpt>
      <trkpt lat="34.1322" lon="-118.29997">
        <ele>434.0</ele>
      </trkpt>
      <trkpt lat="34.1322" lon="-118.29997">
        <ele>434.0</ele>
      </trkpt>
      <trkpt lat="34.1322" lon="-118.29997">
        <ele>434.0</ele>
      </trkpt>
      <trkpt lat="34.1323" lon="-118.29965">
        <ele>423.0</ele>
      </trkpt>
      <trkpt lat="34.13232" lon="-118.29947">
        <ele>412.0</ele>
      </trkpt>
      <trkpt lat="34.1324" lon="-118.29932">
        <ele>405.0</ele>
      </trkpt>
      <trkpt lat="34.13247" lon="-118.29913">
        <ele>388.0</ele>
      </trkpt>
      <trkpt lat="34.13246" lon="-118.29907">
        <ele>388.0</ele>
      </trkpt>
      <trkpt lat="34.13253" lon="-118.29898">
        <ele>371.0</ele>
      </trkpt>
      <trkpt lat="34.13262" lon="-118.29875">
        <ele>357.0</ele>
      </trkpt>
      <trkpt lat="34.13266" lon="-118.29836">
        <ele>350.0</ele>
      </trkpt>
      <trkpt lat="34.13269" lon="-118.29823">
        <ele>350.0</ele>
      </trkpt>
      <trkpt lat="34.13275" lon="-118.29821">
        <ele>350.0</ele>
      </trkpt>
      <trkpt lat="34.13277" lon="-118.29818">
        <ele>342.0</ele>
      </trkpt>
      <trkpt lat="34.13274" lon="-118.29806">
        <ele>342.0</ele>
      </trkpt>
      <trkpt lat="34.13277" lon="-118.29801">
        <ele>342.0</ele>
      </trkpt>
      <trkpt lat="34.13291" lon="-118.29798">
        <ele>342.0</ele>
      </trkpt>
      <trkpt lat="34.13288" lon="-118.29773">
        <ele>337.0</ele>
      </trkpt>
      <trkpt lat="34.13288287011123" lon="-118.2977382319969">
        <ele>337.0</ele>
      </trkpt>
      <trkpt lat="34.13311" lon="-118.29762">
        <ele>328.0</ele>
      </trkpt>
      <trkpt lat="34.13319" lon="-118.29757">
        <ele>328.0</ele>
      </trkpt>
      <trkpt lat="34.13347" lon="-118.29726">
        <ele>323.0</ele>
      </trkpt>
      <trkpt lat="34.13378" lon="-118.29709">
        <ele>339.0</ele>
      </trkpt>
      <trkpt lat="34.13384" lon="-118.29702">
        <ele>334.0</ele>
      </trkpt>
      <trkpt lat="34.13387" lon="-118.29691">
        <ele>334.0</ele>
      </trkpt>
      <trkpt lat="34.13388" lon="-118.29678">
        <ele>332.0</ele>
      </trkpt>
      <trkpt lat="34.13381" lon="-118.2964">
        <ele>331.0</ele>
      </trkpt>
      <trkpt lat="34.13382" lon="-118.29611">
        <ele>327.0</ele>
      </trkpt>
      <trkpt lat="34.13388300254456" lon="-118.2959069918009">
        <ele>320.0</ele>
      </trkpt>
      <trkpt lat="34.13388300255462" lon="-118.2959069918009">
        <ele>320.0</ele>
      </trkpt>
      <trkpt lat="34.13391" lon="-118.29582">
        <ele>320.0</ele>
      </trkpt>
      <trkpt lat="34.1340316661219" lon="-118.29557666918">
        <ele>326.0</ele>
      </trkpt>
      <trkpt lat="34.1340316661219" lon="-118.29557666918">
        <ele>326.0</ele>
      </trkpt>
      <trkpt lat="34.13407" lon="-118.2955">
        <ele>326.0</ele>
      </trkpt>
      <trkpt lat="34.13445" lon="-118.29519">
        <ele>328.0</ele>
      </trkpt>
      <trkpt lat="34.13482" lon="-118.29473">
        <ele>316.0</ele>
      </trkpt>
      <trkpt lat="34.13492" lon="-118.29471">
        <ele>314.0</ele>
      </trkpt>
      <trkpt lat="34.13492" lon="-118.29471">
        <ele>314.0</ele>
      </trkpt>
      <trkpt lat="34.13488" lon="-118.2945">
        <ele>301.0</ele>
      </trkpt>
      <trkpt lat="34.13481" lon="-118.29435">
        <ele>300.0</ele>
      </trkpt>
      <trkpt lat="34.13473086764388" lon="-118.2942458773769">
        <ele>288.0</ele>
      </trkpt>
      <trkpt lat="34.13473086764388" lon="-118.2942458773769">
        <ele>288.0</ele>
      </trkpt>
      <trkpt lat="34.13462" lon="-118.2941">
        <ele>288.0</ele>
      </trkpt>
      <trkpt lat="34.13455" lon="-118.29385">
        <ele>280.0</ele>
      </trkpt>
      <trkpt lat="34.13442785221326" lon="-118.2935980701898">
        <ele>273.0</ele>
      </trkpt>
      <trkpt lat="34.13442785224061" lon="-118.2935980701898">
        <ele>273.0</ele>
      </trkpt>
      <trkpt lat="34.13455" lon="-118.29385">
        <ele>280.0</ele>
      </trkpt>
      <trkpt lat="34.13462" lon="-118.2941">
        <ele>288.0</ele>
      </trkpt>
      <trkpt lat="34.13473086764388" lon="-118.2942458773769">
        <ele>288.0</ele>
      </trkpt>
      <trkpt lat="34.13473" lon="-118.29425">
        <ele>288.0</ele>
      </trkpt>
      <trkpt lat="34.13477" lon="-118.29406">
        <ele>288.0</ele>
      </trkpt>
      <trkpt lat="34.13474" lon="-118.29393">
        <ele>280.0</ele>
      </trkpt>
      <trkpt lat="34.13484" lon="-118.2939">
        <ele>280.0</ele>
      </trkpt>
      <trkpt lat="34.13506" lon="-118.29411">
        <ele>289.0</ele>
      </trkpt>
      <trkpt lat="34.13524" lon="-118.29421">
        <ele>286.0</ele>
      </trkpt>
      <trkpt lat="34.13533" lon="-118.29423">
        <ele>286.0</ele>
      </trkpt>
      <trkpt lat="34.13541" lon="-118.29419">
        <ele>286.0</ele>
      </trkpt>
      <trkpt lat="34.13553" lon="-118.29407">
        <ele>283.0</ele>
      </trkpt>
      <trkpt lat="34.13558" lon="-118.29377">
        <ele>274.0</ele>
      </trkpt>
      <trkpt lat="34.13557" lon="-118.29374">
        <ele>266.0</ele>
      </trkpt>
      <trkpt lat="34.13554" lon="-118.29375">
        <ele>266.0</ele>
      </trkpt>
      <trkpt lat="34.13548" lon="-118.29383">
        <ele>274.0</ele>
      </trkpt>
      <trkpt lat="34.13544" lon="-118.29381">
        <ele>274.0</ele>
      </trkpt>
      <trkpt lat="34.13544" lon="-118.2936">
        <ele>266.0</ele>
      </trkpt>
      <trkpt lat="34.13546" lon="-118.29349">
        <ele>266.0</ele>
      </trkpt>
      <trkpt lat="34.13554" lon="-118.2934">
        <ele>261.0</ele>
      </trkpt>
      <trkpt lat="34.13568" lon="-118.29333">
        <ele>261.0</ele>
      </trkpt>
      <trkpt lat="34.13578" lon="-118.29338">
        <ele>258.0</ele>
      </trkpt>
      <trkpt lat="34.13587" lon="-118.29351">
        <ele>263.0</ele>
      </trkpt>
      <trkpt lat="34.13592" lon="-118.29349">
        <ele>263.0</ele>
      </trkpt>
      <trkpt lat="34.13586" lon="-118.2932">
        <ele>258.0</ele>
      </trkpt>
      <trkpt lat="34.13581" lon="-118.29314">
        <ele>248.0</ele>
      </trkpt>
      <trkpt lat="34.13571" lon="-118.29308">
        <ele>248.0</ele>
      </trkpt>
      <trkpt lat="34.13562" lon="-118.29297">
        <ele>252.0</ele>
      </trkpt>
      <trkpt lat="34.13562" lon="-118.29291">
        <ele>238.0</ele>
      </trkpt>
      <trkpt lat="34.13572" lon="-118.29293">
        <ele>248.0</ele>
      </trkpt>
      <trkpt lat="34.13572" lon="-118.29293">
        <ele>248.0</ele>
      </trkpt>
      <trkpt lat="34.13572" lon="-118.29293">
        <ele>248.0</ele>
      </trkpt>
      <trkpt lat="34.13568" lon="-118.29275">
        <ele>238.0</ele>
      </trkpt>
      <trkpt lat="34.13555" lon="-118.29273">
        <ele>238.0</ele>
      </trkpt>
      <trkpt lat="34.13545" lon="-118.29286">
        <ele>238.0</ele>
      </trkpt>
      <trkpt lat="34.1354" lon="-118.293">
        <ele>252.0</ele>
      </trkpt>
      <trkpt lat="34.13539" lon="-118.29324">
        <ele>258.0</ele>
      </trkpt>
      <trkpt lat="34.13534" lon="-118.29335">
        <ele>258.0</ele>
      </trkpt>
      <trkpt lat="34.13529" lon="-118.29335">
        <ele>258.0</ele>
      </trkpt>
      <trkpt lat="34.1353" lon="-118.2928">
        <ele>241.0</ele>
      </trkpt>
      <trkpt lat="34.13524" lon="-118.29258">
        <ele>230.0</ele>
      </trkpt>
      <trkpt lat="34.13525" lon="-118.29244">
        <ele>230.0</ele>
      </trkpt>
      <trkpt lat="34.13518" lon="-118.2922">
        <ele>223.0</ele>
      </trkpt>
      <trkpt lat="34.13502" lon="-118.29188">
        <ele>221.0</ele>
      </trkpt>
      <trkpt lat="34.13489" lon="-118.29178">
        <ele>212.0</ele>
      </trkpt>
      <trkpt lat="34.13474" lon="-118.29144">
        <ele>199.0</ele>
      </trkpt>
      <trkpt lat="34.13473" lon="-118.29134">
        <ele>199.0</ele>
      </trkpt>
      <trkpt lat="34.13476" lon="-118.29113">
        <ele>194.0</ele>
      </trkpt>
      <trkpt lat="34.13474181315939" lon="-118.2910663460579">
        <ele>194.0</ele>
      </trkpt>
      <trkpt lat="34.13474181316174" lon="-118.2910663460579">
        <ele>194.0</ele>
      </trkpt>
      <trkpt lat="34.13472" lon="-118.29099">
        <ele>194.0</ele>
      </trkpt>
      <trkpt lat="34.13479" lon="-118.29089">
        <ele>188.0</ele>
      </trkpt>
      <trkpt lat="34.13491" lon="-118.29081">
        <ele>182.0</ele>
      </trkpt>
      <trkpt lat="34.13497" lon="-118.29081">
        <ele>182.0</ele>
      </trkpt>
      <trkpt lat="34.135" lon="-118.29077">
        <ele>182.0</ele>
      </trkpt>
      <trkpt lat="34.13508" lon="-118.29056">
        <ele>176.0</ele>
      </trkpt>
      <trkpt lat="34.13506" lon="-118.29047">
        <ele>176.0</ele>
      </trkpt>
      <trkpt lat="34.13515" lon="-118.29034">
        <ele>174.0</ele>
      </trkpt>
      <trkpt lat="34.13515" lon="-118.29034">
        <ele>174.0</ele>
      </trkpt>
      <trkpt lat="34.13515" lon="-118.29034">
        <ele>174.0</ele>
      </trkpt>
      <trkpt lat="34.13516342136025" lon="-118.2902192077578">
        <ele>174.0</ele>
      </trkpt>
      <trkpt lat="34.13517" lon="-118.29022">
        <ele>174.0</ele>
      </trkpt>
      <trkpt lat="34.13502" lon="-118.29002">
        <ele>172.0</ele>
      </trkpt>
      <trkpt lat="34.13495" lon="-118.29008">
        <ele>172.0</ele>
      </trkpt>
      <trkpt lat="34.13495000001251" lon="-118.2900800000125">
        <ele>172.0</ele>
      </trkpt>
      <trkpt lat="34.13491" lon="-118.29004">
        <ele>172.0</ele>
      </trkpt>
      <trkpt lat="34.13491" lon="-118.29004">
        <ele>172.0</ele>
      </trkpt>
      <trkpt lat="34.13491" lon="-118.29004">
        <ele>172.0</ele>
      </trkpt>
      <trkpt lat="34.13486" lon="-118.29011">
        <ele>174.0</ele>
      </trkpt>
      <trkpt lat="34.13468" lon="-118.29011">
        <ele>174.0</ele>
      </trkpt>
      <trkpt lat="34.13443" lon="-118.28998">
        <ele>172.0</ele>
      </trkpt>
      <trkpt lat="34.13425" lon="-118.29002">
        <ele>171.0</ele>
      </trkpt>
      <trkpt lat="34.13415" lon="-118.2901">
        <ele>171.0</ele>
      </trkpt>
      <trkpt lat="34.13399" lon="-118.29031">
        <ele>180.0</ele>
      </trkpt>
      <trkpt lat="34.13394" lon="-118.29034">
        <ele>180.0</ele>
      </trkpt>
      <trkpt lat="34.13394" lon="-118.29034">
        <ele>180.0</ele>
      </trkpt>
      <trkpt lat="34.13394" lon="-118.29034">
        <ele>180.0</ele>
      </trkpt>
      <trkpt lat="34.13384" lon="-118.29029">
        <ele>180.0</ele>
      </trkpt>
      <trkpt lat="34.13377" lon="-118.29019">
        <ele>180.0</ele>
      </trkpt>
      <trkpt lat="34.13365" lon="-118.28981">
        <ele>178.0</ele>
      </trkpt>
      <trkpt lat="34.13365" lon="-118.28971">
        <ele>178.0</ele>
      </trkpt>
      <trkpt lat="34.13383" lon="-118.28939">
        <ele>166.0</ele>
      </trkpt>
      <trkpt lat="34.13383" lon="-118.28939">
        <ele>166.0</ele>
      </trkpt>
      <trkpt lat="34.13376" lon="-118.28915">
        <ele>164.0</ele>
      </trkpt>
      <trkpt lat="34.13365" lon="-118.28898">
        <ele>166.0</ele>
      </trkpt>
      <trkpt lat="34.13344" lon="-118.28879">
        <ele>184.0</ele>
      </trkpt>
      <trkpt lat="34.13339" lon="-118.28872">
        <ele>179.0</ele>
      </trkpt>
      <trkpt lat="34.13332" lon="-118.28847">
        <ele>176.0</ele>
      </trkpt>
      <trkpt lat="34.13325" lon="-118.28836">
        <ele>176.0</ele>
      </trkpt>
      <trkpt lat="34.13307" lon="-118.28828">
        <ele>184.0</ele>
      </trkpt>
      <trkpt lat="34.13279" lon="-118.2883">
        <ele>196.0</ele>
      </trkpt>
      <trkpt lat="34.13274" lon="-118.28827">
        <ele>196.0</ele>
      </trkpt>
      <trkpt lat="34.13269" lon="-118.28818">
        <ele>194.0</ele>
      </trkpt>
      <trkpt lat="34.13269" lon="-118.28818">
        <ele>194.0</ele>
      </trkpt>
      <trkpt lat="34.13269" lon="-118.28818">
        <ele>194.0</ele>
      </trkpt>
      <trkpt lat="34.13285" lon="-118.28794">
        <ele>194.0</ele>
      </trkpt>
      <trkpt lat="34.13294" lon="-118.28771">
        <ele>185.0</ele>
      </trkpt>
      <trkpt lat="34.13292789436979" lon="-118.2876010503904">
        <ele>186.0</ele>
      </trkpt>
      <trkpt lat="34.13292789436979" lon="-118.2876010503904">
        <ele>186.0</ele>
      </trkpt>
      <trkpt lat="34.13291" lon="-118.28744">
        <ele>195.0</ele>
      </trkpt>
      <trkpt lat="34.13299" lon="-118.28699">
        <ele>182.0</ele>
      </trkpt>
      <trkpt lat="34.13299" lon="-118.28699">
        <ele>182.0</ele>
      </trkpt>
      <trkpt lat="34.13297334039036" lon="-118.2869289147647">
        <ele>182.0</ele>
      </trkpt>
      <trkpt lat="34.13296986066417" lon="-118.2869161557686">
        <ele>182.0</ele>
      </trkpt>
      <trkpt lat="34.13296558458016" lon="-118.2869004767939">
        <ele>182.0</ele>
      </trkpt>
      <trkpt lat="34.13293708160561" lon="-118.2868935408028">
        <ele>182.0</ele>
      </trkpt>
      <trkpt lat="34.13289" lon="-118.28687">
        <ele>187.0</ele>
      </trkpt>
      <trkpt lat="34.13262" lon="-118.28676">
        <ele>193.0</ele>
      </trkpt>
      <trkpt lat="34.13261" lon="-118.28669">
        <ele>193.0</ele>
      </trkpt>
      <trkpt lat="34.13265" lon="-118.28659">
        <ele>187.0</ele>
      </trkpt>
      <trkpt lat="34.13297" lon="-118.28615">
        <ele>175.0</ele>
      </trkpt>
      <trkpt lat="34.13304" lon="-118.28596">
        <ele>174.0</ele>
      </trkpt>
      <trkpt lat="34.1330113913311" lon="-118.2857433915069">
        <ele>174.0</ele>
      </trkpt>
      <trkpt lat="34.13301139133808" lon="-118.2857433915069">
        <ele>174.0</ele>
      </trkpt>
      <trkpt lat="34.13297" lon="-118.28543">
        <ele>170.0</ele>
      </trkpt>
      <trkpt lat="34.13282" lon="-118.28524">
        <ele>173.0</ele>
      </trkpt>
      <trkpt lat="34.13256" lon="-118.2852">
        <ele>171.0</ele>
      </trkpt>
      <trkpt lat="34.13216" lon="-118.28528">
        <ele>170.0</ele>
      </trkpt>
      <trkpt lat="34.13109" lon="-118.28476">
        <ele>163.0</ele>
      </trkpt>
      <trkpt lat="34.13109" lon="-118.28476">
        <ele>163.0</ele>
      </trkpt>
      <trkpt lat="34.13096" lon="-118.28446">
        <ele>158.0</ele>
      </trkpt>
      <trkpt lat="34.13096" lon="-118.28446">
        <ele>158.0</ele>
      </trkpt>
      <trkpt lat="34.13096" lon="-118.28446">
        <ele>158.0</ele>
      </trkpt>
      <trkpt lat="34.13094" lon="-118.28425">
        <ele>153.0</ele>
      </trkpt>
      <trkpt lat="34.13095" lon="-118.28401">
        <ele>152.0</ele>
      </trkpt>
      <trkpt lat="34.13102" lon="-118.28393">
        <ele>153.0</ele>
      </trkpt>
    </trkseg>
  </trk>
</gpx>
