<?xml version="1.0" encoding="UTF-8"?>
<gpx xmlns:xsi="http://www.w3.org/2001/XMLSchema-instance" version="1.1" creator="The Outbound Collective, Inc. 1.1.1 -- https://www.theoutbound.com" xsi:schemaLocation="http://www.topografix.com/GPX/1/1 http://www.topografix.com/GPX/1/1/gpx.xsd">
  <metadata>
    <name/>
    <time>2026-02-19T21:59:12+00:00</time>
    <bound minlat="34.13205" minlon="-118.337919116" maxlat="34.14355" maxlon="-118.321600556"/>
  </metadata>
  <trk>
    <name/>
    <trkseg>
      <trkpt lat="34.132135033" lon="-118.337919116">
        <ele>297.0</ele>
      </trkpt>
      <trkpt lat="34.132299327" lon="-118.337452412">
        <ele>298.0</ele>
      </trkpt>
      <trkpt lat="34.132299327" lon="-118.337312937">
        <ele>298.0</ele>
      </trkpt>
      <trkpt lat="34.132121712" lon="-118.33714664">
        <ele>298.0</ele>
      </trkpt>
      <trkpt lat="34.13209063" lon="-118.337001801">
        <ele>297.0</ele>
      </trkpt>
      <trkpt lat="34.13205" lon="-118.337003221">
        <ele>292.0</ele>
      </trkpt>
      <trkpt lat="34.13205" lon="-118.33695">
        <ele>292.0</ele>
      </trkpt>
      <trkpt lat="34.13211" lon="-118.33686">
        <ele>297.0</ele>
      </trkpt>
      <trkpt lat="34.13227" lon="-118.33677">
        <ele>296.0</ele>
      </trkpt>
      <trkpt lat="34.13248" lon="-118.33647">
        <ele>303.0</ele>
      </trkpt>
      <trkpt lat="34.13258" lon="-118.33645">
        <ele>303.0</ele>
      </trkpt>
      <trkpt lat="34.13277" lon="-118.33651">
        <ele>310.0</ele>
      </trkpt>
      <trkpt lat="34.13302" lon="-118.33644">
        <ele>313.0</ele>
      </trkpt>
      <trkpt lat="34.13316" lon="-118.33635">
        <ele>313.0</ele>
      </trkpt>
      <trkpt lat="34.13324" lon="-118.33622">
        <ele>316.0</ele>
      </trkpt>
      <trkpt lat="34.13329" lon="-118.33594">
        <ele>317.0</ele>
      </trkpt>
      <trkpt lat="34.13347" lon="-118.33564">
        <ele>319.0</ele>
      </trkpt>
      <trkpt lat="34.13354" lon="-118.33533">
        <ele>323.0</ele>
      </trkpt>
      <trkpt lat="34.13353" lon="-118.33503">
        <ele>325.0</ele>
      </trkpt>
      <trkpt lat="34.13356" lon="-118.3349">
        <ele>325.0</ele>
      </trkpt>
      <trkpt lat="34.13366" lon="-118.33478">
        <ele>324.0</ele>
      </trkpt>
      <trkpt lat="34.1338" lon="-118.3347">
        <ele>329.0</ele>
      </trkpt>
      <trkpt lat="34.13427" lon="-118.33456">
        <ele>332.0</ele>
      </trkpt>
      <trkpt lat="34.13437" lon="-118.33458">
        <ele>339.0</ele>
      </trkpt>
      <trkpt lat="34.13449" lon="-118.33427">
        <ele>341.0</ele>
      </trkpt>
      <trkpt lat="34.13457" lon="-118.33423">
        <ele>341.0</ele>
      </trkpt>
      <trkpt lat="34.13466" lon="-118.33411">
        <ele>353.0</ele>
      </trkpt>
      <trkpt lat="34.13476" lon="-118.33406">
        <ele>353.0</ele>
      </trkpt>
      <trkpt lat="34.13481" lon="-118.33378">
        <ele>358.0</ele>
      </trkpt>
      <trkpt lat="34.13474" lon="-118.33354">
        <ele>368.0</ele>
      </trkpt>
      <trkpt lat="34.13489" lon="-118.33328">
        <ele>392.0</ele>
      </trkpt>
      <trkpt lat="34.13489" lon="-118.33318">
        <ele>416.0</ele>
      </trkpt>
      <trkpt lat="34.13487" lon="-118.33306">
        <ele>416.0</ele>
      </trkpt>
      <trkpt lat="34.13477" lon="-118.333">
        <ele>395.0</ele>
      </trkpt>
      <trkpt lat="34.13465" lon="-118.33284">
        <ele>411.0</ele>
      </trkpt>
      <trkpt lat="34.1346" lon="-118.33257">
        <ele>417.0</ele>
      </trkpt>
      <trkpt lat="34.13453" lon="-118.33245">
        <ele>396.0</ele>
      </trkpt>
      <trkpt lat="34.13474" lon="-118.33183">
        <ele>407.0</ele>
      </trkpt>
      <trkpt lat="34.13474" lon="-118.33172">
        <ele>398.0</ele>
      </trkpt>
      <trkpt lat="34.13495" lon="-118.33146">
        <ele>405.0</ele>
      </trkpt>
      <trkpt lat="34.13506" lon="-118.33138">
        <ele>405.0</ele>
      </trkpt>
      <trkpt lat="34.13543" lon="-118.33122">
        <ele>446.0</ele>
      </trkpt>
      <trkpt lat="34.13555" lon="-118.33109">
        <ele>446.0</ele>
      </trkpt>
      <trkpt lat="34.13563" lon="-118.33062">
        <ele>435.0</ele>
      </trkpt>
      <trkpt lat="34.13572" lon="-118.33054">
        <ele>455.0</ele>
      </trkpt>
      <trkpt lat="34.13574" lon="-118.33046">
        <ele>455.0</ele>
      </trkpt>
      <trkpt lat="34.13582" lon="-118.33039">
        <ele>448.0</ele>
      </trkpt>
      <trkpt lat="34.1359" lon="-118.33021">
        <ele>448.0</ele>
      </trkpt>
      <trkpt lat="34.1361" lon="-118.32998">
        <ele>462.0</ele>
      </trkpt>
      <trkpt lat="34.13613" lon="-118.32998">
        <ele>462.0</ele>
      </trkpt>
      <trkpt lat="34.13615" lon="-118.33003">
        <ele>462.0</ele>
      </trkpt>
      <trkpt lat="34.13615" lon="-118.33014">
        <ele>472.0</ele>
      </trkpt>
      <trkpt lat="34.13609" lon="-118.33029">
        <ele>472.0</ele>
      </trkpt>
      <trkpt lat="34.13606" lon="-118.33077">
        <ele>488.0</ele>
      </trkpt>
      <trkpt lat="34.13613" lon="-118.33122">
        <ele>492.0</ele>
      </trkpt>
      <trkpt lat="34.13609" lon="-118.33137">
        <ele>495.0</ele>
      </trkpt>
      <trkpt lat="34.13613" lon="-118.3314">
        <ele>495.0</ele>
      </trkpt>
      <trkpt lat="34.13612" lon="-118.33145">
        <ele>495.0</ele>
      </trkpt>
      <trkpt lat="34.13616" lon="-118.33152">
        <ele>495.0</ele>
      </trkpt>
      <trkpt lat="34.13624" lon="-118.33136">
        <ele>495.0</ele>
      </trkpt>
      <trkpt lat="34.13637" lon="-118.33087">
        <ele>498.0</ele>
      </trkpt>
      <trkpt lat="34.13657" lon="-118.33046">
        <ele>505.0</ele>
      </trkpt>
      <trkpt lat="34.13662" lon="-118.33044">
        <ele>505.0</ele>
      </trkpt>
      <trkpt lat="34.13667" lon="-118.33022">
        <ele>506.0</ele>
      </trkpt>
      <trkpt lat="34.13714" lon="-118.32884">
        <ele>507.0</ele>
      </trkpt>
      <trkpt lat="34.13716" lon="-118.32844">
        <ele>512.0</ele>
      </trkpt>
      <trkpt lat="34.13725" lon="-118.32782">
        <ele>515.0</ele>
      </trkpt>
      <trkpt lat="34.13724" lon="-118.32683">
        <ele>521.0</ele>
      </trkpt>
      <trkpt lat="34.13717" lon="-118.32651">
        <ele>523.0</ele>
      </trkpt>
      <trkpt lat="34.13716" lon="-118.32608">
        <ele>523.0</ele>
      </trkpt>
      <trkpt lat="34.13683" lon="-118.32562">
        <ele>506.0</ele>
      </trkpt>
      <trkpt lat="34.13681" lon="-118.32537">
        <ele>495.0</ele>
      </trkpt>
      <trkpt lat="34.1367" lon="-118.32495">
        <ele>484.0</ele>
      </trkpt>
      <trkpt lat="34.13658" lon="-118.32483">
        <ele>472.0</ele>
      </trkpt>
      <trkpt lat="34.13629" lon="-118.32476">
        <ele>470.0</ele>
      </trkpt>
      <trkpt lat="34.13619" lon="-118.32457">
        <ele>458.0</ele>
      </trkpt>
      <trkpt lat="34.13582" lon="-118.32428">
        <ele>461.0</ele>
      </trkpt>
      <trkpt lat="34.13497" lon="-118.32399">
        <ele>478.0</ele>
      </trkpt>
      <trkpt lat="34.13475" lon="-118.32357">
        <ele>478.0</ele>
      </trkpt>
      <trkpt lat="34.13466" lon="-118.32329">
        <ele>477.0</ele>
      </trkpt>
      <trkpt lat="34.13463" lon="-118.32312">
        <ele>482.0</ele>
      </trkpt>
      <trkpt lat="34.13467" lon="-118.3229">
        <ele>487.0</ele>
      </trkpt>
      <trkpt lat="34.13466" lon="-118.32252">
        <ele>490.0</ele>
      </trkpt>
      <trkpt lat="34.13457" lon="-118.3225">
        <ele>495.0</ele>
      </trkpt>
      <trkpt lat="34.13453" lon="-118.32245">
        <ele>495.0</ele>
      </trkpt>
      <trkpt lat="34.13441" lon="-118.32194">
        <ele>504.0</ele>
      </trkpt>
      <trkpt lat="34.134476366" lon="-118.32172036">
        <ele>504.0</ele>
      </trkpt>
      <trkpt lat="34.134648248" lon="-118.321600556">
        <ele>504.0</ele>
      </trkpt>
      <trkpt lat="34.134581644" lon="-118.321954608">
        <ele>504.0</ele>
      </trkpt>
      <trkpt lat="34.134661569" lon="-118.321608603">
        <ele>504.0</ele>
      </trkpt>
      <trkpt lat="34.134479518" lon="-118.32167834">
        <ele>504.0</ele>
      </trkpt>
      <trkpt lat="34.134421795" lon="-118.321930468">
        <ele>504.0</ele>
      </trkpt>
      <trkpt lat="34.13453" lon="-118.32245">
        <ele>495.0</ele>
      </trkpt>
      <trkpt lat="34.13457" lon="-118.3225">
        <ele>495.0</ele>
      </trkpt>
      <trkpt lat="34.13466" lon="-118.32252">
        <ele>490.0</ele>
      </trkpt>
      <trkpt lat="34.13467" lon="-118.3229">
        <ele>487.0</ele>
      </trkpt>
      <trkpt lat="34.13463" lon="-118.32312">
        <ele>482.0</ele>
      </trkpt>
      <trkpt lat="34.13475" lon="-118.32357">
        <ele>478.0</ele>
      </trkpt>
      <trkpt lat="34.13497" lon="-118.32399">
        <ele>478.0</ele>
      </trkpt>
      <trkpt lat="34.13582" lon="-118.32428">
        <ele>461.0</ele>
      </trkpt>
      <trkpt lat="34.13619" lon="-118.32457">
        <ele>458.0</ele>
      </trkpt>
      <trkpt lat="34.13629" lon="-118.32476">
        <ele>470.0</ele>
      </trkpt>
      <trkpt lat="34.13658" lon="-118.32483">
        <ele>472.0</ele>
      </trkpt>
      <trkpt lat="34.1367" lon="-118.32495">
        <ele>484.0</ele>
      </trkpt>
      <trkpt lat="34.13681" lon="-118.32537">
        <ele>495.0</ele>
      </trkpt>
      <trkpt lat="34.13683" lon="-118.32562">
        <ele>506.0</ele>
      </trkpt>
      <trkpt lat="34.13716" lon="-118.32608">
        <ele>523.0</ele>
      </trkpt>
      <trkpt lat="34.13717" lon="-118.32651">
        <ele>523.0</ele>
      </trkpt>
      <trkpt lat="34.13724" lon="-118.32683">
        <ele>521.0</ele>
      </trkpt>
      <trkpt lat="34.13725" lon="-118.32782">
        <ele>515.0</ele>
      </trkpt>
      <trkpt lat="34.1375" lon="-118.32787">
        <ele>511.0</ele>
      </trkpt>
      <trkpt lat="34.13762" lon="-118.32797">
        <ele>510.0</ele>
      </trkpt>
      <trkpt lat="34.13777" lon="-118.32799">
        <ele>500.0</ele>
      </trkpt>
      <trkpt lat="34.13812" lon="-118.32814">
        <ele>494.0</ele>
      </trkpt>
      <trkpt lat="34.13822" lon="-118.32829">
        <ele>494.0</ele>
      </trkpt>
      <trkpt lat="34.1383" lon="-118.32854">
        <ele>493.0</ele>
      </trkpt>
      <trkpt lat="34.13857" lon="-118.329">
        <ele>486.0</ele>
      </trkpt>
      <trkpt lat="34.13875" lon="-118.32915">
        <ele>486.0</ele>
      </trkpt>
      <trkpt lat="34.13913" lon="-118.32913">
        <ele>469.0</ele>
      </trkpt>
      <trkpt lat="34.1397" lon="-118.33008">
        <ele>436.0</ele>
      </trkpt>
      <trkpt lat="34.13985" lon="-118.3302">
        <ele>434.0</ele>
      </trkpt>
      <trkpt lat="34.14007" lon="-118.33054">
        <ele>433.0</ele>
      </trkpt>
      <trkpt lat="34.14018" lon="-118.33063">
        <ele>430.0</ele>
      </trkpt>
      <trkpt lat="34.1405" lon="-118.33065">
        <ele>422.0</ele>
      </trkpt>
      <trkpt lat="34.14091" lon="-118.33056">
        <ele>411.0</ele>
      </trkpt>
      <trkpt lat="34.14137" lon="-118.33053">
        <ele>401.0</ele>
      </trkpt>
      <trkpt lat="34.14168" lon="-118.3306">
        <ele>394.0</ele>
      </trkpt>
      <trkpt lat="34.14207" lon="-118.33061">
        <ele>382.0</ele>
      </trkpt>
      <trkpt lat="34.14235" lon="-118.33067">
        <ele>373.0</ele>
      </trkpt>
      <trkpt lat="34.14258" lon="-118.33061">
        <ele>369.0</ele>
      </trkpt>
      <trkpt lat="34.14268" lon="-118.33065">
        <ele>369.0</ele>
      </trkpt>
      <trkpt lat="34.14285" lon="-118.33061">
        <ele>369.0</ele>
      </trkpt>
      <trkpt lat="34.14302" lon="-118.33069">
        <ele>369.0</ele>
      </trkpt>
      <trkpt lat="34.14317" lon="-118.33084">
        <ele>368.0</ele>
      </trkpt>
      <trkpt lat="34.14332" lon="-118.33146">
        <ele>357.0</ele>
      </trkpt>
      <trkpt lat="34.14337" lon="-118.33188">
        <ele>350.0</ele>
      </trkpt>
      <trkpt lat="34.14347" lon="-118.33217">
        <ele>349.0</ele>
      </trkpt>
      <trkpt lat="34.14336" lon="-118.33277">
        <ele>331.0</ele>
      </trkpt>
      <trkpt lat="34.14336" lon="-118.33306">
        <ele>323.0</ele>
      </trkpt>
      <trkpt lat="34.14344" lon="-118.33332">
        <ele>318.0</ele>
      </trkpt>
      <trkpt lat="34.14337" lon="-118.33402">
        <ele>297.0</ele>
      </trkpt>
      <trkpt lat="34.14332" lon="-118.33422">
        <ele>286.0</ele>
      </trkpt>
      <trkpt lat="34.14345" lon="-118.3344">
        <ele>282.0</ele>
      </trkpt>
      <trkpt lat="34.14345" lon="-118.3345">
        <ele>282.0</ele>
      </trkpt>
      <trkpt lat="34.14355" lon="-118.33476">
        <ele>264.0</ele>
      </trkpt>
      <trkpt lat="34.14354" lon="-118.33494">
        <ele>260.0</ele>
      </trkpt>
      <trkpt lat="34.143517478" lon="-118.335053085">
        <ele>260.0</ele>
      </trkpt>
      <trkpt lat="34.1432" lon="-118.33509">
        <ele>264.0</ele>
      </trkpt>
      <trkpt lat="34.14306" lon="-118.33529">
        <ele>252.0</ele>
      </trkpt>
      <trkpt lat="34.14294" lon="-118.33528">
        <ele>252.0</ele>
      </trkpt>
      <trkpt lat="34.14256" lon="-118.33479">
        <ele>257.0</ele>
      </trkpt>
      <trkpt lat="34.14236" lon="-118.33477">
        <ele>261.0</ele>
      </trkpt>
      <trkpt lat="34.14217" lon="-118.33496">
        <ele>256.0</ele>
      </trkpt>
      <trkpt lat="34.1421" lon="-118.3351">
        <ele>256.0</ele>
      </trkpt>
      <trkpt lat="34.14212" lon="-118.33538">
        <ele>253.0</ele>
      </trkpt>
      <trkpt lat="34.14185" lon="-118.3361">
        <ele>256.0</ele>
      </trkpt>
      <trkpt lat="34.14184" lon="-118.33633">
        <ele>252.0</ele>
      </trkpt>
      <trkpt lat="34.14175" lon="-118.33672">
        <ele>267.0</ele>
      </trkpt>
      <trkpt lat="34.14165" lon="-118.3369">
        <ele>266.0</ele>
      </trkpt>
      <trkpt lat="34.1415" lon="-118.33688">
        <ele>263.0</ele>
      </trkpt>
      <trkpt lat="34.141" lon="-118.33592">
        <ele>297.0</ele>
      </trkpt>
      <trkpt lat="34.14055" lon="-118.33551">
        <ele>302.0</ele>
      </trkpt>
      <trkpt lat="34.1399" lon="-118.33525">
        <ele>303.0</ele>
      </trkpt>
      <trkpt lat="34.13976" lon="-118.33509">
        <ele>304.0</ele>
      </trkpt>
      <trkpt lat="34.13964" lon="-118.33505">
        <ele>304.0</ele>
      </trkpt>
      <trkpt lat="34.13947" lon="-118.33517">
        <ele>307.0</ele>
      </trkpt>
      <trkpt lat="34.13936" lon="-118.33553">
        <ele>302.0</ele>
      </trkpt>
      <trkpt lat="34.1393" lon="-118.33597">
        <ele>306.0</ele>
      </trkpt>
      <trkpt lat="34.13917" lon="-118.33634">
        <ele>301.0</ele>
      </trkpt>
      <trkpt lat="34.13912" lon="-118.3364">
        <ele>301.0</ele>
      </trkpt>
      <trkpt lat="34.13892" lon="-118.33643">
        <ele>310.0</ele>
      </trkpt>
      <trkpt lat="34.13859" lon="-118.33637">
        <ele>312.0</ele>
      </trkpt>
      <trkpt lat="34.13844" lon="-118.3363">
        <ele>314.0</ele>
      </trkpt>
      <trkpt lat="34.13821" lon="-118.33612">
        <ele>327.0</ele>
      </trkpt>
      <trkpt lat="34.13772" lon="-118.33596">
        <ele>329.0</ele>
      </trkpt>
      <trkpt lat="34.13717" lon="-118.33595">
        <ele>338.0</ele>
      </trkpt>
      <trkpt lat="34.13686" lon="-118.33552">
        <ele>342.0</ele>
      </trkpt>
      <trkpt lat="34.13652" lon="-118.33534">
        <ele>346.0</ele>
      </trkpt>
      <trkpt lat="34.13631" lon="-118.33541">
        <ele>346.0</ele>
      </trkpt>
      <trkpt lat="34.13611" lon="-118.33537">
        <ele>345.0</ele>
      </trkpt>
      <trkpt lat="34.13593" lon="-118.33524">
        <ele>341.0</ele>
      </trkpt>
      <trkpt lat="34.13571" lon="-118.33502">
        <ele>347.0</ele>
      </trkpt>
      <trkpt lat="34.13553" lon="-118.33502">
        <ele>340.0</ele>
      </trkpt>
      <trkpt lat="34.13538" lon="-118.33492">
        <ele>336.0</ele>
      </trkpt>
      <trkpt lat="34.13525" lon="-118.33475">
        <ele>346.0</ele>
      </trkpt>
      <trkpt lat="34.13498" lon="-118.33465">
        <ele>343.0</ele>
      </trkpt>
      <trkpt lat="34.13458" lon="-118.33465">
        <ele>336.0</ele>
      </trkpt>
      <trkpt lat="34.13427" lon="-118.33456">
        <ele>332.0</ele>
      </trkpt>
      <trkpt lat="34.1338" lon="-118.3347">
        <ele>329.0</ele>
      </trkpt>
      <trkpt lat="34.13366" lon="-118.33478">
        <ele>324.0</ele>
      </trkpt>
      <trkpt lat="34.13356" lon="-118.3349">
        <ele>325.0</ele>
      </trkpt>
      <trkpt lat="34.13353" lon="-118.33503">
        <ele>325.0</ele>
      </trkpt>
      <trkpt lat="34.13354" lon="-118.33533">
        <ele>323.0</ele>
      </trkpt>
      <trkpt lat="34.13347" lon="-118.33564">
        <ele>319.0</ele>
      </trkpt>
      <trkpt lat="34.13329" lon="-118.33594">
        <ele>317.0</ele>
      </trkpt>
      <trkpt lat="34.13324" lon="-118.33622">
        <ele>316.0</ele>
      </trkpt>
      <trkpt lat="34.13316" lon="-118.33635">
        <ele>313.0</ele>
      </trkpt>
      <trkpt lat="34.13302" lon="-118.33644">
        <ele>313.0</ele>
      </trkpt>
      <trkpt lat="34.13277" lon="-118.33651">
        <ele>310.0</ele>
      </trkpt>
      <trkpt lat="34.13258" lon="-118.33645">
        <ele>303.0</ele>
      </trkpt>
      <trkpt lat="34.13248" lon="-118.33647">
        <ele>303.0</ele>
      </trkpt>
      <trkpt lat="34.13227" lon="-118.33677">
        <ele>296.0</ele>
      </trkpt>
      <trkpt lat="34.13211" lon="-118.33686">
        <ele>297.0</ele>
      </trkpt>
      <trkpt lat="34.13205" lon="-118.33695">
        <ele>292.0</ele>
      </trkpt>
      <trkpt lat="34.13205" lon="-118.33706">
        <ele>292.0</ele>
      </trkpt>
      <trkpt lat="34.1321" lon="-118.33715">
        <ele>298.0</ele>
      </trkpt>
      <trkpt lat="34.13224" lon="-118.33721">
        <ele>298.0</ele>
      </trkpt>
      <trkpt lat="34.13231" lon="-118.33739">
        <ele>298.0</ele>
      </trkpt>
      <trkpt lat="34.13215" lon="-118.3379">
        <ele>298.0</ele>
      </trkpt>
    </trkseg>
  </trk>
</gpx>
