<?xml version="1.0" encoding="UTF-8"?>
<gpx xmlns:xsi="http://www.w3.org/2001/XMLSchema-instance" version="1.1" creator="The Outbound Collective, Inc. 1.1.1 -- https://www.theoutbound.com" xsi:schemaLocation="http://www.topografix.com/GPX/1/1 http://www.topografix.com/GPX/1/1/gpx.xsd">
  <metadata>
    <name/>
    <time>2026-02-19T21:58:58+00:00</time>
    <bound minlat="34.21466" minlon="-118.2913609676263" maxlat="34.23408660235992" maxlon="-118.27395"/>
  </metadata>
  <trk>
    <name/>
    <trkseg>
      <trkpt lat="34.23408660235992" lon="-118.2913398742676">
        <ele>507.0</ele>
      </trkpt>
      <trkpt lat="34.23405907787217" lon="-118.2913609676263">
        <ele>507.0</ele>
      </trkpt>
      <trkpt lat="34.23398" lon="-118.29121">
        <ele>506.0</ele>
      </trkpt>
      <trkpt lat="34.23392" lon="-118.29056">
        <ele>507.0</ele>
      </trkpt>
      <trkpt lat="34.23367" lon="-118.28959">
        <ele>514.0</ele>
      </trkpt>
      <trkpt lat="34.23358" lon="-118.28911">
        <ele>516.0</ele>
      </trkpt>
      <trkpt lat="34.23355" lon="-118.28882">
        <ele>516.0</ele>
      </trkpt>
      <trkpt lat="34.2335" lon="-118.288">
        <ele>519.0</ele>
      </trkpt>
      <trkpt lat="34.23351" lon="-118.28759">
        <ele>522.0</ele>
      </trkpt>
      <trkpt lat="34.23356" lon="-118.28723">
        <ele>525.0</ele>
      </trkpt>
      <trkpt lat="34.23382" lon="-118.28621">
        <ele>530.0</ele>
      </trkpt>
      <trkpt lat="34.23385" lon="-118.28591">
        <ele>532.0</ele>
      </trkpt>
      <trkpt lat="34.23371" lon="-118.28431">
        <ele>540.0</ele>
      </trkpt>
      <trkpt lat="34.23371" lon="-118.28431">
        <ele>540.0</ele>
      </trkpt>
      <trkpt lat="34.23364" lon="-118.28432">
        <ele>540.0</ele>
      </trkpt>
      <trkpt lat="34.23356" lon="-118.28428">
        <ele>542.0</ele>
      </trkpt>
      <trkpt lat="34.23345" lon="-118.28417">
        <ele>544.0</ele>
      </trkpt>
      <trkpt lat="34.23318" lon="-118.28335">
        <ele>553.0</ele>
      </trkpt>
      <trkpt lat="34.23317" lon="-118.28316">
        <ele>557.0</ele>
      </trkpt>
      <trkpt lat="34.23323" lon="-118.28269">
        <ele>559.0</ele>
      </trkpt>
      <trkpt lat="34.23319" lon="-118.28256">
        <ele>567.0</ele>
      </trkpt>
      <trkpt lat="34.23308" lon="-118.28235">
        <ele>571.0</ele>
      </trkpt>
      <trkpt lat="34.23309" lon="-118.28226">
        <ele>571.0</ele>
      </trkpt>
      <trkpt lat="34.23315" lon="-118.28213">
        <ele>571.0</ele>
      </trkpt>
      <trkpt lat="34.23318" lon="-118.282">
        <ele>574.0</ele>
      </trkpt>
      <trkpt lat="34.2331" lon="-118.28166">
        <ele>576.0</ele>
      </trkpt>
      <trkpt lat="34.23309" lon="-118.28124">
        <ele>577.0</ele>
      </trkpt>
      <trkpt lat="34.23304" lon="-118.28103">
        <ele>577.0</ele>
      </trkpt>
      <trkpt lat="34.23294" lon="-118.28086">
        <ele>576.0</ele>
      </trkpt>
      <trkpt lat="34.23284" lon="-118.2808">
        <ele>580.0</ele>
      </trkpt>
      <trkpt lat="34.23272" lon="-118.28083">
        <ele>580.0</ele>
      </trkpt>
      <trkpt lat="34.23266" lon="-118.28093">
        <ele>580.0</ele>
      </trkpt>
      <trkpt lat="34.23266" lon="-118.28093">
        <ele>580.0</ele>
      </trkpt>
      <trkpt lat="34.23255" lon="-118.28132">
        <ele>576.0</ele>
      </trkpt>
      <trkpt lat="34.2325" lon="-118.28138">
        <ele>576.0</ele>
      </trkpt>
      <trkpt lat="34.23239" lon="-118.28138">
        <ele>576.0</ele>
      </trkpt>
      <trkpt lat="34.23213" lon="-118.28108">
        <ele>579.0</ele>
      </trkpt>
      <trkpt lat="34.23194" lon="-118.28077">
        <ele>582.0</ele>
      </trkpt>
      <trkpt lat="34.23165" lon="-118.28042">
        <ele>579.0</ele>
      </trkpt>
      <trkpt lat="34.23142" lon="-118.28027">
        <ele>578.0</ele>
      </trkpt>
      <trkpt lat="34.23131" lon="-118.28007">
        <ele>583.0</ele>
      </trkpt>
      <trkpt lat="34.23105618168507" lon="-118.2798754059586">
        <ele>581.0</ele>
      </trkpt>
      <trkpt lat="34.23105618175467" lon="-118.2798754059585">
        <ele>581.0</ele>
      </trkpt>
      <trkpt lat="34.23101" lon="-118.27984">
        <ele>584.0</ele>
      </trkpt>
      <trkpt lat="34.23093" lon="-118.27974">
        <ele>583.0</ele>
      </trkpt>
      <trkpt lat="34.23085" lon="-118.27952">
        <ele>585.0</ele>
      </trkpt>
      <trkpt lat="34.23077" lon="-118.27941">
        <ele>585.0</ele>
      </trkpt>
      <trkpt lat="34.23048" lon="-118.27923">
        <ele>587.0</ele>
      </trkpt>
      <trkpt lat="34.23039" lon="-118.2792">
        <ele>594.0</ele>
      </trkpt>
      <trkpt lat="34.23019" lon="-118.27919">
        <ele>594.0</ele>
      </trkpt>
      <trkpt lat="34.23006" lon="-118.27923">
        <ele>601.0</ele>
      </trkpt>
      <trkpt lat="34.22971" lon="-118.27956">
        <ele>600.0</ele>
      </trkpt>
      <trkpt lat="34.22932" lon="-118.27983">
        <ele>597.0</ele>
      </trkpt>
      <trkpt lat="34.22887" lon="-118.2798">
        <ele>603.0</ele>
      </trkpt>
      <trkpt lat="34.2285" lon="-118.27971">
        <ele>609.0</ele>
      </trkpt>
      <trkpt lat="34.22821" lon="-118.27969">
        <ele>614.0</ele>
      </trkpt>
      <trkpt lat="34.22805" lon="-118.27973">
        <ele>623.0</ele>
      </trkpt>
      <trkpt lat="34.22795" lon="-118.27985">
        <ele>623.0</ele>
      </trkpt>
      <trkpt lat="34.22786" lon="-118.28">
        <ele>628.0</ele>
      </trkpt>
      <trkpt lat="34.22773" lon="-118.2804">
        <ele>626.0</ele>
      </trkpt>
      <trkpt lat="34.22763" lon="-118.28055">
        <ele>634.0</ele>
      </trkpt>
      <trkpt lat="34.22754" lon="-118.28062">
        <ele>634.0</ele>
      </trkpt>
      <trkpt lat="34.22728" lon="-118.28057">
        <ele>641.0</ele>
      </trkpt>
      <trkpt lat="34.22719" lon="-118.28058">
        <ele>641.0</ele>
      </trkpt>
      <trkpt lat="34.22714" lon="-118.28062">
        <ele>641.0</ele>
      </trkpt>
      <trkpt lat="34.22712" lon="-118.28071">
        <ele>643.0</ele>
      </trkpt>
      <trkpt lat="34.22715" lon="-118.28077">
        <ele>643.0</ele>
      </trkpt>
      <trkpt lat="34.22764" lon="-118.28106">
        <ele>640.0</ele>
      </trkpt>
      <trkpt lat="34.22769" lon="-118.28118">
        <ele>640.0</ele>
      </trkpt>
      <trkpt lat="34.22771" lon="-118.28132">
        <ele>652.0</ele>
      </trkpt>
      <trkpt lat="34.22775" lon="-118.28139">
        <ele>652.0</ele>
      </trkpt>
      <trkpt lat="34.2278" lon="-118.28142">
        <ele>652.0</ele>
      </trkpt>
      <trkpt lat="34.22788" lon="-118.28138">
        <ele>652.0</ele>
      </trkpt>
      <trkpt lat="34.22802" lon="-118.28112">
        <ele>643.0</ele>
      </trkpt>
      <trkpt lat="34.22819" lon="-118.28099">
        <ele>643.0</ele>
      </trkpt>
      <trkpt lat="34.22831" lon="-118.28087">
        <ele>638.0</ele>
      </trkpt>
      <trkpt lat="34.22843" lon="-118.28082">
        <ele>638.0</ele>
      </trkpt>
      <trkpt lat="34.22851" lon="-118.28089">
        <ele>635.0</ele>
      </trkpt>
      <trkpt lat="34.22856" lon="-118.28105">
        <ele>642.0</ele>
      </trkpt>
      <trkpt lat="34.22856" lon="-118.28126">
        <ele>648.0</ele>
      </trkpt>
      <trkpt lat="34.22843" lon="-118.28157">
        <ele>662.0</ele>
      </trkpt>
      <trkpt lat="34.22835" lon="-118.28166">
        <ele>662.0</ele>
      </trkpt>
      <trkpt lat="34.22808" lon="-118.28173">
        <ele>664.0</ele>
      </trkpt>
      <trkpt lat="34.22794" lon="-118.28195">
        <ele>668.0</ele>
      </trkpt>
      <trkpt lat="34.22786" lon="-118.28203">
        <ele>668.0</ele>
      </trkpt>
      <trkpt lat="34.22774" lon="-118.28205">
        <ele>668.0</ele>
      </trkpt>
      <trkpt lat="34.22767" lon="-118.28203">
        <ele>668.0</ele>
      </trkpt>
      <trkpt lat="34.22758" lon="-118.28186">
        <ele>669.0</ele>
      </trkpt>
      <trkpt lat="34.2275" lon="-118.28178">
        <ele>660.0</ele>
      </trkpt>
      <trkpt lat="34.22737" lon="-118.28174">
        <ele>660.0</ele>
      </trkpt>
      <trkpt lat="34.22703" lon="-118.28174">
        <ele>665.0</ele>
      </trkpt>
      <trkpt lat="34.22682" lon="-118.28184">
        <ele>677.0</ele>
      </trkpt>
      <trkpt lat="34.22675" lon="-118.28184">
        <ele>678.0</ele>
      </trkpt>
      <trkpt lat="34.2265" lon="-118.28154">
        <ele>676.0</ele>
      </trkpt>
      <trkpt lat="34.2261" lon="-118.28141">
        <ele>676.0</ele>
      </trkpt>
      <trkpt lat="34.22597" lon="-118.28146">
        <ele>682.0</ele>
      </trkpt>
      <trkpt lat="34.22581" lon="-118.28166">
        <ele>684.0</ele>
      </trkpt>
      <trkpt lat="34.22572" lon="-118.28167">
        <ele>684.0</ele>
      </trkpt>
      <trkpt lat="34.22564" lon="-118.28162">
        <ele>685.0</ele>
      </trkpt>
      <trkpt lat="34.22534" lon="-118.28128">
        <ele>686.0</ele>
      </trkpt>
      <trkpt lat="34.2252" lon="-118.28121">
        <ele>685.0</ele>
      </trkpt>
      <trkpt lat="34.22505" lon="-118.28123">
        <ele>687.0</ele>
      </trkpt>
      <trkpt lat="34.22489" lon="-118.28135">
        <ele>691.0</ele>
      </trkpt>
      <trkpt lat="34.2248" lon="-118.28146">
        <ele>691.0</ele>
      </trkpt>
      <trkpt lat="34.22468" lon="-118.28149">
        <ele>691.0</ele>
      </trkpt>
      <trkpt lat="34.22461" lon="-118.28143">
        <ele>691.0</ele>
      </trkpt>
      <trkpt lat="34.22458" lon="-118.28137">
        <ele>699.0</ele>
      </trkpt>
      <trkpt lat="34.22451" lon="-118.28103">
        <ele>694.0</ele>
      </trkpt>
      <trkpt lat="34.22447" lon="-118.28094">
        <ele>691.0</ele>
      </trkpt>
      <trkpt lat="34.22441" lon="-118.28088">
        <ele>691.0</ele>
      </trkpt>
      <trkpt lat="34.22416" lon="-118.28077">
        <ele>700.0</ele>
      </trkpt>
      <trkpt lat="34.22395" lon="-118.28053">
        <ele>705.0</ele>
      </trkpt>
      <trkpt lat="34.2237" lon="-118.28045">
        <ele>720.0</ele>
      </trkpt>
      <trkpt lat="34.22358" lon="-118.28037">
        <ele>717.0</ele>
      </trkpt>
      <trkpt lat="34.22347" lon="-118.28023">
        <ele>729.0</ele>
      </trkpt>
      <trkpt lat="34.22346" lon="-118.28013">
        <ele>729.0</ele>
      </trkpt>
      <trkpt lat="34.22353" lon="-118.28">
        <ele>719.0</ele>
      </trkpt>
      <trkpt lat="34.22377" lon="-118.27997">
        <ele>710.0</ele>
      </trkpt>
      <trkpt lat="34.22394" lon="-118.2798">
        <ele>714.0</ele>
      </trkpt>
      <trkpt lat="34.22404" lon="-118.2798">
        <ele>715.0</ele>
      </trkpt>
      <trkpt lat="34.22422" lon="-118.27991">
        <ele>709.0</ele>
      </trkpt>
      <trkpt lat="34.22433" lon="-118.27991">
        <ele>710.0</ele>
      </trkpt>
      <trkpt lat="34.22443" lon="-118.27984">
        <ele>716.0</ele>
      </trkpt>
      <trkpt lat="34.22454" lon="-118.27958">
        <ele>722.0</ele>
      </trkpt>
      <trkpt lat="34.22462" lon="-118.27951">
        <ele>721.0</ele>
      </trkpt>
      <trkpt lat="34.2247" lon="-118.27947">
        <ele>721.0</ele>
      </trkpt>
      <trkpt lat="34.22491" lon="-118.27949">
        <ele>718.0</ele>
      </trkpt>
      <trkpt lat="34.22505" lon="-118.27947">
        <ele>718.0</ele>
      </trkpt>
      <trkpt lat="34.22511" lon="-118.27943">
        <ele>718.0</ele>
      </trkpt>
      <trkpt lat="34.22516" lon="-118.27937">
        <ele>711.0</ele>
      </trkpt>
      <trkpt lat="34.22522" lon="-118.27921">
        <ele>716.0</ele>
      </trkpt>
      <trkpt lat="34.22523" lon="-118.27909">
        <ele>716.0</ele>
      </trkpt>
      <trkpt lat="34.22517" lon="-118.27881">
        <ele>721.0</ele>
      </trkpt>
      <trkpt lat="34.22517" lon="-118.27881">
        <ele>721.0</ele>
      </trkpt>
      <trkpt lat="34.22516" lon="-118.27869">
        <ele>726.0</ele>
      </trkpt>
      <trkpt lat="34.22517" lon="-118.27851">
        <ele>726.0</ele>
      </trkpt>
      <trkpt lat="34.2253" lon="-118.27814">
        <ele>730.0</ele>
      </trkpt>
      <trkpt lat="34.22527" lon="-118.27798">
        <ele>730.0</ele>
      </trkpt>
      <trkpt lat="34.2249" lon="-118.27763">
        <ele>734.0</ele>
      </trkpt>
      <trkpt lat="34.22466" lon="-118.27749">
        <ele>741.0</ele>
      </trkpt>
      <trkpt lat="34.22448" lon="-118.27751">
        <ele>746.0</ele>
      </trkpt>
      <trkpt lat="34.22434" lon="-118.27763">
        <ele>746.0</ele>
      </trkpt>
      <trkpt lat="34.22426" lon="-118.27762">
        <ele>747.0</ele>
      </trkpt>
      <trkpt lat="34.22421" lon="-118.27756">
        <ele>747.0</ele>
      </trkpt>
      <trkpt lat="34.22417" lon="-118.27716">
        <ele>750.0</ele>
      </trkpt>
      <trkpt lat="34.22421" lon="-118.27705">
        <ele>750.0</ele>
      </trkpt>
      <trkpt lat="34.22434" lon="-118.27689">
        <ele>746.0</ele>
      </trkpt>
      <trkpt lat="34.22438" lon="-118.27675">
        <ele>747.0</ele>
      </trkpt>
      <trkpt lat="34.2244" lon="-118.27656">
        <ele>747.0</ele>
      </trkpt>
      <trkpt lat="34.2243" lon="-118.2763">
        <ele>750.0</ele>
      </trkpt>
      <trkpt lat="34.22423" lon="-118.27618">
        <ele>752.0</ele>
      </trkpt>
      <trkpt lat="34.22415" lon="-118.2761">
        <ele>752.0</ele>
      </trkpt>
      <trkpt lat="34.22401" lon="-118.27602">
        <ele>759.0</ele>
      </trkpt>
      <trkpt lat="34.22395" lon="-118.2759">
        <ele>761.0</ele>
      </trkpt>
      <trkpt lat="34.224" lon="-118.27578">
        <ele>761.0</ele>
      </trkpt>
      <trkpt lat="34.22428" lon="-118.27547">
        <ele>764.0</ele>
      </trkpt>
      <trkpt lat="34.22436" lon="-118.27547">
        <ele>760.0</ele>
      </trkpt>
      <trkpt lat="34.22486" lon="-118.27569">
        <ele>761.0</ele>
      </trkpt>
      <trkpt lat="34.22498" lon="-118.27566">
        <ele>761.0</ele>
      </trkpt>
      <trkpt lat="34.22507" lon="-118.27558">
        <ele>761.0</ele>
      </trkpt>
      <trkpt lat="34.22511" lon="-118.27551">
        <ele>761.0</ele>
      </trkpt>
      <trkpt lat="34.22515" lon="-118.27537">
        <ele>762.0</ele>
      </trkpt>
      <trkpt lat="34.22514" lon="-118.27527">
        <ele>762.0</ele>
      </trkpt>
      <trkpt lat="34.225" lon="-118.27495">
        <ele>774.0</ele>
      </trkpt>
      <trkpt lat="34.22499" lon="-118.27487">
        <ele>774.0</ele>
      </trkpt>
      <trkpt lat="34.22502" lon="-118.27473">
        <ele>776.0</ele>
      </trkpt>
      <trkpt lat="34.22511" lon="-118.27448">
        <ele>777.0</ele>
      </trkpt>
      <trkpt lat="34.22511" lon="-118.27436">
        <ele>777.0</ele>
      </trkpt>
      <trkpt lat="34.225" lon="-118.27401">
        <ele>777.0</ele>
      </trkpt>
      <trkpt lat="34.22489" lon="-118.27395">
        <ele>777.0</ele>
      </trkpt>
      <trkpt lat="34.22481" lon="-118.27398">
        <ele>775.0</ele>
      </trkpt>
      <trkpt lat="34.22465" lon="-118.27415">
        <ele>781.0</ele>
      </trkpt>
      <trkpt lat="34.22456" lon="-118.2742">
        <ele>783.0</ele>
      </trkpt>
      <trkpt lat="34.22437" lon="-118.27418">
        <ele>783.0</ele>
      </trkpt>
      <trkpt lat="34.22422" lon="-118.27428">
        <ele>783.0</ele>
      </trkpt>
      <trkpt lat="34.22412" lon="-118.2743">
        <ele>783.0</ele>
      </trkpt>
      <trkpt lat="34.22393" lon="-118.27424">
        <ele>785.0</ele>
      </trkpt>
      <trkpt lat="34.22357" lon="-118.27437">
        <ele>794.0</ele>
      </trkpt>
      <trkpt lat="34.22337" lon="-118.27466">
        <ele>800.0</ele>
      </trkpt>
      <trkpt lat="34.2231" lon="-118.27493">
        <ele>802.0</ele>
      </trkpt>
      <trkpt lat="34.22234" lon="-118.27534">
        <ele>805.0</ele>
      </trkpt>
      <trkpt lat="34.2221" lon="-118.27536">
        <ele>805.0</ele>
      </trkpt>
      <trkpt lat="34.22174" lon="-118.27565">
        <ele>810.0</ele>
      </trkpt>
      <trkpt lat="34.22169" lon="-118.27574">
        <ele>816.0</ele>
      </trkpt>
      <trkpt lat="34.2216" lon="-118.27603">
        <ele>815.0</ele>
      </trkpt>
      <trkpt lat="34.22149" lon="-118.27612">
        <ele>813.0</ele>
      </trkpt>
      <trkpt lat="34.22141" lon="-118.27622">
        <ele>813.0</ele>
      </trkpt>
      <trkpt lat="34.22141" lon="-118.27655">
        <ele>814.0</ele>
      </trkpt>
      <trkpt lat="34.22134" lon="-118.27695">
        <ele>816.0</ele>
      </trkpt>
      <trkpt lat="34.22104" lon="-118.27781">
        <ele>820.0</ele>
      </trkpt>
      <trkpt lat="34.22094719169375" lon="-118.2779125776017">
        <ele>824.0</ele>
      </trkpt>
      <trkpt lat="34.22094719174729" lon="-118.2779125776016">
        <ele>824.0</ele>
      </trkpt>
      <trkpt lat="34.22085" lon="-118.27802">
        <ele>825.0</ele>
      </trkpt>
      <trkpt lat="34.22067" lon="-118.27816">
        <ele>829.0</ele>
      </trkpt>
      <trkpt lat="34.22055" lon="-118.27816">
        <ele>829.0</ele>
      </trkpt>
      <trkpt lat="34.22019" lon="-118.27801">
        <ele>837.0</ele>
      </trkpt>
      <trkpt lat="34.22007" lon="-118.27804">
        <ele>848.0</ele>
      </trkpt>
      <trkpt lat="34.22003" lon="-118.27808">
        <ele>848.0</ele>
      </trkpt>
      <trkpt lat="34.21982" lon="-118.27843">
        <ele>849.0</ele>
      </trkpt>
      <trkpt lat="34.21978" lon="-118.27871">
        <ele>848.0</ele>
      </trkpt>
      <trkpt lat="34.21974" lon="-118.27881">
        <ele>850.0</ele>
      </trkpt>
      <trkpt lat="34.21974" lon="-118.27881">
        <ele>850.0</ele>
      </trkpt>
      <trkpt lat="34.21959" lon="-118.27915">
        <ele>852.0</ele>
      </trkpt>
      <trkpt lat="34.21959" lon="-118.27924">
        <ele>852.0</ele>
      </trkpt>
      <trkpt lat="34.21964" lon="-118.2793">
        <ele>852.0</ele>
      </trkpt>
      <trkpt lat="34.21974" lon="-118.27932">
        <ele>855.0</ele>
      </trkpt>
      <trkpt lat="34.21995" lon="-118.27915">
        <ele>853.0</ele>
      </trkpt>
      <trkpt lat="34.22013" lon="-118.27909">
        <ele>853.0</ele>
      </trkpt>
      <trkpt lat="34.22025" lon="-118.27913">
        <ele>854.0</ele>
      </trkpt>
      <trkpt lat="34.22031" lon="-118.27918">
        <ele>854.0</ele>
      </trkpt>
      <trkpt lat="34.22042" lon="-118.2794">
        <ele>853.0</ele>
      </trkpt>
      <trkpt lat="34.22041" lon="-118.2799">
        <ele>857.0</ele>
      </trkpt>
      <trkpt lat="34.22036" lon="-118.28">
        <ele>857.0</ele>
      </trkpt>
      <trkpt lat="34.22025" lon="-118.28013">
        <ele>857.0</ele>
      </trkpt>
      <trkpt lat="34.22011" lon="-118.28019">
        <ele>860.0</ele>
      </trkpt>
      <trkpt lat="34.21992" lon="-118.28019">
        <ele>860.0</ele>
      </trkpt>
      <trkpt lat="34.21935" lon="-118.28">
        <ele>867.0</ele>
      </trkpt>
      <trkpt lat="34.21887" lon="-118.27996">
        <ele>884.0</ele>
      </trkpt>
      <trkpt lat="34.21874" lon="-118.27996">
        <ele>891.0</ele>
      </trkpt>
      <trkpt lat="34.21866" lon="-118.27999">
        <ele>891.0</ele>
      </trkpt>
      <trkpt lat="34.21834" lon="-118.28038">
        <ele>894.0</ele>
      </trkpt>
      <trkpt lat="34.21822" lon="-118.28063">
        <ele>896.0</ele>
      </trkpt>
      <trkpt lat="34.21821" lon="-118.28069">
        <ele>896.0</ele>
      </trkpt>
      <trkpt lat="34.21824" lon="-118.2808">
        <ele>895.0</ele>
      </trkpt>
      <trkpt lat="34.21844" lon="-118.281">
        <ele>894.0</ele>
      </trkpt>
      <trkpt lat="34.21859" lon="-118.28124">
        <ele>901.0</ele>
      </trkpt>
      <trkpt lat="34.21856" lon="-118.28141">
        <ele>901.0</ele>
      </trkpt>
      <trkpt lat="34.21847" lon="-118.28151">
        <ele>895.0</ele>
      </trkpt>
      <trkpt lat="34.21837" lon="-118.28169">
        <ele>898.0</ele>
      </trkpt>
      <trkpt lat="34.21825" lon="-118.28174">
        <ele>898.0</ele>
      </trkpt>
      <trkpt lat="34.21810734490585" lon="-118.2816357506963">
        <ele>898.0</ele>
      </trkpt>
      <trkpt lat="34.21810734490585" lon="-118.2816357506963">
        <ele>898.0</ele>
      </trkpt>
      <trkpt lat="34.21799" lon="-118.28155">
        <ele>898.0</ele>
      </trkpt>
      <trkpt lat="34.21782" lon="-118.28156">
        <ele>896.0</ele>
      </trkpt>
      <trkpt lat="34.21765" lon="-118.28165">
        <ele>896.0</ele>
      </trkpt>
      <trkpt lat="34.21748" lon="-118.28186">
        <ele>906.0</ele>
      </trkpt>
      <trkpt lat="34.21714" lon="-118.28188">
        <ele>910.0</ele>
      </trkpt>
      <trkpt lat="34.21692" lon="-118.282">
        <ele>910.0</ele>
      </trkpt>
      <trkpt lat="34.21692" lon="-118.282">
        <ele>910.0</ele>
      </trkpt>
      <trkpt lat="34.21692" lon="-118.282">
        <ele>910.0</ele>
      </trkpt>
      <trkpt lat="34.21677" lon="-118.28185">
        <ele>904.0</ele>
      </trkpt>
      <trkpt lat="34.21676337829773" lon="-118.281799233616">
        <ele>905.0</ele>
      </trkpt>
      <trkpt lat="34.21676" lon="-118.2818">
        <ele>905.0</ele>
      </trkpt>
      <trkpt lat="34.21664" lon="-118.28172">
        <ele>905.0</ele>
      </trkpt>
      <trkpt lat="34.21634" lon="-118.28166">
        <ele>902.0</ele>
      </trkpt>
      <trkpt lat="34.21634" lon="-118.28166">
        <ele>902.0</ele>
      </trkpt>
      <trkpt lat="34.21612" lon="-118.28166">
        <ele>905.0</ele>
      </trkpt>
      <trkpt lat="34.216" lon="-118.28157">
        <ele>905.0</ele>
      </trkpt>
      <trkpt lat="34.21585" lon="-118.2813">
        <ele>910.0</ele>
      </trkpt>
      <trkpt lat="34.21585677699294" lon="-118.2812889808275">
        <ele>910.0</ele>
      </trkpt>
      <trkpt lat="34.21581" lon="-118.28125">
        <ele>916.0</ele>
      </trkpt>
      <trkpt lat="34.21558" lon="-118.28117">
        <ele>916.0</ele>
      </trkpt>
      <trkpt lat="34.21544" lon="-118.28119">
        <ele>916.0</ele>
      </trkpt>
      <trkpt lat="34.21477" lon="-118.28151">
        <ele>930.0</ele>
      </trkpt>
      <trkpt lat="34.21471" lon="-118.28151">
        <ele>930.0</ele>
      </trkpt>
      <trkpt lat="34.21466" lon="-118.28144">
        <ele>930.0</ele>
      </trkpt>
      <trkpt lat="34.21468" lon="-118.28134">
        <ele>930.0</ele>
      </trkpt>
      <trkpt lat="34.21477248951905" lon="-118.2812660083848">
        <ele>930.0</ele>
      </trkpt>
      <trkpt lat="34.21479309215268" lon="-118.2812526254989">
        <ele>930.0</ele>
      </trkpt>
      <trkpt lat="34.21489" lon="-118.28105">
        <ele>929.0</ele>
      </trkpt>
      <trkpt lat="34.21502" lon="-118.28062">
        <ele>934.0</ele>
      </trkpt>
      <trkpt lat="34.21535" lon="-118.27999">
        <ele>944.0</ele>
      </trkpt>
      <trkpt lat="34.21537" lon="-118.2799">
        <ele>944.0</ele>
      </trkpt>
      <trkpt lat="34.21536" lon="-118.27982">
        <ele>943.0</ele>
      </trkpt>
      <trkpt lat="34.21531" lon="-118.27973">
        <ele>943.0</ele>
      </trkpt>
      <trkpt lat="34.21524" lon="-118.27971">
        <ele>943.0</ele>
      </trkpt>
      <trkpt lat="34.2151837836306" lon="-118.2798144018289">
        <ele>943.0</ele>
      </trkpt>
      <trkpt lat="34.21518378363518" lon="-118.2798144018289">
        <ele>943.0</ele>
      </trkpt>
      <trkpt lat="34.21524" lon="-118.27971">
        <ele>943.0</ele>
      </trkpt>
      <trkpt lat="34.21531" lon="-118.27973">
        <ele>943.0</ele>
      </trkpt>
      <trkpt lat="34.21536" lon="-118.27982">
        <ele>943.0</ele>
      </trkpt>
      <trkpt lat="34.21537" lon="-118.2799">
        <ele>944.0</ele>
      </trkpt>
      <trkpt lat="34.21535" lon="-118.27999">
        <ele>944.0</ele>
      </trkpt>
      <trkpt lat="34.21502" lon="-118.28062">
        <ele>934.0</ele>
      </trkpt>
      <trkpt lat="34.21489" lon="-118.28105">
        <ele>929.0</ele>
      </trkpt>
      <trkpt lat="34.21479309215268" lon="-118.2812526254989">
        <ele>930.0</ele>
      </trkpt>
      <trkpt lat="34.21477248951905" lon="-118.2812660083848">
        <ele>930.0</ele>
      </trkpt>
      <trkpt lat="34.21468" lon="-118.28134">
        <ele>930.0</ele>
      </trkpt>
      <trkpt lat="34.21466" lon="-118.28144">
        <ele>930.0</ele>
      </trkpt>
      <trkpt lat="34.21471" lon="-118.28151">
        <ele>930.0</ele>
      </trkpt>
      <trkpt lat="34.21477" lon="-118.28151">
        <ele>930.0</ele>
      </trkpt>
      <trkpt lat="34.21544" lon="-118.28119">
        <ele>916.0</ele>
      </trkpt>
      <trkpt lat="34.21558" lon="-118.28117">
        <ele>916.0</ele>
      </trkpt>
      <trkpt lat="34.21581" lon="-118.28125">
        <ele>916.0</ele>
      </trkpt>
      <trkpt lat="34.21585677699294" lon="-118.2812889808275">
        <ele>910.0</ele>
      </trkpt>
      <trkpt lat="34.21585" lon="-118.2813">
        <ele>910.0</ele>
      </trkpt>
      <trkpt lat="34.216" lon="-118.28157">
        <ele>905.0</ele>
      </trkpt>
      <trkpt lat="34.21612" lon="-118.28166">
        <ele>905.0</ele>
      </trkpt>
      <trkpt lat="34.21634" lon="-118.28166">
        <ele>902.0</ele>
      </trkpt>
      <trkpt lat="34.21634" lon="-118.28166">
        <ele>902.0</ele>
      </trkpt>
      <trkpt lat="34.21664" lon="-118.28172">
        <ele>905.0</ele>
      </trkpt>
      <trkpt lat="34.21676" lon="-118.2818">
        <ele>905.0</ele>
      </trkpt>
      <trkpt lat="34.21676337829773" lon="-118.281799233616">
        <ele>905.0</ele>
      </trkpt>
      <trkpt lat="34.21677" lon="-118.28185">
        <ele>904.0</ele>
      </trkpt>
      <trkpt lat="34.21692" lon="-118.282">
        <ele>910.0</ele>
      </trkpt>
      <trkpt lat="34.21692" lon="-118.282">
        <ele>910.0</ele>
      </trkpt>
      <trkpt lat="34.21692" lon="-118.282">
        <ele>910.0</ele>
      </trkpt>
      <trkpt lat="34.21714" lon="-118.28188">
        <ele>910.0</ele>
      </trkpt>
      <trkpt lat="34.21748" lon="-118.28186">
        <ele>906.0</ele>
      </trkpt>
      <trkpt lat="34.21765" lon="-118.28165">
        <ele>896.0</ele>
      </trkpt>
      <trkpt lat="34.21782" lon="-118.28156">
        <ele>896.0</ele>
      </trkpt>
      <trkpt lat="34.21799" lon="-118.28155">
        <ele>898.0</ele>
      </trkpt>
      <trkpt lat="34.21810734490585" lon="-118.2816357506963">
        <ele>898.0</ele>
      </trkpt>
      <trkpt lat="34.21810734490585" lon="-118.2816357506963">
        <ele>898.0</ele>
      </trkpt>
      <trkpt lat="34.21825" lon="-118.28174">
        <ele>898.0</ele>
      </trkpt>
      <trkpt lat="34.21837" lon="-118.28169">
        <ele>898.0</ele>
      </trkpt>
      <trkpt lat="34.21847" lon="-118.28151">
        <ele>895.0</ele>
      </trkpt>
      <trkpt lat="34.21856" lon="-118.28141">
        <ele>901.0</ele>
      </trkpt>
      <trkpt lat="34.21859" lon="-118.28124">
        <ele>901.0</ele>
      </trkpt>
      <trkpt lat="34.21844" lon="-118.281">
        <ele>894.0</ele>
      </trkpt>
      <trkpt lat="34.21824" lon="-118.2808">
        <ele>895.0</ele>
      </trkpt>
      <trkpt lat="34.21821" lon="-118.28069">
        <ele>896.0</ele>
      </trkpt>
      <trkpt lat="34.21822" lon="-118.28063">
        <ele>896.0</ele>
      </trkpt>
      <trkpt lat="34.21834" lon="-118.28038">
        <ele>894.0</ele>
      </trkpt>
      <trkpt lat="34.21866" lon="-118.27999">
        <ele>891.0</ele>
      </trkpt>
      <trkpt lat="34.21874" lon="-118.27996">
        <ele>891.0</ele>
      </trkpt>
      <trkpt lat="34.21887" lon="-118.27996">
        <ele>884.0</ele>
      </trkpt>
      <trkpt lat="34.21935" lon="-118.28">
        <ele>867.0</ele>
      </trkpt>
      <trkpt lat="34.21992" lon="-118.28019">
        <ele>860.0</ele>
      </trkpt>
      <trkpt lat="34.22011" lon="-118.28019">
        <ele>860.0</ele>
      </trkpt>
      <trkpt lat="34.22025" lon="-118.28013">
        <ele>857.0</ele>
      </trkpt>
      <trkpt lat="34.22036" lon="-118.28">
        <ele>857.0</ele>
      </trkpt>
      <trkpt lat="34.22041" lon="-118.2799">
        <ele>857.0</ele>
      </trkpt>
      <trkpt lat="34.22042" lon="-118.2794">
        <ele>853.0</ele>
      </trkpt>
      <trkpt lat="34.22031" lon="-118.27918">
        <ele>854.0</ele>
      </trkpt>
      <trkpt lat="34.22025" lon="-118.27913">
        <ele>854.0</ele>
      </trkpt>
      <trkpt lat="34.22013" lon="-118.27909">
        <ele>853.0</ele>
      </trkpt>
      <trkpt lat="34.21995" lon="-118.27915">
        <ele>853.0</ele>
      </trkpt>
      <trkpt lat="34.21974" lon="-118.27932">
        <ele>855.0</ele>
      </trkpt>
      <trkpt lat="34.21964" lon="-118.2793">
        <ele>852.0</ele>
      </trkpt>
      <trkpt lat="34.21959" lon="-118.27924">
        <ele>852.0</ele>
      </trkpt>
      <trkpt lat="34.21959" lon="-118.27915">
        <ele>852.0</ele>
      </trkpt>
      <trkpt lat="34.21969609378885" lon="-118.2789095207453">
        <ele>850.0</ele>
      </trkpt>
      <trkpt lat="34.21969609381649" lon="-118.2789095207453">
        <ele>850.0</ele>
      </trkpt>
      <trkpt lat="34.21974" lon="-118.27881">
        <ele>850.0</ele>
      </trkpt>
      <trkpt lat="34.21974" lon="-118.27881">
        <ele>850.0</ele>
      </trkpt>
      <trkpt lat="34.21978" lon="-118.27871">
        <ele>848.0</ele>
      </trkpt>
      <trkpt lat="34.21982" lon="-118.27843">
        <ele>849.0</ele>
      </trkpt>
      <trkpt lat="34.22003" lon="-118.27808">
        <ele>848.0</ele>
      </trkpt>
      <trkpt lat="34.22007" lon="-118.27804">
        <ele>848.0</ele>
      </trkpt>
      <trkpt lat="34.22019" lon="-118.27801">
        <ele>837.0</ele>
      </trkpt>
      <trkpt lat="34.22055" lon="-118.27816">
        <ele>829.0</ele>
      </trkpt>
      <trkpt lat="34.22067" lon="-118.27816">
        <ele>829.0</ele>
      </trkpt>
      <trkpt lat="34.22085" lon="-118.27802">
        <ele>825.0</ele>
      </trkpt>
      <trkpt lat="34.22104" lon="-118.27781">
        <ele>820.0</ele>
      </trkpt>
      <trkpt lat="34.22134" lon="-118.27695">
        <ele>816.0</ele>
      </trkpt>
      <trkpt lat="34.22141" lon="-118.27655">
        <ele>814.0</ele>
      </trkpt>
      <trkpt lat="34.22141" lon="-118.27622">
        <ele>813.0</ele>
      </trkpt>
      <trkpt lat="34.22149" lon="-118.27612">
        <ele>813.0</ele>
      </trkpt>
      <trkpt lat="34.2216" lon="-118.27603">
        <ele>815.0</ele>
      </trkpt>
      <trkpt lat="34.22169" lon="-118.27574">
        <ele>816.0</ele>
      </trkpt>
      <trkpt lat="34.22174" lon="-118.27565">
        <ele>810.0</ele>
      </trkpt>
      <trkpt lat="34.2221" lon="-118.27536">
        <ele>805.0</ele>
      </trkpt>
      <trkpt lat="34.22234" lon="-118.27534">
        <ele>805.0</ele>
      </trkpt>
      <trkpt lat="34.2231" lon="-118.27493">
        <ele>802.0</ele>
      </trkpt>
      <trkpt lat="34.22337" lon="-118.27466">
        <ele>800.0</ele>
      </trkpt>
      <trkpt lat="34.22357" lon="-118.27437">
        <ele>794.0</ele>
      </trkpt>
      <trkpt lat="34.22393" lon="-118.27424">
        <ele>785.0</ele>
      </trkpt>
      <trkpt lat="34.22412" lon="-118.2743">
        <ele>783.0</ele>
      </trkpt>
      <trkpt lat="34.22422" lon="-118.27428">
        <ele>783.0</ele>
      </trkpt>
      <trkpt lat="34.22437" lon="-118.27418">
        <ele>783.0</ele>
      </trkpt>
      <trkpt lat="34.22456" lon="-118.2742">
        <ele>783.0</ele>
      </trkpt>
      <trkpt lat="34.22465" lon="-118.27415">
        <ele>781.0</ele>
      </trkpt>
      <trkpt lat="34.22481" lon="-118.27398">
        <ele>775.0</ele>
      </trkpt>
      <trkpt lat="34.22489" lon="-118.27395">
        <ele>777.0</ele>
      </trkpt>
      <trkpt lat="34.225" lon="-118.27401">
        <ele>777.0</ele>
      </trkpt>
      <trkpt lat="34.22511" lon="-118.27436">
        <ele>777.0</ele>
      </trkpt>
      <trkpt lat="34.22511" lon="-118.27448">
        <ele>777.0</ele>
      </trkpt>
      <trkpt lat="34.22502" lon="-118.27473">
        <ele>776.0</ele>
      </trkpt>
      <trkpt lat="34.22499" lon="-118.27487">
        <ele>774.0</ele>
      </trkpt>
      <trkpt lat="34.225" lon="-118.27495">
        <ele>774.0</ele>
      </trkpt>
      <trkpt lat="34.22514" lon="-118.27527">
        <ele>762.0</ele>
      </trkpt>
      <trkpt lat="34.22515" lon="-118.27537">
        <ele>762.0</ele>
      </trkpt>
      <trkpt lat="34.22511" lon="-118.27551">
        <ele>761.0</ele>
      </trkpt>
      <trkpt lat="34.22507" lon="-118.27558">
        <ele>761.0</ele>
      </trkpt>
      <trkpt lat="34.22498" lon="-118.27566">
        <ele>761.0</ele>
      </trkpt>
      <trkpt lat="34.22486" lon="-118.27569">
        <ele>761.0</ele>
      </trkpt>
      <trkpt lat="34.22436" lon="-118.27547">
        <ele>760.0</ele>
      </trkpt>
      <trkpt lat="34.22428" lon="-118.27547">
        <ele>764.0</ele>
      </trkpt>
      <trkpt lat="34.224" lon="-118.27578">
        <ele>761.0</ele>
      </trkpt>
      <trkpt lat="34.22395" lon="-118.2759">
        <ele>761.0</ele>
      </trkpt>
      <trkpt lat="34.22401" lon="-118.27602">
        <ele>759.0</ele>
      </trkpt>
      <trkpt lat="34.22415" lon="-118.2761">
        <ele>752.0</ele>
      </trkpt>
      <trkpt lat="34.22423" lon="-118.27618">
        <ele>752.0</ele>
      </trkpt>
      <trkpt lat="34.2243" lon="-118.2763">
        <ele>750.0</ele>
      </trkpt>
      <trkpt lat="34.2244" lon="-118.27656">
        <ele>747.0</ele>
      </trkpt>
      <trkpt lat="34.22438" lon="-118.27675">
        <ele>747.0</ele>
      </trkpt>
      <trkpt lat="34.22434" lon="-118.27689">
        <ele>746.0</ele>
      </trkpt>
      <trkpt lat="34.22421" lon="-118.27705">
        <ele>750.0</ele>
      </trkpt>
      <trkpt lat="34.22417" lon="-118.27716">
        <ele>750.0</ele>
      </trkpt>
      <trkpt lat="34.22421" lon="-118.27756">
        <ele>747.0</ele>
      </trkpt>
      <trkpt lat="34.22426" lon="-118.27762">
        <ele>747.0</ele>
      </trkpt>
      <trkpt lat="34.22434" lon="-118.27763">
        <ele>746.0</ele>
      </trkpt>
      <trkpt lat="34.22448" lon="-118.27751">
        <ele>746.0</ele>
      </trkpt>
      <trkpt lat="34.22466" lon="-118.27749">
        <ele>741.0</ele>
      </trkpt>
      <trkpt lat="34.2249" lon="-118.27763">
        <ele>734.0</ele>
      </trkpt>
      <trkpt lat="34.22527" lon="-118.27798">
        <ele>730.0</ele>
      </trkpt>
      <trkpt lat="34.2253" lon="-118.27814">
        <ele>730.0</ele>
      </trkpt>
      <trkpt lat="34.22517" lon="-118.27851">
        <ele>726.0</ele>
      </trkpt>
      <trkpt lat="34.22516" lon="-118.27869">
        <ele>726.0</ele>
      </trkpt>
      <trkpt lat="34.22517" lon="-118.27881">
        <ele>721.0</ele>
      </trkpt>
      <trkpt lat="34.22517" lon="-118.27881">
        <ele>721.0</ele>
      </trkpt>
      <trkpt lat="34.22523" lon="-118.27909">
        <ele>716.0</ele>
      </trkpt>
      <trkpt lat="34.22522" lon="-118.27921">
        <ele>716.0</ele>
      </trkpt>
      <trkpt lat="34.22516" lon="-118.27937">
        <ele>711.0</ele>
      </trkpt>
      <trkpt lat="34.22511" lon="-118.27943">
        <ele>718.0</ele>
      </trkpt>
      <trkpt lat="34.22505" lon="-118.27947">
        <ele>718.0</ele>
      </trkpt>
      <trkpt lat="34.22491" lon="-118.27949">
        <ele>718.0</ele>
      </trkpt>
      <trkpt lat="34.2247" lon="-118.27947">
        <ele>721.0</ele>
      </trkpt>
      <trkpt lat="34.22462" lon="-118.27951">
        <ele>721.0</ele>
      </trkpt>
      <trkpt lat="34.22454" lon="-118.27958">
        <ele>722.0</ele>
      </trkpt>
      <trkpt lat="34.22443" lon="-118.27984">
        <ele>716.0</ele>
      </trkpt>
      <trkpt lat="34.22433" lon="-118.27991">
        <ele>710.0</ele>
      </trkpt>
      <trkpt lat="34.22422" lon="-118.27991">
        <ele>709.0</ele>
      </trkpt>
      <trkpt lat="34.22404" lon="-118.2798">
        <ele>715.0</ele>
      </trkpt>
      <trkpt lat="34.22394" lon="-118.2798">
        <ele>714.0</ele>
      </trkpt>
      <trkpt lat="34.22377" lon="-118.27997">
        <ele>710.0</ele>
      </trkpt>
      <trkpt lat="34.22353" lon="-118.28">
        <ele>719.0</ele>
      </trkpt>
      <trkpt lat="34.22346" lon="-118.28013">
        <ele>729.0</ele>
      </trkpt>
      <trkpt lat="34.22347" lon="-118.28023">
        <ele>729.0</ele>
      </trkpt>
      <trkpt lat="34.22358" lon="-118.28037">
        <ele>717.0</ele>
      </trkpt>
      <trkpt lat="34.2237" lon="-118.28045">
        <ele>720.0</ele>
      </trkpt>
      <trkpt lat="34.22395" lon="-118.28053">
        <ele>705.0</ele>
      </trkpt>
      <trkpt lat="34.22416" lon="-118.28077">
        <ele>700.0</ele>
      </trkpt>
      <trkpt lat="34.22441" lon="-118.28088">
        <ele>691.0</ele>
      </trkpt>
      <trkpt lat="34.22447" lon="-118.28094">
        <ele>691.0</ele>
      </trkpt>
      <trkpt lat="34.22451" lon="-118.28103">
        <ele>694.0</ele>
      </trkpt>
      <trkpt lat="34.22458" lon="-118.28137">
        <ele>699.0</ele>
      </trkpt>
      <trkpt lat="34.22461" lon="-118.28143">
        <ele>691.0</ele>
      </trkpt>
      <trkpt lat="34.22468" lon="-118.28149">
        <ele>691.0</ele>
      </trkpt>
      <trkpt lat="34.2248" lon="-118.28146">
        <ele>691.0</ele>
      </trkpt>
      <trkpt lat="34.22489" lon="-118.28135">
        <ele>691.0</ele>
      </trkpt>
      <trkpt lat="34.22505" lon="-118.28123">
        <ele>687.0</ele>
      </trkpt>
      <trkpt lat="34.2252" lon="-118.28121">
        <ele>685.0</ele>
      </trkpt>
      <trkpt lat="34.22534" lon="-118.28128">
        <ele>686.0</ele>
      </trkpt>
      <trkpt lat="34.22564" lon="-118.28162">
        <ele>685.0</ele>
      </trkpt>
      <trkpt lat="34.22572" lon="-118.28167">
        <ele>684.0</ele>
      </trkpt>
      <trkpt lat="34.22581" lon="-118.28166">
        <ele>684.0</ele>
      </trkpt>
      <trkpt lat="34.22597" lon="-118.28146">
        <ele>682.0</ele>
      </trkpt>
      <trkpt lat="34.2261" lon="-118.28141">
        <ele>676.0</ele>
      </trkpt>
      <trkpt lat="34.2265" lon="-118.28154">
        <ele>676.0</ele>
      </trkpt>
      <trkpt lat="34.22675" lon="-118.28184">
        <ele>678.0</ele>
      </trkpt>
      <trkpt lat="34.22682" lon="-118.28184">
        <ele>677.0</ele>
      </trkpt>
      <trkpt lat="34.22703" lon="-118.28174">
        <ele>665.0</ele>
      </trkpt>
      <trkpt lat="34.22737" lon="-118.28174">
        <ele>660.0</ele>
      </trkpt>
      <trkpt lat="34.2275" lon="-118.28178">
        <ele>660.0</ele>
      </trkpt>
      <trkpt lat="34.22758" lon="-118.28186">
        <ele>669.0</ele>
      </trkpt>
      <trkpt lat="34.22767" lon="-118.28203">
        <ele>668.0</ele>
      </trkpt>
      <trkpt lat="34.22774" lon="-118.28205">
        <ele>668.0</ele>
      </trkpt>
      <trkpt lat="34.22786" lon="-118.28203">
        <ele>668.0</ele>
      </trkpt>
      <trkpt lat="34.22794" lon="-118.28195">
        <ele>668.0</ele>
      </trkpt>
      <trkpt lat="34.22808" lon="-118.28173">
        <ele>664.0</ele>
      </trkpt>
      <trkpt lat="34.22835" lon="-118.28166">
        <ele>662.0</ele>
      </trkpt>
      <trkpt lat="34.22843" lon="-118.28157">
        <ele>662.0</ele>
      </trkpt>
      <trkpt lat="34.22856" lon="-118.28126">
        <ele>648.0</ele>
      </trkpt>
      <trkpt lat="34.22856" lon="-118.28105">
        <ele>642.0</ele>
      </trkpt>
      <trkpt lat="34.22851" lon="-118.28089">
        <ele>635.0</ele>
      </trkpt>
      <trkpt lat="34.22843" lon="-118.28082">
        <ele>638.0</ele>
      </trkpt>
      <trkpt lat="34.22831" lon="-118.28087">
        <ele>638.0</ele>
      </trkpt>
      <trkpt lat="34.22819" lon="-118.28099">
        <ele>643.0</ele>
      </trkpt>
      <trkpt lat="34.22802" lon="-118.28112">
        <ele>643.0</ele>
      </trkpt>
      <trkpt lat="34.22788" lon="-118.28138">
        <ele>652.0</ele>
      </trkpt>
      <trkpt lat="34.2278" lon="-118.28142">
        <ele>652.0</ele>
      </trkpt>
      <trkpt lat="34.22775" lon="-118.28139">
        <ele>652.0</ele>
      </trkpt>
      <trkpt lat="34.22771" lon="-118.28132">
        <ele>652.0</ele>
      </trkpt>
      <trkpt lat="34.22769" lon="-118.28118">
        <ele>640.0</ele>
      </trkpt>
      <trkpt lat="34.22764" lon="-118.28106">
        <ele>640.0</ele>
      </trkpt>
      <trkpt lat="34.22715" lon="-118.28077">
        <ele>643.0</ele>
      </trkpt>
      <trkpt lat="34.22712" lon="-118.28071">
        <ele>643.0</ele>
      </trkpt>
      <trkpt lat="34.22713184115333" lon="-118.28065671481">
        <ele>641.0</ele>
      </trkpt>
      <trkpt lat="34.22713184115391" lon="-118.28065671481">
        <ele>641.0</ele>
      </trkpt>
      <trkpt lat="34.22714" lon="-118.28062">
        <ele>641.0</ele>
      </trkpt>
      <trkpt lat="34.22719" lon="-118.28058">
        <ele>641.0</ele>
      </trkpt>
      <trkpt lat="34.22728" lon="-118.28057">
        <ele>641.0</ele>
      </trkpt>
      <trkpt lat="34.22754" lon="-118.28062">
        <ele>634.0</ele>
      </trkpt>
      <trkpt lat="34.22763" lon="-118.28055">
        <ele>634.0</ele>
      </trkpt>
      <trkpt lat="34.22773" lon="-118.2804">
        <ele>626.0</ele>
      </trkpt>
      <trkpt lat="34.22786" lon="-118.28">
        <ele>628.0</ele>
      </trkpt>
      <trkpt lat="34.22795" lon="-118.27985">
        <ele>623.0</ele>
      </trkpt>
      <trkpt lat="34.22805" lon="-118.27973">
        <ele>623.0</ele>
      </trkpt>
      <trkpt lat="34.22821" lon="-118.27969">
        <ele>614.0</ele>
      </trkpt>
      <trkpt lat="34.2285" lon="-118.27971">
        <ele>609.0</ele>
      </trkpt>
      <trkpt lat="34.22887" lon="-118.2798">
        <ele>603.0</ele>
      </trkpt>
      <trkpt lat="34.22932" lon="-118.27983">
        <ele>597.0</ele>
      </trkpt>
      <trkpt lat="34.22971" lon="-118.27956">
        <ele>600.0</ele>
      </trkpt>
      <trkpt lat="34.23006" lon="-118.27923">
        <ele>601.0</ele>
      </trkpt>
      <trkpt lat="34.23019" lon="-118.27919">
        <ele>594.0</ele>
      </trkpt>
      <trkpt lat="34.23039" lon="-118.2792">
        <ele>594.0</ele>
      </trkpt>
      <trkpt lat="34.23048" lon="-118.27923">
        <ele>587.0</ele>
      </trkpt>
      <trkpt lat="34.23077" lon="-118.27941">
        <ele>585.0</ele>
      </trkpt>
      <trkpt lat="34.23085" lon="-118.27952">
        <ele>585.0</ele>
      </trkpt>
      <trkpt lat="34.23093" lon="-118.27974">
        <ele>583.0</ele>
      </trkpt>
      <trkpt lat="34.23101" lon="-118.27984">
        <ele>584.0</ele>
      </trkpt>
      <trkpt lat="34.23131" lon="-118.28007">
        <ele>583.0</ele>
      </trkpt>
      <trkpt lat="34.23142" lon="-118.28027">
        <ele>578.0</ele>
      </trkpt>
      <trkpt lat="34.23165" lon="-118.28042">
        <ele>579.0</ele>
      </trkpt>
      <trkpt lat="34.23194" lon="-118.28077">
        <ele>582.0</ele>
      </trkpt>
      <trkpt lat="34.23213" lon="-118.28108">
        <ele>579.0</ele>
      </trkpt>
      <trkpt lat="34.23239" lon="-118.28138">
        <ele>576.0</ele>
      </trkpt>
      <trkpt lat="34.2325" lon="-118.28138">
        <ele>576.0</ele>
      </trkpt>
      <trkpt lat="34.23255" lon="-118.28132">
        <ele>576.0</ele>
      </trkpt>
      <trkpt lat="34.23266" lon="-118.28093">
        <ele>580.0</ele>
      </trkpt>
      <trkpt lat="34.23266" lon="-118.28093">
        <ele>580.0</ele>
      </trkpt>
      <trkpt lat="34.23272" lon="-118.28083">
        <ele>580.0</ele>
      </trkpt>
      <trkpt lat="34.23284" lon="-118.2808">
        <ele>580.0</ele>
      </trkpt>
      <trkpt lat="34.23294" lon="-118.28086">
        <ele>576.0</ele>
      </trkpt>
      <trkpt lat="34.23304" lon="-118.28103">
        <ele>577.0</ele>
      </trkpt>
      <trkpt lat="34.23309" lon="-118.28124">
        <ele>577.0</ele>
      </trkpt>
      <trkpt lat="34.2331" lon="-118.28166">
        <ele>576.0</ele>
      </trkpt>
      <trkpt lat="34.23318" lon="-118.282">
        <ele>574.0</ele>
      </trkpt>
      <trkpt lat="34.23315" lon="-118.28213">
        <ele>571.0</ele>
      </trkpt>
      <trkpt lat="34.23309" lon="-118.28226">
        <ele>571.0</ele>
      </trkpt>
      <trkpt lat="34.23308" lon="-118.28235">
        <ele>571.0</ele>
      </trkpt>
      <trkpt lat="34.23319" lon="-118.28256">
        <ele>567.0</ele>
      </trkpt>
      <trkpt lat="34.23323" lon="-118.28269">
        <ele>559.0</ele>
      </trkpt>
      <trkpt lat="34.23317" lon="-118.28316">
        <ele>557.0</ele>
      </trkpt>
      <trkpt lat="34.23318" lon="-118.28335">
        <ele>553.0</ele>
      </trkpt>
      <trkpt lat="34.23345" lon="-118.28417">
        <ele>544.0</ele>
      </trkpt>
      <trkpt lat="34.23356" lon="-118.28428">
        <ele>542.0</ele>
      </trkpt>
      <trkpt lat="34.23364" lon="-118.28432">
        <ele>540.0</ele>
      </trkpt>
      <trkpt lat="34.23371" lon="-118.28431">
        <ele>540.0</ele>
      </trkpt>
      <trkpt lat="34.23371" lon="-118.28431">
        <ele>540.0</ele>
      </trkpt>
      <trkpt lat="34.23385" lon="-118.28591">
        <ele>532.0</ele>
      </trkpt>
      <trkpt lat="34.23382" lon="-118.28621">
        <ele>530.0</ele>
      </trkpt>
      <trkpt lat="34.23379145515577" lon="-118.2863219836197">
        <ele>529.0</ele>
      </trkpt>
      <trkpt lat="34.23379145519499" lon="-118.2863219836197">
        <ele>529.0</ele>
      </trkpt>
      <trkpt lat="34.23356" lon="-118.28723">
        <ele>525.0</ele>
      </trkpt>
      <trkpt lat="34.23351" lon="-118.28759">
        <ele>522.0</ele>
      </trkpt>
      <trkpt lat="34.2335" lon="-118.288">
        <ele>519.0</ele>
      </trkpt>
      <trkpt lat="34.23355" lon="-118.28882">
        <ele>516.0</ele>
      </trkpt>
      <trkpt lat="34.23358" lon="-118.28911">
        <ele>516.0</ele>
      </trkpt>
      <trkpt lat="34.23367" lon="-118.28959">
        <ele>514.0</ele>
      </trkpt>
      <trkpt lat="34.23392" lon="-118.29056">
        <ele>507.0</ele>
      </trkpt>
      <trkpt lat="34.23398" lon="-118.29121">
        <ele>506.0</ele>
      </trkpt>
      <trkpt lat="34.23405185380546" lon="-118.2913471762263">
        <ele>507.0</ele>
      </trkpt>
    </trkseg>
  </trk>
</gpx>
