<?xml version="1.0" encoding="UTF-8"?>
<gpx xmlns:xsi="http://www.w3.org/2001/XMLSchema-instance" version="1.1" creator="The Outbound Collective, Inc. 1.1.1 -- https://www.theoutbound.com" xsi:schemaLocation="http://www.topografix.com/GPX/1/1 http://www.topografix.com/GPX/1/1/gpx.xsd">
  <metadata>
    <name/>
    <time>2026-02-19T21:59:16+00:00</time>
    <bound minlat="34.12887795662836" minlon="-118.3379" maxlat="34.13726" maxlon="-118.3215874330401"/>
  </metadata>
  <trk>
    <name/>
    <trkseg>
      <trkpt lat="34.12890237903069" lon="-118.3364117145538">
        <ele>232.0</ele>
      </trkpt>
      <trkpt lat="34.12887795662836" lon="-118.3364220319551">
        <ele>232.0</ele>
      </trkpt>
      <trkpt lat="34.12897" lon="-118.33674">
        <ele>234.0</ele>
      </trkpt>
      <trkpt lat="34.12906" lon="-118.33691">
        <ele>241.0</ele>
      </trkpt>
      <trkpt lat="34.12925" lon="-118.33713">
        <ele>245.0</ele>
      </trkpt>
      <trkpt lat="34.12935" lon="-118.3372">
        <ele>246.0</ele>
      </trkpt>
      <trkpt lat="34.13025" lon="-118.33758">
        <ele>254.0</ele>
      </trkpt>
      <trkpt lat="34.13071" lon="-118.33772">
        <ele>268.0</ele>
      </trkpt>
      <trkpt lat="34.13215" lon="-118.3379">
        <ele>298.0</ele>
      </trkpt>
      <trkpt lat="34.13215" lon="-118.3379">
        <ele>298.0</ele>
      </trkpt>
      <trkpt lat="34.1323" lon="-118.33746">
        <ele>298.0</ele>
      </trkpt>
      <trkpt lat="34.13231" lon="-118.33739">
        <ele>298.0</ele>
      </trkpt>
      <trkpt lat="34.1323" lon="-118.33731">
        <ele>298.0</ele>
      </trkpt>
      <trkpt lat="34.13224" lon="-118.33721">
        <ele>298.0</ele>
      </trkpt>
      <trkpt lat="34.1321" lon="-118.33715">
        <ele>298.0</ele>
      </trkpt>
      <trkpt lat="34.13205" lon="-118.33706">
        <ele>292.0</ele>
      </trkpt>
      <trkpt lat="34.13205" lon="-118.33695">
        <ele>292.0</ele>
      </trkpt>
      <trkpt lat="34.13211" lon="-118.33686">
        <ele>297.0</ele>
      </trkpt>
      <trkpt lat="34.13227" lon="-118.33677">
        <ele>296.0</ele>
      </trkpt>
      <trkpt lat="34.13238984100025" lon="-118.3365782544338">
        <ele>306.0</ele>
      </trkpt>
      <trkpt lat="34.13242" lon="-118.33653">
        <ele>306.0</ele>
      </trkpt>
      <trkpt lat="34.13248" lon="-118.33647">
        <ele>303.0</ele>
      </trkpt>
      <trkpt lat="34.13258" lon="-118.33645">
        <ele>303.0</ele>
      </trkpt>
      <trkpt lat="34.13277" lon="-118.33651">
        <ele>310.0</ele>
      </trkpt>
      <trkpt lat="34.13287" lon="-118.33649">
        <ele>310.0</ele>
      </trkpt>
      <trkpt lat="34.13287" lon="-118.33649">
        <ele>310.0</ele>
      </trkpt>
      <trkpt lat="34.13287" lon="-118.33649">
        <ele>310.0</ele>
      </trkpt>
      <trkpt lat="34.13302" lon="-118.33644">
        <ele>313.0</ele>
      </trkpt>
      <trkpt lat="34.13316" lon="-118.33635">
        <ele>313.0</ele>
      </trkpt>
      <trkpt lat="34.13324" lon="-118.33622">
        <ele>316.0</ele>
      </trkpt>
      <trkpt lat="34.13329" lon="-118.33594">
        <ele>317.0</ele>
      </trkpt>
      <trkpt lat="34.13347" lon="-118.33564">
        <ele>319.0</ele>
      </trkpt>
      <trkpt lat="34.13353196559061" lon="-118.3353655809558">
        <ele>323.0</ele>
      </trkpt>
      <trkpt lat="34.13354" lon="-118.33533">
        <ele>323.0</ele>
      </trkpt>
      <trkpt lat="34.13353" lon="-118.33503">
        <ele>325.0</ele>
      </trkpt>
      <trkpt lat="34.13356" lon="-118.3349">
        <ele>325.0</ele>
      </trkpt>
      <trkpt lat="34.13366" lon="-118.33478">
        <ele>324.0</ele>
      </trkpt>
      <trkpt lat="34.1338" lon="-118.3347">
        <ele>329.0</ele>
      </trkpt>
      <trkpt lat="34.13427" lon="-118.33456">
        <ele>332.0</ele>
      </trkpt>
      <trkpt lat="34.13437" lon="-118.33458">
        <ele>339.0</ele>
      </trkpt>
      <trkpt lat="34.13437" lon="-118.33458">
        <ele>339.0</ele>
      </trkpt>
      <trkpt lat="34.13449" lon="-118.33427">
        <ele>341.0</ele>
      </trkpt>
      <trkpt lat="34.13457" lon="-118.33423">
        <ele>341.0</ele>
      </trkpt>
      <trkpt lat="34.13466" lon="-118.33411">
        <ele>353.0</ele>
      </trkpt>
      <trkpt lat="34.13476" lon="-118.33406">
        <ele>353.0</ele>
      </trkpt>
      <trkpt lat="34.13479" lon="-118.33398">
        <ele>358.0</ele>
      </trkpt>
      <trkpt lat="34.13481" lon="-118.33378">
        <ele>358.0</ele>
      </trkpt>
      <trkpt lat="34.13479" lon="-118.33342">
        <ele>377.0</ele>
      </trkpt>
      <trkpt lat="34.13489" lon="-118.33328">
        <ele>392.0</ele>
      </trkpt>
      <trkpt lat="34.13489" lon="-118.33318">
        <ele>416.0</ele>
      </trkpt>
      <trkpt lat="34.13484" lon="-118.33306">
        <ele>395.0</ele>
      </trkpt>
      <trkpt lat="34.13465" lon="-118.33284">
        <ele>411.0</ele>
      </trkpt>
      <trkpt lat="34.1346" lon="-118.33257">
        <ele>417.0</ele>
      </trkpt>
      <trkpt lat="34.13455" lon="-118.3325">
        <ele>396.0</ele>
      </trkpt>
      <trkpt lat="34.13455" lon="-118.33245">
        <ele>396.0</ele>
      </trkpt>
      <trkpt lat="34.13469" lon="-118.33194">
        <ele>407.0</ele>
      </trkpt>
      <trkpt lat="34.13485" lon="-118.33161">
        <ele>398.0</ele>
      </trkpt>
      <trkpt lat="34.13495" lon="-118.33146">
        <ele>405.0</ele>
      </trkpt>
      <trkpt lat="34.13506" lon="-118.33138">
        <ele>405.0</ele>
      </trkpt>
      <trkpt lat="34.13524" lon="-118.33132">
        <ele>431.0</ele>
      </trkpt>
      <trkpt lat="34.13543" lon="-118.33122">
        <ele>446.0</ele>
      </trkpt>
      <trkpt lat="34.13555" lon="-118.33109">
        <ele>446.0</ele>
      </trkpt>
      <trkpt lat="34.13557" lon="-118.33091">
        <ele>439.0</ele>
      </trkpt>
      <trkpt lat="34.13563" lon="-118.33062">
        <ele>435.0</ele>
      </trkpt>
      <trkpt lat="34.13572" lon="-118.33054">
        <ele>455.0</ele>
      </trkpt>
      <trkpt lat="34.13574" lon="-118.33046">
        <ele>455.0</ele>
      </trkpt>
      <trkpt lat="34.13582" lon="-118.33039">
        <ele>448.0</ele>
      </trkpt>
      <trkpt lat="34.13587" lon="-118.3303">
        <ele>448.0</ele>
      </trkpt>
      <trkpt lat="34.1359" lon="-118.33018">
        <ele>448.0</ele>
      </trkpt>
      <trkpt lat="34.13596" lon="-118.33017">
        <ele>448.0</ele>
      </trkpt>
      <trkpt lat="34.13604" lon="-118.33007">
        <ele>462.0</ele>
      </trkpt>
      <trkpt lat="34.13607" lon="-118.33">
        <ele>462.0</ele>
      </trkpt>
      <trkpt lat="34.1361" lon="-118.32998">
        <ele>462.0</ele>
      </trkpt>
      <trkpt lat="34.13613" lon="-118.32998">
        <ele>462.0</ele>
      </trkpt>
      <trkpt lat="34.13615" lon="-118.33003">
        <ele>462.0</ele>
      </trkpt>
      <trkpt lat="34.13615" lon="-118.33014">
        <ele>472.0</ele>
      </trkpt>
      <trkpt lat="34.13609" lon="-118.33029">
        <ele>472.0</ele>
      </trkpt>
      <trkpt lat="34.13608" lon="-118.33044">
        <ele>483.0</ele>
      </trkpt>
      <trkpt lat="34.13609" lon="-118.33052">
        <ele>483.0</ele>
      </trkpt>
      <trkpt lat="34.13606" lon="-118.33077">
        <ele>488.0</ele>
      </trkpt>
      <trkpt lat="34.13614" lon="-118.33122">
        <ele>492.0</ele>
      </trkpt>
      <trkpt lat="34.13612" lon="-118.33145">
        <ele>495.0</ele>
      </trkpt>
      <trkpt lat="34.13616" lon="-118.33152">
        <ele>495.0</ele>
      </trkpt>
      <trkpt lat="34.13616" lon="-118.33152">
        <ele>495.0</ele>
      </trkpt>
      <trkpt lat="34.13596" lon="-118.33212">
        <ele>500.0</ele>
      </trkpt>
      <trkpt lat="34.13596" lon="-118.33212">
        <ele>500.0</ele>
      </trkpt>
      <trkpt lat="34.13610019456625" lon="-118.3316749334335">
        <ele>500.0</ele>
      </trkpt>
      <trkpt lat="34.13610721670049" lon="-118.3316783500364">
        <ele>500.0</ele>
      </trkpt>
      <trkpt lat="34.13616" lon="-118.33152">
        <ele>495.0</ele>
      </trkpt>
      <trkpt lat="34.13616" lon="-118.33152">
        <ele>495.0</ele>
      </trkpt>
      <trkpt lat="34.1362" lon="-118.3314">
        <ele>495.0</ele>
      </trkpt>
      <trkpt lat="34.13624" lon="-118.33136">
        <ele>495.0</ele>
      </trkpt>
      <trkpt lat="34.13628" lon="-118.33114">
        <ele>497.0</ele>
      </trkpt>
      <trkpt lat="34.13633" lon="-118.33107">
        <ele>497.0</ele>
      </trkpt>
      <trkpt lat="34.13637" lon="-118.33087">
        <ele>498.0</ele>
      </trkpt>
      <trkpt lat="34.13657" lon="-118.33046">
        <ele>505.0</ele>
      </trkpt>
      <trkpt lat="34.13662" lon="-118.33044">
        <ele>505.0</ele>
      </trkpt>
      <trkpt lat="34.13667" lon="-118.33022">
        <ele>506.0</ele>
      </trkpt>
      <trkpt lat="34.13686" lon="-118.32974">
        <ele>513.0</ele>
      </trkpt>
      <trkpt lat="34.1369" lon="-118.32957">
        <ele>510.0</ele>
      </trkpt>
      <trkpt lat="34.13694" lon="-118.32952">
        <ele>510.0</ele>
      </trkpt>
      <trkpt lat="34.13714" lon="-118.32889">
        <ele>507.0</ele>
      </trkpt>
      <trkpt lat="34.13713" lon="-118.32885">
        <ele>507.0</ele>
      </trkpt>
      <trkpt lat="34.13716" lon="-118.32844">
        <ele>512.0</ele>
      </trkpt>
      <trkpt lat="34.1372" lon="-118.32823">
        <ele>512.0</ele>
      </trkpt>
      <trkpt lat="34.13719" lon="-118.32811">
        <ele>515.0</ele>
      </trkpt>
      <trkpt lat="34.13724" lon="-118.32798">
        <ele>515.0</ele>
      </trkpt>
      <trkpt lat="34.13726" lon="-118.32781">
        <ele>515.0</ele>
      </trkpt>
      <trkpt lat="34.13726" lon="-118.32781">
        <ele>515.0</ele>
      </trkpt>
      <trkpt lat="34.13726" lon="-118.32781">
        <ele>515.0</ele>
      </trkpt>
      <trkpt lat="34.13724753101774" lon="-118.3276728411951">
        <ele>515.0</ele>
      </trkpt>
      <trkpt lat="34.13724753101828" lon="-118.3276728411951">
        <ele>515.0</ele>
      </trkpt>
      <trkpt lat="34.13724" lon="-118.32759">
        <ele>516.0</ele>
      </trkpt>
      <trkpt lat="34.13725" lon="-118.32697">
        <ele>521.0</ele>
      </trkpt>
      <trkpt lat="34.13718" lon="-118.32674">
        <ele>524.0</ele>
      </trkpt>
      <trkpt lat="34.13716" lon="-118.32608">
        <ele>523.0</ele>
      </trkpt>
      <trkpt lat="34.13705" lon="-118.32585">
        <ele>510.0</ele>
      </trkpt>
      <trkpt lat="34.13699" lon="-118.32583">
        <ele>510.0</ele>
      </trkpt>
      <trkpt lat="34.13699" lon="-118.32583">
        <ele>510.0</ele>
      </trkpt>
      <trkpt lat="34.13682" lon="-118.32556">
        <ele>506.0</ele>
      </trkpt>
      <trkpt lat="34.13684" lon="-118.3255">
        <ele>506.0</ele>
      </trkpt>
      <trkpt lat="34.13681" lon="-118.32537">
        <ele>495.0</ele>
      </trkpt>
      <trkpt lat="34.1367" lon="-118.32495">
        <ele>484.0</ele>
      </trkpt>
      <trkpt lat="34.13658" lon="-118.32483">
        <ele>472.0</ele>
      </trkpt>
      <trkpt lat="34.13638" lon="-118.32478">
        <ele>470.0</ele>
      </trkpt>
      <trkpt lat="34.13629" lon="-118.3248">
        <ele>470.0</ele>
      </trkpt>
      <trkpt lat="34.13624" lon="-118.32461">
        <ele>463.0</ele>
      </trkpt>
      <trkpt lat="34.13618" lon="-118.3245">
        <ele>458.0</ele>
      </trkpt>
      <trkpt lat="34.13598" lon="-118.32439">
        <ele>458.0</ele>
      </trkpt>
      <trkpt lat="34.13597" lon="-118.32435">
        <ele>460.0</ele>
      </trkpt>
      <trkpt lat="34.13583" lon="-118.32429">
        <ele>461.0</ele>
      </trkpt>
      <trkpt lat="34.13559" lon="-118.32425">
        <ele>470.0</ele>
      </trkpt>
      <trkpt lat="34.13551" lon="-118.32419">
        <ele>470.0</ele>
      </trkpt>
      <trkpt lat="34.13543" lon="-118.3242">
        <ele>470.0</ele>
      </trkpt>
      <trkpt lat="34.13540578491675" lon="-118.3241757849167">
        <ele>479.0</ele>
      </trkpt>
      <trkpt lat="34.1354057849276" lon="-118.3241757849167">
        <ele>479.0</ele>
      </trkpt>
      <trkpt lat="34.13533" lon="-118.3241">
        <ele>479.0</ele>
      </trkpt>
      <trkpt lat="34.13526" lon="-118.32413">
        <ele>479.0</ele>
      </trkpt>
      <trkpt lat="34.1352" lon="-118.32404">
        <ele>479.0</ele>
      </trkpt>
      <trkpt lat="34.13498" lon="-118.32402">
        <ele>478.0</ele>
      </trkpt>
      <trkpt lat="34.13477" lon="-118.32366">
        <ele>478.0</ele>
      </trkpt>
      <trkpt lat="34.13476" lon="-118.32356">
        <ele>478.0</ele>
      </trkpt>
      <trkpt lat="34.1347" lon="-118.32352">
        <ele>478.0</ele>
      </trkpt>
      <trkpt lat="34.13468" lon="-118.32341">
        <ele>477.0</ele>
      </trkpt>
      <trkpt lat="34.1347" lon="-118.32337">
        <ele>477.0</ele>
      </trkpt>
      <trkpt lat="34.13466" lon="-118.32329">
        <ele>477.0</ele>
      </trkpt>
      <trkpt lat="34.13466" lon="-118.32329">
        <ele>477.0</ele>
      </trkpt>
      <trkpt lat="34.13456283202264" lon="-118.3232025488204">
        <ele>486.0</ele>
      </trkpt>
      <trkpt lat="34.13456283202427" lon="-118.3232025488204">
        <ele>486.0</ele>
      </trkpt>
      <trkpt lat="34.13456" lon="-118.3232">
        <ele>486.0</ele>
      </trkpt>
      <trkpt lat="34.13463" lon="-118.32312">
        <ele>482.0</ele>
      </trkpt>
      <trkpt lat="34.13463" lon="-118.32312">
        <ele>482.0</ele>
      </trkpt>
      <trkpt lat="34.13463" lon="-118.32312">
        <ele>482.0</ele>
      </trkpt>
      <trkpt lat="34.13467" lon="-118.3229">
        <ele>487.0</ele>
      </trkpt>
      <trkpt lat="34.13466" lon="-118.32275">
        <ele>487.0</ele>
      </trkpt>
      <trkpt lat="34.13466" lon="-118.32275">
        <ele>487.0</ele>
      </trkpt>
      <trkpt lat="34.13469" lon="-118.32252">
        <ele>490.0</ele>
      </trkpt>
      <trkpt lat="34.13469" lon="-118.32252">
        <ele>490.0</ele>
      </trkpt>
      <trkpt lat="34.13459" lon="-118.32251">
        <ele>490.0</ele>
      </trkpt>
      <trkpt lat="34.13453" lon="-118.32245">
        <ele>495.0</ele>
      </trkpt>
      <trkpt lat="34.13441" lon="-118.32197">
        <ele>504.0</ele>
      </trkpt>
      <trkpt lat="34.13442" lon="-118.32184">
        <ele>504.0</ele>
      </trkpt>
      <trkpt lat="34.13454628347997" lon="-118.3215874330401">
        <ele>504.0</ele>
      </trkpt>
      <trkpt lat="34.13455" lon="-118.32159">
        <ele>504.0</ele>
      </trkpt>
      <trkpt lat="34.13467" lon="-118.32161">
        <ele>504.0</ele>
      </trkpt>
      <trkpt lat="34.13467" lon="-118.32164">
        <ele>504.0</ele>
      </trkpt>
      <trkpt lat="34.13455136640066" lon="-118.3218476087988">
        <ele>504.0</ele>
      </trkpt>
      <trkpt lat="34.1345513664016" lon="-118.3218476087988">
        <ele>504.0</ele>
      </trkpt>
      <trkpt lat="34.13467" lon="-118.32164">
        <ele>504.0</ele>
      </trkpt>
      <trkpt lat="34.13467" lon="-118.32161">
        <ele>504.0</ele>
      </trkpt>
      <trkpt lat="34.13455" lon="-118.32159">
        <ele>504.0</ele>
      </trkpt>
      <trkpt lat="34.13454628347997" lon="-118.3215874330401">
        <ele>504.0</ele>
      </trkpt>
      <trkpt lat="34.13442" lon="-118.32184">
        <ele>504.0</ele>
      </trkpt>
      <trkpt lat="34.13441" lon="-118.32197">
        <ele>504.0</ele>
      </trkpt>
      <trkpt lat="34.13453" lon="-118.32245">
        <ele>495.0</ele>
      </trkpt>
      <trkpt lat="34.13459" lon="-118.32251">
        <ele>490.0</ele>
      </trkpt>
      <trkpt lat="34.13469" lon="-118.32252">
        <ele>490.0</ele>
      </trkpt>
      <trkpt lat="34.13469" lon="-118.32252">
        <ele>490.0</ele>
      </trkpt>
      <trkpt lat="34.13466" lon="-118.32275">
        <ele>487.0</ele>
      </trkpt>
      <trkpt lat="34.13466" lon="-118.32275">
        <ele>487.0</ele>
      </trkpt>
      <trkpt lat="34.13467" lon="-118.3229">
        <ele>487.0</ele>
      </trkpt>
      <trkpt lat="34.13463" lon="-118.32312">
        <ele>482.0</ele>
      </trkpt>
      <trkpt lat="34.13463" lon="-118.32312">
        <ele>482.0</ele>
      </trkpt>
      <trkpt lat="34.13463" lon="-118.32312">
        <ele>482.0</ele>
      </trkpt>
      <trkpt lat="34.13466" lon="-118.32329">
        <ele>477.0</ele>
      </trkpt>
      <trkpt lat="34.13466" lon="-118.32329">
        <ele>477.0</ele>
      </trkpt>
      <trkpt lat="34.13466" lon="-118.32329">
        <ele>477.0</ele>
      </trkpt>
      <trkpt lat="34.1347" lon="-118.32337">
        <ele>477.0</ele>
      </trkpt>
      <trkpt lat="34.13468" lon="-118.32341">
        <ele>477.0</ele>
      </trkpt>
      <trkpt lat="34.1347" lon="-118.32352">
        <ele>478.0</ele>
      </trkpt>
      <trkpt lat="34.13476" lon="-118.32356">
        <ele>478.0</ele>
      </trkpt>
      <trkpt lat="34.13477" lon="-118.32366">
        <ele>478.0</ele>
      </trkpt>
      <trkpt lat="34.13498" lon="-118.32402">
        <ele>478.0</ele>
      </trkpt>
      <trkpt lat="34.1352" lon="-118.32404">
        <ele>479.0</ele>
      </trkpt>
      <trkpt lat="34.13526" lon="-118.32413">
        <ele>479.0</ele>
      </trkpt>
      <trkpt lat="34.13533" lon="-118.3241">
        <ele>479.0</ele>
      </trkpt>
      <trkpt lat="34.13543" lon="-118.3242">
        <ele>470.0</ele>
      </trkpt>
      <trkpt lat="34.13551" lon="-118.32419">
        <ele>470.0</ele>
      </trkpt>
      <trkpt lat="34.13559" lon="-118.32425">
        <ele>470.0</ele>
      </trkpt>
      <trkpt lat="34.13565305283378" lon="-118.3242605088056">
        <ele>470.0</ele>
      </trkpt>
      <trkpt lat="34.1356530528998" lon="-118.3242605088056">
        <ele>470.0</ele>
      </trkpt>
      <trkpt lat="34.13583" lon="-118.32429">
        <ele>461.0</ele>
      </trkpt>
      <trkpt lat="34.13597" lon="-118.32435">
        <ele>460.0</ele>
      </trkpt>
      <trkpt lat="34.13598" lon="-118.32439">
        <ele>458.0</ele>
      </trkpt>
      <trkpt lat="34.13618" lon="-118.3245">
        <ele>458.0</ele>
      </trkpt>
      <trkpt lat="34.13624" lon="-118.32461">
        <ele>463.0</ele>
      </trkpt>
      <trkpt lat="34.13629" lon="-118.3248">
        <ele>470.0</ele>
      </trkpt>
      <trkpt lat="34.13638" lon="-118.32478">
        <ele>470.0</ele>
      </trkpt>
      <trkpt lat="34.13658" lon="-118.32483">
        <ele>472.0</ele>
      </trkpt>
      <trkpt lat="34.1367" lon="-118.32495">
        <ele>484.0</ele>
      </trkpt>
      <trkpt lat="34.13681" lon="-118.32537">
        <ele>495.0</ele>
      </trkpt>
      <trkpt lat="34.13684" lon="-118.3255">
        <ele>506.0</ele>
      </trkpt>
      <trkpt lat="34.13682" lon="-118.32556">
        <ele>506.0</ele>
      </trkpt>
      <trkpt lat="34.13699" lon="-118.32583">
        <ele>510.0</ele>
      </trkpt>
      <trkpt lat="34.13699" lon="-118.32583">
        <ele>510.0</ele>
      </trkpt>
      <trkpt lat="34.13705" lon="-118.32585">
        <ele>510.0</ele>
      </trkpt>
      <trkpt lat="34.13716" lon="-118.32608">
        <ele>523.0</ele>
      </trkpt>
      <trkpt lat="34.13718" lon="-118.32674">
        <ele>524.0</ele>
      </trkpt>
      <trkpt lat="34.13725" lon="-118.32697">
        <ele>521.0</ele>
      </trkpt>
      <trkpt lat="34.13724" lon="-118.32759">
        <ele>516.0</ele>
      </trkpt>
      <trkpt lat="34.13726" lon="-118.32781">
        <ele>515.0</ele>
      </trkpt>
      <trkpt lat="34.13726" lon="-118.32781">
        <ele>515.0</ele>
      </trkpt>
      <trkpt lat="34.13726" lon="-118.32781">
        <ele>515.0</ele>
      </trkpt>
      <trkpt lat="34.13724" lon="-118.32798">
        <ele>515.0</ele>
      </trkpt>
      <trkpt lat="34.13719" lon="-118.32811">
        <ele>515.0</ele>
      </trkpt>
      <trkpt lat="34.1372" lon="-118.32823">
        <ele>512.0</ele>
      </trkpt>
      <trkpt lat="34.13716" lon="-118.32844">
        <ele>512.0</ele>
      </trkpt>
      <trkpt lat="34.13713" lon="-118.32885">
        <ele>507.0</ele>
      </trkpt>
      <trkpt lat="34.13714" lon="-118.32889">
        <ele>507.0</ele>
      </trkpt>
      <trkpt lat="34.13694" lon="-118.32952">
        <ele>510.0</ele>
      </trkpt>
      <trkpt lat="34.1369" lon="-118.32957">
        <ele>510.0</ele>
      </trkpt>
      <trkpt lat="34.13686" lon="-118.32974">
        <ele>513.0</ele>
      </trkpt>
      <trkpt lat="34.13667" lon="-118.33022">
        <ele>506.0</ele>
      </trkpt>
      <trkpt lat="34.13662" lon="-118.33044">
        <ele>505.0</ele>
      </trkpt>
      <trkpt lat="34.13657" lon="-118.33046">
        <ele>505.0</ele>
      </trkpt>
      <trkpt lat="34.13637" lon="-118.33087">
        <ele>498.0</ele>
      </trkpt>
      <trkpt lat="34.13633" lon="-118.33107">
        <ele>497.0</ele>
      </trkpt>
      <trkpt lat="34.13628" lon="-118.33114">
        <ele>497.0</ele>
      </trkpt>
      <trkpt lat="34.13624" lon="-118.33136">
        <ele>495.0</ele>
      </trkpt>
      <trkpt lat="34.1362" lon="-118.3314">
        <ele>495.0</ele>
      </trkpt>
      <trkpt lat="34.13616" lon="-118.33152">
        <ele>495.0</ele>
      </trkpt>
      <trkpt lat="34.13616" lon="-118.33152">
        <ele>495.0</ele>
      </trkpt>
      <trkpt lat="34.13612" lon="-118.33145">
        <ele>495.0</ele>
      </trkpt>
      <trkpt lat="34.13614" lon="-118.33122">
        <ele>492.0</ele>
      </trkpt>
      <trkpt lat="34.13606" lon="-118.33077">
        <ele>488.0</ele>
      </trkpt>
      <trkpt lat="34.13609" lon="-118.33052">
        <ele>483.0</ele>
      </trkpt>
      <trkpt lat="34.13608" lon="-118.33044">
        <ele>483.0</ele>
      </trkpt>
      <trkpt lat="34.13609" lon="-118.33029">
        <ele>472.0</ele>
      </trkpt>
      <trkpt lat="34.13615" lon="-118.33014">
        <ele>472.0</ele>
      </trkpt>
      <trkpt lat="34.13615" lon="-118.33003">
        <ele>462.0</ele>
      </trkpt>
      <trkpt lat="34.13613" lon="-118.32998">
        <ele>462.0</ele>
      </trkpt>
      <trkpt lat="34.1361" lon="-118.32998">
        <ele>462.0</ele>
      </trkpt>
      <trkpt lat="34.13607" lon="-118.33">
        <ele>462.0</ele>
      </trkpt>
      <trkpt lat="34.13604" lon="-118.33007">
        <ele>462.0</ele>
      </trkpt>
      <trkpt lat="34.13596" lon="-118.33017">
        <ele>448.0</ele>
      </trkpt>
      <trkpt lat="34.1359" lon="-118.33018">
        <ele>448.0</ele>
      </trkpt>
      <trkpt lat="34.13589194326286" lon="-118.3302122269485">
        <ele>448.0</ele>
      </trkpt>
      <trkpt lat="34.13589194326389" lon="-118.3302122269485">
        <ele>448.0</ele>
      </trkpt>
      <trkpt lat="34.13587" lon="-118.3303">
        <ele>448.0</ele>
      </trkpt>
      <trkpt lat="34.13582" lon="-118.33039">
        <ele>448.0</ele>
      </trkpt>
      <trkpt lat="34.13574" lon="-118.33046">
        <ele>455.0</ele>
      </trkpt>
      <trkpt lat="34.13572" lon="-118.33054">
        <ele>455.0</ele>
      </trkpt>
      <trkpt lat="34.13563" lon="-118.33062">
        <ele>435.0</ele>
      </trkpt>
      <trkpt lat="34.13557" lon="-118.33091">
        <ele>439.0</ele>
      </trkpt>
      <trkpt lat="34.13555" lon="-118.33109">
        <ele>446.0</ele>
      </trkpt>
      <trkpt lat="34.13543" lon="-118.33122">
        <ele>446.0</ele>
      </trkpt>
      <trkpt lat="34.13524" lon="-118.33132">
        <ele>431.0</ele>
      </trkpt>
      <trkpt lat="34.13506" lon="-118.33138">
        <ele>405.0</ele>
      </trkpt>
      <trkpt lat="34.13495" lon="-118.33146">
        <ele>405.0</ele>
      </trkpt>
      <trkpt lat="34.13485" lon="-118.33161">
        <ele>398.0</ele>
      </trkpt>
      <trkpt lat="34.13469" lon="-118.33194">
        <ele>407.0</ele>
      </trkpt>
      <trkpt lat="34.13455" lon="-118.33245">
        <ele>396.0</ele>
      </trkpt>
      <trkpt lat="34.13455" lon="-118.3325">
        <ele>396.0</ele>
      </trkpt>
      <trkpt lat="34.1346" lon="-118.33257">
        <ele>417.0</ele>
      </trkpt>
      <trkpt lat="34.13465" lon="-118.33284">
        <ele>411.0</ele>
      </trkpt>
      <trkpt lat="34.13484" lon="-118.33306">
        <ele>395.0</ele>
      </trkpt>
      <trkpt lat="34.13489" lon="-118.33318">
        <ele>416.0</ele>
      </trkpt>
      <trkpt lat="34.13489" lon="-118.33328">
        <ele>392.0</ele>
      </trkpt>
      <trkpt lat="34.13479" lon="-118.33342">
        <ele>377.0</ele>
      </trkpt>
      <trkpt lat="34.13481" lon="-118.33378">
        <ele>358.0</ele>
      </trkpt>
      <trkpt lat="34.13479" lon="-118.33398">
        <ele>358.0</ele>
      </trkpt>
      <trkpt lat="34.13476" lon="-118.33406">
        <ele>353.0</ele>
      </trkpt>
      <trkpt lat="34.13466" lon="-118.33411">
        <ele>353.0</ele>
      </trkpt>
      <trkpt lat="34.13457" lon="-118.33423">
        <ele>341.0</ele>
      </trkpt>
      <trkpt lat="34.13449" lon="-118.33427">
        <ele>341.0</ele>
      </trkpt>
      <trkpt lat="34.13437" lon="-118.33458">
        <ele>339.0</ele>
      </trkpt>
      <trkpt lat="34.13437" lon="-118.33458">
        <ele>339.0</ele>
      </trkpt>
      <trkpt lat="34.13427" lon="-118.33456">
        <ele>332.0</ele>
      </trkpt>
      <trkpt lat="34.1338" lon="-118.3347">
        <ele>329.0</ele>
      </trkpt>
      <trkpt lat="34.13366" lon="-118.33478">
        <ele>324.0</ele>
      </trkpt>
      <trkpt lat="34.13356" lon="-118.3349">
        <ele>325.0</ele>
      </trkpt>
      <trkpt lat="34.13353" lon="-118.33503">
        <ele>325.0</ele>
      </trkpt>
      <trkpt lat="34.13354" lon="-118.33533">
        <ele>323.0</ele>
      </trkpt>
      <trkpt lat="34.13353196559061" lon="-118.3353655809558">
        <ele>323.0</ele>
      </trkpt>
      <trkpt lat="34.13347" lon="-118.33564">
        <ele>319.0</ele>
      </trkpt>
      <trkpt lat="34.13329" lon="-118.33594">
        <ele>317.0</ele>
      </trkpt>
      <trkpt lat="34.13324" lon="-118.33622">
        <ele>316.0</ele>
      </trkpt>
      <trkpt lat="34.13316" lon="-118.33635">
        <ele>313.0</ele>
      </trkpt>
      <trkpt lat="34.13302" lon="-118.33644">
        <ele>313.0</ele>
      </trkpt>
      <trkpt lat="34.13287" lon="-118.33649">
        <ele>310.0</ele>
      </trkpt>
      <trkpt lat="34.13287" lon="-118.33649">
        <ele>310.0</ele>
      </trkpt>
      <trkpt lat="34.13287" lon="-118.33649">
        <ele>310.0</ele>
      </trkpt>
      <trkpt lat="34.13285378145893" lon="-118.3364932437082">
        <ele>310.0</ele>
      </trkpt>
      <trkpt lat="34.13285378146696" lon="-118.3364932437082">
        <ele>310.0</ele>
      </trkpt>
      <trkpt lat="34.13277" lon="-118.33651">
        <ele>310.0</ele>
      </trkpt>
      <trkpt lat="34.13258" lon="-118.33645">
        <ele>303.0</ele>
      </trkpt>
      <trkpt lat="34.13248" lon="-118.33647">
        <ele>303.0</ele>
      </trkpt>
      <trkpt lat="34.13242" lon="-118.33653">
        <ele>306.0</ele>
      </trkpt>
      <trkpt lat="34.13227" lon="-118.33677">
        <ele>296.0</ele>
      </trkpt>
      <trkpt lat="34.13211" lon="-118.33686">
        <ele>297.0</ele>
      </trkpt>
      <trkpt lat="34.13205" lon="-118.33695">
        <ele>292.0</ele>
      </trkpt>
      <trkpt lat="34.13205" lon="-118.33706">
        <ele>292.0</ele>
      </trkpt>
      <trkpt lat="34.1321" lon="-118.33715">
        <ele>298.0</ele>
      </trkpt>
      <trkpt lat="34.13224" lon="-118.33721">
        <ele>298.0</ele>
      </trkpt>
      <trkpt lat="34.1323" lon="-118.33731">
        <ele>298.0</ele>
      </trkpt>
      <trkpt lat="34.13231" lon="-118.33739">
        <ele>298.0</ele>
      </trkpt>
      <trkpt lat="34.1323" lon="-118.33746">
        <ele>298.0</ele>
      </trkpt>
      <trkpt lat="34.13215" lon="-118.3379">
        <ele>298.0</ele>
      </trkpt>
      <trkpt lat="34.13215" lon="-118.3379">
        <ele>298.0</ele>
      </trkpt>
      <trkpt lat="34.13071" lon="-118.33772">
        <ele>268.0</ele>
      </trkpt>
      <trkpt lat="34.13070770159917" lon="-118.3377193004867">
        <ele>268.0</ele>
      </trkpt>
      <trkpt lat="34.13070770160539" lon="-118.3377193004867">
        <ele>268.0</ele>
      </trkpt>
      <trkpt lat="34.13025" lon="-118.33758">
        <ele>254.0</ele>
      </trkpt>
      <trkpt lat="34.12935" lon="-118.3372">
        <ele>246.0</ele>
      </trkpt>
      <trkpt lat="34.12925" lon="-118.33713">
        <ele>245.0</ele>
      </trkpt>
      <trkpt lat="34.12906" lon="-118.33691">
        <ele>241.0</ele>
      </trkpt>
      <trkpt lat="34.12897" lon="-118.33674">
        <ele>234.0</ele>
      </trkpt>
      <trkpt lat="34.12888252349745" lon="-118.3364378084457">
        <ele>232.0</ele>
      </trkpt>
    </trkseg>
  </trk>
</gpx>
