<?xml version="1.0" encoding="UTF-8"?>
<gpx xmlns:xsi="http://www.w3.org/2001/XMLSchema-instance" version="1.1" creator="The Outbound Collective, Inc. 1.1.1 -- https://www.theoutbound.com" xsi:schemaLocation="http://www.topografix.com/GPX/1/1 http://www.topografix.com/GPX/1/1/gpx.xsd">
  <metadata>
    <name/>
    <time>2026-02-19T21:59:31+00:00</time>
    <bound minlat="34.1766" minlon="-118.25993" maxlat="34.19665772145348" maxlon="-118.238465487957"/>
  </metadata>
  <trk>
    <name/>
    <trkseg>
      <trkpt lat="34.17660699499857" lon="-118.238465487957">
        <ele>360.0</ele>
      </trkpt>
      <trkpt lat="34.1766" lon="-118.23847">
        <ele>360.0</ele>
      </trkpt>
      <trkpt lat="34.1766" lon="-118.23847">
        <ele>360.0</ele>
      </trkpt>
      <trkpt lat="34.1766" lon="-118.23847">
        <ele>360.0</ele>
      </trkpt>
      <trkpt lat="34.17688" lon="-118.23854">
        <ele>361.0</ele>
      </trkpt>
      <trkpt lat="34.17695" lon="-118.23858">
        <ele>361.0</ele>
      </trkpt>
      <trkpt lat="34.17709" lon="-118.23872">
        <ele>361.0</ele>
      </trkpt>
      <trkpt lat="34.1772" lon="-118.23896">
        <ele>362.0</ele>
      </trkpt>
      <trkpt lat="34.17729577312073" lon="-118.2393271302961">
        <ele>353.0</ele>
      </trkpt>
      <trkpt lat="34.17729577316852" lon="-118.2393271302961">
        <ele>353.0</ele>
      </trkpt>
      <trkpt lat="34.17738" lon="-118.23965">
        <ele>360.0</ele>
      </trkpt>
      <trkpt lat="34.17814" lon="-118.24052">
        <ele>374.0</ele>
      </trkpt>
      <trkpt lat="34.17814" lon="-118.24052">
        <ele>374.0</ele>
      </trkpt>
      <trkpt lat="34.17818" lon="-118.24066">
        <ele>374.0</ele>
      </trkpt>
      <trkpt lat="34.1784" lon="-118.2411">
        <ele>373.0</ele>
      </trkpt>
      <trkpt lat="34.17844888793996" lon="-118.2412254081938">
        <ele>373.0</ele>
      </trkpt>
      <trkpt lat="34.17844888799242" lon="-118.2412254081938">
        <ele>373.0</ele>
      </trkpt>
      <trkpt lat="34.17863" lon="-118.24169">
        <ele>381.0</ele>
      </trkpt>
      <trkpt lat="34.17866" lon="-118.24181">
        <ele>384.0</ele>
      </trkpt>
      <trkpt lat="34.17864" lon="-118.2423">
        <ele>387.0</ele>
      </trkpt>
      <trkpt lat="34.17859" lon="-118.24266">
        <ele>389.0</ele>
      </trkpt>
      <trkpt lat="34.17862" lon="-118.24276">
        <ele>389.0</ele>
      </trkpt>
      <trkpt lat="34.17864" lon="-118.2428">
        <ele>389.0</ele>
      </trkpt>
      <trkpt lat="34.17881" lon="-118.24284">
        <ele>399.0</ele>
      </trkpt>
      <trkpt lat="34.17888" lon="-118.24289">
        <ele>399.0</ele>
      </trkpt>
      <trkpt lat="34.17893" lon="-118.24298">
        <ele>401.0</ele>
      </trkpt>
      <trkpt lat="34.17899" lon="-118.24327">
        <ele>402.0</ele>
      </trkpt>
      <trkpt lat="34.17905" lon="-118.24335">
        <ele>407.0</ele>
      </trkpt>
      <trkpt lat="34.17915052602417" lon="-118.243394678233">
        <ele>407.0</ele>
      </trkpt>
      <trkpt lat="34.17915052617874" lon="-118.243394678233">
        <ele>407.0</ele>
      </trkpt>
      <trkpt lat="34.17941" lon="-118.24351">
        <ele>411.0</ele>
      </trkpt>
      <trkpt lat="34.17961" lon="-118.24372">
        <ele>413.0</ele>
      </trkpt>
      <trkpt lat="34.17984" lon="-118.24383">
        <ele>413.0</ele>
      </trkpt>
      <trkpt lat="34.17989" lon="-118.24389">
        <ele>414.0</ele>
      </trkpt>
      <trkpt lat="34.18" lon="-118.24411">
        <ele>416.0</ele>
      </trkpt>
      <trkpt lat="34.18" lon="-118.24411">
        <ele>416.0</ele>
      </trkpt>
      <trkpt lat="34.18018" lon="-118.24432">
        <ele>423.0</ele>
      </trkpt>
      <trkpt lat="34.18029" lon="-118.24465">
        <ele>426.0</ele>
      </trkpt>
      <trkpt lat="34.1802892822318" lon="-118.2446794375875">
        <ele>426.0</ele>
      </trkpt>
      <trkpt lat="34.1802892822318" lon="-118.2446794375875">
        <ele>426.0</ele>
      </trkpt>
      <trkpt lat="34.18028860714159" lon="-118.2447071248366">
        <ele>426.0</ele>
      </trkpt>
      <trkpt lat="34.18028860714159" lon="-118.2447071248366">
        <ele>426.0</ele>
      </trkpt>
      <trkpt lat="34.18028" lon="-118.24506">
        <ele>427.0</ele>
      </trkpt>
      <trkpt lat="34.18028585825874" lon="-118.2450668346352">
        <ele>427.0</ele>
      </trkpt>
      <trkpt lat="34.18028585826061" lon="-118.2450668346352">
        <ele>427.0</ele>
      </trkpt>
      <trkpt lat="34.18034" lon="-118.24513">
        <ele>427.0</ele>
      </trkpt>
      <trkpt lat="34.18046" lon="-118.24518">
        <ele>425.0</ele>
      </trkpt>
      <trkpt lat="34.18063" lon="-118.24531">
        <ele>425.0</ele>
      </trkpt>
      <trkpt lat="34.18077" lon="-118.24532">
        <ele>423.0</ele>
      </trkpt>
      <trkpt lat="34.18106" lon="-118.24518">
        <ele>426.0</ele>
      </trkpt>
      <trkpt lat="34.18157" lon="-118.24501">
        <ele>428.0</ele>
      </trkpt>
      <trkpt lat="34.18219" lon="-118.24495">
        <ele>445.0</ele>
      </trkpt>
      <trkpt lat="34.18228" lon="-118.24499">
        <ele>445.0</ele>
      </trkpt>
      <trkpt lat="34.18232" lon="-118.24503">
        <ele>445.0</ele>
      </trkpt>
      <trkpt lat="34.18233165183464" lon="-118.2451057369252">
        <ele>445.0</ele>
      </trkpt>
      <trkpt lat="34.18233397965786" lon="-118.245120867776">
        <ele>445.0</ele>
      </trkpt>
      <trkpt lat="34.18234" lon="-118.24516">
        <ele>449.0</ele>
      </trkpt>
      <trkpt lat="34.18221" lon="-118.24556">
        <ele>451.0</ele>
      </trkpt>
      <trkpt lat="34.18213" lon="-118.24596">
        <ele>453.0</ele>
      </trkpt>
      <trkpt lat="34.18216" lon="-118.24607">
        <ele>454.0</ele>
      </trkpt>
      <trkpt lat="34.18238" lon="-118.24634">
        <ele>462.0</ele>
      </trkpt>
      <trkpt lat="34.1824" lon="-118.24642">
        <ele>462.0</ele>
      </trkpt>
      <trkpt lat="34.18235" lon="-118.24653">
        <ele>461.0</ele>
      </trkpt>
      <trkpt lat="34.1822" lon="-118.24662">
        <ele>461.0</ele>
      </trkpt>
      <trkpt lat="34.18215" lon="-118.24667">
        <ele>461.0</ele>
      </trkpt>
      <trkpt lat="34.18203" lon="-118.24708">
        <ele>458.0</ele>
      </trkpt>
      <trkpt lat="34.18196" lon="-118.2472">
        <ele>463.0</ele>
      </trkpt>
      <trkpt lat="34.18195" lon="-118.24729">
        <ele>463.0</ele>
      </trkpt>
      <trkpt lat="34.18209" lon="-118.24771">
        <ele>488.0</ele>
      </trkpt>
      <trkpt lat="34.18208" lon="-118.24778">
        <ele>471.0</ele>
      </trkpt>
      <trkpt lat="34.18189" lon="-118.24821">
        <ele>475.0</ele>
      </trkpt>
      <trkpt lat="34.18189" lon="-118.2483">
        <ele>475.0</ele>
      </trkpt>
      <trkpt lat="34.18195" lon="-118.24838">
        <ele>475.0</ele>
      </trkpt>
      <trkpt lat="34.18238" lon="-118.24848">
        <ele>491.0</ele>
      </trkpt>
      <trkpt lat="34.18268" lon="-118.24862">
        <ele>493.0</ele>
      </trkpt>
      <trkpt lat="34.18285" lon="-118.24861">
        <ele>493.0</ele>
      </trkpt>
      <trkpt lat="34.18292" lon="-118.24856">
        <ele>496.0</ele>
      </trkpt>
      <trkpt lat="34.18301" lon="-118.24835">
        <ele>502.0</ele>
      </trkpt>
      <trkpt lat="34.1831" lon="-118.24823">
        <ele>502.0</ele>
      </trkpt>
      <trkpt lat="34.18343" lon="-118.24798">
        <ele>513.0</ele>
      </trkpt>
      <trkpt lat="34.18349" lon="-118.24796">
        <ele>514.0</ele>
      </trkpt>
      <trkpt lat="34.18355" lon="-118.24799">
        <ele>514.0</ele>
      </trkpt>
      <trkpt lat="34.18358" lon="-118.24809">
        <ele>514.0</ele>
      </trkpt>
      <trkpt lat="34.18346" lon="-118.24841">
        <ele>504.0</ele>
      </trkpt>
      <trkpt lat="34.18341" lon="-118.24864">
        <ele>503.0</ele>
      </trkpt>
      <trkpt lat="34.18345" lon="-118.24872">
        <ele>503.0</ele>
      </trkpt>
      <trkpt lat="34.18366" lon="-118.24886">
        <ele>510.0</ele>
      </trkpt>
      <trkpt lat="34.18378" lon="-118.2492">
        <ele>517.0</ele>
      </trkpt>
      <trkpt lat="34.18399" lon="-118.24938">
        <ele>517.0</ele>
      </trkpt>
      <trkpt lat="34.184" lon="-118.24945">
        <ele>517.0</ele>
      </trkpt>
      <trkpt lat="34.18397" lon="-118.24958">
        <ele>517.0</ele>
      </trkpt>
      <trkpt lat="34.18389" lon="-118.24971">
        <ele>517.0</ele>
      </trkpt>
      <trkpt lat="34.1839" lon="-118.24979">
        <ele>517.0</ele>
      </trkpt>
      <trkpt lat="34.18412" lon="-118.24992">
        <ele>521.0</ele>
      </trkpt>
      <trkpt lat="34.18425" lon="-118.25008">
        <ele>521.0</ele>
      </trkpt>
      <trkpt lat="34.18457" lon="-118.25029">
        <ele>534.0</ele>
      </trkpt>
      <trkpt lat="34.1846" lon="-118.25034">
        <ele>546.0</ele>
      </trkpt>
      <trkpt lat="34.1846" lon="-118.25043">
        <ele>546.0</ele>
      </trkpt>
      <trkpt lat="34.18455" lon="-118.25049">
        <ele>537.0</ele>
      </trkpt>
      <trkpt lat="34.18434" lon="-118.25061">
        <ele>537.0</ele>
      </trkpt>
      <trkpt lat="34.1842" lon="-118.25062">
        <ele>533.0</ele>
      </trkpt>
      <trkpt lat="34.1839" lon="-118.2505">
        <ele>532.0</ele>
      </trkpt>
      <trkpt lat="34.18363" lon="-118.25051">
        <ele>545.0</ele>
      </trkpt>
      <trkpt lat="34.18333" lon="-118.25041">
        <ele>539.0</ele>
      </trkpt>
      <trkpt lat="34.18326" lon="-118.25036">
        <ele>539.0</ele>
      </trkpt>
      <trkpt lat="34.18312" lon="-118.25017">
        <ele>540.0</ele>
      </trkpt>
      <trkpt lat="34.18304" lon="-118.25013">
        <ele>532.0</ele>
      </trkpt>
      <trkpt lat="34.18296" lon="-118.25014">
        <ele>540.0</ele>
      </trkpt>
      <trkpt lat="34.18282" lon="-118.25023">
        <ele>541.0</ele>
      </trkpt>
      <trkpt lat="34.18279" lon="-118.25037">
        <ele>541.0</ele>
      </trkpt>
      <trkpt lat="34.18294" lon="-118.25069">
        <ele>542.0</ele>
      </trkpt>
      <trkpt lat="34.18296" lon="-118.25104">
        <ele>553.0</ele>
      </trkpt>
      <trkpt lat="34.18294" lon="-118.2511">
        <ele>553.0</ele>
      </trkpt>
      <trkpt lat="34.18289" lon="-118.25112">
        <ele>559.0</ele>
      </trkpt>
      <trkpt lat="34.18273" lon="-118.25107">
        <ele>559.0</ele>
      </trkpt>
      <trkpt lat="34.18266" lon="-118.25109">
        <ele>559.0</ele>
      </trkpt>
      <trkpt lat="34.18261623315229" lon="-118.2511607002925">
        <ele>557.0</ele>
      </trkpt>
      <trkpt lat="34.18261623317466" lon="-118.2511607002925">
        <ele>557.0</ele>
      </trkpt>
      <trkpt lat="34.18253" lon="-118.2513">
        <ele>564.0</ele>
      </trkpt>
      <trkpt lat="34.18252" lon="-118.25144">
        <ele>564.0</ele>
      </trkpt>
      <trkpt lat="34.18259" lon="-118.25166">
        <ele>566.0</ele>
      </trkpt>
      <trkpt lat="34.18266" lon="-118.25202">
        <ele>569.0</ele>
      </trkpt>
      <trkpt lat="34.18266" lon="-118.25221">
        <ele>574.0</ele>
      </trkpt>
      <trkpt lat="34.18261" lon="-118.2524">
        <ele>571.0</ele>
      </trkpt>
      <trkpt lat="34.18244" lon="-118.25268">
        <ele>574.0</ele>
      </trkpt>
      <trkpt lat="34.18243" lon="-118.25276">
        <ele>574.0</ele>
      </trkpt>
      <trkpt lat="34.1825" lon="-118.25285">
        <ele>574.0</ele>
      </trkpt>
      <trkpt lat="34.18274" lon="-118.25295">
        <ele>585.0</ele>
      </trkpt>
      <trkpt lat="34.18283" lon="-118.25304">
        <ele>585.0</ele>
      </trkpt>
      <trkpt lat="34.18285" lon="-118.25317">
        <ele>585.0</ele>
      </trkpt>
      <trkpt lat="34.18284" lon="-118.25349">
        <ele>583.0</ele>
      </trkpt>
      <trkpt lat="34.18288" lon="-118.25368">
        <ele>583.0</ele>
      </trkpt>
      <trkpt lat="34.18293" lon="-118.25372">
        <ele>590.0</ele>
      </trkpt>
      <trkpt lat="34.18345" lon="-118.25383">
        <ele>587.0</ele>
      </trkpt>
      <trkpt lat="34.18376" lon="-118.25353">
        <ele>601.0</ele>
      </trkpt>
      <trkpt lat="34.18386" lon="-118.25351">
        <ele>601.0</ele>
      </trkpt>
      <trkpt lat="34.18395" lon="-118.25356">
        <ele>601.0</ele>
      </trkpt>
      <trkpt lat="34.1841" lon="-118.25369">
        <ele>606.0</ele>
      </trkpt>
      <trkpt lat="34.18418" lon="-118.25368">
        <ele>606.0</ele>
      </trkpt>
      <trkpt lat="34.18423" lon="-118.25363">
        <ele>606.0</ele>
      </trkpt>
      <trkpt lat="34.18432" lon="-118.2536">
        <ele>607.0</ele>
      </trkpt>
      <trkpt lat="34.18487" lon="-118.25389">
        <ele>613.0</ele>
      </trkpt>
      <trkpt lat="34.18495" lon="-118.25403">
        <ele>614.0</ele>
      </trkpt>
      <trkpt lat="34.18494" lon="-118.25419">
        <ele>614.0</ele>
      </trkpt>
      <trkpt lat="34.18476" lon="-118.25445">
        <ele>614.0</ele>
      </trkpt>
      <trkpt lat="34.18469" lon="-118.25464">
        <ele>617.0</ele>
      </trkpt>
      <trkpt lat="34.18463" lon="-118.25485">
        <ele>617.0</ele>
      </trkpt>
      <trkpt lat="34.18464" lon="-118.25492">
        <ele>617.0</ele>
      </trkpt>
      <trkpt lat="34.18468" lon="-118.25498">
        <ele>617.0</ele>
      </trkpt>
      <trkpt lat="34.18486" lon="-118.25506">
        <ele>617.0</ele>
      </trkpt>
      <trkpt lat="34.18523" lon="-118.25513">
        <ele>629.0</ele>
      </trkpt>
      <trkpt lat="34.18536" lon="-118.25519">
        <ele>629.0</ele>
      </trkpt>
      <trkpt lat="34.18544" lon="-118.25517">
        <ele>639.0</ele>
      </trkpt>
      <trkpt lat="34.18563" lon="-118.25501">
        <ele>640.0</ele>
      </trkpt>
      <trkpt lat="34.18588" lon="-118.25498">
        <ele>645.0</ele>
      </trkpt>
      <trkpt lat="34.18595" lon="-118.25501">
        <ele>645.0</ele>
      </trkpt>
      <trkpt lat="34.18598" lon="-118.25514">
        <ele>653.0</ele>
      </trkpt>
      <trkpt lat="34.18589" lon="-118.25534">
        <ele>644.0</ele>
      </trkpt>
      <trkpt lat="34.18579" lon="-118.25576">
        <ele>652.0</ele>
      </trkpt>
      <trkpt lat="34.1858" lon="-118.25608">
        <ele>666.0</ele>
      </trkpt>
      <trkpt lat="34.18575" lon="-118.25614">
        <ele>666.0</ele>
      </trkpt>
      <trkpt lat="34.18547" lon="-118.25625">
        <ele>656.0</ele>
      </trkpt>
      <trkpt lat="34.18542" lon="-118.25646">
        <ele>664.0</ele>
      </trkpt>
      <trkpt lat="34.18527951020389" lon="-118.2566335462187">
        <ele>665.0</ele>
      </trkpt>
      <trkpt lat="34.18527951022847" lon="-118.2566335462187">
        <ele>665.0</ele>
      </trkpt>
      <trkpt lat="34.18525" lon="-118.25667">
        <ele>665.0</ele>
      </trkpt>
      <trkpt lat="34.18522" lon="-118.25684">
        <ele>669.0</ele>
      </trkpt>
      <trkpt lat="34.18522" lon="-118.25684">
        <ele>669.0</ele>
      </trkpt>
      <trkpt lat="34.18517" lon="-118.25734">
        <ele>669.0</ele>
      </trkpt>
      <trkpt lat="34.18521" lon="-118.25743">
        <ele>665.0</ele>
      </trkpt>
      <trkpt lat="34.18521" lon="-118.25743">
        <ele>665.0</ele>
      </trkpt>
      <trkpt lat="34.18521" lon="-118.25743">
        <ele>665.0</ele>
      </trkpt>
      <trkpt lat="34.18541" lon="-118.25714">
        <ele>669.0</ele>
      </trkpt>
      <trkpt lat="34.18549" lon="-118.25712">
        <ele>672.0</ele>
      </trkpt>
      <trkpt lat="34.18556" lon="-118.25703">
        <ele>676.0</ele>
      </trkpt>
      <trkpt lat="34.18586" lon="-118.25684">
        <ele>684.0</ele>
      </trkpt>
      <trkpt lat="34.18586" lon="-118.25684">
        <ele>684.0</ele>
      </trkpt>
      <trkpt lat="34.18614" lon="-118.25679">
        <ele>699.0</ele>
      </trkpt>
      <trkpt lat="34.1862" lon="-118.25681">
        <ele>696.0</ele>
      </trkpt>
      <trkpt lat="34.18637" lon="-118.25679">
        <ele>718.0</ele>
      </trkpt>
      <trkpt lat="34.18654" lon="-118.25682">
        <ele>719.0</ele>
      </trkpt>
      <trkpt lat="34.18659" lon="-118.2568">
        <ele>726.0</ele>
      </trkpt>
      <trkpt lat="34.18665" lon="-118.25673">
        <ele>726.0</ele>
      </trkpt>
      <trkpt lat="34.18665" lon="-118.25673">
        <ele>726.0</ele>
      </trkpt>
      <trkpt lat="34.18667024408369" lon="-118.2567052572311">
        <ele>726.0</ele>
      </trkpt>
      <trkpt lat="34.18667024410286" lon="-118.256705257231">
        <ele>726.0</ele>
      </trkpt>
      <trkpt lat="34.18683" lon="-118.25651">
        <ele>732.0</ele>
      </trkpt>
      <trkpt lat="34.18695" lon="-118.25621">
        <ele>736.0</ele>
      </trkpt>
      <trkpt lat="34.18705" lon="-118.25616">
        <ele>736.0</ele>
      </trkpt>
      <trkpt lat="34.18729806395346" lon="-118.2559237486157">
        <ele>731.0</ele>
      </trkpt>
      <trkpt lat="34.1872980642063" lon="-118.2559237486157">
        <ele>731.0</ele>
      </trkpt>
      <trkpt lat="34.18747" lon="-118.25576">
        <ele>727.0</ele>
      </trkpt>
      <trkpt lat="34.18755" lon="-118.25602">
        <ele>731.0</ele>
      </trkpt>
      <trkpt lat="34.18754942039213" lon="-118.2560230575332">
        <ele>731.0</ele>
      </trkpt>
      <trkpt lat="34.18778" lon="-118.25609">
        <ele>727.0</ele>
      </trkpt>
      <trkpt lat="34.1881" lon="-118.2563">
        <ele>725.0</ele>
      </trkpt>
      <trkpt lat="34.18845" lon="-118.25641">
        <ele>727.0</ele>
      </trkpt>
      <trkpt lat="34.18845" lon="-118.25641">
        <ele>727.0</ele>
      </trkpt>
      <trkpt lat="34.18866" lon="-118.25653">
        <ele>728.0</ele>
      </trkpt>
      <trkpt lat="34.18886" lon="-118.25659">
        <ele>730.0</ele>
      </trkpt>
      <trkpt lat="34.18899685622723" lon="-118.2567700739832">
        <ele>730.0</ele>
      </trkpt>
      <trkpt lat="34.18899685627034" lon="-118.2567700739832">
        <ele>730.0</ele>
      </trkpt>
      <trkpt lat="34.18905" lon="-118.25684">
        <ele>724.0</ele>
      </trkpt>
      <trkpt lat="34.18905" lon="-118.25684">
        <ele>724.0</ele>
      </trkpt>
      <trkpt lat="34.18913" lon="-118.25689">
        <ele>724.0</ele>
      </trkpt>
      <trkpt lat="34.18913" lon="-118.25689">
        <ele>724.0</ele>
      </trkpt>
      <trkpt lat="34.18913" lon="-118.25689">
        <ele>724.0</ele>
      </trkpt>
      <trkpt lat="34.18929917240226" lon="-118.2568547557495">
        <ele>724.0</ele>
      </trkpt>
      <trkpt lat="34.18929917240226" lon="-118.2568547557495">
        <ele>724.0</ele>
      </trkpt>
      <trkpt lat="34.18937" lon="-118.25684">
        <ele>717.0</ele>
      </trkpt>
      <trkpt lat="34.18937" lon="-118.25684">
        <ele>717.0</ele>
      </trkpt>
      <trkpt lat="34.18983" lon="-118.25677">
        <ele>715.0</ele>
      </trkpt>
      <trkpt lat="34.18997" lon="-118.25684">
        <ele>719.0</ele>
      </trkpt>
      <trkpt lat="34.18997" lon="-118.25684">
        <ele>719.0</ele>
      </trkpt>
      <trkpt lat="34.19013133043606" lon="-118.2569367982616">
        <ele>719.0</ele>
      </trkpt>
      <trkpt lat="34.19013133043606" lon="-118.2569367982616">
        <ele>719.0</ele>
      </trkpt>
      <trkpt lat="34.19052" lon="-118.25717">
        <ele>719.0</ele>
      </trkpt>
      <trkpt lat="34.19077" lon="-118.25728">
        <ele>716.0</ele>
      </trkpt>
      <trkpt lat="34.19097" lon="-118.25754">
        <ele>715.0</ele>
      </trkpt>
      <trkpt lat="34.19106" lon="-118.2576">
        <ele>715.0</ele>
      </trkpt>
      <trkpt lat="34.19132" lon="-118.25758">
        <ele>714.0</ele>
      </trkpt>
      <trkpt lat="34.19163155424749" lon="-118.2576701867559">
        <ele>724.0</ele>
      </trkpt>
      <trkpt lat="34.19163155424749" lon="-118.2576701867559">
        <ele>724.0</ele>
      </trkpt>
      <trkpt lat="34.1917" lon="-118.25769">
        <ele>724.0</ele>
      </trkpt>
      <trkpt lat="34.19181" lon="-118.25778">
        <ele>721.0</ele>
      </trkpt>
      <trkpt lat="34.19191" lon="-118.25796">
        <ele>728.0</ele>
      </trkpt>
      <trkpt lat="34.19215" lon="-118.25806">
        <ele>729.0</ele>
      </trkpt>
      <trkpt lat="34.19248" lon="-118.25808">
        <ele>731.0</ele>
      </trkpt>
      <trkpt lat="34.19258" lon="-118.25805">
        <ele>731.0</ele>
      </trkpt>
      <trkpt lat="34.19265" lon="-118.25806">
        <ele>736.0</ele>
      </trkpt>
      <trkpt lat="34.19291" lon="-118.25847">
        <ele>742.0</ele>
      </trkpt>
      <trkpt lat="34.19322" lon="-118.25863">
        <ele>755.0</ele>
      </trkpt>
      <trkpt lat="34.19338" lon="-118.25876">
        <ele>756.0</ele>
      </trkpt>
      <trkpt lat="34.19348" lon="-118.25877">
        <ele>756.0</ele>
      </trkpt>
      <trkpt lat="34.19367" lon="-118.25869">
        <ele>753.0</ele>
      </trkpt>
      <trkpt lat="34.19392" lon="-118.2587">
        <ele>761.0</ele>
      </trkpt>
      <trkpt lat="34.194077634905" lon="-118.2585710259868">
        <ele>765.0</ele>
      </trkpt>
      <trkpt lat="34.19407763496329" lon="-118.2585710259868">
        <ele>765.0</ele>
      </trkpt>
      <trkpt lat="34.19414" lon="-118.25852">
        <ele>765.0</ele>
      </trkpt>
      <trkpt lat="34.19424" lon="-118.25853">
        <ele>765.0</ele>
      </trkpt>
      <trkpt lat="34.19428" lon="-118.25859">
        <ele>765.0</ele>
      </trkpt>
      <trkpt lat="34.19434" lon="-118.25887">
        <ele>773.0</ele>
      </trkpt>
      <trkpt lat="34.19438" lon="-118.25895">
        <ele>773.0</ele>
      </trkpt>
      <trkpt lat="34.19471" lon="-118.2592">
        <ele>774.0</ele>
      </trkpt>
      <trkpt lat="34.19528" lon="-118.25981">
        <ele>779.0</ele>
      </trkpt>
      <trkpt lat="34.19541" lon="-118.2599">
        <ele>783.0</ele>
      </trkpt>
      <trkpt lat="34.19541" lon="-118.2599">
        <ele>783.0</ele>
      </trkpt>
      <trkpt lat="34.1955" lon="-118.25993">
        <ele>790.0</ele>
      </trkpt>
      <trkpt lat="34.19579" lon="-118.25991">
        <ele>798.0</ele>
      </trkpt>
      <trkpt lat="34.19579" lon="-118.25991">
        <ele>798.0</ele>
      </trkpt>
      <trkpt lat="34.19579" lon="-118.25991">
        <ele>798.0</ele>
      </trkpt>
      <trkpt lat="34.19591" lon="-118.25986">
        <ele>800.0</ele>
      </trkpt>
      <trkpt lat="34.19599" lon="-118.25974">
        <ele>805.0</ele>
      </trkpt>
      <trkpt lat="34.19607" lon="-118.25939">
        <ele>802.0</ele>
      </trkpt>
      <trkpt lat="34.19612" lon="-118.25931">
        <ele>802.0</ele>
      </trkpt>
      <trkpt lat="34.19633" lon="-118.25913">
        <ele>801.0</ele>
      </trkpt>
      <trkpt lat="34.19663" lon="-118.25866">
        <ele>801.0</ele>
      </trkpt>
      <trkpt lat="34.19665772142844" lon="-118.2586014769844">
        <ele>801.0</ele>
      </trkpt>
      <trkpt lat="34.19665772145348" lon="-118.2586014769844">
        <ele>801.0</ele>
      </trkpt>
      <trkpt lat="34.19663" lon="-118.25866">
        <ele>801.0</ele>
      </trkpt>
      <trkpt lat="34.19633" lon="-118.25913">
        <ele>801.0</ele>
      </trkpt>
      <trkpt lat="34.19612" lon="-118.25931">
        <ele>802.0</ele>
      </trkpt>
      <trkpt lat="34.19607" lon="-118.25939">
        <ele>802.0</ele>
      </trkpt>
      <trkpt lat="34.19599" lon="-118.25974">
        <ele>805.0</ele>
      </trkpt>
      <trkpt lat="34.19591" lon="-118.25986">
        <ele>800.0</ele>
      </trkpt>
      <trkpt lat="34.19579" lon="-118.25991">
        <ele>798.0</ele>
      </trkpt>
      <trkpt lat="34.19579" lon="-118.25991">
        <ele>798.0</ele>
      </trkpt>
      <trkpt lat="34.19579" lon="-118.25991">
        <ele>798.0</ele>
      </trkpt>
      <trkpt lat="34.1955" lon="-118.25993">
        <ele>790.0</ele>
      </trkpt>
      <trkpt lat="34.19541" lon="-118.2599">
        <ele>783.0</ele>
      </trkpt>
      <trkpt lat="34.19541" lon="-118.2599">
        <ele>783.0</ele>
      </trkpt>
      <trkpt lat="34.19528" lon="-118.25981">
        <ele>779.0</ele>
      </trkpt>
      <trkpt lat="34.19471" lon="-118.2592">
        <ele>774.0</ele>
      </trkpt>
      <trkpt lat="34.19438" lon="-118.25895">
        <ele>773.0</ele>
      </trkpt>
      <trkpt lat="34.19434" lon="-118.25887">
        <ele>773.0</ele>
      </trkpt>
      <trkpt lat="34.19428" lon="-118.25859">
        <ele>765.0</ele>
      </trkpt>
      <trkpt lat="34.19424" lon="-118.25853">
        <ele>765.0</ele>
      </trkpt>
      <trkpt lat="34.19414" lon="-118.25852">
        <ele>765.0</ele>
      </trkpt>
      <trkpt lat="34.19392" lon="-118.2587">
        <ele>761.0</ele>
      </trkpt>
      <trkpt lat="34.19367" lon="-118.25869">
        <ele>753.0</ele>
      </trkpt>
      <trkpt lat="34.19348" lon="-118.25877">
        <ele>756.0</ele>
      </trkpt>
      <trkpt lat="34.19338" lon="-118.25876">
        <ele>756.0</ele>
      </trkpt>
      <trkpt lat="34.19322" lon="-118.25863">
        <ele>755.0</ele>
      </trkpt>
      <trkpt lat="34.19291" lon="-118.25847">
        <ele>742.0</ele>
      </trkpt>
      <trkpt lat="34.19276214039365" lon="-118.2582368367746">
        <ele>742.0</ele>
      </trkpt>
      <trkpt lat="34.19276214049194" lon="-118.2582368367746">
        <ele>742.0</ele>
      </trkpt>
      <trkpt lat="34.19265" lon="-118.25806">
        <ele>736.0</ele>
      </trkpt>
      <trkpt lat="34.19258" lon="-118.25805">
        <ele>731.0</ele>
      </trkpt>
      <trkpt lat="34.19248" lon="-118.25808">
        <ele>731.0</ele>
      </trkpt>
      <trkpt lat="34.19215" lon="-118.25806">
        <ele>729.0</ele>
      </trkpt>
      <trkpt lat="34.19191" lon="-118.25796">
        <ele>728.0</ele>
      </trkpt>
      <trkpt lat="34.19181" lon="-118.25778">
        <ele>721.0</ele>
      </trkpt>
      <trkpt lat="34.1917" lon="-118.25769">
        <ele>724.0</ele>
      </trkpt>
      <trkpt lat="34.19163155424749" lon="-118.2576701867559">
        <ele>724.0</ele>
      </trkpt>
      <trkpt lat="34.19163155424749" lon="-118.2576701867559">
        <ele>724.0</ele>
      </trkpt>
      <trkpt lat="34.19132" lon="-118.25758">
        <ele>714.0</ele>
      </trkpt>
      <trkpt lat="34.19106" lon="-118.2576">
        <ele>715.0</ele>
      </trkpt>
      <trkpt lat="34.19097" lon="-118.25754">
        <ele>715.0</ele>
      </trkpt>
      <trkpt lat="34.19077" lon="-118.25728">
        <ele>716.0</ele>
      </trkpt>
      <trkpt lat="34.19052" lon="-118.25717">
        <ele>719.0</ele>
      </trkpt>
      <trkpt lat="34.19013133043606" lon="-118.2569367982616">
        <ele>719.0</ele>
      </trkpt>
      <trkpt lat="34.19013133043606" lon="-118.2569367982616">
        <ele>719.0</ele>
      </trkpt>
      <trkpt lat="34.19011346243591" lon="-118.2569260774616">
        <ele>719.0</ele>
      </trkpt>
      <trkpt lat="34.19011346245109" lon="-118.2569260774615">
        <ele>719.0</ele>
      </trkpt>
      <trkpt lat="34.18997" lon="-118.25684">
        <ele>719.0</ele>
      </trkpt>
      <trkpt lat="34.18997" lon="-118.25684">
        <ele>719.0</ele>
      </trkpt>
      <trkpt lat="34.18983" lon="-118.25677">
        <ele>715.0</ele>
      </trkpt>
      <trkpt lat="34.18937" lon="-118.25684">
        <ele>717.0</ele>
      </trkpt>
      <trkpt lat="34.18937" lon="-118.25684">
        <ele>717.0</ele>
      </trkpt>
      <trkpt lat="34.18929917240226" lon="-118.2568547557495">
        <ele>724.0</ele>
      </trkpt>
      <trkpt lat="34.18929917240226" lon="-118.2568547557495">
        <ele>724.0</ele>
      </trkpt>
      <trkpt lat="34.18913" lon="-118.25689">
        <ele>724.0</ele>
      </trkpt>
      <trkpt lat="34.18913" lon="-118.25689">
        <ele>724.0</ele>
      </trkpt>
      <trkpt lat="34.18913" lon="-118.25689">
        <ele>724.0</ele>
      </trkpt>
      <trkpt lat="34.18905" lon="-118.25684">
        <ele>724.0</ele>
      </trkpt>
      <trkpt lat="34.18905" lon="-118.25684">
        <ele>724.0</ele>
      </trkpt>
      <trkpt lat="34.18886" lon="-118.25659">
        <ele>730.0</ele>
      </trkpt>
      <trkpt lat="34.18866" lon="-118.25653">
        <ele>728.0</ele>
      </trkpt>
      <trkpt lat="34.18845" lon="-118.25641">
        <ele>727.0</ele>
      </trkpt>
      <trkpt lat="34.18845" lon="-118.25641">
        <ele>727.0</ele>
      </trkpt>
      <trkpt lat="34.1881" lon="-118.2563">
        <ele>725.0</ele>
      </trkpt>
      <trkpt lat="34.18778" lon="-118.25609">
        <ele>727.0</ele>
      </trkpt>
      <trkpt lat="34.18754942039213" lon="-118.2560230575332">
        <ele>731.0</ele>
      </trkpt>
      <trkpt lat="34.18755" lon="-118.25602">
        <ele>731.0</ele>
      </trkpt>
      <trkpt lat="34.18747" lon="-118.25576">
        <ele>727.0</ele>
      </trkpt>
      <trkpt lat="34.18705" lon="-118.25616">
        <ele>736.0</ele>
      </trkpt>
      <trkpt lat="34.18695" lon="-118.25621">
        <ele>736.0</ele>
      </trkpt>
      <trkpt lat="34.18683" lon="-118.25651">
        <ele>732.0</ele>
      </trkpt>
      <trkpt lat="34.18665" lon="-118.25673">
        <ele>726.0</ele>
      </trkpt>
      <trkpt lat="34.18665" lon="-118.25673">
        <ele>726.0</ele>
      </trkpt>
      <trkpt lat="34.18659" lon="-118.2568">
        <ele>726.0</ele>
      </trkpt>
      <trkpt lat="34.18654" lon="-118.25682">
        <ele>719.0</ele>
      </trkpt>
      <trkpt lat="34.18637" lon="-118.25679">
        <ele>718.0</ele>
      </trkpt>
      <trkpt lat="34.1862" lon="-118.25681">
        <ele>696.0</ele>
      </trkpt>
      <trkpt lat="34.18614" lon="-118.25679">
        <ele>699.0</ele>
      </trkpt>
      <trkpt lat="34.18586" lon="-118.25684">
        <ele>684.0</ele>
      </trkpt>
      <trkpt lat="34.18586" lon="-118.25684">
        <ele>684.0</ele>
      </trkpt>
      <trkpt lat="34.18556" lon="-118.25703">
        <ele>676.0</ele>
      </trkpt>
      <trkpt lat="34.18549" lon="-118.25712">
        <ele>672.0</ele>
      </trkpt>
      <trkpt lat="34.18541" lon="-118.25714">
        <ele>669.0</ele>
      </trkpt>
      <trkpt lat="34.18521" lon="-118.25743">
        <ele>665.0</ele>
      </trkpt>
      <trkpt lat="34.18521" lon="-118.25743">
        <ele>665.0</ele>
      </trkpt>
      <trkpt lat="34.18521" lon="-118.25743">
        <ele>665.0</ele>
      </trkpt>
      <trkpt lat="34.18517" lon="-118.25734">
        <ele>669.0</ele>
      </trkpt>
      <trkpt lat="34.18522" lon="-118.25684">
        <ele>669.0</ele>
      </trkpt>
      <trkpt lat="34.18522" lon="-118.25684">
        <ele>669.0</ele>
      </trkpt>
      <trkpt lat="34.18525" lon="-118.25667">
        <ele>665.0</ele>
      </trkpt>
      <trkpt lat="34.18542" lon="-118.25646">
        <ele>664.0</ele>
      </trkpt>
      <trkpt lat="34.18547" lon="-118.25625">
        <ele>656.0</ele>
      </trkpt>
      <trkpt lat="34.18575" lon="-118.25614">
        <ele>666.0</ele>
      </trkpt>
      <trkpt lat="34.1858" lon="-118.25608">
        <ele>666.0</ele>
      </trkpt>
      <trkpt lat="34.18579" lon="-118.25576">
        <ele>652.0</ele>
      </trkpt>
      <trkpt lat="34.18589" lon="-118.25534">
        <ele>644.0</ele>
      </trkpt>
      <trkpt lat="34.18598" lon="-118.25514">
        <ele>653.0</ele>
      </trkpt>
      <trkpt lat="34.18595" lon="-118.25501">
        <ele>645.0</ele>
      </trkpt>
      <trkpt lat="34.18588" lon="-118.25498">
        <ele>645.0</ele>
      </trkpt>
      <trkpt lat="34.18569218160602" lon="-118.2550025382073">
        <ele>640.0</ele>
      </trkpt>
      <trkpt lat="34.18569218167526" lon="-118.2550025382073">
        <ele>640.0</ele>
      </trkpt>
      <trkpt lat="34.18563" lon="-118.25501">
        <ele>640.0</ele>
      </trkpt>
      <trkpt lat="34.18544" lon="-118.25517">
        <ele>639.0</ele>
      </trkpt>
      <trkpt lat="34.18536" lon="-118.25519">
        <ele>629.0</ele>
      </trkpt>
      <trkpt lat="34.18523" lon="-118.25513">
        <ele>629.0</ele>
      </trkpt>
      <trkpt lat="34.18486" lon="-118.25506">
        <ele>617.0</ele>
      </trkpt>
      <trkpt lat="34.18468" lon="-118.25498">
        <ele>617.0</ele>
      </trkpt>
      <trkpt lat="34.18464" lon="-118.25492">
        <ele>617.0</ele>
      </trkpt>
      <trkpt lat="34.18463" lon="-118.25485">
        <ele>617.0</ele>
      </trkpt>
      <trkpt lat="34.18469" lon="-118.25464">
        <ele>617.0</ele>
      </trkpt>
      <trkpt lat="34.18476" lon="-118.25445">
        <ele>614.0</ele>
      </trkpt>
      <trkpt lat="34.18494" lon="-118.25419">
        <ele>614.0</ele>
      </trkpt>
      <trkpt lat="34.18495" lon="-118.25403">
        <ele>614.0</ele>
      </trkpt>
      <trkpt lat="34.18487" lon="-118.25389">
        <ele>613.0</ele>
      </trkpt>
      <trkpt lat="34.18432" lon="-118.2536">
        <ele>607.0</ele>
      </trkpt>
      <trkpt lat="34.18423" lon="-118.25363">
        <ele>606.0</ele>
      </trkpt>
      <trkpt lat="34.18418" lon="-118.25368">
        <ele>606.0</ele>
      </trkpt>
      <trkpt lat="34.1841" lon="-118.25369">
        <ele>606.0</ele>
      </trkpt>
      <trkpt lat="34.18395" lon="-118.25356">
        <ele>601.0</ele>
      </trkpt>
      <trkpt lat="34.18386" lon="-118.25351">
        <ele>601.0</ele>
      </trkpt>
      <trkpt lat="34.18376" lon="-118.25353">
        <ele>601.0</ele>
      </trkpt>
      <trkpt lat="34.18345" lon="-118.25383">
        <ele>587.0</ele>
      </trkpt>
      <trkpt lat="34.18293" lon="-118.25372">
        <ele>590.0</ele>
      </trkpt>
      <trkpt lat="34.18288" lon="-118.25368">
        <ele>583.0</ele>
      </trkpt>
      <trkpt lat="34.18284" lon="-118.25349">
        <ele>583.0</ele>
      </trkpt>
      <trkpt lat="34.18285" lon="-118.25317">
        <ele>585.0</ele>
      </trkpt>
      <trkpt lat="34.18283" lon="-118.25304">
        <ele>585.0</ele>
      </trkpt>
      <trkpt lat="34.18274" lon="-118.25295">
        <ele>585.0</ele>
      </trkpt>
      <trkpt lat="34.1825" lon="-118.25285">
        <ele>574.0</ele>
      </trkpt>
      <trkpt lat="34.18243" lon="-118.25276">
        <ele>574.0</ele>
      </trkpt>
      <trkpt lat="34.18244" lon="-118.25268">
        <ele>574.0</ele>
      </trkpt>
      <trkpt lat="34.18261" lon="-118.2524">
        <ele>571.0</ele>
      </trkpt>
      <trkpt lat="34.18266" lon="-118.25221">
        <ele>574.0</ele>
      </trkpt>
      <trkpt lat="34.18266" lon="-118.25202">
        <ele>569.0</ele>
      </trkpt>
      <trkpt lat="34.18259" lon="-118.25166">
        <ele>566.0</ele>
      </trkpt>
      <trkpt lat="34.18252" lon="-118.25144">
        <ele>564.0</ele>
      </trkpt>
      <trkpt lat="34.18253" lon="-118.2513">
        <ele>564.0</ele>
      </trkpt>
      <trkpt lat="34.18266" lon="-118.25109">
        <ele>559.0</ele>
      </trkpt>
      <trkpt lat="34.18273" lon="-118.25107">
        <ele>559.0</ele>
      </trkpt>
      <trkpt lat="34.18289" lon="-118.25112">
        <ele>559.0</ele>
      </trkpt>
      <trkpt lat="34.18294" lon="-118.2511">
        <ele>553.0</ele>
      </trkpt>
      <trkpt lat="34.18296" lon="-118.25104">
        <ele>553.0</ele>
      </trkpt>
      <trkpt lat="34.18294" lon="-118.25069">
        <ele>542.0</ele>
      </trkpt>
      <trkpt lat="34.18279" lon="-118.25037">
        <ele>541.0</ele>
      </trkpt>
      <trkpt lat="34.18282" lon="-118.25023">
        <ele>541.0</ele>
      </trkpt>
      <trkpt lat="34.18296" lon="-118.25014">
        <ele>540.0</ele>
      </trkpt>
      <trkpt lat="34.18304" lon="-118.25013">
        <ele>532.0</ele>
      </trkpt>
      <trkpt lat="34.18312" lon="-118.25017">
        <ele>540.0</ele>
      </trkpt>
      <trkpt lat="34.18326" lon="-118.25036">
        <ele>539.0</ele>
      </trkpt>
      <trkpt lat="34.18333" lon="-118.25041">
        <ele>539.0</ele>
      </trkpt>
      <trkpt lat="34.18363" lon="-118.25051">
        <ele>545.0</ele>
      </trkpt>
      <trkpt lat="34.1839" lon="-118.2505">
        <ele>532.0</ele>
      </trkpt>
      <trkpt lat="34.1842" lon="-118.25062">
        <ele>533.0</ele>
      </trkpt>
      <trkpt lat="34.18434" lon="-118.25061">
        <ele>537.0</ele>
      </trkpt>
      <trkpt lat="34.18455" lon="-118.25049">
        <ele>537.0</ele>
      </trkpt>
      <trkpt lat="34.1846" lon="-118.25043">
        <ele>546.0</ele>
      </trkpt>
      <trkpt lat="34.1846" lon="-118.25034">
        <ele>546.0</ele>
      </trkpt>
      <trkpt lat="34.18457" lon="-118.25029">
        <ele>534.0</ele>
      </trkpt>
      <trkpt lat="34.18425" lon="-118.25008">
        <ele>521.0</ele>
      </trkpt>
      <trkpt lat="34.18412" lon="-118.24992">
        <ele>521.0</ele>
      </trkpt>
      <trkpt lat="34.1839" lon="-118.24979">
        <ele>517.0</ele>
      </trkpt>
      <trkpt lat="34.18389" lon="-118.24971">
        <ele>517.0</ele>
      </trkpt>
      <trkpt lat="34.18397" lon="-118.24958">
        <ele>517.0</ele>
      </trkpt>
      <trkpt lat="34.184" lon="-118.24945">
        <ele>517.0</ele>
      </trkpt>
      <trkpt lat="34.18399" lon="-118.24938">
        <ele>517.0</ele>
      </trkpt>
      <trkpt lat="34.18378" lon="-118.2492">
        <ele>517.0</ele>
      </trkpt>
      <trkpt lat="34.18366" lon="-118.24886">
        <ele>510.0</ele>
      </trkpt>
      <trkpt lat="34.18345" lon="-118.24872">
        <ele>503.0</ele>
      </trkpt>
      <trkpt lat="34.18341" lon="-118.24864">
        <ele>503.0</ele>
      </trkpt>
      <trkpt lat="34.18346" lon="-118.24841">
        <ele>504.0</ele>
      </trkpt>
      <trkpt lat="34.18358" lon="-118.24809">
        <ele>514.0</ele>
      </trkpt>
      <trkpt lat="34.18355" lon="-118.24799">
        <ele>514.0</ele>
      </trkpt>
      <trkpt lat="34.18349" lon="-118.24796">
        <ele>514.0</ele>
      </trkpt>
      <trkpt lat="34.18343" lon="-118.24798">
        <ele>513.0</ele>
      </trkpt>
      <trkpt lat="34.1831" lon="-118.24823">
        <ele>502.0</ele>
      </trkpt>
      <trkpt lat="34.18301" lon="-118.24835">
        <ele>502.0</ele>
      </trkpt>
      <trkpt lat="34.18292" lon="-118.24856">
        <ele>496.0</ele>
      </trkpt>
      <trkpt lat="34.18285" lon="-118.24861">
        <ele>493.0</ele>
      </trkpt>
      <trkpt lat="34.18268" lon="-118.24862">
        <ele>493.0</ele>
      </trkpt>
      <trkpt lat="34.18238" lon="-118.24848">
        <ele>491.0</ele>
      </trkpt>
      <trkpt lat="34.18195" lon="-118.24838">
        <ele>475.0</ele>
      </trkpt>
      <trkpt lat="34.18189" lon="-118.2483">
        <ele>475.0</ele>
      </trkpt>
      <trkpt lat="34.18189" lon="-118.24821">
        <ele>475.0</ele>
      </trkpt>
      <trkpt lat="34.18208" lon="-118.24778">
        <ele>471.0</ele>
      </trkpt>
      <trkpt lat="34.18209" lon="-118.24771">
        <ele>488.0</ele>
      </trkpt>
      <trkpt lat="34.18195" lon="-118.24729">
        <ele>463.0</ele>
      </trkpt>
      <trkpt lat="34.18196" lon="-118.2472">
        <ele>463.0</ele>
      </trkpt>
      <trkpt lat="34.18203" lon="-118.24708">
        <ele>458.0</ele>
      </trkpt>
      <trkpt lat="34.18215" lon="-118.24667">
        <ele>461.0</ele>
      </trkpt>
      <trkpt lat="34.1822" lon="-118.24662">
        <ele>461.0</ele>
      </trkpt>
      <trkpt lat="34.18235" lon="-118.24653">
        <ele>461.0</ele>
      </trkpt>
      <trkpt lat="34.1824" lon="-118.24642">
        <ele>462.0</ele>
      </trkpt>
      <trkpt lat="34.18238" lon="-118.24634">
        <ele>462.0</ele>
      </trkpt>
      <trkpt lat="34.18216" lon="-118.24607">
        <ele>454.0</ele>
      </trkpt>
      <trkpt lat="34.18213" lon="-118.24596">
        <ele>453.0</ele>
      </trkpt>
      <trkpt lat="34.18221" lon="-118.24556">
        <ele>451.0</ele>
      </trkpt>
      <trkpt lat="34.18234" lon="-118.24516">
        <ele>449.0</ele>
      </trkpt>
      <trkpt lat="34.18233397965786" lon="-118.245120867776">
        <ele>445.0</ele>
      </trkpt>
      <trkpt lat="34.18233165183464" lon="-118.2451057369252">
        <ele>445.0</ele>
      </trkpt>
      <trkpt lat="34.18232" lon="-118.24503">
        <ele>445.0</ele>
      </trkpt>
      <trkpt lat="34.18228" lon="-118.24499">
        <ele>445.0</ele>
      </trkpt>
      <trkpt lat="34.18219" lon="-118.24495">
        <ele>445.0</ele>
      </trkpt>
      <trkpt lat="34.18194903043731" lon="-118.2449733196351">
        <ele>437.0</ele>
      </trkpt>
      <trkpt lat="34.18194903097861" lon="-118.2449733196351">
        <ele>437.0</ele>
      </trkpt>
      <trkpt lat="34.18157" lon="-118.24501">
        <ele>428.0</ele>
      </trkpt>
      <trkpt lat="34.18106" lon="-118.24518">
        <ele>426.0</ele>
      </trkpt>
      <trkpt lat="34.18077" lon="-118.24532">
        <ele>423.0</ele>
      </trkpt>
      <trkpt lat="34.18063" lon="-118.24531">
        <ele>425.0</ele>
      </trkpt>
      <trkpt lat="34.18046" lon="-118.24518">
        <ele>425.0</ele>
      </trkpt>
      <trkpt lat="34.18034" lon="-118.24513">
        <ele>427.0</ele>
      </trkpt>
      <trkpt lat="34.18028" lon="-118.24506">
        <ele>427.0</ele>
      </trkpt>
      <trkpt lat="34.18028860714159" lon="-118.2447071248366">
        <ele>426.0</ele>
      </trkpt>
      <trkpt lat="34.18028860714159" lon="-118.2447071248366">
        <ele>426.0</ele>
      </trkpt>
      <trkpt lat="34.1802892822318" lon="-118.2446794375875">
        <ele>426.0</ele>
      </trkpt>
      <trkpt lat="34.1802892822318" lon="-118.2446794375875">
        <ele>426.0</ele>
      </trkpt>
      <trkpt lat="34.18029" lon="-118.24465">
        <ele>426.0</ele>
      </trkpt>
      <trkpt lat="34.18018" lon="-118.24432">
        <ele>423.0</ele>
      </trkpt>
      <trkpt lat="34.18" lon="-118.24411">
        <ele>416.0</ele>
      </trkpt>
      <trkpt lat="34.18" lon="-118.24411">
        <ele>416.0</ele>
      </trkpt>
      <trkpt lat="34.17989" lon="-118.24389">
        <ele>414.0</ele>
      </trkpt>
      <trkpt lat="34.17984" lon="-118.24383">
        <ele>413.0</ele>
      </trkpt>
      <trkpt lat="34.17961" lon="-118.24372">
        <ele>413.0</ele>
      </trkpt>
      <trkpt lat="34.17941" lon="-118.24351">
        <ele>411.0</ele>
      </trkpt>
      <trkpt lat="34.17905" lon="-118.24335">
        <ele>407.0</ele>
      </trkpt>
      <trkpt lat="34.17899" lon="-118.24327">
        <ele>402.0</ele>
      </trkpt>
      <trkpt lat="34.17893" lon="-118.24298">
        <ele>401.0</ele>
      </trkpt>
      <trkpt lat="34.17888" lon="-118.24289">
        <ele>399.0</ele>
      </trkpt>
      <trkpt lat="34.17881" lon="-118.24284">
        <ele>399.0</ele>
      </trkpt>
      <trkpt lat="34.17864" lon="-118.2428">
        <ele>389.0</ele>
      </trkpt>
      <trkpt lat="34.17862" lon="-118.24276">
        <ele>389.0</ele>
      </trkpt>
      <trkpt lat="34.17859" lon="-118.24266">
        <ele>389.0</ele>
      </trkpt>
      <trkpt lat="34.17864" lon="-118.2423">
        <ele>387.0</ele>
      </trkpt>
      <trkpt lat="34.17866" lon="-118.24181">
        <ele>384.0</ele>
      </trkpt>
      <trkpt lat="34.17863" lon="-118.24169">
        <ele>381.0</ele>
      </trkpt>
      <trkpt lat="34.1784" lon="-118.2411">
        <ele>373.0</ele>
      </trkpt>
      <trkpt lat="34.17818" lon="-118.24066">
        <ele>374.0</ele>
      </trkpt>
      <trkpt lat="34.17814" lon="-118.24052">
        <ele>374.0</ele>
      </trkpt>
      <trkpt lat="34.17814" lon="-118.24052">
        <ele>374.0</ele>
      </trkpt>
      <trkpt lat="34.17811317278726" lon="-118.2404892899012">
        <ele>374.0</ele>
      </trkpt>
      <trkpt lat="34.17811317290383" lon="-118.2404892899012">
        <ele>374.0</ele>
      </trkpt>
      <trkpt lat="34.17738" lon="-118.23965">
        <ele>360.0</ele>
      </trkpt>
      <trkpt lat="34.1772" lon="-118.23896">
        <ele>362.0</ele>
      </trkpt>
      <trkpt lat="34.17709" lon="-118.23872">
        <ele>361.0</ele>
      </trkpt>
      <trkpt lat="34.17695" lon="-118.23858">
        <ele>361.0</ele>
      </trkpt>
      <trkpt lat="34.17688" lon="-118.23854">
        <ele>361.0</ele>
      </trkpt>
      <trkpt lat="34.1766" lon="-118.23847">
        <ele>360.0</ele>
      </trkpt>
    </trkseg>
  </trk>
</gpx>
