<?xml version="1.0" encoding="UTF-8"?>
<gpx xmlns:xsi="http://www.w3.org/2001/XMLSchema-instance" version="1.1" creator="The Outbound Collective, Inc. 1.1.1 -- https://www.theoutbound.com" xsi:schemaLocation="http://www.topografix.com/GPX/1/1 http://www.topografix.com/GPX/1/1/gpx.xsd">
  <metadata>
    <name/>
    <time>2026-02-19T21:59:20+00:00</time>
    <bound minlat="34.18521" minlon="-118.260124409" maxlat="34.198865616" maxlon="-118.23869"/>
  </metadata>
  <trk>
    <name/>
    <trkseg>
      <trkpt lat="34.193416603" lon="-118.240935802">
        <ele>356.0</ele>
      </trkpt>
      <trkpt lat="34.1934" lon="-118.24085">
        <ele>356.0</ele>
      </trkpt>
      <trkpt lat="34.19337" lon="-118.24119">
        <ele>357.0</ele>
      </trkpt>
      <trkpt lat="34.19347" lon="-118.24144">
        <ele>360.0</ele>
      </trkpt>
      <trkpt lat="34.19348" lon="-118.24157">
        <ele>367.0</ele>
      </trkpt>
      <trkpt lat="34.19336" lon="-118.24201">
        <ele>366.0</ele>
      </trkpt>
      <trkpt lat="34.19314" lon="-118.24232">
        <ele>362.0</ele>
      </trkpt>
      <trkpt lat="34.19296" lon="-118.24251">
        <ele>369.0</ele>
      </trkpt>
      <trkpt lat="34.19257" lon="-118.24264">
        <ele>373.0</ele>
      </trkpt>
      <trkpt lat="34.19221" lon="-118.24292">
        <ele>378.0</ele>
      </trkpt>
      <trkpt lat="34.19172" lon="-118.24352">
        <ele>380.0</ele>
      </trkpt>
      <trkpt lat="34.19164" lon="-118.24373">
        <ele>380.0</ele>
      </trkpt>
      <trkpt lat="34.19159" lon="-118.24407">
        <ele>382.0</ele>
      </trkpt>
      <trkpt lat="34.19153" lon="-118.24413">
        <ele>382.0</ele>
      </trkpt>
      <trkpt lat="34.1914" lon="-118.24415">
        <ele>384.0</ele>
      </trkpt>
      <trkpt lat="34.19131" lon="-118.2441">
        <ele>384.0</ele>
      </trkpt>
      <trkpt lat="34.19129" lon="-118.24403">
        <ele>384.0</ele>
      </trkpt>
      <trkpt lat="34.19133" lon="-118.2438">
        <ele>383.0</ele>
      </trkpt>
      <trkpt lat="34.19123" lon="-118.24356">
        <ele>389.0</ele>
      </trkpt>
      <trkpt lat="34.19092" lon="-118.24333">
        <ele>396.0</ele>
      </trkpt>
      <trkpt lat="34.1909" lon="-118.24327">
        <ele>396.0</ele>
      </trkpt>
      <trkpt lat="34.19095" lon="-118.24316">
        <ele>401.0</ele>
      </trkpt>
      <trkpt lat="34.19121" lon="-118.24316">
        <ele>397.0</ele>
      </trkpt>
      <trkpt lat="34.19126" lon="-118.24312">
        <ele>392.0</ele>
      </trkpt>
      <trkpt lat="34.1913" lon="-118.24287">
        <ele>394.0</ele>
      </trkpt>
      <trkpt lat="34.19127" lon="-118.24277">
        <ele>394.0</ele>
      </trkpt>
      <trkpt lat="34.19114" lon="-118.24272">
        <ele>404.0</ele>
      </trkpt>
      <trkpt lat="34.19073" lon="-118.24282">
        <ele>407.0</ele>
      </trkpt>
      <trkpt lat="34.19031" lon="-118.24263">
        <ele>421.0</ele>
      </trkpt>
      <trkpt lat="34.19015" lon="-118.24245">
        <ele>421.0</ele>
      </trkpt>
      <trkpt lat="34.18996" lon="-118.24232">
        <ele>431.0</ele>
      </trkpt>
      <trkpt lat="34.18992" lon="-118.24215">
        <ele>431.0</ele>
      </trkpt>
      <trkpt lat="34.18991" lon="-118.24169">
        <ele>441.0</ele>
      </trkpt>
      <trkpt lat="34.18996" lon="-118.24165">
        <ele>441.0</ele>
      </trkpt>
      <trkpt lat="34.19012" lon="-118.24177">
        <ele>441.0</ele>
      </trkpt>
      <trkpt lat="34.19035" lon="-118.24174">
        <ele>436.0</ele>
      </trkpt>
      <trkpt lat="34.1904" lon="-118.2417">
        <ele>436.0</ele>
      </trkpt>
      <trkpt lat="34.19047" lon="-118.24152">
        <ele>442.0</ele>
      </trkpt>
      <trkpt lat="34.19062" lon="-118.24144">
        <ele>442.0</ele>
      </trkpt>
      <trkpt lat="34.19071" lon="-118.24145">
        <ele>442.0</ele>
      </trkpt>
      <trkpt lat="34.19087" lon="-118.24155">
        <ele>434.0</ele>
      </trkpt>
      <trkpt lat="34.19096" lon="-118.24153">
        <ele>434.0</ele>
      </trkpt>
      <trkpt lat="34.19103" lon="-118.24133">
        <ele>439.0</ele>
      </trkpt>
      <trkpt lat="34.19108" lon="-118.24102">
        <ele>444.0</ele>
      </trkpt>
      <trkpt lat="34.1913" lon="-118.24084">
        <ele>442.0</ele>
      </trkpt>
      <trkpt lat="34.19132" lon="-118.24076">
        <ele>442.0</ele>
      </trkpt>
      <trkpt lat="34.19129" lon="-118.24069">
        <ele>440.0</ele>
      </trkpt>
      <trkpt lat="34.19117" lon="-118.24064">
        <ele>447.0</ele>
      </trkpt>
      <trkpt lat="34.19091" lon="-118.24075">
        <ele>452.0</ele>
      </trkpt>
      <trkpt lat="34.19079" lon="-118.24076">
        <ele>452.0</ele>
      </trkpt>
      <trkpt lat="34.1906" lon="-118.24061">
        <ele>456.0</ele>
      </trkpt>
      <trkpt lat="34.19048" lon="-118.24059">
        <ele>456.0</ele>
      </trkpt>
      <trkpt lat="34.19014" lon="-118.24072">
        <ele>468.0</ele>
      </trkpt>
      <trkpt lat="34.19002" lon="-118.2407">
        <ele>473.0</ele>
      </trkpt>
      <trkpt lat="34.18992" lon="-118.2406">
        <ele>475.0</ele>
      </trkpt>
      <trkpt lat="34.18959" lon="-118.24002">
        <ele>490.0</ele>
      </trkpt>
      <trkpt lat="34.18962" lon="-118.23986">
        <ele>493.0</ele>
      </trkpt>
      <trkpt lat="34.1898" lon="-118.2396">
        <ele>493.0</ele>
      </trkpt>
      <trkpt lat="34.18984" lon="-118.23935">
        <ele>500.0</ele>
      </trkpt>
      <trkpt lat="34.18984" lon="-118.23918">
        <ele>502.0</ele>
      </trkpt>
      <trkpt lat="34.18975" lon="-118.23899">
        <ele>499.0</ele>
      </trkpt>
      <trkpt lat="34.1897" lon="-118.23895">
        <ele>499.0</ele>
      </trkpt>
      <trkpt lat="34.18964" lon="-118.23897">
        <ele>499.0</ele>
      </trkpt>
      <trkpt lat="34.18947" lon="-118.23917">
        <ele>505.0</ele>
      </trkpt>
      <trkpt lat="34.18928" lon="-118.23918">
        <ele>507.0</ele>
      </trkpt>
      <trkpt lat="34.18916" lon="-118.23928">
        <ele>507.0</ele>
      </trkpt>
      <trkpt lat="34.18905" lon="-118.23931">
        <ele>516.0</ele>
      </trkpt>
      <trkpt lat="34.18873" lon="-118.23918">
        <ele>509.0</ele>
      </trkpt>
      <trkpt lat="34.18846" lon="-118.23872">
        <ele>500.0</ele>
      </trkpt>
      <trkpt lat="34.18837" lon="-118.23869">
        <ele>500.0</ele>
      </trkpt>
      <trkpt lat="34.18828" lon="-118.23873">
        <ele>500.0</ele>
      </trkpt>
      <trkpt lat="34.18823" lon="-118.23884">
        <ele>499.0</ele>
      </trkpt>
      <trkpt lat="34.18825" lon="-118.23895">
        <ele>499.0</ele>
      </trkpt>
      <trkpt lat="34.18862" lon="-118.23935">
        <ele>511.0</ele>
      </trkpt>
      <trkpt lat="34.18898" lon="-118.23987">
        <ele>529.0</ele>
      </trkpt>
      <trkpt lat="34.18901" lon="-118.24024">
        <ele>527.0</ele>
      </trkpt>
      <trkpt lat="34.18897" lon="-118.24039">
        <ele>527.0</ele>
      </trkpt>
      <trkpt lat="34.18857" lon="-118.2408">
        <ele>524.0</ele>
      </trkpt>
      <trkpt lat="34.18838" lon="-118.24114">
        <ele>521.0</ele>
      </trkpt>
      <trkpt lat="34.18833" lon="-118.24131">
        <ele>515.0</ele>
      </trkpt>
      <trkpt lat="34.18833" lon="-118.2428">
        <ele>518.0</ele>
      </trkpt>
      <trkpt lat="34.18818" lon="-118.24314">
        <ele>519.0</ele>
      </trkpt>
      <trkpt lat="34.18819" lon="-118.24345">
        <ele>521.0</ele>
      </trkpt>
      <trkpt lat="34.18814" lon="-118.2437">
        <ele>525.0</ele>
      </trkpt>
      <trkpt lat="34.18791" lon="-118.24394">
        <ele>523.0</ele>
      </trkpt>
      <trkpt lat="34.18787" lon="-118.24403">
        <ele>526.0</ele>
      </trkpt>
      <trkpt lat="34.18767" lon="-118.24468">
        <ele>527.0</ele>
      </trkpt>
      <trkpt lat="34.1876" lon="-118.24511">
        <ele>536.0</ele>
      </trkpt>
      <trkpt lat="34.18759" lon="-118.2453">
        <ele>539.0</ele>
      </trkpt>
      <trkpt lat="34.18773" lon="-118.24607">
        <ele>559.0</ele>
      </trkpt>
      <trkpt lat="34.18772" lon="-118.24619">
        <ele>559.0</ele>
      </trkpt>
      <trkpt lat="34.18756" lon="-118.24647">
        <ele>565.0</ele>
      </trkpt>
      <trkpt lat="34.18744" lon="-118.24683">
        <ele>571.0</ele>
      </trkpt>
      <trkpt lat="34.18739" lon="-118.2472">
        <ele>567.0</ele>
      </trkpt>
      <trkpt lat="34.18731" lon="-118.24732">
        <ele>576.0</ele>
      </trkpt>
      <trkpt lat="34.18685" lon="-118.2475">
        <ele>583.0</ele>
      </trkpt>
      <trkpt lat="34.18637" lon="-118.24782">
        <ele>596.0</ele>
      </trkpt>
      <trkpt lat="34.18631" lon="-118.24792">
        <ele>614.0</ele>
      </trkpt>
      <trkpt lat="34.18631" lon="-118.24818">
        <ele>614.0</ele>
      </trkpt>
      <trkpt lat="34.18621" lon="-118.24848">
        <ele>621.0</ele>
      </trkpt>
      <trkpt lat="34.18615" lon="-118.24855">
        <ele>621.0</ele>
      </trkpt>
      <trkpt lat="34.18572" lon="-118.24869">
        <ele>617.0</ele>
      </trkpt>
      <trkpt lat="34.18545" lon="-118.24871">
        <ele>618.0</ele>
      </trkpt>
      <trkpt lat="34.18523" lon="-118.24884">
        <ele>621.0</ele>
      </trkpt>
      <trkpt lat="34.18521" lon="-118.24898">
        <ele>621.0</ele>
      </trkpt>
      <trkpt lat="34.18526" lon="-118.24903">
        <ele>619.0</ele>
      </trkpt>
      <trkpt lat="34.18559" lon="-118.24911">
        <ele>624.0</ele>
      </trkpt>
      <trkpt lat="34.18598" lon="-118.24903">
        <ele>633.0</ele>
      </trkpt>
      <trkpt lat="34.1862" lon="-118.2491">
        <ele>633.0</ele>
      </trkpt>
      <trkpt lat="34.18636" lon="-118.2493">
        <ele>636.0</ele>
      </trkpt>
      <trkpt lat="34.1867" lon="-118.25002">
        <ele>638.0</ele>
      </trkpt>
      <trkpt lat="34.1868" lon="-118.25032">
        <ele>635.0</ele>
      </trkpt>
      <trkpt lat="34.18698" lon="-118.25048">
        <ele>637.0</ele>
      </trkpt>
      <trkpt lat="34.18727" lon="-118.25067">
        <ele>639.0</ele>
      </trkpt>
      <trkpt lat="34.18732" lon="-118.25073">
        <ele>642.0</ele>
      </trkpt>
      <trkpt lat="34.1874" lon="-118.25099">
        <ele>655.0</ele>
      </trkpt>
      <trkpt lat="34.18764" lon="-118.2512">
        <ele>659.0</ele>
      </trkpt>
      <trkpt lat="34.18774" lon="-118.25134">
        <ele>663.0</ele>
      </trkpt>
      <trkpt lat="34.18781" lon="-118.25163">
        <ele>676.0</ele>
      </trkpt>
      <trkpt lat="34.18792" lon="-118.25186">
        <ele>675.0</ele>
      </trkpt>
      <trkpt lat="34.18784" lon="-118.25237">
        <ele>686.0</ele>
      </trkpt>
      <trkpt lat="34.18797" lon="-118.25284">
        <ele>689.0</ele>
      </trkpt>
      <trkpt lat="34.18796" lon="-118.25293">
        <ele>689.0</ele>
      </trkpt>
      <trkpt lat="34.18786" lon="-118.25313">
        <ele>696.0</ele>
      </trkpt>
      <trkpt lat="34.18784" lon="-118.25348">
        <ele>701.0</ele>
      </trkpt>
      <trkpt lat="34.18771" lon="-118.25399">
        <ele>703.0</ele>
      </trkpt>
      <trkpt lat="34.1879" lon="-118.2546">
        <ele>714.0</ele>
      </trkpt>
      <trkpt lat="34.18766" lon="-118.25503">
        <ele>721.0</ele>
      </trkpt>
      <trkpt lat="34.18766" lon="-118.25542">
        <ele>725.0</ele>
      </trkpt>
      <trkpt lat="34.18781" lon="-118.2558">
        <ele>728.0</ele>
      </trkpt>
      <trkpt lat="34.18798" lon="-118.25591">
        <ele>726.0</ele>
      </trkpt>
      <trkpt lat="34.18823" lon="-118.25624">
        <ele>724.0</ele>
      </trkpt>
      <trkpt lat="34.18866" lon="-118.25653">
        <ele>728.0</ele>
      </trkpt>
      <trkpt lat="34.18886" lon="-118.25659">
        <ele>730.0</ele>
      </trkpt>
      <trkpt lat="34.18905" lon="-118.25684">
        <ele>724.0</ele>
      </trkpt>
      <trkpt lat="34.18913" lon="-118.25689">
        <ele>724.0</ele>
      </trkpt>
      <trkpt lat="34.18983" lon="-118.25677">
        <ele>715.0</ele>
      </trkpt>
      <trkpt lat="34.19052" lon="-118.25717">
        <ele>719.0</ele>
      </trkpt>
      <trkpt lat="34.19077" lon="-118.25728">
        <ele>716.0</ele>
      </trkpt>
      <trkpt lat="34.19097" lon="-118.25754">
        <ele>715.0</ele>
      </trkpt>
      <trkpt lat="34.19106" lon="-118.2576">
        <ele>715.0</ele>
      </trkpt>
      <trkpt lat="34.19132" lon="-118.25758">
        <ele>714.0</ele>
      </trkpt>
      <trkpt lat="34.191631554" lon="-118.257670187">
        <ele>724.0</ele>
      </trkpt>
      <trkpt lat="34.19176" lon="-118.25796">
        <ele>721.0</ele>
      </trkpt>
      <trkpt lat="34.19189" lon="-118.25807">
        <ele>728.0</ele>
      </trkpt>
      <trkpt lat="34.19205" lon="-118.25813">
        <ele>728.0</ele>
      </trkpt>
      <trkpt lat="34.19243" lon="-118.25821">
        <ele>735.0</ele>
      </trkpt>
      <trkpt lat="34.19281" lon="-118.25866">
        <ele>742.0</ele>
      </trkpt>
      <trkpt lat="34.19302" lon="-118.25882">
        <ele>752.0</ele>
      </trkpt>
      <trkpt lat="34.19305" lon="-118.2589">
        <ele>752.0</ele>
      </trkpt>
      <trkpt lat="34.19311" lon="-118.25895">
        <ele>752.0</ele>
      </trkpt>
      <trkpt lat="34.19347" lon="-118.25893">
        <ele>756.0</ele>
      </trkpt>
      <trkpt lat="34.19382" lon="-118.25907">
        <ele>761.0</ele>
      </trkpt>
      <trkpt lat="34.19392" lon="-118.25909">
        <ele>761.0</ele>
      </trkpt>
      <trkpt lat="34.19402" lon="-118.25906">
        <ele>761.0</ele>
      </trkpt>
      <trkpt lat="34.19429" lon="-118.25929">
        <ele>769.0</ele>
      </trkpt>
      <trkpt lat="34.19486" lon="-118.25959">
        <ele>773.0</ele>
      </trkpt>
      <trkpt lat="34.19511" lon="-118.25991">
        <ele>772.0</ele>
      </trkpt>
      <trkpt lat="34.19527" lon="-118.26004">
        <ele>783.0</ele>
      </trkpt>
      <trkpt lat="34.19537" lon="-118.26008">
        <ele>783.0</ele>
      </trkpt>
      <trkpt lat="34.1956" lon="-118.26008">
        <ele>790.0</ele>
      </trkpt>
      <trkpt lat="34.195624006" lon="-118.260124409">
        <ele>790.0</ele>
      </trkpt>
      <trkpt lat="34.19579" lon="-118.25991">
        <ele>798.0</ele>
      </trkpt>
      <trkpt lat="34.19591" lon="-118.25986">
        <ele>800.0</ele>
      </trkpt>
      <trkpt lat="34.19599" lon="-118.25974">
        <ele>805.0</ele>
      </trkpt>
      <trkpt lat="34.19607" lon="-118.25939">
        <ele>802.0</ele>
      </trkpt>
      <trkpt lat="34.19612" lon="-118.25931">
        <ele>802.0</ele>
      </trkpt>
      <trkpt lat="34.19633" lon="-118.25913">
        <ele>801.0</ele>
      </trkpt>
      <trkpt lat="34.19663" lon="-118.25866">
        <ele>801.0</ele>
      </trkpt>
      <trkpt lat="34.19681" lon="-118.25828">
        <ele>800.0</ele>
      </trkpt>
      <trkpt lat="34.19729" lon="-118.25782">
        <ele>777.0</ele>
      </trkpt>
      <trkpt lat="34.19742" lon="-118.25775">
        <ele>776.0</ele>
      </trkpt>
      <trkpt lat="34.19762" lon="-118.25781">
        <ele>776.0</ele>
      </trkpt>
      <trkpt lat="34.19773" lon="-118.25798">
        <ele>771.0</ele>
      </trkpt>
      <trkpt lat="34.19781" lon="-118.25833">
        <ele>772.0</ele>
      </trkpt>
      <trkpt lat="34.19771" lon="-118.25872">
        <ele>775.0</ele>
      </trkpt>
      <trkpt lat="34.19778" lon="-118.25895">
        <ele>779.0</ele>
      </trkpt>
      <trkpt lat="34.19791" lon="-118.25916">
        <ele>778.0</ele>
      </trkpt>
      <trkpt lat="34.19817" lon="-118.25941">
        <ele>761.0</ele>
      </trkpt>
      <trkpt lat="34.198313936" lon="-118.25967868">
        <ele>759.0</ele>
      </trkpt>
      <trkpt lat="34.19857" lon="-118.25976">
        <ele>758.0</ele>
      </trkpt>
      <trkpt lat="34.1987" lon="-118.25991">
        <ele>758.0</ele>
      </trkpt>
      <trkpt lat="34.198865616" lon="-118.259976246">
        <ele>756.0</ele>
      </trkpt>
      <trkpt lat="34.19873" lon="-118.25968">
        <ele>758.0</ele>
      </trkpt>
      <trkpt lat="34.19864" lon="-118.25959">
        <ele>758.0</ele>
      </trkpt>
      <trkpt lat="34.19842" lon="-118.25955">
        <ele>758.0</ele>
      </trkpt>
      <trkpt lat="34.19836" lon="-118.2595">
        <ele>758.0</ele>
      </trkpt>
      <trkpt lat="34.19828" lon="-118.25928">
        <ele>750.0</ele>
      </trkpt>
      <trkpt lat="34.19803" lon="-118.25894">
        <ele>760.0</ele>
      </trkpt>
      <trkpt lat="34.19801" lon="-118.2588">
        <ele>760.0</ele>
      </trkpt>
      <trkpt lat="34.19806" lon="-118.25868">
        <ele>756.0</ele>
      </trkpt>
      <trkpt lat="34.19826" lon="-118.2585">
        <ele>737.0</ele>
      </trkpt>
      <trkpt lat="34.19831" lon="-118.25833">
        <ele>734.0</ele>
      </trkpt>
      <trkpt lat="34.19831" lon="-118.25781">
        <ele>737.0</ele>
      </trkpt>
      <trkpt lat="34.19828" lon="-118.25757">
        <ele>738.0</ele>
      </trkpt>
      <trkpt lat="34.19835" lon="-118.25735">
        <ele>734.0</ele>
      </trkpt>
      <trkpt lat="34.19835" lon="-118.257">
        <ele>727.0</ele>
      </trkpt>
      <trkpt lat="34.19825" lon="-118.25684">
        <ele>727.0</ele>
      </trkpt>
      <trkpt lat="34.19795" lon="-118.25649">
        <ele>716.0</ele>
      </trkpt>
      <trkpt lat="34.19779" lon="-118.25618">
        <ele>720.0</ele>
      </trkpt>
      <trkpt lat="34.19776" lon="-118.25607">
        <ele>720.0</ele>
      </trkpt>
      <trkpt lat="34.19775" lon="-118.25573">
        <ele>716.0</ele>
      </trkpt>
      <trkpt lat="34.19769" lon="-118.25545">
        <ele>717.0</ele>
      </trkpt>
      <trkpt lat="34.19765" lon="-118.25541">
        <ele>711.0</ele>
      </trkpt>
      <trkpt lat="34.19758" lon="-118.25542">
        <ele>721.0</ele>
      </trkpt>
      <trkpt lat="34.19735" lon="-118.25568">
        <ele>718.0</ele>
      </trkpt>
      <trkpt lat="34.19698" lon="-118.25577">
        <ele>713.0</ele>
      </trkpt>
      <trkpt lat="34.19687" lon="-118.25572">
        <ele>713.0</ele>
      </trkpt>
      <trkpt lat="34.19665" lon="-118.25548">
        <ele>704.0</ele>
      </trkpt>
      <trkpt lat="34.19651" lon="-118.25543">
        <ele>703.0</ele>
      </trkpt>
      <trkpt lat="34.19639" lon="-118.2555">
        <ele>703.0</ele>
      </trkpt>
      <trkpt lat="34.19617" lon="-118.25597">
        <ele>701.0</ele>
      </trkpt>
      <trkpt lat="34.19618" lon="-118.25611">
        <ele>697.0</ele>
      </trkpt>
      <trkpt lat="34.19633" lon="-118.25652">
        <ele>701.0</ele>
      </trkpt>
      <trkpt lat="34.19628" lon="-118.25684">
        <ele>696.0</ele>
      </trkpt>
      <trkpt lat="34.19621" lon="-118.25695">
        <ele>685.0</ele>
      </trkpt>
      <trkpt lat="34.19596" lon="-118.25698">
        <ele>677.0</ele>
      </trkpt>
      <trkpt lat="34.19588" lon="-118.25702">
        <ele>677.0</ele>
      </trkpt>
      <trkpt lat="34.19575" lon="-118.2573">
        <ele>681.0</ele>
      </trkpt>
      <trkpt lat="34.19569" lon="-118.25754">
        <ele>679.0</ele>
      </trkpt>
      <trkpt lat="34.19564" lon="-118.25757">
        <ele>679.0</ele>
      </trkpt>
      <trkpt lat="34.19534" lon="-118.25758">
        <ele>677.0</ele>
      </trkpt>
      <trkpt lat="34.19527" lon="-118.25749">
        <ele>677.0</ele>
      </trkpt>
      <trkpt lat="34.19528" lon="-118.25728">
        <ele>670.0</ele>
      </trkpt>
      <trkpt lat="34.19512" lon="-118.2565">
        <ele>655.0</ele>
      </trkpt>
      <trkpt lat="34.19476" lon="-118.25622">
        <ele>657.0</ele>
      </trkpt>
      <trkpt lat="34.19451" lon="-118.25608">
        <ele>667.0</ele>
      </trkpt>
      <trkpt lat="34.19447" lon="-118.25602">
        <ele>667.0</ele>
      </trkpt>
      <trkpt lat="34.19446" lon="-118.25583">
        <ele>655.0</ele>
      </trkpt>
      <trkpt lat="34.19451" lon="-118.25551">
        <ele>639.0</ele>
      </trkpt>
      <trkpt lat="34.19431" lon="-118.25516">
        <ele>632.0</ele>
      </trkpt>
      <trkpt lat="34.19405" lon="-118.25483">
        <ele>627.0</ele>
      </trkpt>
      <trkpt lat="34.19408" lon="-118.2539">
        <ele>614.0</ele>
      </trkpt>
      <trkpt lat="34.19397" lon="-118.25346">
        <ele>614.0</ele>
      </trkpt>
      <trkpt lat="34.19386" lon="-118.2533">
        <ele>614.0</ele>
      </trkpt>
      <trkpt lat="34.19371" lon="-118.25331">
        <ele>616.0</ele>
      </trkpt>
      <trkpt lat="34.19348" lon="-118.25359">
        <ele>621.0</ele>
      </trkpt>
      <trkpt lat="34.19345" lon="-118.25372">
        <ele>611.0</ele>
      </trkpt>
      <trkpt lat="34.19346" lon="-118.25394">
        <ele>613.0</ele>
      </trkpt>
      <trkpt lat="34.19334" lon="-118.25432">
        <ele>622.0</ele>
      </trkpt>
      <trkpt lat="34.19324" lon="-118.2544">
        <ele>622.0</ele>
      </trkpt>
      <trkpt lat="34.19304" lon="-118.25449">
        <ele>609.0</ele>
      </trkpt>
      <trkpt lat="34.19288" lon="-118.25464">
        <ele>603.0</ele>
      </trkpt>
      <trkpt lat="34.19271" lon="-118.25472">
        <ele>603.0</ele>
      </trkpt>
      <trkpt lat="34.19265" lon="-118.25472">
        <ele>603.0</ele>
      </trkpt>
      <trkpt lat="34.19259" lon="-118.25467">
        <ele>605.0</ele>
      </trkpt>
      <trkpt lat="34.19254" lon="-118.25446">
        <ele>602.0</ele>
      </trkpt>
      <trkpt lat="34.19264" lon="-118.25402">
        <ele>593.0</ele>
      </trkpt>
      <trkpt lat="34.19247" lon="-118.25346">
        <ele>577.0</ele>
      </trkpt>
      <trkpt lat="34.19221" lon="-118.25319">
        <ele>580.0</ele>
      </trkpt>
      <trkpt lat="34.1919" lon="-118.25316">
        <ele>590.0</ele>
      </trkpt>
      <trkpt lat="34.19181" lon="-118.25299">
        <ele>590.0</ele>
      </trkpt>
      <trkpt lat="34.19188" lon="-118.25282">
        <ele>589.0</ele>
      </trkpt>
      <trkpt lat="34.19224" lon="-118.25259">
        <ele>575.0</ele>
      </trkpt>
      <trkpt lat="34.19235" lon="-118.25245">
        <ele>575.0</ele>
      </trkpt>
      <trkpt lat="34.19236" lon="-118.25191">
        <ele>559.0</ele>
      </trkpt>
      <trkpt lat="34.19249" lon="-118.25148">
        <ele>543.0</ele>
      </trkpt>
      <trkpt lat="34.19247" lon="-118.25136">
        <ele>543.0</ele>
      </trkpt>
      <trkpt lat="34.19242" lon="-118.25131">
        <ele>543.0</ele>
      </trkpt>
      <trkpt lat="34.19235" lon="-118.25131">
        <ele>542.0</ele>
      </trkpt>
      <trkpt lat="34.19209" lon="-118.25155">
        <ele>551.0</ele>
      </trkpt>
      <trkpt lat="34.19196" lon="-118.25157">
        <ele>553.0</ele>
      </trkpt>
      <trkpt lat="34.19186" lon="-118.25148">
        <ele>541.0</ele>
      </trkpt>
      <trkpt lat="34.19171" lon="-118.25095">
        <ele>527.0</ele>
      </trkpt>
      <trkpt lat="34.19164" lon="-118.25076">
        <ele>527.0</ele>
      </trkpt>
      <trkpt lat="34.19159" lon="-118.25071">
        <ele>527.0</ele>
      </trkpt>
      <trkpt lat="34.19146" lon="-118.25067">
        <ele>523.0</ele>
      </trkpt>
      <trkpt lat="34.19108" lon="-118.25085">
        <ele>538.0</ele>
      </trkpt>
      <trkpt lat="34.19092" lon="-118.25088">
        <ele>539.0</ele>
      </trkpt>
      <trkpt lat="34.19068" lon="-118.25079">
        <ele>542.0</ele>
      </trkpt>
      <trkpt lat="34.19061" lon="-118.25072">
        <ele>542.0</ele>
      </trkpt>
      <trkpt lat="34.19059" lon="-118.25055">
        <ele>535.0</ele>
      </trkpt>
      <trkpt lat="34.19078" lon="-118.25026">
        <ele>524.0</ele>
      </trkpt>
      <trkpt lat="34.19085" lon="-118.24977">
        <ele>512.0</ele>
      </trkpt>
      <trkpt lat="34.19081" lon="-118.24962">
        <ele>512.0</ele>
      </trkpt>
      <trkpt lat="34.19049" lon="-118.24927">
        <ele>509.0</ele>
      </trkpt>
      <trkpt lat="34.19048" lon="-118.24912">
        <ele>509.0</ele>
      </trkpt>
      <trkpt lat="34.19062" lon="-118.24884">
        <ele>502.0</ele>
      </trkpt>
      <trkpt lat="34.19063" lon="-118.24875">
        <ele>498.0</ele>
      </trkpt>
      <trkpt lat="34.19047" lon="-118.24847">
        <ele>495.0</ele>
      </trkpt>
      <trkpt lat="34.19026" lon="-118.24778">
        <ele>498.0</ele>
      </trkpt>
      <trkpt lat="34.19027" lon="-118.24759">
        <ele>496.0</ele>
      </trkpt>
      <trkpt lat="34.19041" lon="-118.24719">
        <ele>490.0</ele>
      </trkpt>
      <trkpt lat="34.19057" lon="-118.24698">
        <ele>476.0</ele>
      </trkpt>
      <trkpt lat="34.1906" lon="-118.24685">
        <ele>476.0</ele>
      </trkpt>
      <trkpt lat="34.19057" lon="-118.24657">
        <ele>471.0</ele>
      </trkpt>
      <trkpt lat="34.1904" lon="-118.24622">
        <ele>458.0</ele>
      </trkpt>
      <trkpt lat="34.19033" lon="-118.24617">
        <ele>458.0</ele>
      </trkpt>
      <trkpt lat="34.19025" lon="-118.24617">
        <ele>458.0</ele>
      </trkpt>
      <trkpt lat="34.19" lon="-118.24634">
        <ele>469.0</ele>
      </trkpt>
      <trkpt lat="34.18986" lon="-118.24652">
        <ele>464.0</ele>
      </trkpt>
      <trkpt lat="34.18967" lon="-118.24653">
        <ele>475.0</ele>
      </trkpt>
      <trkpt lat="34.18943" lon="-118.24662">
        <ele>470.0</ele>
      </trkpt>
      <trkpt lat="34.18912" lon="-118.2466">
        <ele>474.0</ele>
      </trkpt>
      <trkpt lat="34.18902" lon="-118.2465">
        <ele>478.0</ele>
      </trkpt>
      <trkpt lat="34.18904" lon="-118.24635">
        <ele>468.0</ele>
      </trkpt>
      <trkpt lat="34.18935" lon="-118.24602">
        <ele>456.0</ele>
      </trkpt>
      <trkpt lat="34.1895" lon="-118.24566">
        <ele>449.0</ele>
      </trkpt>
      <trkpt lat="34.18949" lon="-118.24544">
        <ele>449.0</ele>
      </trkpt>
      <trkpt lat="34.18936" lon="-118.24488">
        <ele>441.0</ele>
      </trkpt>
      <trkpt lat="34.18939" lon="-118.24474">
        <ele>440.0</ele>
      </trkpt>
      <trkpt lat="34.1896" lon="-118.24451">
        <ele>436.0</ele>
      </trkpt>
      <trkpt lat="34.18973" lon="-118.24425">
        <ele>437.0</ele>
      </trkpt>
      <trkpt lat="34.19028" lon="-118.24367">
        <ele>412.0</ele>
      </trkpt>
      <trkpt lat="34.1903" lon="-118.24352">
        <ele>412.0</ele>
      </trkpt>
      <trkpt lat="34.19019" lon="-118.24322">
        <ele>414.0</ele>
      </trkpt>
      <trkpt lat="34.19021" lon="-118.24308">
        <ele>414.0</ele>
      </trkpt>
      <trkpt lat="34.19028" lon="-118.24302">
        <ele>414.0</ele>
      </trkpt>
      <trkpt lat="34.19045" lon="-118.24298">
        <ele>405.0</ele>
      </trkpt>
      <trkpt lat="34.19073" lon="-118.24282">
        <ele>407.0</ele>
      </trkpt>
      <trkpt lat="34.19114" lon="-118.24272">
        <ele>404.0</ele>
      </trkpt>
      <trkpt lat="34.19127" lon="-118.24277">
        <ele>394.0</ele>
      </trkpt>
      <trkpt lat="34.1913" lon="-118.24287">
        <ele>394.0</ele>
      </trkpt>
      <trkpt lat="34.19126" lon="-118.24312">
        <ele>392.0</ele>
      </trkpt>
      <trkpt lat="34.19121" lon="-118.24316">
        <ele>397.0</ele>
      </trkpt>
      <trkpt lat="34.19095" lon="-118.24316">
        <ele>401.0</ele>
      </trkpt>
      <trkpt lat="34.1909" lon="-118.24327">
        <ele>396.0</ele>
      </trkpt>
      <trkpt lat="34.19092" lon="-118.24333">
        <ele>396.0</ele>
      </trkpt>
      <trkpt lat="34.19123" lon="-118.24356">
        <ele>389.0</ele>
      </trkpt>
      <trkpt lat="34.19128" lon="-118.24365">
        <ele>383.0</ele>
      </trkpt>
      <trkpt lat="34.19133" lon="-118.2438">
        <ele>383.0</ele>
      </trkpt>
      <trkpt lat="34.19129" lon="-118.24403">
        <ele>384.0</ele>
      </trkpt>
      <trkpt lat="34.19131" lon="-118.2441">
        <ele>384.0</ele>
      </trkpt>
      <trkpt lat="34.1914" lon="-118.24415">
        <ele>384.0</ele>
      </trkpt>
      <trkpt lat="34.19153" lon="-118.24413">
        <ele>382.0</ele>
      </trkpt>
      <trkpt lat="34.19159" lon="-118.24407">
        <ele>382.0</ele>
      </trkpt>
      <trkpt lat="34.19164" lon="-118.24373">
        <ele>380.0</ele>
      </trkpt>
      <trkpt lat="34.19172" lon="-118.24352">
        <ele>380.0</ele>
      </trkpt>
      <trkpt lat="34.19221" lon="-118.24292">
        <ele>378.0</ele>
      </trkpt>
      <trkpt lat="34.19257" lon="-118.24264">
        <ele>373.0</ele>
      </trkpt>
      <trkpt lat="34.19296" lon="-118.24251">
        <ele>369.0</ele>
      </trkpt>
      <trkpt lat="34.19314" lon="-118.24232">
        <ele>362.0</ele>
      </trkpt>
      <trkpt lat="34.19336" lon="-118.24201">
        <ele>366.0</ele>
      </trkpt>
      <trkpt lat="34.19348" lon="-118.24157">
        <ele>367.0</ele>
      </trkpt>
      <trkpt lat="34.19347" lon="-118.24144">
        <ele>360.0</ele>
      </trkpt>
      <trkpt lat="34.19337" lon="-118.24119">
        <ele>357.0</ele>
      </trkpt>
      <trkpt lat="34.19337" lon="-118.241">
        <ele>357.0</ele>
      </trkpt>
    </trkseg>
  </trk>
</gpx>
