<?xml version="1.0" encoding="UTF-8"?>
<gpx xmlns:xsi="http://www.w3.org/2001/XMLSchema-instance" version="1.1" creator="The Outbound Collective, Inc. 1.1.1 -- https://www.theoutbound.com" xsi:schemaLocation="http://www.topografix.com/GPX/1/1 http://www.topografix.com/GPX/1/1/gpx.xsd">
  <metadata>
    <name/>
    <time>2026-02-19T21:58:59+00:00</time>
    <bound minlat="34.05017468478113" minlon="-118.53873" maxlat="34.06808" maxlon="-118.52905"/>
  </metadata>
  <trk>
    <name/>
    <trkseg>
      <trkpt lat="34.05017488419369" lon="-118.5302603244782">
        <ele>88.0</ele>
      </trkpt>
      <trkpt lat="34.05017468478113" lon="-118.5302569839396">
        <ele>88.0</ele>
      </trkpt>
      <trkpt lat="34.0506" lon="-118.53022">
        <ele>92.0</ele>
      </trkpt>
      <trkpt lat="34.05076" lon="-118.53009">
        <ele>90.0</ele>
      </trkpt>
      <trkpt lat="34.05080334752311" lon="-118.5300033049538">
        <ele>90.0</ele>
      </trkpt>
      <trkpt lat="34.05081" lon="-118.52999">
        <ele>90.0</ele>
      </trkpt>
      <trkpt lat="34.05084" lon="-118.52999">
        <ele>90.0</ele>
      </trkpt>
      <trkpt lat="34.05084" lon="-118.52999">
        <ele>90.0</ele>
      </trkpt>
      <trkpt lat="34.05097" lon="-118.5299">
        <ele>90.0</ele>
      </trkpt>
      <trkpt lat="34.05109" lon="-118.5299">
        <ele>92.0</ele>
      </trkpt>
      <trkpt lat="34.0512" lon="-118.52983">
        <ele>90.0</ele>
      </trkpt>
      <trkpt lat="34.05122025965138" lon="-118.5298328942359">
        <ele>90.0</ele>
      </trkpt>
      <trkpt lat="34.05122025965731" lon="-118.5298328942359">
        <ele>90.0</ele>
      </trkpt>
      <trkpt lat="34.05127" lon="-118.52984">
        <ele>91.0</ele>
      </trkpt>
      <trkpt lat="34.0513" lon="-118.52981">
        <ele>91.0</ele>
      </trkpt>
      <trkpt lat="34.0514" lon="-118.52983">
        <ele>91.0</ele>
      </trkpt>
      <trkpt lat="34.05144" lon="-118.5299">
        <ele>95.0</ele>
      </trkpt>
      <trkpt lat="34.05155" lon="-118.52992">
        <ele>95.0</ele>
      </trkpt>
      <trkpt lat="34.05168" lon="-118.52986">
        <ele>95.0</ele>
      </trkpt>
      <trkpt lat="34.05178" lon="-118.52986">
        <ele>95.0</ele>
      </trkpt>
      <trkpt lat="34.05202" lon="-118.52968">
        <ele>99.0</ele>
      </trkpt>
      <trkpt lat="34.05202" lon="-118.52968">
        <ele>99.0</ele>
      </trkpt>
      <trkpt lat="34.05202" lon="-118.52968">
        <ele>99.0</ele>
      </trkpt>
      <trkpt lat="34.05251" lon="-118.52946">
        <ele>97.0</ele>
      </trkpt>
      <trkpt lat="34.05254524565596" lon="-118.5294670491312">
        <ele>97.0</ele>
      </trkpt>
      <trkpt lat="34.05254524567982" lon="-118.5294670491312">
        <ele>97.0</ele>
      </trkpt>
      <trkpt lat="34.05266" lon="-118.52949">
        <ele>97.0</ele>
      </trkpt>
      <trkpt lat="34.05266" lon="-118.52949">
        <ele>97.0</ele>
      </trkpt>
      <trkpt lat="34.05293" lon="-118.52958">
        <ele>99.0</ele>
      </trkpt>
      <trkpt lat="34.05335" lon="-118.52925">
        <ele>97.0</ele>
      </trkpt>
      <trkpt lat="34.05369" lon="-118.52915">
        <ele>95.0</ele>
      </trkpt>
      <trkpt lat="34.05396" lon="-118.52921">
        <ele>96.0</ele>
      </trkpt>
      <trkpt lat="34.05413" lon="-118.52937">
        <ele>98.0</ele>
      </trkpt>
      <trkpt lat="34.05421" lon="-118.52973">
        <ele>102.0</ele>
      </trkpt>
      <trkpt lat="34.05431" lon="-118.52988">
        <ele>111.0</ele>
      </trkpt>
      <trkpt lat="34.05443" lon="-118.52985">
        <ele>105.0</ele>
      </trkpt>
      <trkpt lat="34.05443" lon="-118.5297024250031">
        <ele>105.0</ele>
      </trkpt>
      <trkpt lat="34.05442999999998" lon="-118.5297024250031">
        <ele>105.0</ele>
      </trkpt>
      <trkpt lat="34.05443" lon="-118.52959">
        <ele>105.0</ele>
      </trkpt>
      <trkpt lat="34.05454" lon="-118.52937">
        <ele>103.0</ele>
      </trkpt>
      <trkpt lat="34.05469763952708" lon="-118.529264906982">
        <ele>105.0</ele>
      </trkpt>
      <trkpt lat="34.05469763952708" lon="-118.529264906982">
        <ele>105.0</ele>
      </trkpt>
      <trkpt lat="34.05481" lon="-118.52919">
        <ele>105.0</ele>
      </trkpt>
      <trkpt lat="34.05535" lon="-118.52909">
        <ele>112.0</ele>
      </trkpt>
      <trkpt lat="34.05538309410626" lon="-118.5290879942966">
        <ele>112.0</ele>
      </trkpt>
      <trkpt lat="34.05538309422865" lon="-118.5290879942966">
        <ele>112.0</ele>
      </trkpt>
      <trkpt lat="34.05601" lon="-118.52905">
        <ele>111.0</ele>
      </trkpt>
      <trkpt lat="34.05627" lon="-118.52922">
        <ele>114.0</ele>
      </trkpt>
      <trkpt lat="34.05641" lon="-118.52924">
        <ele>114.0</ele>
      </trkpt>
      <trkpt lat="34.0565" lon="-118.52937">
        <ele>118.0</ele>
      </trkpt>
      <trkpt lat="34.05657" lon="-118.52928">
        <ele>115.0</ele>
      </trkpt>
      <trkpt lat="34.05659" lon="-118.52916">
        <ele>115.0</ele>
      </trkpt>
      <trkpt lat="34.05669" lon="-118.52912">
        <ele>115.0</ele>
      </trkpt>
      <trkpt lat="34.0569" lon="-118.52932">
        <ele>121.0</ele>
      </trkpt>
      <trkpt lat="34.05715" lon="-118.52938">
        <ele>116.0</ele>
      </trkpt>
      <trkpt lat="34.05725" lon="-118.52935">
        <ele>116.0</ele>
      </trkpt>
      <trkpt lat="34.05747" lon="-118.52948">
        <ele>113.0</ele>
      </trkpt>
      <trkpt lat="34.05752" lon="-118.52968">
        <ele>116.0</ele>
      </trkpt>
      <trkpt lat="34.05756615010484" lon="-118.5297129643606">
        <ele>116.0</ele>
      </trkpt>
      <trkpt lat="34.05756615018758" lon="-118.5297129643606">
        <ele>116.0</ele>
      </trkpt>
      <trkpt lat="34.05787" lon="-118.52993">
        <ele>117.0</ele>
      </trkpt>
      <trkpt lat="34.05808" lon="-118.52997">
        <ele>117.0</ele>
      </trkpt>
      <trkpt lat="34.05818" lon="-118.53013">
        <ele>117.0</ele>
      </trkpt>
      <trkpt lat="34.059" lon="-118.53024">
        <ele>127.0</ele>
      </trkpt>
      <trkpt lat="34.05909051015723" lon="-118.530237485829">
        <ele>129.0</ele>
      </trkpt>
      <trkpt lat="34.05909051030113" lon="-118.530237485829">
        <ele>129.0</ele>
      </trkpt>
      <trkpt lat="34.05936" lon="-118.53023">
        <ele>127.0</ele>
      </trkpt>
      <trkpt lat="34.05937931361842" lon="-118.5302139086184">
        <ele>127.0</ele>
      </trkpt>
      <trkpt lat="34.0594" lon="-118.53001">
        <ele>126.0</ele>
      </trkpt>
      <trkpt lat="34.0594" lon="-118.53001">
        <ele>126.0</ele>
      </trkpt>
      <trkpt lat="34.05969" lon="-118.53018">
        <ele>124.0</ele>
      </trkpt>
      <trkpt lat="34.05988" lon="-118.53019">
        <ele>124.0</ele>
      </trkpt>
      <trkpt lat="34.06016" lon="-118.53009">
        <ele>129.0</ele>
      </trkpt>
      <trkpt lat="34.06041" lon="-118.53028">
        <ele>126.0</ele>
      </trkpt>
      <trkpt lat="34.06068" lon="-118.53037">
        <ele>131.0</ele>
      </trkpt>
      <trkpt lat="34.06095" lon="-118.53062">
        <ele>132.0</ele>
      </trkpt>
      <trkpt lat="34.06110022238204" lon="-118.5308560637432">
        <ele>133.0</ele>
      </trkpt>
      <trkpt lat="34.06110022243501" lon="-118.5308560637432">
        <ele>133.0</ele>
      </trkpt>
      <trkpt lat="34.06116" lon="-118.53095">
        <ele>133.0</ele>
      </trkpt>
      <trkpt lat="34.06144" lon="-118.53101">
        <ele>136.0</ele>
      </trkpt>
      <trkpt lat="34.06167" lon="-118.53098">
        <ele>139.0</ele>
      </trkpt>
      <trkpt lat="34.06181" lon="-118.53109">
        <ele>138.0</ele>
      </trkpt>
      <trkpt lat="34.06204" lon="-118.53135">
        <ele>135.0</ele>
      </trkpt>
      <trkpt lat="34.06225" lon="-118.53153">
        <ele>136.0</ele>
      </trkpt>
      <trkpt lat="34.06256" lon="-118.53159">
        <ele>138.0</ele>
      </trkpt>
      <trkpt lat="34.06291" lon="-118.53186">
        <ele>139.0</ele>
      </trkpt>
      <trkpt lat="34.06309" lon="-118.53193">
        <ele>145.0</ele>
      </trkpt>
      <trkpt lat="34.0632" lon="-118.53214">
        <ele>149.0</ele>
      </trkpt>
      <trkpt lat="34.06333" lon="-118.53232">
        <ele>149.0</ele>
      </trkpt>
      <trkpt lat="34.06339" lon="-118.5323">
        <ele>149.0</ele>
      </trkpt>
      <trkpt lat="34.0635" lon="-118.5324">
        <ele>149.0</ele>
      </trkpt>
      <trkpt lat="34.0636" lon="-118.5324">
        <ele>149.0</ele>
      </trkpt>
      <trkpt lat="34.06384" lon="-118.53258">
        <ele>153.0</ele>
      </trkpt>
      <trkpt lat="34.06393" lon="-118.53262">
        <ele>153.0</ele>
      </trkpt>
      <trkpt lat="34.06397" lon="-118.53268">
        <ele>148.0</ele>
      </trkpt>
      <trkpt lat="34.06433" lon="-118.53277">
        <ele>157.0</ele>
      </trkpt>
      <trkpt lat="34.06443" lon="-118.53286">
        <ele>157.0</ele>
      </trkpt>
      <trkpt lat="34.06446" lon="-118.53301">
        <ele>154.0</ele>
      </trkpt>
      <trkpt lat="34.06462" lon="-118.53324">
        <ele>158.0</ele>
      </trkpt>
      <trkpt lat="34.0648" lon="-118.5334">
        <ele>158.0</ele>
      </trkpt>
      <trkpt lat="34.06487567559194" lon="-118.5334197414588">
        <ele>165.0</ele>
      </trkpt>
      <trkpt lat="34.06487567566084" lon="-118.5334197414588">
        <ele>165.0</ele>
      </trkpt>
      <trkpt lat="34.06503" lon="-118.53346">
        <ele>165.0</ele>
      </trkpt>
      <trkpt lat="34.06526" lon="-118.53338">
        <ele>176.0</ele>
      </trkpt>
      <trkpt lat="34.06533" lon="-118.53333">
        <ele>176.0</ele>
      </trkpt>
      <trkpt lat="34.06588" lon="-118.53369">
        <ele>185.0</ele>
      </trkpt>
      <trkpt lat="34.06594" lon="-118.53371">
        <ele>185.0</ele>
      </trkpt>
      <trkpt lat="34.06609" lon="-118.53383">
        <ele>188.0</ele>
      </trkpt>
      <trkpt lat="34.06627" lon="-118.53408">
        <ele>194.0</ele>
      </trkpt>
      <trkpt lat="34.06631" lon="-118.53419">
        <ele>194.0</ele>
      </trkpt>
      <trkpt lat="34.06652" lon="-118.53441">
        <ele>187.0</ele>
      </trkpt>
      <trkpt lat="34.06658" lon="-118.53443">
        <ele>198.0</ele>
      </trkpt>
      <trkpt lat="34.06673" lon="-118.53468">
        <ele>194.0</ele>
      </trkpt>
      <trkpt lat="34.067" lon="-118.53487">
        <ele>200.0</ele>
      </trkpt>
      <trkpt lat="34.0671" lon="-118.53488">
        <ele>209.0</ele>
      </trkpt>
      <trkpt lat="34.06721" lon="-118.53493">
        <ele>209.0</ele>
      </trkpt>
      <trkpt lat="34.06732" lon="-118.53506">
        <ele>209.0</ele>
      </trkpt>
      <trkpt lat="34.06741" lon="-118.53525">
        <ele>211.0</ele>
      </trkpt>
      <trkpt lat="34.06757" lon="-118.53543">
        <ele>217.0</ele>
      </trkpt>
      <trkpt lat="34.06766" lon="-118.53547">
        <ele>231.0</ele>
      </trkpt>
      <trkpt lat="34.06777" lon="-118.53573">
        <ele>227.0</ele>
      </trkpt>
      <trkpt lat="34.0678" lon="-118.53586">
        <ele>227.0</ele>
      </trkpt>
      <trkpt lat="34.06804" lon="-118.53635">
        <ele>242.0</ele>
      </trkpt>
      <trkpt lat="34.06808" lon="-118.53639">
        <ele>242.0</ele>
      </trkpt>
      <trkpt lat="34.06808" lon="-118.53639">
        <ele>242.0</ele>
      </trkpt>
      <trkpt lat="34.06807" lon="-118.53649">
        <ele>242.0</ele>
      </trkpt>
      <trkpt lat="34.06807" lon="-118.53649">
        <ele>242.0</ele>
      </trkpt>
      <trkpt lat="34.06806" lon="-118.53656">
        <ele>248.0</ele>
      </trkpt>
      <trkpt lat="34.06803" lon="-118.53658">
        <ele>248.0</ele>
      </trkpt>
      <trkpt lat="34.06792" lon="-118.53655">
        <ele>248.0</ele>
      </trkpt>
      <trkpt lat="34.0679" lon="-118.53666">
        <ele>253.0</ele>
      </trkpt>
      <trkpt lat="34.06796" lon="-118.53676">
        <ele>248.0</ele>
      </trkpt>
      <trkpt lat="34.06807" lon="-118.53684">
        <ele>256.0</ele>
      </trkpt>
      <trkpt lat="34.06803" lon="-118.53691">
        <ele>256.0</ele>
      </trkpt>
      <trkpt lat="34.06784" lon="-118.53681">
        <ele>259.0</ele>
      </trkpt>
      <trkpt lat="34.06759" lon="-118.53651">
        <ele>241.0</ele>
      </trkpt>
      <trkpt lat="34.06759" lon="-118.53644">
        <ele>241.0</ele>
      </trkpt>
      <trkpt lat="34.06756" lon="-118.53644">
        <ele>241.0</ele>
      </trkpt>
      <trkpt lat="34.06749" lon="-118.53651">
        <ele>241.0</ele>
      </trkpt>
      <trkpt lat="34.06724" lon="-118.53654">
        <ele>267.0</ele>
      </trkpt>
      <trkpt lat="34.06708" lon="-118.53639">
        <ele>259.0</ele>
      </trkpt>
      <trkpt lat="34.06682" lon="-118.53639">
        <ele>259.0</ele>
      </trkpt>
      <trkpt lat="34.06669" lon="-118.5365">
        <ele>257.0</ele>
      </trkpt>
      <trkpt lat="34.06656" lon="-118.53656">
        <ele>264.0</ele>
      </trkpt>
      <trkpt lat="34.0664" lon="-118.5369">
        <ele>279.0</ele>
      </trkpt>
      <trkpt lat="34.06631" lon="-118.53698">
        <ele>279.0</ele>
      </trkpt>
      <trkpt lat="34.06626" lon="-118.53695">
        <ele>279.0</ele>
      </trkpt>
      <trkpt lat="34.06588" lon="-118.53646">
        <ele>290.0</ele>
      </trkpt>
      <trkpt lat="34.06585" lon="-118.53628">
        <ele>290.0</ele>
      </trkpt>
      <trkpt lat="34.06577" lon="-118.53623">
        <ele>278.0</ele>
      </trkpt>
      <trkpt lat="34.06573" lon="-118.53624">
        <ele>278.0</ele>
      </trkpt>
      <trkpt lat="34.0657" lon="-118.5363">
        <ele>290.0</ele>
      </trkpt>
      <trkpt lat="34.06571" lon="-118.53663">
        <ele>300.0</ele>
      </trkpt>
      <trkpt lat="34.06568" lon="-118.53668">
        <ele>303.0</ele>
      </trkpt>
      <trkpt lat="34.06563" lon="-118.53695">
        <ele>314.0</ele>
      </trkpt>
      <trkpt lat="34.06568" lon="-118.53727">
        <ele>324.0</ele>
      </trkpt>
      <trkpt lat="34.06564" lon="-118.53746">
        <ele>326.0</ele>
      </trkpt>
      <trkpt lat="34.06553" lon="-118.53758">
        <ele>326.0</ele>
      </trkpt>
      <trkpt lat="34.06552" lon="-118.53766">
        <ele>327.0</ele>
      </trkpt>
      <trkpt lat="34.06562" lon="-118.53787">
        <ele>327.0</ele>
      </trkpt>
      <trkpt lat="34.06571" lon="-118.53796">
        <ele>322.0</ele>
      </trkpt>
      <trkpt lat="34.06571" lon="-118.53809">
        <ele>322.0</ele>
      </trkpt>
      <trkpt lat="34.06573" lon="-118.53818">
        <ele>322.0</ele>
      </trkpt>
      <trkpt lat="34.0657" lon="-118.53823">
        <ele>326.0</ele>
      </trkpt>
      <trkpt lat="34.0657" lon="-118.53831">
        <ele>326.0</ele>
      </trkpt>
      <trkpt lat="34.06575" lon="-118.53837">
        <ele>326.0</ele>
      </trkpt>
      <trkpt lat="34.06577" lon="-118.53844">
        <ele>326.0</ele>
      </trkpt>
      <trkpt lat="34.06584" lon="-118.5385">
        <ele>332.0</ele>
      </trkpt>
      <trkpt lat="34.06607" lon="-118.53859">
        <ele>331.0</ele>
      </trkpt>
      <trkpt lat="34.06607" lon="-118.53859">
        <ele>331.0</ele>
      </trkpt>
      <trkpt lat="34.06584" lon="-118.53873">
        <ele>332.0</ele>
      </trkpt>
      <trkpt lat="34.06563" lon="-118.53868">
        <ele>335.0</ele>
      </trkpt>
      <trkpt lat="34.06563" lon="-118.53868">
        <ele>335.0</ele>
      </trkpt>
      <trkpt lat="34.06539" lon="-118.53854">
        <ele>337.0</ele>
      </trkpt>
      <trkpt lat="34.06505" lon="-118.53802">
        <ele>339.0</ele>
      </trkpt>
      <trkpt lat="34.06495" lon="-118.53795">
        <ele>339.0</ele>
      </trkpt>
      <trkpt lat="34.06488" lon="-118.53795">
        <ele>339.0</ele>
      </trkpt>
      <trkpt lat="34.06445" lon="-118.53809">
        <ele>341.0</ele>
      </trkpt>
      <trkpt lat="34.0643" lon="-118.53807">
        <ele>335.0</ele>
      </trkpt>
      <trkpt lat="34.06422578361305" lon="-118.5381009234946">
        <ele>335.0</ele>
      </trkpt>
      <trkpt lat="34.06422578363308" lon="-118.5381009234946">
        <ele>335.0</ele>
      </trkpt>
      <trkpt lat="34.06418" lon="-118.53812">
        <ele>335.0</ele>
      </trkpt>
      <trkpt lat="34.06397" lon="-118.53815">
        <ele>334.0</ele>
      </trkpt>
      <trkpt lat="34.06367" lon="-118.53802">
        <ele>335.0</ele>
      </trkpt>
      <trkpt lat="34.06363" lon="-118.53798">
        <ele>335.0</ele>
      </trkpt>
      <trkpt lat="34.06339" lon="-118.53791">
        <ele>330.0</ele>
      </trkpt>
      <trkpt lat="34.06334" lon="-118.53786">
        <ele>330.0</ele>
      </trkpt>
      <trkpt lat="34.06323" lon="-118.53787">
        <ele>330.0</ele>
      </trkpt>
      <trkpt lat="34.06312" lon="-118.53776">
        <ele>334.0</ele>
      </trkpt>
      <trkpt lat="34.06295" lon="-118.53777">
        <ele>334.0</ele>
      </trkpt>
      <trkpt lat="34.06282" lon="-118.53771">
        <ele>330.0</ele>
      </trkpt>
      <trkpt lat="34.06278" lon="-118.53754">
        <ele>322.0</ele>
      </trkpt>
      <trkpt lat="34.06269" lon="-118.53742">
        <ele>322.0</ele>
      </trkpt>
      <trkpt lat="34.06262" lon="-118.53725">
        <ele>311.0</ele>
      </trkpt>
      <trkpt lat="34.06248" lon="-118.53717">
        <ele>311.0</ele>
      </trkpt>
      <trkpt lat="34.06245" lon="-118.53707">
        <ele>304.0</ele>
      </trkpt>
      <trkpt lat="34.06237" lon="-118.53701">
        <ele>304.0</ele>
      </trkpt>
      <trkpt lat="34.06233" lon="-118.53687">
        <ele>303.0</ele>
      </trkpt>
      <trkpt lat="34.06226" lon="-118.53681">
        <ele>303.0</ele>
      </trkpt>
      <trkpt lat="34.06217" lon="-118.53662">
        <ele>298.0</ele>
      </trkpt>
      <trkpt lat="34.06208" lon="-118.53623">
        <ele>294.0</ele>
      </trkpt>
      <trkpt lat="34.06211" lon="-118.53607">
        <ele>289.0</ele>
      </trkpt>
      <trkpt lat="34.06210722049499" lon="-118.536050543465">
        <ele>289.0</ele>
      </trkpt>
      <trkpt lat="34.06210722049511" lon="-118.5360505434649">
        <ele>289.0</ele>
      </trkpt>
      <trkpt lat="34.0621" lon="-118.536">
        <ele>289.0</ele>
      </trkpt>
      <trkpt lat="34.06214" lon="-118.53589">
        <ele>283.0</ele>
      </trkpt>
      <trkpt lat="34.06211" lon="-118.53579">
        <ele>283.0</ele>
      </trkpt>
      <trkpt lat="34.06213" lon="-118.53571">
        <ele>283.0</ele>
      </trkpt>
      <trkpt lat="34.06211" lon="-118.53526">
        <ele>272.0</ele>
      </trkpt>
      <trkpt lat="34.06212" lon="-118.53494">
        <ele>266.0</ele>
      </trkpt>
      <trkpt lat="34.06204" lon="-118.53472">
        <ele>264.0</ele>
      </trkpt>
      <trkpt lat="34.062" lon="-118.53474">
        <ele>264.0</ele>
      </trkpt>
      <trkpt lat="34.0618" lon="-118.53525">
        <ele>274.0</ele>
      </trkpt>
      <trkpt lat="34.06175" lon="-118.53549">
        <ele>279.0</ele>
      </trkpt>
      <trkpt lat="34.06171" lon="-118.53558">
        <ele>279.0</ele>
      </trkpt>
      <trkpt lat="34.06136" lon="-118.53586">
        <ele>268.0</ele>
      </trkpt>
      <trkpt lat="34.0613" lon="-118.53587">
        <ele>268.0</ele>
      </trkpt>
      <trkpt lat="34.06125" lon="-118.53592">
        <ele>253.0</ele>
      </trkpt>
      <trkpt lat="34.06124" lon="-118.53598">
        <ele>257.0</ele>
      </trkpt>
      <trkpt lat="34.06131" lon="-118.53613">
        <ele>270.0</ele>
      </trkpt>
      <trkpt lat="34.06128" lon="-118.53624">
        <ele>270.0</ele>
      </trkpt>
      <trkpt lat="34.06123" lon="-118.53628">
        <ele>259.0</ele>
      </trkpt>
      <trkpt lat="34.06118" lon="-118.53635">
        <ele>259.0</ele>
      </trkpt>
      <trkpt lat="34.06105" lon="-118.53668">
        <ele>260.0</ele>
      </trkpt>
      <trkpt lat="34.06104731031385" lon="-118.5367122762339">
        <ele>260.0</ele>
      </trkpt>
      <trkpt lat="34.06104731031396" lon="-118.5367122762339">
        <ele>260.0</ele>
      </trkpt>
      <trkpt lat="34.06104" lon="-118.5368">
        <ele>260.0</ele>
      </trkpt>
      <trkpt lat="34.06098" lon="-118.53693">
        <ele>261.0</ele>
      </trkpt>
      <trkpt lat="34.06095" lon="-118.53708">
        <ele>246.0</ele>
      </trkpt>
      <trkpt lat="34.0609" lon="-118.53713">
        <ele>243.0</ele>
      </trkpt>
      <trkpt lat="34.0609" lon="-118.53713">
        <ele>243.0</ele>
      </trkpt>
      <trkpt lat="34.0609" lon="-118.53713">
        <ele>243.0</ele>
      </trkpt>
      <trkpt lat="34.06063" lon="-118.53672">
        <ele>242.0</ele>
      </trkpt>
      <trkpt lat="34.06039" lon="-118.53624">
        <ele>234.0</ele>
      </trkpt>
      <trkpt lat="34.06031581953242" lon="-118.5361163658874">
        <ele>234.0</ele>
      </trkpt>
      <trkpt lat="34.06031581959184" lon="-118.5361163658874">
        <ele>234.0</ele>
      </trkpt>
      <trkpt lat="34.06018" lon="-118.53589">
        <ele>229.0</ele>
      </trkpt>
      <trkpt lat="34.05992" lon="-118.53563">
        <ele>237.0</ele>
      </trkpt>
      <trkpt lat="34.05968" lon="-118.5355">
        <ele>244.0</ele>
      </trkpt>
      <trkpt lat="34.05954" lon="-118.53534">
        <ele>239.0</ele>
      </trkpt>
      <trkpt lat="34.05942" lon="-118.53531">
        <ele>239.0</ele>
      </trkpt>
      <trkpt lat="34.05942" lon="-118.53531">
        <ele>239.0</ele>
      </trkpt>
      <trkpt lat="34.0594" lon="-118.53521">
        <ele>239.0</ele>
      </trkpt>
      <trkpt lat="34.05914" lon="-118.535">
        <ele>228.0</ele>
      </trkpt>
      <trkpt lat="34.05889" lon="-118.53472">
        <ele>213.0</ele>
      </trkpt>
      <trkpt lat="34.05871" lon="-118.5346">
        <ele>217.0</ele>
      </trkpt>
      <trkpt lat="34.05866" lon="-118.5345">
        <ele>207.0</ele>
      </trkpt>
      <trkpt lat="34.05846" lon="-118.5343">
        <ele>208.0</ele>
      </trkpt>
      <trkpt lat="34.05845" lon="-118.53426">
        <ele>208.0</ele>
      </trkpt>
      <trkpt lat="34.05823" lon="-118.5339">
        <ele>204.0</ele>
      </trkpt>
      <trkpt lat="34.0582" lon="-118.5338">
        <ele>204.0</ele>
      </trkpt>
      <trkpt lat="34.05800630162132" lon="-118.5335232880305">
        <ele>207.0</ele>
      </trkpt>
      <trkpt lat="34.05800630179993" lon="-118.5335232880304">
        <ele>207.0</ele>
      </trkpt>
      <trkpt lat="34.05785" lon="-118.5333">
        <ele>203.0</ele>
      </trkpt>
      <trkpt lat="34.0576" lon="-118.533">
        <ele>205.0</ele>
      </trkpt>
      <trkpt lat="34.05751" lon="-118.53283">
        <ele>202.0</ele>
      </trkpt>
      <trkpt lat="34.05747" lon="-118.5328">
        <ele>202.0</ele>
      </trkpt>
      <trkpt lat="34.05734" lon="-118.53284">
        <ele>205.0</ele>
      </trkpt>
      <trkpt lat="34.05731" lon="-118.53281">
        <ele>205.0</ele>
      </trkpt>
      <trkpt lat="34.05702" lon="-118.53197">
        <ele>181.0</ele>
      </trkpt>
      <trkpt lat="34.05686" lon="-118.53174">
        <ele>181.0</ele>
      </trkpt>
      <trkpt lat="34.05651" lon="-118.53078">
        <ele>154.0</ele>
      </trkpt>
      <trkpt lat="34.05634" lon="-118.53058">
        <ele>149.0</ele>
      </trkpt>
      <trkpt lat="34.05622" lon="-118.53046">
        <ele>145.0</ele>
      </trkpt>
      <trkpt lat="34.05615" lon="-118.53046">
        <ele>145.0</ele>
      </trkpt>
      <trkpt lat="34.05604" lon="-118.53041">
        <ele>141.0</ele>
      </trkpt>
      <trkpt lat="34.05599" lon="-118.53029">
        <ele>141.0</ele>
      </trkpt>
      <trkpt lat="34.05602" lon="-118.53021">
        <ele>141.0</ele>
      </trkpt>
      <trkpt lat="34.05599" lon="-118.53018">
        <ele>141.0</ele>
      </trkpt>
      <trkpt lat="34.05592" lon="-118.53018">
        <ele>143.0</ele>
      </trkpt>
      <trkpt lat="34.05586" lon="-118.5302">
        <ele>143.0</ele>
      </trkpt>
      <trkpt lat="34.05582" lon="-118.53028">
        <ele>143.0</ele>
      </trkpt>
      <trkpt lat="34.05578" lon="-118.53027">
        <ele>143.0</ele>
      </trkpt>
      <trkpt lat="34.05583" lon="-118.53008">
        <ele>144.0</ele>
      </trkpt>
      <trkpt lat="34.05579" lon="-118.53007">
        <ele>144.0</ele>
      </trkpt>
      <trkpt lat="34.05551" lon="-118.53025">
        <ele>144.0</ele>
      </trkpt>
      <trkpt lat="34.05542" lon="-118.53035">
        <ele>144.0</ele>
      </trkpt>
      <trkpt lat="34.05551" lon="-118.53002">
        <ele>141.0</ele>
      </trkpt>
      <trkpt lat="34.05557" lon="-118.52966">
        <ele>133.0</ele>
      </trkpt>
      <trkpt lat="34.05536" lon="-118.52994">
        <ele>135.0</ele>
      </trkpt>
      <trkpt lat="34.0553" lon="-118.52996">
        <ele>135.0</ele>
      </trkpt>
      <trkpt lat="34.05522" lon="-118.52986">
        <ele>130.0</ele>
      </trkpt>
      <trkpt lat="34.05521" lon="-118.52974">
        <ele>130.0</ele>
      </trkpt>
      <trkpt lat="34.05526" lon="-118.52955">
        <ele>124.0</ele>
      </trkpt>
      <trkpt lat="34.05526" lon="-118.5294">
        <ele>124.0</ele>
      </trkpt>
      <trkpt lat="34.05523" lon="-118.52938">
        <ele>124.0</ele>
      </trkpt>
      <trkpt lat="34.05501" lon="-118.52959">
        <ele>121.0</ele>
      </trkpt>
      <trkpt lat="34.05497060152999" lon="-118.5295956283529">
        <ele>121.0</ele>
      </trkpt>
      <trkpt lat="34.05497060160217" lon="-118.5295956283529">
        <ele>121.0</ele>
      </trkpt>
      <trkpt lat="34.05466" lon="-118.52964">
        <ele>111.0</ele>
      </trkpt>
      <trkpt lat="34.0546" lon="-118.52957">
        <ele>109.0</ele>
      </trkpt>
      <trkpt lat="34.05465" lon="-118.52949">
        <ele>109.0</ele>
      </trkpt>
      <trkpt lat="34.05479" lon="-118.52948">
        <ele>109.0</ele>
      </trkpt>
      <trkpt lat="34.05485" lon="-118.52944">
        <ele>109.0</ele>
      </trkpt>
      <trkpt lat="34.05491" lon="-118.5293">
        <ele>109.0</ele>
      </trkpt>
      <trkpt lat="34.05491" lon="-118.5293">
        <ele>109.0</ele>
      </trkpt>
      <trkpt lat="34.0549" lon="-118.52925">
        <ele>109.0</ele>
      </trkpt>
      <trkpt lat="34.05478" lon="-118.52929">
        <ele>105.0</ele>
      </trkpt>
      <trkpt lat="34.05478" lon="-118.52929">
        <ele>105.0</ele>
      </trkpt>
      <trkpt lat="34.0547" lon="-118.52927">
        <ele>105.0</ele>
      </trkpt>
      <trkpt lat="34.05469763952708" lon="-118.529264906982">
        <ele>105.0</ele>
      </trkpt>
      <trkpt lat="34.05454" lon="-118.52937">
        <ele>103.0</ele>
      </trkpt>
      <trkpt lat="34.05443" lon="-118.52959">
        <ele>105.0</ele>
      </trkpt>
      <trkpt lat="34.05443" lon="-118.5297936201096">
        <ele>105.0</ele>
      </trkpt>
      <trkpt lat="34.05442999999998" lon="-118.5297936201096">
        <ele>105.0</ele>
      </trkpt>
      <trkpt lat="34.05443" lon="-118.52985">
        <ele>105.0</ele>
      </trkpt>
      <trkpt lat="34.05431" lon="-118.52988">
        <ele>111.0</ele>
      </trkpt>
      <trkpt lat="34.05421" lon="-118.52973">
        <ele>102.0</ele>
      </trkpt>
      <trkpt lat="34.05413" lon="-118.52937">
        <ele>98.0</ele>
      </trkpt>
      <trkpt lat="34.05396" lon="-118.52921">
        <ele>96.0</ele>
      </trkpt>
      <trkpt lat="34.05369" lon="-118.52915">
        <ele>95.0</ele>
      </trkpt>
      <trkpt lat="34.05335" lon="-118.52925">
        <ele>97.0</ele>
      </trkpt>
      <trkpt lat="34.05293" lon="-118.52958">
        <ele>99.0</ele>
      </trkpt>
      <trkpt lat="34.05266" lon="-118.52949">
        <ele>97.0</ele>
      </trkpt>
      <trkpt lat="34.05266" lon="-118.52949">
        <ele>97.0</ele>
      </trkpt>
      <trkpt lat="34.05251" lon="-118.52946">
        <ele>97.0</ele>
      </trkpt>
      <trkpt lat="34.05229713775355" lon="-118.5295555708045">
        <ele>97.0</ele>
      </trkpt>
      <trkpt lat="34.05229713810146" lon="-118.5295555708045">
        <ele>97.0</ele>
      </trkpt>
      <trkpt lat="34.05202" lon="-118.52968">
        <ele>99.0</ele>
      </trkpt>
      <trkpt lat="34.05202" lon="-118.52968">
        <ele>99.0</ele>
      </trkpt>
      <trkpt lat="34.05202" lon="-118.52968">
        <ele>99.0</ele>
      </trkpt>
      <trkpt lat="34.05178" lon="-118.52986">
        <ele>95.0</ele>
      </trkpt>
      <trkpt lat="34.05168" lon="-118.52986">
        <ele>95.0</ele>
      </trkpt>
      <trkpt lat="34.05155" lon="-118.52992">
        <ele>95.0</ele>
      </trkpt>
      <trkpt lat="34.05144" lon="-118.5299">
        <ele>95.0</ele>
      </trkpt>
      <trkpt lat="34.0514" lon="-118.52983">
        <ele>91.0</ele>
      </trkpt>
      <trkpt lat="34.0513" lon="-118.52981">
        <ele>91.0</ele>
      </trkpt>
      <trkpt lat="34.05127" lon="-118.52984">
        <ele>91.0</ele>
      </trkpt>
      <trkpt lat="34.0512" lon="-118.52983">
        <ele>90.0</ele>
      </trkpt>
      <trkpt lat="34.05109" lon="-118.5299">
        <ele>92.0</ele>
      </trkpt>
      <trkpt lat="34.05097" lon="-118.5299">
        <ele>90.0</ele>
      </trkpt>
      <trkpt lat="34.05084" lon="-118.52999">
        <ele>90.0</ele>
      </trkpt>
      <trkpt lat="34.05084" lon="-118.52999">
        <ele>90.0</ele>
      </trkpt>
      <trkpt lat="34.05081" lon="-118.52999">
        <ele>90.0</ele>
      </trkpt>
      <trkpt lat="34.05080334752311" lon="-118.5300033049538">
        <ele>90.0</ele>
      </trkpt>
      <trkpt lat="34.05076" lon="-118.53009">
        <ele>90.0</ele>
      </trkpt>
      <trkpt lat="34.0506" lon="-118.53022">
        <ele>92.0</ele>
      </trkpt>
      <trkpt lat="34.05018006212635" lon="-118.5302565163368">
        <ele>88.0</ele>
      </trkpt>
    </trkseg>
  </trk>
</gpx>
