<?xml version="1.0" encoding="UTF-8"?>
<gpx xmlns:xsi="http://www.w3.org/2001/XMLSchema-instance" version="1.1" creator="The Outbound Collective, Inc. 1.1.1 -- https://www.theoutbound.com" xsi:schemaLocation="http://www.topografix.com/GPX/1/1 http://www.topografix.com/GPX/1/1/gpx.xsd">
  <metadata>
    <name/>
    <time>2026-02-19T21:57:13+00:00</time>
    <bound minlat="34.50505" minlon="-119.40758" maxlat="34.540650000000014" maxlon="-119.3748067556474"/>
  </metadata>
  <trk>
    <name/>
    <trkseg>
      <trkpt lat="34.50515969728874" lon="-119.3748235702515">
        <ele>0.0</ele>
      </trkpt>
      <trkpt lat="34.50510640952563" lon="-119.3748067556474">
        <ele>0.0</ele>
      </trkpt>
      <trkpt lat="34.50505" lon="-119.37507">
        <ele>0.0</ele>
      </trkpt>
      <trkpt lat="34.50506" lon="-119.37544">
        <ele>0.0</ele>
      </trkpt>
      <trkpt lat="34.50538" lon="-119.3764">
        <ele>0.0</ele>
      </trkpt>
      <trkpt lat="34.50552" lon="-119.37704">
        <ele>0.0</ele>
      </trkpt>
      <trkpt lat="34.50575" lon="-119.37744">
        <ele>0.0</ele>
      </trkpt>
      <trkpt lat="34.50575" lon="-119.37744">
        <ele>0.0</ele>
      </trkpt>
      <trkpt lat="34.50597" lon="-119.3778">
        <ele>0.0</ele>
      </trkpt>
      <trkpt lat="34.50612" lon="-119.37824">
        <ele>0.0</ele>
      </trkpt>
      <trkpt lat="34.50642" lon="-119.37891">
        <ele>0.0</ele>
      </trkpt>
      <trkpt lat="34.50642" lon="-119.37891">
        <ele>0.0</ele>
      </trkpt>
      <trkpt lat="34.50656" lon="-119.37934">
        <ele>0.0</ele>
      </trkpt>
      <trkpt lat="34.50656" lon="-119.37934">
        <ele>0.0</ele>
      </trkpt>
      <trkpt lat="34.50665" lon="-119.37958">
        <ele>0.0</ele>
      </trkpt>
      <trkpt lat="34.50686" lon="-119.37987">
        <ele>0.0</ele>
      </trkpt>
      <trkpt lat="34.50694" lon="-119.38006">
        <ele>0.0</ele>
      </trkpt>
      <trkpt lat="34.50695" lon="-119.38028">
        <ele>0.0</ele>
      </trkpt>
      <trkpt lat="34.50698" lon="-119.38041">
        <ele>0.0</ele>
      </trkpt>
      <trkpt lat="34.50729" lon="-119.38117">
        <ele>0.0</ele>
      </trkpt>
      <trkpt lat="34.50731" lon="-119.38127">
        <ele>0.0</ele>
      </trkpt>
      <trkpt lat="34.5073" lon="-119.38149">
        <ele>0.0</ele>
      </trkpt>
      <trkpt lat="34.50709" lon="-119.3819">
        <ele>0.0</ele>
      </trkpt>
      <trkpt lat="34.50707" lon="-119.38205">
        <ele>0.0</ele>
      </trkpt>
      <trkpt lat="34.50741" lon="-119.3831">
        <ele>0.0</ele>
      </trkpt>
      <trkpt lat="34.50751" lon="-119.38328">
        <ele>0.0</ele>
      </trkpt>
      <trkpt lat="34.50773" lon="-119.38349">
        <ele>0.0</ele>
      </trkpt>
      <trkpt lat="34.50787" lon="-119.38355">
        <ele>0.0</ele>
      </trkpt>
      <trkpt lat="34.50823" lon="-119.38363">
        <ele>0.0</ele>
      </trkpt>
      <trkpt lat="34.50831" lon="-119.38374">
        <ele>0.0</ele>
      </trkpt>
      <trkpt lat="34.50831" lon="-119.38374">
        <ele>0.0</ele>
      </trkpt>
      <trkpt lat="34.50841" lon="-119.38394">
        <ele>0.0</ele>
      </trkpt>
      <trkpt lat="34.50844" lon="-119.38424">
        <ele>0.0</ele>
      </trkpt>
      <trkpt lat="34.50849" lon="-119.38437">
        <ele>0.0</ele>
      </trkpt>
      <trkpt lat="34.50862134500824" lon="-119.3845779629297">
        <ele>0.0</ele>
      </trkpt>
      <trkpt lat="34.50862134500824" lon="-119.3845779629297">
        <ele>0.0</ele>
      </trkpt>
      <trkpt lat="34.50873" lon="-119.38475">
        <ele>0.0</ele>
      </trkpt>
      <trkpt lat="34.50883" lon="-119.38506">
        <ele>0.0</ele>
      </trkpt>
      <trkpt lat="34.50888" lon="-119.3855">
        <ele>0.0</ele>
      </trkpt>
      <trkpt lat="34.50909524140002" lon="-119.3862576497281">
        <ele>0.0</ele>
      </trkpt>
      <trkpt lat="34.50909524140002" lon="-119.3862576497281">
        <ele>0.0</ele>
      </trkpt>
      <trkpt lat="34.50913" lon="-119.38638">
        <ele>0.0</ele>
      </trkpt>
      <trkpt lat="34.50919" lon="-119.38677">
        <ele>0.0</ele>
      </trkpt>
      <trkpt lat="34.50917" lon="-119.38722">
        <ele>0.0</ele>
      </trkpt>
      <trkpt lat="34.50908" lon="-119.38742">
        <ele>0.0</ele>
      </trkpt>
      <trkpt lat="34.50894" lon="-119.38769">
        <ele>0.0</ele>
      </trkpt>
      <trkpt lat="34.50892101320901" lon="-119.3877612004662">
        <ele>0.0</ele>
      </trkpt>
      <trkpt lat="34.50892101321138" lon="-119.3877612004662">
        <ele>0.0</ele>
      </trkpt>
      <trkpt lat="34.5089" lon="-119.38784">
        <ele>0.0</ele>
      </trkpt>
      <trkpt lat="34.50892" lon="-119.38829">
        <ele>0.0</ele>
      </trkpt>
      <trkpt lat="34.50909" lon="-119.38901">
        <ele>0.0</ele>
      </trkpt>
      <trkpt lat="34.50908" lon="-119.38917">
        <ele>0.0</ele>
      </trkpt>
      <trkpt lat="34.50894" lon="-119.38938">
        <ele>0.0</ele>
      </trkpt>
      <trkpt lat="34.50890990450414" lon="-119.3894137038327">
        <ele>0.0</ele>
      </trkpt>
      <trkpt lat="34.50890990450414" lon="-119.3894137038327">
        <ele>0.0</ele>
      </trkpt>
      <trkpt lat="34.50869" lon="-119.38966">
        <ele>0.0</ele>
      </trkpt>
      <trkpt lat="34.50854" lon="-119.39013">
        <ele>0.0</ele>
      </trkpt>
      <trkpt lat="34.50852" lon="-119.39026">
        <ele>0.0</ele>
      </trkpt>
      <trkpt lat="34.50857" lon="-119.39068">
        <ele>0.0</ele>
      </trkpt>
      <trkpt lat="34.50864" lon="-119.3909">
        <ele>0.0</ele>
      </trkpt>
      <trkpt lat="34.50878" lon="-119.39119">
        <ele>0.0</ele>
      </trkpt>
      <trkpt lat="34.50883" lon="-119.39139">
        <ele>0.0</ele>
      </trkpt>
      <trkpt lat="34.50888" lon="-119.39178">
        <ele>0.0</ele>
      </trkpt>
      <trkpt lat="34.50888" lon="-119.39194">
        <ele>0.0</ele>
      </trkpt>
      <trkpt lat="34.50885" lon="-119.392">
        <ele>0.0</ele>
      </trkpt>
      <trkpt lat="34.50885" lon="-119.392">
        <ele>0.0</ele>
      </trkpt>
      <trkpt lat="34.50895" lon="-119.39215">
        <ele>0.0</ele>
      </trkpt>
      <trkpt lat="34.50927" lon="-119.39227">
        <ele>0.0</ele>
      </trkpt>
      <trkpt lat="34.50935" lon="-119.39238">
        <ele>0.0</ele>
      </trkpt>
      <trkpt lat="34.50939" lon="-119.39251">
        <ele>0.0</ele>
      </trkpt>
      <trkpt lat="34.5097" lon="-119.39278">
        <ele>0.0</ele>
      </trkpt>
      <trkpt lat="34.50973" lon="-119.39305">
        <ele>0.0</ele>
      </trkpt>
      <trkpt lat="34.5098" lon="-119.39324">
        <ele>0.0</ele>
      </trkpt>
      <trkpt lat="34.50994" lon="-119.39332">
        <ele>0.0</ele>
      </trkpt>
      <trkpt lat="34.5101" lon="-119.39336">
        <ele>0.0</ele>
      </trkpt>
      <trkpt lat="34.51018156918651" lon="-119.3934058826674">
        <ele>0.0</ele>
      </trkpt>
      <trkpt lat="34.51018156918651" lon="-119.3934058826674">
        <ele>0.0</ele>
      </trkpt>
      <trkpt lat="34.51026" lon="-119.39345">
        <ele>0.0</ele>
      </trkpt>
      <trkpt lat="34.51041" lon="-119.39358">
        <ele>0.0</ele>
      </trkpt>
      <trkpt lat="34.51064" lon="-119.39388">
        <ele>0.0</ele>
      </trkpt>
      <trkpt lat="34.51099" lon="-119.39438">
        <ele>0.0</ele>
      </trkpt>
      <trkpt lat="34.51138" lon="-119.39462">
        <ele>0.0</ele>
      </trkpt>
      <trkpt lat="34.51142825735175" lon="-119.3946820451665">
        <ele>0.0</ele>
      </trkpt>
      <trkpt lat="34.51142825735175" lon="-119.3946820451665">
        <ele>0.0</ele>
      </trkpt>
      <trkpt lat="34.51159" lon="-119.39489">
        <ele>0.0</ele>
      </trkpt>
      <trkpt lat="34.5117" lon="-119.39519">
        <ele>0.0</ele>
      </trkpt>
      <trkpt lat="34.51183" lon="-119.39541">
        <ele>0.0</ele>
      </trkpt>
      <trkpt lat="34.51186" lon="-119.39551">
        <ele>0.0</ele>
      </trkpt>
      <trkpt lat="34.51188" lon="-119.39569">
        <ele>0.0</ele>
      </trkpt>
      <trkpt lat="34.51198" lon="-119.39595">
        <ele>0.0</ele>
      </trkpt>
      <trkpt lat="34.51203" lon="-119.39607">
        <ele>0.0</ele>
      </trkpt>
      <trkpt lat="34.51224" lon="-119.39629">
        <ele>0.0</ele>
      </trkpt>
      <trkpt lat="34.51227" lon="-119.39642">
        <ele>0.0</ele>
      </trkpt>
      <trkpt lat="34.5123" lon="-119.39662">
        <ele>0.0</ele>
      </trkpt>
      <trkpt lat="34.51228" lon="-119.39688">
        <ele>0.0</ele>
      </trkpt>
      <trkpt lat="34.51236" lon="-119.39715">
        <ele>0.0</ele>
      </trkpt>
      <trkpt lat="34.51244" lon="-119.39803">
        <ele>0.0</ele>
      </trkpt>
      <trkpt lat="34.51241" lon="-119.39824">
        <ele>0.0</ele>
      </trkpt>
      <trkpt lat="34.51236" lon="-119.39843">
        <ele>0.0</ele>
      </trkpt>
      <trkpt lat="34.51236" lon="-119.39855">
        <ele>0.0</ele>
      </trkpt>
      <trkpt lat="34.51242" lon="-119.39888">
        <ele>0.0</ele>
      </trkpt>
      <trkpt lat="34.51244190773917" lon="-119.3992670367253">
        <ele>0.0</ele>
      </trkpt>
      <trkpt lat="34.51244190774023" lon="-119.3992670367253">
        <ele>0.0</ele>
      </trkpt>
      <trkpt lat="34.51245" lon="-119.39941">
        <ele>0.0</ele>
      </trkpt>
      <trkpt lat="34.51245" lon="-119.39941">
        <ele>0.0</ele>
      </trkpt>
      <trkpt lat="34.51252" lon="-119.39982">
        <ele>0.0</ele>
      </trkpt>
      <trkpt lat="34.51268" lon="-119.40024">
        <ele>0.0</ele>
      </trkpt>
      <trkpt lat="34.5128" lon="-119.40046">
        <ele>0.0</ele>
      </trkpt>
      <trkpt lat="34.51315" lon="-119.40135">
        <ele>0.0</ele>
      </trkpt>
      <trkpt lat="34.51339" lon="-119.40161">
        <ele>0.0</ele>
      </trkpt>
      <trkpt lat="34.51368" lon="-119.40187">
        <ele>0.0</ele>
      </trkpt>
      <trkpt lat="34.51397" lon="-119.4023">
        <ele>0.0</ele>
      </trkpt>
      <trkpt lat="34.51449" lon="-119.40278">
        <ele>0.0</ele>
      </trkpt>
      <trkpt lat="34.5146" lon="-119.40295">
        <ele>0.0</ele>
      </trkpt>
      <trkpt lat="34.51514" lon="-119.4036">
        <ele>0.0</ele>
      </trkpt>
      <trkpt lat="34.51525" lon="-119.40379">
        <ele>0.0</ele>
      </trkpt>
      <trkpt lat="34.51553" lon="-119.40459">
        <ele>0.0</ele>
      </trkpt>
      <trkpt lat="34.51553" lon="-119.40459">
        <ele>0.0</ele>
      </trkpt>
      <trkpt lat="34.51648" lon="-119.40533">
        <ele>0.0</ele>
      </trkpt>
      <trkpt lat="34.51672" lon="-119.40562">
        <ele>0.0</ele>
      </trkpt>
      <trkpt lat="34.51682" lon="-119.40579">
        <ele>0.0</ele>
      </trkpt>
      <trkpt lat="34.51688" lon="-119.406">
        <ele>0.0</ele>
      </trkpt>
      <trkpt lat="34.51685" lon="-119.40622">
        <ele>0.0</ele>
      </trkpt>
      <trkpt lat="34.51685" lon="-119.40635">
        <ele>0.0</ele>
      </trkpt>
      <trkpt lat="34.51708" lon="-119.40677">
        <ele>0.0</ele>
      </trkpt>
      <trkpt lat="34.51713" lon="-119.40697">
        <ele>0.0</ele>
      </trkpt>
      <trkpt lat="34.51725" lon="-119.40722">
        <ele>0.0</ele>
      </trkpt>
      <trkpt lat="34.51757" lon="-119.40758">
        <ele>0.0</ele>
      </trkpt>
      <trkpt lat="34.51777" lon="-119.40737">
        <ele>0.0</ele>
      </trkpt>
      <trkpt lat="34.51792" lon="-119.40729">
        <ele>0.0</ele>
      </trkpt>
      <trkpt lat="34.51815" lon="-119.40729">
        <ele>0.0</ele>
      </trkpt>
      <trkpt lat="34.51828625986562" lon="-119.4073476484047">
        <ele>0.0</ele>
      </trkpt>
      <trkpt lat="34.51828625996681" lon="-119.4073476484047">
        <ele>0.0</ele>
      </trkpt>
      <trkpt lat="34.51841" lon="-119.4074">
        <ele>0.0</ele>
      </trkpt>
      <trkpt lat="34.51886" lon="-119.40747">
        <ele>0.0</ele>
      </trkpt>
      <trkpt lat="34.51915" lon="-119.40755">
        <ele>0.0</ele>
      </trkpt>
      <trkpt lat="34.51939" lon="-119.40752">
        <ele>0.0</ele>
      </trkpt>
      <trkpt lat="34.51971" lon="-119.4073">
        <ele>0.0</ele>
      </trkpt>
      <trkpt lat="34.52001" lon="-119.40723">
        <ele>0.0</ele>
      </trkpt>
      <trkpt lat="34.5202" lon="-119.40664">
        <ele>0.0</ele>
      </trkpt>
      <trkpt lat="34.52054" lon="-119.4063">
        <ele>0.0</ele>
      </trkpt>
      <trkpt lat="34.52061" lon="-119.40609">
        <ele>0.0</ele>
      </trkpt>
      <trkpt lat="34.52064" lon="-119.40585">
        <ele>0.0</ele>
      </trkpt>
      <trkpt lat="34.52074" lon="-119.40569">
        <ele>0.0</ele>
      </trkpt>
      <trkpt lat="34.52094" lon="-119.40563">
        <ele>0.0</ele>
      </trkpt>
      <trkpt lat="34.52119" lon="-119.40565">
        <ele>0.0</ele>
      </trkpt>
      <trkpt lat="34.52154" lon="-119.40553">
        <ele>0.0</ele>
      </trkpt>
      <trkpt lat="34.52168" lon="-119.40519">
        <ele>0.0</ele>
      </trkpt>
      <trkpt lat="34.52215" lon="-119.40454">
        <ele>0.0</ele>
      </trkpt>
      <trkpt lat="34.52226" lon="-119.40422">
        <ele>0.0</ele>
      </trkpt>
      <trkpt lat="34.5226" lon="-119.4037">
        <ele>0.0</ele>
      </trkpt>
      <trkpt lat="34.52293" lon="-119.4031">
        <ele>0.0</ele>
      </trkpt>
      <trkpt lat="34.52316" lon="-119.40256">
        <ele>0.0</ele>
      </trkpt>
      <trkpt lat="34.52335" lon="-119.4023">
        <ele>0.0</ele>
      </trkpt>
      <trkpt lat="34.52347144149824" lon="-119.4022642819123">
        <ele>0.0</ele>
      </trkpt>
      <trkpt lat="34.52347144153364" lon="-119.4022642819123">
        <ele>0.0</ele>
      </trkpt>
      <trkpt lat="34.52352" lon="-119.40225">
        <ele>0.0</ele>
      </trkpt>
      <trkpt lat="34.52376" lon="-119.40223">
        <ele>0.0</ele>
      </trkpt>
      <trkpt lat="34.52399" lon="-119.40208">
        <ele>0.0</ele>
      </trkpt>
      <trkpt lat="34.52422" lon="-119.40205">
        <ele>0.0</ele>
      </trkpt>
      <trkpt lat="34.52448" lon="-119.40212">
        <ele>0.0</ele>
      </trkpt>
      <trkpt lat="34.52466" lon="-119.40206">
        <ele>0.0</ele>
      </trkpt>
      <trkpt lat="34.52466" lon="-119.40206">
        <ele>0.0</ele>
      </trkpt>
      <trkpt lat="34.52489" lon="-119.40192">
        <ele>0.0</ele>
      </trkpt>
      <trkpt lat="34.52502" lon="-119.40194">
        <ele>0.0</ele>
      </trkpt>
      <trkpt lat="34.52563" lon="-119.40237">
        <ele>0.0</ele>
      </trkpt>
      <trkpt lat="34.52582" lon="-119.40237">
        <ele>0.0</ele>
      </trkpt>
      <trkpt lat="34.52605" lon="-119.40227">
        <ele>0.0</ele>
      </trkpt>
      <trkpt lat="34.52618" lon="-119.40215">
        <ele>0.0</ele>
      </trkpt>
      <trkpt lat="34.5265" lon="-119.402">
        <ele>0.0</ele>
      </trkpt>
      <trkpt lat="34.52746" lon="-119.40142">
        <ele>0.0</ele>
      </trkpt>
      <trkpt lat="34.52766" lon="-119.40134">
        <ele>0.0</ele>
      </trkpt>
      <trkpt lat="34.52794" lon="-119.40135">
        <ele>0.0</ele>
      </trkpt>
      <trkpt lat="34.52809" lon="-119.4013">
        <ele>0.0</ele>
      </trkpt>
      <trkpt lat="34.52829" lon="-119.40138">
        <ele>0.0</ele>
      </trkpt>
      <trkpt lat="34.52988" lon="-119.40081">
        <ele>0.0</ele>
      </trkpt>
      <trkpt lat="34.53034399202383" lon="-119.4009677572881">
        <ele>0.0</ele>
      </trkpt>
      <trkpt lat="34.53034399351716" lon="-119.4009677572881">
        <ele>0.0</ele>
      </trkpt>
      <trkpt lat="34.53088" lon="-119.40115">
        <ele>0.0</ele>
      </trkpt>
      <trkpt lat="34.53103" lon="-119.40159">
        <ele>0.0</ele>
      </trkpt>
      <trkpt lat="34.53123" lon="-119.40172">
        <ele>0.0</ele>
      </trkpt>
      <trkpt lat="34.53152" lon="-119.4024">
        <ele>0.0</ele>
      </trkpt>
      <trkpt lat="34.53167" lon="-119.40267">
        <ele>0.0</ele>
      </trkpt>
      <trkpt lat="34.53165" lon="-119.40291">
        <ele>0.0</ele>
      </trkpt>
      <trkpt lat="34.53197" lon="-119.40315">
        <ele>0.0</ele>
      </trkpt>
      <trkpt lat="34.53238" lon="-119.40339">
        <ele>0.0</ele>
      </trkpt>
      <trkpt lat="34.53285" lon="-119.40348">
        <ele>0.0</ele>
      </trkpt>
      <trkpt lat="34.53313" lon="-119.4034">
        <ele>0.0</ele>
      </trkpt>
      <trkpt lat="34.53338" lon="-119.4035">
        <ele>0.0</ele>
      </trkpt>
      <trkpt lat="34.53362" lon="-119.40347">
        <ele>0.0</ele>
      </trkpt>
      <trkpt lat="34.53405" lon="-119.40369">
        <ele>0.0</ele>
      </trkpt>
      <trkpt lat="34.53442" lon="-119.40372">
        <ele>0.0</ele>
      </trkpt>
      <trkpt lat="34.53496" lon="-119.40357">
        <ele>0.0</ele>
      </trkpt>
      <trkpt lat="34.5354" lon="-119.40352">
        <ele>0.0</ele>
      </trkpt>
      <trkpt lat="34.53556" lon="-119.40361">
        <ele>0.0</ele>
      </trkpt>
      <trkpt lat="34.53579" lon="-119.40367">
        <ele>0.0</ele>
      </trkpt>
      <trkpt lat="34.53593" lon="-119.40391">
        <ele>0.0</ele>
      </trkpt>
      <trkpt lat="34.53613" lon="-119.40398">
        <ele>0.0</ele>
      </trkpt>
      <trkpt lat="34.53638" lon="-119.40398">
        <ele>0.0</ele>
      </trkpt>
      <trkpt lat="34.53664" lon="-119.40404">
        <ele>0.0</ele>
      </trkpt>
      <trkpt lat="34.53701" lon="-119.40402">
        <ele>0.0</ele>
      </trkpt>
      <trkpt lat="34.53742" lon="-119.40383">
        <ele>0.0</ele>
      </trkpt>
      <trkpt lat="34.53743536969196" lon="-119.4038269618051">
        <ele>0.0</ele>
      </trkpt>
      <trkpt lat="34.53743536976991" lon="-119.4038269618051">
        <ele>0.0</ele>
      </trkpt>
      <trkpt lat="34.53828" lon="-119.40366">
        <ele>0.0</ele>
      </trkpt>
      <trkpt lat="34.53851" lon="-119.40375">
        <ele>0.0</ele>
      </trkpt>
      <trkpt lat="34.5386" lon="-119.40392">
        <ele>0.0</ele>
      </trkpt>
      <trkpt lat="34.53870891540851" lon="-119.4039640848082">
        <ele>0.0</ele>
      </trkpt>
      <trkpt lat="34.53870891540851" lon="-119.4039640848082">
        <ele>0.0</ele>
      </trkpt>
      <trkpt lat="34.53902" lon="-119.40409">
        <ele>0.0</ele>
      </trkpt>
      <trkpt lat="34.53924" lon="-119.4043">
        <ele>0.0</ele>
      </trkpt>
      <trkpt lat="34.53942" lon="-119.40414">
        <ele>0.0</ele>
      </trkpt>
      <trkpt lat="34.53951" lon="-119.40381">
        <ele>0.0</ele>
      </trkpt>
      <trkpt lat="34.53976" lon="-119.40377">
        <ele>0.0</ele>
      </trkpt>
      <trkpt lat="34.54008" lon="-119.4039">
        <ele>0.0</ele>
      </trkpt>
      <trkpt lat="34.54037" lon="-119.40407">
        <ele>0.0</ele>
      </trkpt>
      <trkpt lat="34.54049" lon="-119.40455">
        <ele>0.0</ele>
      </trkpt>
      <trkpt lat="34.54044" lon="-119.405">
        <ele>0.0</ele>
      </trkpt>
      <trkpt lat="34.54031" lon="-119.40538">
        <ele>0.0</ele>
      </trkpt>
      <trkpt lat="34.54024" lon="-119.40582">
        <ele>0.0</ele>
      </trkpt>
      <trkpt lat="34.54043" lon="-119.40611">
        <ele>0.0</ele>
      </trkpt>
      <trkpt lat="34.54065" lon="-119.40615">
        <ele>0.0</ele>
      </trkpt>
      <trkpt lat="34.54065" lon="-119.40615">
        <ele>0.0</ele>
      </trkpt>
      <trkpt lat="34.54065" lon="-119.40615">
        <ele>0.0</ele>
      </trkpt>
      <trkpt lat="34.540650000000014" lon="-119.40615">
        <ele>0.0</ele>
      </trkpt>
      <trkpt lat="34.54043" lon="-119.40611">
        <ele>0.0</ele>
      </trkpt>
      <trkpt lat="34.54024" lon="-119.40582">
        <ele>0.0</ele>
      </trkpt>
      <trkpt lat="34.54031" lon="-119.40538">
        <ele>0.0</ele>
      </trkpt>
      <trkpt lat="34.54044" lon="-119.405">
        <ele>0.0</ele>
      </trkpt>
      <trkpt lat="34.54049" lon="-119.40455">
        <ele>0.0</ele>
      </trkpt>
      <trkpt lat="34.54037" lon="-119.40407">
        <ele>0.0</ele>
      </trkpt>
      <trkpt lat="34.54008" lon="-119.4039">
        <ele>0.0</ele>
      </trkpt>
      <trkpt lat="34.53976" lon="-119.40377">
        <ele>0.0</ele>
      </trkpt>
      <trkpt lat="34.53951" lon="-119.40381">
        <ele>0.0</ele>
      </trkpt>
      <trkpt lat="34.53942" lon="-119.40414">
        <ele>0.0</ele>
      </trkpt>
      <trkpt lat="34.53924" lon="-119.4043">
        <ele>0.0</ele>
      </trkpt>
      <trkpt lat="34.53902" lon="-119.40409">
        <ele>0.0</ele>
      </trkpt>
      <trkpt lat="34.53870891540851" lon="-119.4039640848082">
        <ele>0.0</ele>
      </trkpt>
      <trkpt lat="34.53870891540851" lon="-119.4039640848082">
        <ele>0.0</ele>
      </trkpt>
      <trkpt lat="34.5386" lon="-119.40392">
        <ele>0.0</ele>
      </trkpt>
      <trkpt lat="34.53851" lon="-119.40375">
        <ele>0.0</ele>
      </trkpt>
      <trkpt lat="34.53828" lon="-119.40366">
        <ele>0.0</ele>
      </trkpt>
      <trkpt lat="34.53742" lon="-119.40383">
        <ele>0.0</ele>
      </trkpt>
      <trkpt lat="34.53701" lon="-119.40402">
        <ele>0.0</ele>
      </trkpt>
      <trkpt lat="34.53664" lon="-119.40404">
        <ele>0.0</ele>
      </trkpt>
      <trkpt lat="34.53638" lon="-119.40398">
        <ele>0.0</ele>
      </trkpt>
      <trkpt lat="34.53613" lon="-119.40398">
        <ele>0.0</ele>
      </trkpt>
      <trkpt lat="34.53593" lon="-119.40391">
        <ele>0.0</ele>
      </trkpt>
      <trkpt lat="34.53579" lon="-119.40367">
        <ele>0.0</ele>
      </trkpt>
      <trkpt lat="34.53556" lon="-119.40361">
        <ele>0.0</ele>
      </trkpt>
      <trkpt lat="34.5354" lon="-119.40352">
        <ele>0.0</ele>
      </trkpt>
      <trkpt lat="34.53496" lon="-119.40357">
        <ele>0.0</ele>
      </trkpt>
      <trkpt lat="34.53442" lon="-119.40372">
        <ele>0.0</ele>
      </trkpt>
      <trkpt lat="34.53405" lon="-119.40369">
        <ele>0.0</ele>
      </trkpt>
      <trkpt lat="34.53362" lon="-119.40347">
        <ele>0.0</ele>
      </trkpt>
      <trkpt lat="34.53338" lon="-119.4035">
        <ele>0.0</ele>
      </trkpt>
      <trkpt lat="34.53317284840787" lon="-119.4034171393631">
        <ele>0.0</ele>
      </trkpt>
      <trkpt lat="34.53317284846116" lon="-119.4034171393632">
        <ele>0.0</ele>
      </trkpt>
      <trkpt lat="34.53313" lon="-119.4034">
        <ele>0.0</ele>
      </trkpt>
      <trkpt lat="34.53285" lon="-119.40348">
        <ele>0.0</ele>
      </trkpt>
      <trkpt lat="34.53238" lon="-119.40339">
        <ele>0.0</ele>
      </trkpt>
      <trkpt lat="34.53197" lon="-119.40315">
        <ele>0.0</ele>
      </trkpt>
      <trkpt lat="34.53165" lon="-119.40291">
        <ele>0.0</ele>
      </trkpt>
      <trkpt lat="34.53167" lon="-119.40267">
        <ele>0.0</ele>
      </trkpt>
      <trkpt lat="34.53152" lon="-119.4024">
        <ele>0.0</ele>
      </trkpt>
      <trkpt lat="34.53123" lon="-119.40172">
        <ele>0.0</ele>
      </trkpt>
      <trkpt lat="34.53103" lon="-119.40159">
        <ele>0.0</ele>
      </trkpt>
      <trkpt lat="34.53088" lon="-119.40115">
        <ele>0.0</ele>
      </trkpt>
      <trkpt lat="34.52988" lon="-119.40081">
        <ele>0.0</ele>
      </trkpt>
      <trkpt lat="34.52829" lon="-119.40138">
        <ele>0.0</ele>
      </trkpt>
      <trkpt lat="34.52809" lon="-119.4013">
        <ele>0.0</ele>
      </trkpt>
      <trkpt lat="34.52794" lon="-119.40135">
        <ele>0.0</ele>
      </trkpt>
      <trkpt lat="34.52766" lon="-119.40134">
        <ele>0.0</ele>
      </trkpt>
      <trkpt lat="34.52746" lon="-119.40142">
        <ele>0.0</ele>
      </trkpt>
      <trkpt lat="34.5265" lon="-119.402">
        <ele>0.0</ele>
      </trkpt>
      <trkpt lat="34.52618" lon="-119.40215">
        <ele>0.0</ele>
      </trkpt>
      <trkpt lat="34.52605" lon="-119.40227">
        <ele>0.0</ele>
      </trkpt>
      <trkpt lat="34.52582" lon="-119.40237">
        <ele>0.0</ele>
      </trkpt>
      <trkpt lat="34.52565146727775" lon="-119.40237">
        <ele>0.0</ele>
      </trkpt>
      <trkpt lat="34.52565146729948" lon="-119.40237">
        <ele>0.0</ele>
      </trkpt>
      <trkpt lat="34.52563" lon="-119.40237">
        <ele>0.0</ele>
      </trkpt>
      <trkpt lat="34.52502" lon="-119.40194">
        <ele>0.0</ele>
      </trkpt>
      <trkpt lat="34.52489" lon="-119.40192">
        <ele>0.0</ele>
      </trkpt>
      <trkpt lat="34.52466" lon="-119.40206">
        <ele>0.0</ele>
      </trkpt>
      <trkpt lat="34.52466" lon="-119.40206">
        <ele>0.0</ele>
      </trkpt>
      <trkpt lat="34.52448" lon="-119.40212">
        <ele>0.0</ele>
      </trkpt>
      <trkpt lat="34.52422" lon="-119.40205">
        <ele>0.0</ele>
      </trkpt>
      <trkpt lat="34.52399" lon="-119.40208">
        <ele>0.0</ele>
      </trkpt>
      <trkpt lat="34.52376" lon="-119.40223">
        <ele>0.0</ele>
      </trkpt>
      <trkpt lat="34.52352" lon="-119.40225">
        <ele>0.0</ele>
      </trkpt>
      <trkpt lat="34.52335" lon="-119.4023">
        <ele>0.0</ele>
      </trkpt>
      <trkpt lat="34.52316" lon="-119.40256">
        <ele>0.0</ele>
      </trkpt>
      <trkpt lat="34.52293" lon="-119.4031">
        <ele>0.0</ele>
      </trkpt>
      <trkpt lat="34.5226" lon="-119.4037">
        <ele>0.0</ele>
      </trkpt>
      <trkpt lat="34.52226" lon="-119.40422">
        <ele>0.0</ele>
      </trkpt>
      <trkpt lat="34.52215" lon="-119.40454">
        <ele>0.0</ele>
      </trkpt>
      <trkpt lat="34.52168" lon="-119.40519">
        <ele>0.0</ele>
      </trkpt>
      <trkpt lat="34.52154" lon="-119.40553">
        <ele>0.0</ele>
      </trkpt>
      <trkpt lat="34.52119" lon="-119.40565">
        <ele>0.0</ele>
      </trkpt>
      <trkpt lat="34.52094" lon="-119.40563">
        <ele>0.0</ele>
      </trkpt>
      <trkpt lat="34.52074" lon="-119.40569">
        <ele>0.0</ele>
      </trkpt>
      <trkpt lat="34.52064" lon="-119.40585">
        <ele>0.0</ele>
      </trkpt>
      <trkpt lat="34.52061" lon="-119.40609">
        <ele>0.0</ele>
      </trkpt>
      <trkpt lat="34.52054" lon="-119.4063">
        <ele>0.0</ele>
      </trkpt>
      <trkpt lat="34.5202" lon="-119.40664">
        <ele>0.0</ele>
      </trkpt>
      <trkpt lat="34.52001" lon="-119.40723">
        <ele>0.0</ele>
      </trkpt>
      <trkpt lat="34.51971" lon="-119.4073">
        <ele>0.0</ele>
      </trkpt>
      <trkpt lat="34.51939" lon="-119.40752">
        <ele>0.0</ele>
      </trkpt>
      <trkpt lat="34.51915" lon="-119.40755">
        <ele>0.0</ele>
      </trkpt>
      <trkpt lat="34.51886" lon="-119.40747">
        <ele>0.0</ele>
      </trkpt>
      <trkpt lat="34.51841" lon="-119.4074">
        <ele>0.0</ele>
      </trkpt>
      <trkpt lat="34.51815" lon="-119.40729">
        <ele>0.0</ele>
      </trkpt>
      <trkpt lat="34.51792" lon="-119.40729">
        <ele>0.0</ele>
      </trkpt>
      <trkpt lat="34.51777" lon="-119.40737">
        <ele>0.0</ele>
      </trkpt>
      <trkpt lat="34.51757" lon="-119.40758">
        <ele>0.0</ele>
      </trkpt>
      <trkpt lat="34.51725" lon="-119.40722">
        <ele>0.0</ele>
      </trkpt>
      <trkpt lat="34.51713" lon="-119.40697">
        <ele>0.0</ele>
      </trkpt>
      <trkpt lat="34.51708" lon="-119.40677">
        <ele>0.0</ele>
      </trkpt>
      <trkpt lat="34.51685" lon="-119.40635">
        <ele>0.0</ele>
      </trkpt>
      <trkpt lat="34.51685" lon="-119.40622">
        <ele>0.0</ele>
      </trkpt>
      <trkpt lat="34.51688" lon="-119.406">
        <ele>0.0</ele>
      </trkpt>
      <trkpt lat="34.51682" lon="-119.40579">
        <ele>0.0</ele>
      </trkpt>
      <trkpt lat="34.51672" lon="-119.40562">
        <ele>0.0</ele>
      </trkpt>
      <trkpt lat="34.51648" lon="-119.40533">
        <ele>0.0</ele>
      </trkpt>
      <trkpt lat="34.51553" lon="-119.40459">
        <ele>0.0</ele>
      </trkpt>
      <trkpt lat="34.51553" lon="-119.40459">
        <ele>0.0</ele>
      </trkpt>
      <trkpt lat="34.51525" lon="-119.40379">
        <ele>0.0</ele>
      </trkpt>
      <trkpt lat="34.51514" lon="-119.4036">
        <ele>0.0</ele>
      </trkpt>
      <trkpt lat="34.5146" lon="-119.40295">
        <ele>0.0</ele>
      </trkpt>
      <trkpt lat="34.51449" lon="-119.40278">
        <ele>0.0</ele>
      </trkpt>
      <trkpt lat="34.51397" lon="-119.4023">
        <ele>0.0</ele>
      </trkpt>
      <trkpt lat="34.51368" lon="-119.40187">
        <ele>0.0</ele>
      </trkpt>
      <trkpt lat="34.51339" lon="-119.40161">
        <ele>0.0</ele>
      </trkpt>
      <trkpt lat="34.51315" lon="-119.40135">
        <ele>0.0</ele>
      </trkpt>
      <trkpt lat="34.51298903938508" lon="-119.4009407001506">
        <ele>0.0</ele>
      </trkpt>
      <trkpt lat="34.51298903956766" lon="-119.4009407001506">
        <ele>0.0</ele>
      </trkpt>
      <trkpt lat="34.5128" lon="-119.40046">
        <ele>0.0</ele>
      </trkpt>
      <trkpt lat="34.51268" lon="-119.40024">
        <ele>0.0</ele>
      </trkpt>
      <trkpt lat="34.51252" lon="-119.39982">
        <ele>0.0</ele>
      </trkpt>
      <trkpt lat="34.51245" lon="-119.39941">
        <ele>0.0</ele>
      </trkpt>
      <trkpt lat="34.51245" lon="-119.39941">
        <ele>0.0</ele>
      </trkpt>
      <trkpt lat="34.51242" lon="-119.39888">
        <ele>0.0</ele>
      </trkpt>
      <trkpt lat="34.51236" lon="-119.39855">
        <ele>0.0</ele>
      </trkpt>
      <trkpt lat="34.51236" lon="-119.39843">
        <ele>0.0</ele>
      </trkpt>
      <trkpt lat="34.51241" lon="-119.39824">
        <ele>0.0</ele>
      </trkpt>
      <trkpt lat="34.51244" lon="-119.39803">
        <ele>0.0</ele>
      </trkpt>
      <trkpt lat="34.51236" lon="-119.39715">
        <ele>0.0</ele>
      </trkpt>
      <trkpt lat="34.51228" lon="-119.39688">
        <ele>0.0</ele>
      </trkpt>
      <trkpt lat="34.5123" lon="-119.39662">
        <ele>0.0</ele>
      </trkpt>
      <trkpt lat="34.51227" lon="-119.39642">
        <ele>0.0</ele>
      </trkpt>
      <trkpt lat="34.51224" lon="-119.39629">
        <ele>0.0</ele>
      </trkpt>
      <trkpt lat="34.51203" lon="-119.39607">
        <ele>0.0</ele>
      </trkpt>
      <trkpt lat="34.51198" lon="-119.39595">
        <ele>0.0</ele>
      </trkpt>
      <trkpt lat="34.51188" lon="-119.39569">
        <ele>0.0</ele>
      </trkpt>
      <trkpt lat="34.51186" lon="-119.39551">
        <ele>0.0</ele>
      </trkpt>
      <trkpt lat="34.51183" lon="-119.39541">
        <ele>0.0</ele>
      </trkpt>
      <trkpt lat="34.5117" lon="-119.39519">
        <ele>0.0</ele>
      </trkpt>
      <trkpt lat="34.51159" lon="-119.39489">
        <ele>0.0</ele>
      </trkpt>
      <trkpt lat="34.51142825735175" lon="-119.3946820451665">
        <ele>0.0</ele>
      </trkpt>
      <trkpt lat="34.51142825735175" lon="-119.3946820451665">
        <ele>0.0</ele>
      </trkpt>
      <trkpt lat="34.51138" lon="-119.39462">
        <ele>0.0</ele>
      </trkpt>
      <trkpt lat="34.51099" lon="-119.39438">
        <ele>0.0</ele>
      </trkpt>
      <trkpt lat="34.51064" lon="-119.39388">
        <ele>0.0</ele>
      </trkpt>
      <trkpt lat="34.51041" lon="-119.39358">
        <ele>0.0</ele>
      </trkpt>
      <trkpt lat="34.51026" lon="-119.39345">
        <ele>0.0</ele>
      </trkpt>
      <trkpt lat="34.51018156918651" lon="-119.3934058826674">
        <ele>0.0</ele>
      </trkpt>
      <trkpt lat="34.51018156918651" lon="-119.3934058826674">
        <ele>0.0</ele>
      </trkpt>
      <trkpt lat="34.5101" lon="-119.39336">
        <ele>0.0</ele>
      </trkpt>
      <trkpt lat="34.50994" lon="-119.39332">
        <ele>0.0</ele>
      </trkpt>
      <trkpt lat="34.5098" lon="-119.39324">
        <ele>0.0</ele>
      </trkpt>
      <trkpt lat="34.50973" lon="-119.39305">
        <ele>0.0</ele>
      </trkpt>
      <trkpt lat="34.5097" lon="-119.39278">
        <ele>0.0</ele>
      </trkpt>
      <trkpt lat="34.50939" lon="-119.39251">
        <ele>0.0</ele>
      </trkpt>
      <trkpt lat="34.50938078663221" lon="-119.3924800565547">
        <ele>0.0</ele>
      </trkpt>
      <trkpt lat="34.5093807866339" lon="-119.3924800565547">
        <ele>0.0</ele>
      </trkpt>
      <trkpt lat="34.50935" lon="-119.39238">
        <ele>0.0</ele>
      </trkpt>
      <trkpt lat="34.50927" lon="-119.39227">
        <ele>0.0</ele>
      </trkpt>
      <trkpt lat="34.50895" lon="-119.39215">
        <ele>0.0</ele>
      </trkpt>
      <trkpt lat="34.50885" lon="-119.392">
        <ele>0.0</ele>
      </trkpt>
      <trkpt lat="34.50885" lon="-119.392">
        <ele>0.0</ele>
      </trkpt>
      <trkpt lat="34.50888" lon="-119.39194">
        <ele>0.0</ele>
      </trkpt>
      <trkpt lat="34.50888" lon="-119.39178">
        <ele>0.0</ele>
      </trkpt>
      <trkpt lat="34.50883" lon="-119.39139">
        <ele>0.0</ele>
      </trkpt>
      <trkpt lat="34.50878" lon="-119.39119">
        <ele>0.0</ele>
      </trkpt>
      <trkpt lat="34.50864" lon="-119.3909">
        <ele>0.0</ele>
      </trkpt>
      <trkpt lat="34.50857" lon="-119.39068">
        <ele>0.0</ele>
      </trkpt>
      <trkpt lat="34.50852" lon="-119.39026">
        <ele>0.0</ele>
      </trkpt>
      <trkpt lat="34.50854" lon="-119.39013">
        <ele>0.0</ele>
      </trkpt>
      <trkpt lat="34.50869" lon="-119.38966">
        <ele>0.0</ele>
      </trkpt>
      <trkpt lat="34.50890990450414" lon="-119.3894137038327">
        <ele>0.0</ele>
      </trkpt>
      <trkpt lat="34.50890990450414" lon="-119.3894137038327">
        <ele>0.0</ele>
      </trkpt>
      <trkpt lat="34.50894" lon="-119.38938">
        <ele>0.0</ele>
      </trkpt>
      <trkpt lat="34.50908" lon="-119.38917">
        <ele>0.0</ele>
      </trkpt>
      <trkpt lat="34.50909" lon="-119.38901">
        <ele>0.0</ele>
      </trkpt>
      <trkpt lat="34.50898396929077" lon="-119.3885609287609">
        <ele>0.0</ele>
      </trkpt>
      <trkpt lat="34.50898396933146" lon="-119.3885609287609">
        <ele>0.0</ele>
      </trkpt>
      <trkpt lat="34.50892" lon="-119.38829">
        <ele>0.0</ele>
      </trkpt>
      <trkpt lat="34.5089" lon="-119.38784">
        <ele>0.0</ele>
      </trkpt>
      <trkpt lat="34.50894" lon="-119.38769">
        <ele>0.0</ele>
      </trkpt>
      <trkpt lat="34.50908" lon="-119.38742">
        <ele>0.0</ele>
      </trkpt>
      <trkpt lat="34.50917" lon="-119.38722">
        <ele>0.0</ele>
      </trkpt>
      <trkpt lat="34.50919" lon="-119.38677">
        <ele>0.0</ele>
      </trkpt>
      <trkpt lat="34.50913" lon="-119.38638">
        <ele>0.0</ele>
      </trkpt>
      <trkpt lat="34.50909524140002" lon="-119.3862576497281">
        <ele>0.0</ele>
      </trkpt>
      <trkpt lat="34.50909524140002" lon="-119.3862576497281">
        <ele>0.0</ele>
      </trkpt>
      <trkpt lat="34.50888" lon="-119.3855">
        <ele>0.0</ele>
      </trkpt>
      <trkpt lat="34.50883" lon="-119.38506">
        <ele>0.0</ele>
      </trkpt>
      <trkpt lat="34.50873" lon="-119.38475">
        <ele>0.0</ele>
      </trkpt>
      <trkpt lat="34.50862134500824" lon="-119.3845779629297">
        <ele>0.0</ele>
      </trkpt>
      <trkpt lat="34.50862134500824" lon="-119.3845779629297">
        <ele>0.0</ele>
      </trkpt>
      <trkpt lat="34.50849" lon="-119.38437">
        <ele>0.0</ele>
      </trkpt>
      <trkpt lat="34.50844" lon="-119.38424">
        <ele>0.0</ele>
      </trkpt>
      <trkpt lat="34.50841" lon="-119.38394">
        <ele>0.0</ele>
      </trkpt>
      <trkpt lat="34.50831" lon="-119.38374">
        <ele>0.0</ele>
      </trkpt>
      <trkpt lat="34.50831" lon="-119.38374">
        <ele>0.0</ele>
      </trkpt>
      <trkpt lat="34.50823" lon="-119.38363">
        <ele>0.0</ele>
      </trkpt>
      <trkpt lat="34.50787" lon="-119.38355">
        <ele>0.0</ele>
      </trkpt>
      <trkpt lat="34.50773" lon="-119.38349">
        <ele>0.0</ele>
      </trkpt>
      <trkpt lat="34.50751" lon="-119.38328">
        <ele>0.0</ele>
      </trkpt>
      <trkpt lat="34.50741" lon="-119.3831">
        <ele>0.0</ele>
      </trkpt>
      <trkpt lat="34.50707" lon="-119.38205">
        <ele>0.0</ele>
      </trkpt>
      <trkpt lat="34.50709" lon="-119.3819">
        <ele>0.0</ele>
      </trkpt>
      <trkpt lat="34.5073" lon="-119.38149">
        <ele>0.0</ele>
      </trkpt>
      <trkpt lat="34.50731" lon="-119.38127">
        <ele>0.0</ele>
      </trkpt>
      <trkpt lat="34.50729" lon="-119.38117">
        <ele>0.0</ele>
      </trkpt>
      <trkpt lat="34.50698" lon="-119.38041">
        <ele>0.0</ele>
      </trkpt>
      <trkpt lat="34.50695" lon="-119.38028">
        <ele>0.0</ele>
      </trkpt>
      <trkpt lat="34.50694" lon="-119.38006">
        <ele>0.0</ele>
      </trkpt>
      <trkpt lat="34.50686" lon="-119.37987">
        <ele>0.0</ele>
      </trkpt>
      <trkpt lat="34.50665" lon="-119.37958">
        <ele>0.0</ele>
      </trkpt>
      <trkpt lat="34.50656" lon="-119.37934">
        <ele>0.0</ele>
      </trkpt>
      <trkpt lat="34.50656" lon="-119.37934">
        <ele>0.0</ele>
      </trkpt>
      <trkpt lat="34.50645166891004" lon="-119.3790072687951">
        <ele>0.0</ele>
      </trkpt>
      <trkpt lat="34.5064516689306" lon="-119.3790072687951">
        <ele>0.0</ele>
      </trkpt>
      <trkpt lat="34.50642" lon="-119.37891">
        <ele>0.0</ele>
      </trkpt>
      <trkpt lat="34.50642" lon="-119.37891">
        <ele>0.0</ele>
      </trkpt>
      <trkpt lat="34.50612" lon="-119.37824">
        <ele>0.0</ele>
      </trkpt>
      <trkpt lat="34.50597" lon="-119.3778">
        <ele>0.0</ele>
      </trkpt>
      <trkpt lat="34.50575" lon="-119.37744">
        <ele>0.0</ele>
      </trkpt>
      <trkpt lat="34.50575" lon="-119.37744">
        <ele>0.0</ele>
      </trkpt>
      <trkpt lat="34.50552" lon="-119.37704">
        <ele>0.0</ele>
      </trkpt>
      <trkpt lat="34.50538" lon="-119.3764">
        <ele>0.0</ele>
      </trkpt>
      <trkpt lat="34.50506" lon="-119.37544">
        <ele>0.0</ele>
      </trkpt>
      <trkpt lat="34.50505" lon="-119.37507">
        <ele>0.0</ele>
      </trkpt>
      <trkpt lat="34.50510576313515" lon="-119.3748097720359">
        <ele>0.0</ele>
      </trkpt>
    </trkseg>
  </trk>
</gpx>
