<?xml version="1.0" encoding="UTF-8"?>
<gpx xmlns:xsi="http://www.w3.org/2001/XMLSchema-instance" version="1.1" creator="The Outbound Collective, Inc. 1.1.1 -- https://www.theoutbound.com" xsi:schemaLocation="http://www.topografix.com/GPX/1/1 http://www.topografix.com/GPX/1/1/gpx.xsd">
  <metadata>
    <name/>
    <time>2026-02-19T22:00:29+00:00</time>
    <bound minlat="34.23773210274049" minlon="-117.66332" maxlat="34.28911811566174" maxlon="-117.646401449491"/>
  </metadata>
  <trk>
    <name/>
    <trkseg>
      <trkpt lat="34.23773210274049" lon="-117.6579201221466">
        <ele>1307.0</ele>
      </trkpt>
      <trkpt lat="34.23774572686158" lon="-117.6579164977196">
        <ele>1308.0</ele>
      </trkpt>
      <trkpt lat="34.23779" lon="-117.65816">
        <ele>1307.0</ele>
      </trkpt>
      <trkpt lat="34.23794" lon="-117.6586">
        <ele>1312.0</ele>
      </trkpt>
      <trkpt lat="34.23794" lon="-117.65904">
        <ele>1311.0</ele>
      </trkpt>
      <trkpt lat="34.23803" lon="-117.65922">
        <ele>1311.0</ele>
      </trkpt>
      <trkpt lat="34.23826" lon="-117.66006">
        <ele>1322.0</ele>
      </trkpt>
      <trkpt lat="34.23862" lon="-117.66036">
        <ele>1332.0</ele>
      </trkpt>
      <trkpt lat="34.23865" lon="-117.6606">
        <ele>1336.0</ele>
      </trkpt>
      <trkpt lat="34.23864" lon="-117.6608">
        <ele>1340.0</ele>
      </trkpt>
      <trkpt lat="34.23884" lon="-117.66091">
        <ele>1343.0</ele>
      </trkpt>
      <trkpt lat="34.23884" lon="-117.66091">
        <ele>1343.0</ele>
      </trkpt>
      <trkpt lat="34.23924" lon="-117.661">
        <ele>1354.0</ele>
      </trkpt>
      <trkpt lat="34.2395408981383" lon="-117.660736714129">
        <ele>1360.0</ele>
      </trkpt>
      <trkpt lat="34.23954089831543" lon="-117.660736714129">
        <ele>1360.0</ele>
      </trkpt>
      <trkpt lat="34.23964" lon="-117.66065">
        <ele>1363.0</ele>
      </trkpt>
      <trkpt lat="34.24015" lon="-117.6604">
        <ele>1376.0</ele>
      </trkpt>
      <trkpt lat="34.24041" lon="-117.66034">
        <ele>1376.0</ele>
      </trkpt>
      <trkpt lat="34.24086" lon="-117.66051">
        <ele>1387.0</ele>
      </trkpt>
      <trkpt lat="34.24093" lon="-117.6607">
        <ele>1391.0</ele>
      </trkpt>
      <trkpt lat="34.2413" lon="-117.66093">
        <ele>1402.0</ele>
      </trkpt>
      <trkpt lat="34.24157" lon="-117.66115">
        <ele>1406.0</ele>
      </trkpt>
      <trkpt lat="34.2416" lon="-117.66131">
        <ele>1405.0</ele>
      </trkpt>
      <trkpt lat="34.2416" lon="-117.66131">
        <ele>1405.0</ele>
      </trkpt>
      <trkpt lat="34.24165" lon="-117.66152">
        <ele>1405.0</ele>
      </trkpt>
      <trkpt lat="34.24229" lon="-117.66202">
        <ele>1416.0</ele>
      </trkpt>
      <trkpt lat="34.24238" lon="-117.66219">
        <ele>1440.0</ele>
      </trkpt>
      <trkpt lat="34.24252" lon="-117.66208">
        <ele>1444.0</ele>
      </trkpt>
      <trkpt lat="34.24293" lon="-117.66298">
        <ele>1445.0</ele>
      </trkpt>
      <trkpt lat="34.24316" lon="-117.66332">
        <ele>1451.0</ele>
      </trkpt>
      <trkpt lat="34.24332" lon="-117.66322">
        <ele>1458.0</ele>
      </trkpt>
      <trkpt lat="34.24327" lon="-117.66311">
        <ele>1461.0</ele>
      </trkpt>
      <trkpt lat="34.24334" lon="-117.66294">
        <ele>1461.0</ele>
      </trkpt>
      <trkpt lat="34.24324" lon="-117.66232">
        <ele>1484.0</ele>
      </trkpt>
      <trkpt lat="34.2433" lon="-117.66235">
        <ele>1484.0</ele>
      </trkpt>
      <trkpt lat="34.2434" lon="-117.66249">
        <ele>1480.0</ele>
      </trkpt>
      <trkpt lat="34.2437" lon="-117.6619">
        <ele>1496.0</ele>
      </trkpt>
      <trkpt lat="34.244" lon="-117.66155">
        <ele>1507.0</ele>
      </trkpt>
      <trkpt lat="34.24484" lon="-117.66107">
        <ele>1529.0</ele>
      </trkpt>
      <trkpt lat="34.24514" lon="-117.66087">
        <ele>1524.0</ele>
      </trkpt>
      <trkpt lat="34.24524" lon="-117.6607">
        <ele>1524.0</ele>
      </trkpt>
      <trkpt lat="34.24524" lon="-117.66034">
        <ele>1543.0</ele>
      </trkpt>
      <trkpt lat="34.24505" lon="-117.66059">
        <ele>1540.0</ele>
      </trkpt>
      <trkpt lat="34.24484" lon="-117.66073">
        <ele>1538.0</ele>
      </trkpt>
      <trkpt lat="34.24383" lon="-117.66085">
        <ele>1547.0</ele>
      </trkpt>
      <trkpt lat="34.24357" lon="-117.66094">
        <ele>1547.0</ele>
      </trkpt>
      <trkpt lat="34.24349" lon="-117.66042">
        <ele>1552.0</ele>
      </trkpt>
      <trkpt lat="34.24356" lon="-117.66013">
        <ele>1568.0</ele>
      </trkpt>
      <trkpt lat="34.24357" lon="-117.6598">
        <ele>1566.0</ele>
      </trkpt>
      <trkpt lat="34.2438" lon="-117.65939">
        <ele>1584.0</ele>
      </trkpt>
      <trkpt lat="34.24382" lon="-117.65946">
        <ele>1584.0</ele>
      </trkpt>
      <trkpt lat="34.24375" lon="-117.65974">
        <ele>1566.0</ele>
      </trkpt>
      <trkpt lat="34.24378" lon="-117.65999">
        <ele>1575.0</ele>
      </trkpt>
      <trkpt lat="34.24385" lon="-117.66021">
        <ele>1572.0</ele>
      </trkpt>
      <trkpt lat="34.24399" lon="-117.66019">
        <ele>1572.0</ele>
      </trkpt>
      <trkpt lat="34.24437" lon="-117.66004">
        <ele>1574.0</ele>
      </trkpt>
      <trkpt lat="34.2445" lon="-117.65993">
        <ele>1574.0</ele>
      </trkpt>
      <trkpt lat="34.24485" lon="-117.6587">
        <ele>1623.0</ele>
      </trkpt>
      <trkpt lat="34.245" lon="-117.65789">
        <ele>1634.0</ele>
      </trkpt>
      <trkpt lat="34.24521" lon="-117.6572">
        <ele>1645.0</ele>
      </trkpt>
      <trkpt lat="34.24584" lon="-117.65635">
        <ele>1654.0</ele>
      </trkpt>
      <trkpt lat="34.24617" lon="-117.65573">
        <ele>1662.0</ele>
      </trkpt>
      <trkpt lat="34.24653" lon="-117.65518">
        <ele>1655.0</ele>
      </trkpt>
      <trkpt lat="34.24689" lon="-117.6548">
        <ele>1664.0</ele>
      </trkpt>
      <trkpt lat="34.24701" lon="-117.65462">
        <ele>1664.0</ele>
      </trkpt>
      <trkpt lat="34.24728" lon="-117.6546">
        <ele>1665.0</ele>
      </trkpt>
      <trkpt lat="34.2476" lon="-117.65422">
        <ele>1682.0</ele>
      </trkpt>
      <trkpt lat="34.24768" lon="-117.65395">
        <ele>1686.0</ele>
      </trkpt>
      <trkpt lat="34.24783" lon="-117.65379">
        <ele>1686.0</ele>
      </trkpt>
      <trkpt lat="34.24803" lon="-117.65368">
        <ele>1692.0</ele>
      </trkpt>
      <trkpt lat="34.2481" lon="-117.65368">
        <ele>1692.0</ele>
      </trkpt>
      <trkpt lat="34.24816" lon="-117.65365">
        <ele>1692.0</ele>
      </trkpt>
      <trkpt lat="34.24848" lon="-117.65371">
        <ele>1711.0</ele>
      </trkpt>
      <trkpt lat="34.24856" lon="-117.6538">
        <ele>1712.0</ele>
      </trkpt>
      <trkpt lat="34.24863" lon="-117.65378">
        <ele>1712.0</ele>
      </trkpt>
      <trkpt lat="34.24859" lon="-117.65397">
        <ele>1712.0</ele>
      </trkpt>
      <trkpt lat="34.24843" lon="-117.65426">
        <ele>1699.0</ele>
      </trkpt>
      <trkpt lat="34.24837" lon="-117.65446">
        <ele>1701.0</ele>
      </trkpt>
      <trkpt lat="34.24839" lon="-117.65446">
        <ele>1701.0</ele>
      </trkpt>
      <trkpt lat="34.24849" lon="-117.65435">
        <ele>1720.0</ele>
      </trkpt>
      <trkpt lat="34.24861" lon="-117.65431">
        <ele>1720.0</ele>
      </trkpt>
      <trkpt lat="34.24874" lon="-117.65421">
        <ele>1714.0</ele>
      </trkpt>
      <trkpt lat="34.24899" lon="-117.65413">
        <ele>1728.0</ele>
      </trkpt>
      <trkpt lat="34.24907" lon="-117.65414">
        <ele>1740.0</ele>
      </trkpt>
      <trkpt lat="34.24915" lon="-117.65409">
        <ele>1740.0</ele>
      </trkpt>
      <trkpt lat="34.2493" lon="-117.65392">
        <ele>1733.0</ele>
      </trkpt>
      <trkpt lat="34.24941" lon="-117.65374">
        <ele>1743.0</ele>
      </trkpt>
      <trkpt lat="34.24937" lon="-117.65412">
        <ele>1758.0</ele>
      </trkpt>
      <trkpt lat="34.24957" lon="-117.65387">
        <ele>1748.0</ele>
      </trkpt>
      <trkpt lat="34.24974" lon="-117.65381">
        <ele>1769.0</ele>
      </trkpt>
      <trkpt lat="34.25002" lon="-117.65376">
        <ele>1787.0</ele>
      </trkpt>
      <trkpt lat="34.24992" lon="-117.65392">
        <ele>1787.0</ele>
      </trkpt>
      <trkpt lat="34.24995" lon="-117.65393">
        <ele>1787.0</ele>
      </trkpt>
      <trkpt lat="34.25018" lon="-117.65386">
        <ele>1801.0</ele>
      </trkpt>
      <trkpt lat="34.25042" lon="-117.65387">
        <ele>1813.0</ele>
      </trkpt>
      <trkpt lat="34.25043" lon="-117.65389">
        <ele>1813.0</ele>
      </trkpt>
      <trkpt lat="34.25029" lon="-117.65406">
        <ele>1813.0</ele>
      </trkpt>
      <trkpt lat="34.25008" lon="-117.65425">
        <ele>1798.0</ele>
      </trkpt>
      <trkpt lat="34.25022" lon="-117.65428">
        <ele>1813.0</ele>
      </trkpt>
      <trkpt lat="34.25056" lon="-117.65428">
        <ele>1825.0</ele>
      </trkpt>
      <trkpt lat="34.251" lon="-117.6544">
        <ele>1846.0</ele>
      </trkpt>
      <trkpt lat="34.251" lon="-117.65443">
        <ele>1846.0</ele>
      </trkpt>
      <trkpt lat="34.2507" lon="-117.6546">
        <ele>1853.0</ele>
      </trkpt>
      <trkpt lat="34.25053" lon="-117.65477">
        <ele>1846.0</ele>
      </trkpt>
      <trkpt lat="34.25041" lon="-117.65521">
        <ele>1842.0</ele>
      </trkpt>
      <trkpt lat="34.2504" lon="-117.65535">
        <ele>1842.0</ele>
      </trkpt>
      <trkpt lat="34.25043" lon="-117.65541">
        <ele>1859.0</ele>
      </trkpt>
      <trkpt lat="34.25053" lon="-117.65525">
        <ele>1859.0</ele>
      </trkpt>
      <trkpt lat="34.25098" lon="-117.65504">
        <ele>1873.0</ele>
      </trkpt>
      <trkpt lat="34.25136021316209" lon="-117.6549933071555">
        <ele>1886.0</ele>
      </trkpt>
      <trkpt lat="34.25136021359085" lon="-117.6549933071555">
        <ele>1886.0</ele>
      </trkpt>
      <trkpt lat="34.25155" lon="-117.65497">
        <ele>1899.0</ele>
      </trkpt>
      <trkpt lat="34.25182" lon="-117.65483">
        <ele>1897.0</ele>
      </trkpt>
      <trkpt lat="34.25196" lon="-117.65479">
        <ele>1897.0</ele>
      </trkpt>
      <trkpt lat="34.25228" lon="-117.65478">
        <ele>1912.0</ele>
      </trkpt>
      <trkpt lat="34.25237" lon="-117.65475">
        <ele>1926.0</ele>
      </trkpt>
      <trkpt lat="34.25242" lon="-117.65469">
        <ele>1926.0</ele>
      </trkpt>
      <trkpt lat="34.25243" lon="-117.65474">
        <ele>1926.0</ele>
      </trkpt>
      <trkpt lat="34.25237" lon="-117.6549">
        <ele>1936.0</ele>
      </trkpt>
      <trkpt lat="34.25212" lon="-117.65509">
        <ele>1921.0</ele>
      </trkpt>
      <trkpt lat="34.25251" lon="-117.65509">
        <ele>1936.0</ele>
      </trkpt>
      <trkpt lat="34.25268" lon="-117.65495">
        <ele>1951.0</ele>
      </trkpt>
      <trkpt lat="34.25268" lon="-117.65495">
        <ele>1951.0</ele>
      </trkpt>
      <trkpt lat="34.25284" lon="-117.65477">
        <ele>1943.0</ele>
      </trkpt>
      <trkpt lat="34.25285" lon="-117.65479">
        <ele>1943.0</ele>
      </trkpt>
      <trkpt lat="34.25281" lon="-117.65497">
        <ele>1951.0</ele>
      </trkpt>
      <trkpt lat="34.2528" lon="-117.65514">
        <ele>1964.0</ele>
      </trkpt>
      <trkpt lat="34.25271" lon="-117.65534">
        <ele>1964.0</ele>
      </trkpt>
      <trkpt lat="34.25271" lon="-117.65543">
        <ele>1976.0</ele>
      </trkpt>
      <trkpt lat="34.25268" lon="-117.65545">
        <ele>1976.0</ele>
      </trkpt>
      <trkpt lat="34.25268" lon="-117.65545">
        <ele>1976.0</ele>
      </trkpt>
      <trkpt lat="34.25254" lon="-117.65559">
        <ele>1960.0</ele>
      </trkpt>
      <trkpt lat="34.25257" lon="-117.65561">
        <ele>1960.0</ele>
      </trkpt>
      <trkpt lat="34.25268" lon="-117.65559">
        <ele>1976.0</ele>
      </trkpt>
      <trkpt lat="34.25268" lon="-117.65559">
        <ele>1976.0</ele>
      </trkpt>
      <trkpt lat="34.25284" lon="-117.65558">
        <ele>1976.0</ele>
      </trkpt>
      <trkpt lat="34.25317" lon="-117.65544">
        <ele>1984.0</ele>
      </trkpt>
      <trkpt lat="34.25316" lon="-117.65563">
        <ele>1984.0</ele>
      </trkpt>
      <trkpt lat="34.25305" lon="-117.65595">
        <ele>1993.0</ele>
      </trkpt>
      <trkpt lat="34.25301" lon="-117.65599">
        <ele>2002.0</ele>
      </trkpt>
      <trkpt lat="34.25301" lon="-117.65604">
        <ele>2002.0</ele>
      </trkpt>
      <trkpt lat="34.25326" lon="-117.6559">
        <ele>2009.0</ele>
      </trkpt>
      <trkpt lat="34.25352" lon="-117.65568">
        <ele>2018.0</ele>
      </trkpt>
      <trkpt lat="34.25358" lon="-117.65565">
        <ele>2018.0</ele>
      </trkpt>
      <trkpt lat="34.25369" lon="-117.6555">
        <ele>2018.0</ele>
      </trkpt>
      <trkpt lat="34.25379" lon="-117.65545">
        <ele>2037.0</ele>
      </trkpt>
      <trkpt lat="34.25386" lon="-117.65536">
        <ele>2029.0</ele>
      </trkpt>
      <trkpt lat="34.25398" lon="-117.6553">
        <ele>2029.0</ele>
      </trkpt>
      <trkpt lat="34.25415" lon="-117.6553">
        <ele>2031.0</ele>
      </trkpt>
      <trkpt lat="34.25421" lon="-117.65533">
        <ele>2031.0</ele>
      </trkpt>
      <trkpt lat="34.25434" lon="-117.65556">
        <ele>2046.0</ele>
      </trkpt>
      <trkpt lat="34.25418" lon="-117.65555">
        <ele>2044.0</ele>
      </trkpt>
      <trkpt lat="34.25408" lon="-117.65565">
        <ele>2044.0</ele>
      </trkpt>
      <trkpt lat="34.25405" lon="-117.65577">
        <ele>2056.0</ele>
      </trkpt>
      <trkpt lat="34.25416" lon="-117.65573">
        <ele>2056.0</ele>
      </trkpt>
      <trkpt lat="34.25424" lon="-117.65575">
        <ele>2056.0</ele>
      </trkpt>
      <trkpt lat="34.25441" lon="-117.65591">
        <ele>2062.0</ele>
      </trkpt>
      <trkpt lat="34.25442" lon="-117.65597">
        <ele>2062.0</ele>
      </trkpt>
      <trkpt lat="34.25434" lon="-117.65602">
        <ele>2075.0</ele>
      </trkpt>
      <trkpt lat="34.25431" lon="-117.6561">
        <ele>2075.0</ele>
      </trkpt>
      <trkpt lat="34.25431" lon="-117.65613">
        <ele>2075.0</ele>
      </trkpt>
      <trkpt lat="34.25435" lon="-117.65617">
        <ele>2075.0</ele>
      </trkpt>
      <trkpt lat="34.25436" lon="-117.65631">
        <ele>2086.0</ele>
      </trkpt>
      <trkpt lat="34.25448" lon="-117.65637">
        <ele>2086.0</ele>
      </trkpt>
      <trkpt lat="34.25453" lon="-117.65644">
        <ele>2086.0</ele>
      </trkpt>
      <trkpt lat="34.25462" lon="-117.65647">
        <ele>2091.0</ele>
      </trkpt>
      <trkpt lat="34.25476" lon="-117.65665">
        <ele>2101.0</ele>
      </trkpt>
      <trkpt lat="34.25485" lon="-117.65704">
        <ele>2106.0</ele>
      </trkpt>
      <trkpt lat="34.25491" lon="-117.65718">
        <ele>2122.0</ele>
      </trkpt>
      <trkpt lat="34.2549" lon="-117.65725">
        <ele>2122.0</ele>
      </trkpt>
      <trkpt lat="34.25501" lon="-117.65737">
        <ele>2120.0</ele>
      </trkpt>
      <trkpt lat="34.25504" lon="-117.65737">
        <ele>2120.0</ele>
      </trkpt>
      <trkpt lat="34.25505" lon="-117.65731">
        <ele>2122.0</ele>
      </trkpt>
      <trkpt lat="34.2551" lon="-117.65725">
        <ele>2122.0</ele>
      </trkpt>
      <trkpt lat="34.25519" lon="-117.65738">
        <ele>2131.0</ele>
      </trkpt>
      <trkpt lat="34.25525" lon="-117.65736">
        <ele>2132.0</ele>
      </trkpt>
      <trkpt lat="34.25532" lon="-117.65725">
        <ele>2132.0</ele>
      </trkpt>
      <trkpt lat="34.25534" lon="-117.65714">
        <ele>2132.0</ele>
      </trkpt>
      <trkpt lat="34.25541" lon="-117.65715">
        <ele>2132.0</ele>
      </trkpt>
      <trkpt lat="34.25548" lon="-117.65727">
        <ele>2141.0</ele>
      </trkpt>
      <trkpt lat="34.25567" lon="-117.65709">
        <ele>2141.0</ele>
      </trkpt>
      <trkpt lat="34.25584" lon="-117.65701">
        <ele>2148.0</ele>
      </trkpt>
      <trkpt lat="34.25588" lon="-117.65713">
        <ele>2151.0</ele>
      </trkpt>
      <trkpt lat="34.25591" lon="-117.65713">
        <ele>2151.0</ele>
      </trkpt>
      <trkpt lat="34.25597" lon="-117.65708">
        <ele>2148.0</ele>
      </trkpt>
      <trkpt lat="34.2562" lon="-117.65722">
        <ele>2163.0</ele>
      </trkpt>
      <trkpt lat="34.25646" lon="-117.65718">
        <ele>2178.0</ele>
      </trkpt>
      <trkpt lat="34.25655" lon="-117.65729">
        <ele>2187.0</ele>
      </trkpt>
      <trkpt lat="34.25656" lon="-117.65725">
        <ele>2187.0</ele>
      </trkpt>
      <trkpt lat="34.25667" lon="-117.65732">
        <ele>2187.0</ele>
      </trkpt>
      <trkpt lat="34.25671" lon="-117.65723">
        <ele>2187.0</ele>
      </trkpt>
      <trkpt lat="34.25681" lon="-117.65723">
        <ele>2196.0</ele>
      </trkpt>
      <trkpt lat="34.25682" lon="-117.65725">
        <ele>2196.0</ele>
      </trkpt>
      <trkpt lat="34.25678" lon="-117.65739">
        <ele>2188.0</ele>
      </trkpt>
      <trkpt lat="34.25682" lon="-117.65743">
        <ele>2201.0</ele>
      </trkpt>
      <trkpt lat="34.25684" lon="-117.65752">
        <ele>2201.0</ele>
      </trkpt>
      <trkpt lat="34.25687" lon="-117.65754">
        <ele>2201.0</ele>
      </trkpt>
      <trkpt lat="34.25697" lon="-117.65744">
        <ele>2201.0</ele>
      </trkpt>
      <trkpt lat="34.25704" lon="-117.65742">
        <ele>2201.0</ele>
      </trkpt>
      <trkpt lat="34.25716" lon="-117.65744">
        <ele>2217.0</ele>
      </trkpt>
      <trkpt lat="34.25722" lon="-117.65768">
        <ele>2225.0</ele>
      </trkpt>
      <trkpt lat="34.25738" lon="-117.65789">
        <ele>2239.0</ele>
      </trkpt>
      <trkpt lat="34.25744" lon="-117.65791">
        <ele>2239.0</ele>
      </trkpt>
      <trkpt lat="34.25746" lon="-117.65781">
        <ele>2239.0</ele>
      </trkpt>
      <trkpt lat="34.25761" lon="-117.65761">
        <ele>2231.0</ele>
      </trkpt>
      <trkpt lat="34.25766" lon="-117.65759">
        <ele>2245.0</ele>
      </trkpt>
      <trkpt lat="34.25769" lon="-117.65762">
        <ele>2245.0</ele>
      </trkpt>
      <trkpt lat="34.25786" lon="-117.65779">
        <ele>2248.0</ele>
      </trkpt>
      <trkpt lat="34.25788" lon="-117.65778">
        <ele>2248.0</ele>
      </trkpt>
      <trkpt lat="34.25792" lon="-117.65772">
        <ele>2254.0</ele>
      </trkpt>
      <trkpt lat="34.25794" lon="-117.65752">
        <ele>2259.0</ele>
      </trkpt>
      <trkpt lat="34.25798" lon="-117.65748">
        <ele>2259.0</ele>
      </trkpt>
      <trkpt lat="34.25822" lon="-117.65746">
        <ele>2266.0</ele>
      </trkpt>
      <trkpt lat="34.25845" lon="-117.65739">
        <ele>2266.0</ele>
      </trkpt>
      <trkpt lat="34.25851" lon="-117.65732">
        <ele>2271.0</ele>
      </trkpt>
      <trkpt lat="34.25866" lon="-117.65721">
        <ele>2271.0</ele>
      </trkpt>
      <trkpt lat="34.25874" lon="-117.65707">
        <ele>2271.0</ele>
      </trkpt>
      <trkpt lat="34.25893" lon="-117.65709">
        <ele>2271.0</ele>
      </trkpt>
      <trkpt lat="34.25897" lon="-117.65712">
        <ele>2271.0</ele>
      </trkpt>
      <trkpt lat="34.25902" lon="-117.65705">
        <ele>2277.0</ele>
      </trkpt>
      <trkpt lat="34.25915" lon="-117.65701">
        <ele>2284.0</ele>
      </trkpt>
      <trkpt lat="34.25919" lon="-117.65697">
        <ele>2284.0</ele>
      </trkpt>
      <trkpt lat="34.25909" lon="-117.65685">
        <ele>2284.0</ele>
      </trkpt>
      <trkpt lat="34.25906" lon="-117.65673">
        <ele>2286.0</ele>
      </trkpt>
      <trkpt lat="34.25912" lon="-117.65672">
        <ele>2286.0</ele>
      </trkpt>
      <trkpt lat="34.25915" lon="-117.65666">
        <ele>2286.0</ele>
      </trkpt>
      <trkpt lat="34.2592" lon="-117.65664">
        <ele>2286.0</ele>
      </trkpt>
      <trkpt lat="34.25921" lon="-117.65655">
        <ele>2286.0</ele>
      </trkpt>
      <trkpt lat="34.25954" lon="-117.65631">
        <ele>2296.0</ele>
      </trkpt>
      <trkpt lat="34.25979" lon="-117.65617">
        <ele>2297.0</ele>
      </trkpt>
      <trkpt lat="34.25989" lon="-117.65607">
        <ele>2303.0</ele>
      </trkpt>
      <trkpt lat="34.25994" lon="-117.6561">
        <ele>2303.0</ele>
      </trkpt>
      <trkpt lat="34.26013" lon="-117.65609">
        <ele>2303.0</ele>
      </trkpt>
      <trkpt lat="34.26035" lon="-117.65612">
        <ele>2311.0</ele>
      </trkpt>
      <trkpt lat="34.26053" lon="-117.65619">
        <ele>2319.0</ele>
      </trkpt>
      <trkpt lat="34.26064" lon="-117.65615">
        <ele>2319.0</ele>
      </trkpt>
      <trkpt lat="34.26077" lon="-117.6562">
        <ele>2329.0</ele>
      </trkpt>
      <trkpt lat="34.26082" lon="-117.65626">
        <ele>2320.0</ele>
      </trkpt>
      <trkpt lat="34.26094" lon="-117.65629">
        <ele>2320.0</ele>
      </trkpt>
      <trkpt lat="34.26099" lon="-117.65626">
        <ele>2334.0</ele>
      </trkpt>
      <trkpt lat="34.26113" lon="-117.65633">
        <ele>2334.0</ele>
      </trkpt>
      <trkpt lat="34.26116" lon="-117.65633">
        <ele>2334.0</ele>
      </trkpt>
      <trkpt lat="34.26114" lon="-117.65626">
        <ele>2334.0</ele>
      </trkpt>
      <trkpt lat="34.26116" lon="-117.65625">
        <ele>2342.0</ele>
      </trkpt>
      <trkpt lat="34.26138" lon="-117.65625">
        <ele>2353.0</ele>
      </trkpt>
      <trkpt lat="34.26171" lon="-117.65634">
        <ele>2350.0</ele>
      </trkpt>
      <trkpt lat="34.26216" lon="-117.65628">
        <ele>2355.0</ele>
      </trkpt>
      <trkpt lat="34.26222" lon="-117.6563">
        <ele>2355.0</ele>
      </trkpt>
      <trkpt lat="34.26224" lon="-117.65634">
        <ele>2355.0</ele>
      </trkpt>
      <trkpt lat="34.26235" lon="-117.65636">
        <ele>2355.0</ele>
      </trkpt>
      <trkpt lat="34.26264" lon="-117.65634">
        <ele>2365.0</ele>
      </trkpt>
      <trkpt lat="34.26269" lon="-117.65639">
        <ele>2365.0</ele>
      </trkpt>
      <trkpt lat="34.26284" lon="-117.65637">
        <ele>2365.0</ele>
      </trkpt>
      <trkpt lat="34.26303" lon="-117.65659">
        <ele>2366.0</ele>
      </trkpt>
      <trkpt lat="34.26387" lon="-117.65697">
        <ele>2381.0</ele>
      </trkpt>
      <trkpt lat="34.26392" lon="-117.65702">
        <ele>2381.0</ele>
      </trkpt>
      <trkpt lat="34.26407" lon="-117.65732">
        <ele>2391.0</ele>
      </trkpt>
      <trkpt lat="34.26414" lon="-117.6574">
        <ele>2392.0</ele>
      </trkpt>
      <trkpt lat="34.26417" lon="-117.6574">
        <ele>2392.0</ele>
      </trkpt>
      <trkpt lat="34.26424" lon="-117.65724">
        <ele>2391.0</ele>
      </trkpt>
      <trkpt lat="34.26437" lon="-117.65717">
        <ele>2401.0</ele>
      </trkpt>
      <trkpt lat="34.26484" lon="-117.6577">
        <ele>2419.0</ele>
      </trkpt>
      <trkpt lat="34.26497" lon="-117.65777">
        <ele>2429.0</ele>
      </trkpt>
      <trkpt lat="34.26496" lon="-117.65767">
        <ele>2429.0</ele>
      </trkpt>
      <trkpt lat="34.26498" lon="-117.65764">
        <ele>2429.0</ele>
      </trkpt>
      <trkpt lat="34.26511" lon="-117.65752">
        <ele>2427.0</ele>
      </trkpt>
      <trkpt lat="34.26518" lon="-117.65765">
        <ele>2442.0</ele>
      </trkpt>
      <trkpt lat="34.26522" lon="-117.65766">
        <ele>2442.0</ele>
      </trkpt>
      <trkpt lat="34.26526" lon="-117.65764">
        <ele>2442.0</ele>
      </trkpt>
      <trkpt lat="34.26528" lon="-117.65758">
        <ele>2437.0</ele>
      </trkpt>
      <trkpt lat="34.26534" lon="-117.65752">
        <ele>2437.0</ele>
      </trkpt>
      <trkpt lat="34.26539" lon="-117.6576">
        <ele>2437.0</ele>
      </trkpt>
      <trkpt lat="34.26542" lon="-117.65756">
        <ele>2449.0</ele>
      </trkpt>
      <trkpt lat="34.26548" lon="-117.65757">
        <ele>2449.0</ele>
      </trkpt>
      <trkpt lat="34.26557" lon="-117.65747">
        <ele>2449.0</ele>
      </trkpt>
      <trkpt lat="34.26558" lon="-117.65752">
        <ele>2449.0</ele>
      </trkpt>
      <trkpt lat="34.26565" lon="-117.65752">
        <ele>2449.0</ele>
      </trkpt>
      <trkpt lat="34.26573" lon="-117.65747">
        <ele>2467.0</ele>
      </trkpt>
      <trkpt lat="34.26579" lon="-117.65764">
        <ele>2469.0</ele>
      </trkpt>
      <trkpt lat="34.26583" lon="-117.65767">
        <ele>2469.0</ele>
      </trkpt>
      <trkpt lat="34.26587" lon="-117.65766">
        <ele>2469.0</ele>
      </trkpt>
      <trkpt lat="34.26593" lon="-117.65756">
        <ele>2467.0</ele>
      </trkpt>
      <trkpt lat="34.26598" lon="-117.65756">
        <ele>2481.0</ele>
      </trkpt>
      <trkpt lat="34.26608" lon="-117.65775">
        <ele>2484.0</ele>
      </trkpt>
      <trkpt lat="34.26613" lon="-117.65775">
        <ele>2484.0</ele>
      </trkpt>
      <trkpt lat="34.26613" lon="-117.65765">
        <ele>2484.0</ele>
      </trkpt>
      <trkpt lat="34.26621" lon="-117.65757">
        <ele>2481.0</ele>
      </trkpt>
      <trkpt lat="34.26628" lon="-117.65755">
        <ele>2492.0</ele>
      </trkpt>
      <trkpt lat="34.26658" lon="-117.65764">
        <ele>2504.0</ele>
      </trkpt>
      <trkpt lat="34.26668669023294" lon="-117.6577374128214">
        <ele>2504.0</ele>
      </trkpt>
      <trkpt lat="34.26668669031115" lon="-117.6577374128214">
        <ele>2504.0</ele>
      </trkpt>
      <trkpt lat="34.26681" lon="-117.65785">
        <ele>2511.0</ele>
      </trkpt>
      <trkpt lat="34.267" lon="-117.65787">
        <ele>2511.0</ele>
      </trkpt>
      <trkpt lat="34.26778" lon="-117.65784">
        <ele>2535.0</ele>
      </trkpt>
      <trkpt lat="34.26791" lon="-117.65776">
        <ele>2535.0</ele>
      </trkpt>
      <trkpt lat="34.26825" lon="-117.65773">
        <ele>2543.0</ele>
      </trkpt>
      <trkpt lat="34.2683" lon="-117.65776">
        <ele>2543.0</ele>
      </trkpt>
      <trkpt lat="34.26839" lon="-117.65777">
        <ele>2543.0</ele>
      </trkpt>
      <trkpt lat="34.26856" lon="-117.65773">
        <ele>2540.0</ele>
      </trkpt>
      <trkpt lat="34.26911" lon="-117.6578">
        <ele>2552.0</ele>
      </trkpt>
      <trkpt lat="34.26976" lon="-117.65761">
        <ele>2563.0</ele>
      </trkpt>
      <trkpt lat="34.27017" lon="-117.65745">
        <ele>2590.0</ele>
      </trkpt>
      <trkpt lat="34.27044" lon="-117.65745">
        <ele>2598.0</ele>
      </trkpt>
      <trkpt lat="34.27056" lon="-117.65747">
        <ele>2598.0</ele>
      </trkpt>
      <trkpt lat="34.2706" lon="-117.65723">
        <ele>2599.0</ele>
      </trkpt>
      <trkpt lat="34.27084" lon="-117.65697">
        <ele>2607.0</ele>
      </trkpt>
      <trkpt lat="34.27084" lon="-117.65697">
        <ele>2607.0</ele>
      </trkpt>
      <trkpt lat="34.27086" lon="-117.65695">
        <ele>2607.0</ele>
      </trkpt>
      <trkpt lat="34.27138" lon="-117.65684">
        <ele>2625.0</ele>
      </trkpt>
      <trkpt lat="34.27151" lon="-117.65673">
        <ele>2635.0</ele>
      </trkpt>
      <trkpt lat="34.27159" lon="-117.65645">
        <ele>2663.0</ele>
      </trkpt>
      <trkpt lat="34.27159" lon="-117.65608">
        <ele>2670.0</ele>
      </trkpt>
      <trkpt lat="34.27152" lon="-117.6559">
        <ele>2656.0</ele>
      </trkpt>
      <trkpt lat="34.27158" lon="-117.65585">
        <ele>2671.0</ele>
      </trkpt>
      <trkpt lat="34.27166" lon="-117.65591">
        <ele>2671.0</ele>
      </trkpt>
      <trkpt lat="34.27167" lon="-117.65583">
        <ele>2671.0</ele>
      </trkpt>
      <trkpt lat="34.27154" lon="-117.65568">
        <ele>2677.0</ele>
      </trkpt>
      <trkpt lat="34.27155" lon="-117.65503">
        <ele>2682.0</ele>
      </trkpt>
      <trkpt lat="34.27151" lon="-117.65485">
        <ele>2676.0</ele>
      </trkpt>
      <trkpt lat="34.2716" lon="-117.65483">
        <ele>2682.0</ele>
      </trkpt>
      <trkpt lat="34.27189" lon="-117.65504">
        <ele>2694.0</ele>
      </trkpt>
      <trkpt lat="34.27197" lon="-117.65482">
        <ele>2691.0</ele>
      </trkpt>
      <trkpt lat="34.27248" lon="-117.65504">
        <ele>2725.0</ele>
      </trkpt>
      <trkpt lat="34.27259" lon="-117.65501">
        <ele>2725.0</ele>
      </trkpt>
      <trkpt lat="34.27291" lon="-117.65507">
        <ele>2732.0</ele>
      </trkpt>
      <trkpt lat="34.27304" lon="-117.65496">
        <ele>2732.0</ele>
      </trkpt>
      <trkpt lat="34.27348" lon="-117.65506">
        <ele>2728.0</ele>
      </trkpt>
      <trkpt lat="34.27389" lon="-117.6552">
        <ele>2737.0</ele>
      </trkpt>
      <trkpt lat="34.27429" lon="-117.6552">
        <ele>2746.0</ele>
      </trkpt>
      <trkpt lat="34.27439" lon="-117.65528">
        <ele>2750.0</ele>
      </trkpt>
      <trkpt lat="34.27447" lon="-117.65542">
        <ele>2750.0</ele>
      </trkpt>
      <trkpt lat="34.27483" lon="-117.65555">
        <ele>2756.0</ele>
      </trkpt>
      <trkpt lat="34.27504" lon="-117.65585">
        <ele>2767.0</ele>
      </trkpt>
      <trkpt lat="34.27528" lon="-117.6563">
        <ele>2774.0</ele>
      </trkpt>
      <trkpt lat="34.27547" lon="-117.6565">
        <ele>2779.0</ele>
      </trkpt>
      <trkpt lat="34.27557" lon="-117.65673">
        <ele>2785.0</ele>
      </trkpt>
      <trkpt lat="34.27598" lon="-117.65694">
        <ele>2810.0</ele>
      </trkpt>
      <trkpt lat="34.27625" lon="-117.65699">
        <ele>2810.0</ele>
      </trkpt>
      <trkpt lat="34.27669" lon="-117.65686">
        <ele>2815.0</ele>
      </trkpt>
      <trkpt lat="34.27709" lon="-117.65663">
        <ele>2826.0</ele>
      </trkpt>
      <trkpt lat="34.27741" lon="-117.65652">
        <ele>2832.0</ele>
      </trkpt>
      <trkpt lat="34.27764" lon="-117.6565">
        <ele>2845.0</ele>
      </trkpt>
      <trkpt lat="34.27778" lon="-117.65644">
        <ele>2845.0</ele>
      </trkpt>
      <trkpt lat="34.27797" lon="-117.65649">
        <ele>2849.0</ele>
      </trkpt>
      <trkpt lat="34.27831" lon="-117.65705">
        <ele>2854.0</ele>
      </trkpt>
      <trkpt lat="34.27845" lon="-117.6572">
        <ele>2861.0</ele>
      </trkpt>
      <trkpt lat="34.27853" lon="-117.65739">
        <ele>2860.0</ele>
      </trkpt>
      <trkpt lat="34.27904" lon="-117.65795">
        <ele>2851.0</ele>
      </trkpt>
      <trkpt lat="34.27948" lon="-117.65816">
        <ele>2846.0</ele>
      </trkpt>
      <trkpt lat="34.27989" lon="-117.65849">
        <ele>2853.0</ele>
      </trkpt>
      <trkpt lat="34.28008" lon="-117.65857">
        <ele>2853.0</ele>
      </trkpt>
      <trkpt lat="34.28056" lon="-117.65857">
        <ele>2854.0</ele>
      </trkpt>
      <trkpt lat="34.2808" lon="-117.65836">
        <ele>2857.0</ele>
      </trkpt>
      <trkpt lat="34.28097" lon="-117.65832">
        <ele>2857.0</ele>
      </trkpt>
      <trkpt lat="34.28114" lon="-117.65801">
        <ele>2863.0</ele>
      </trkpt>
      <trkpt lat="34.28151" lon="-117.6572">
        <ele>2879.0</ele>
      </trkpt>
      <trkpt lat="34.28175" lon="-117.65676">
        <ele>2887.0</ele>
      </trkpt>
      <trkpt lat="34.28197" lon="-117.65645">
        <ele>2895.0</ele>
      </trkpt>
      <trkpt lat="34.28232" lon="-117.65623">
        <ele>2895.0</ele>
      </trkpt>
      <trkpt lat="34.28269" lon="-117.65581">
        <ele>2891.0</ele>
      </trkpt>
      <trkpt lat="34.2832" lon="-117.65554">
        <ele>2892.0</ele>
      </trkpt>
      <trkpt lat="34.28376" lon="-117.6551">
        <ele>2914.0</ele>
      </trkpt>
      <trkpt lat="34.28376" lon="-117.65502">
        <ele>2914.0</ele>
      </trkpt>
      <trkpt lat="34.28384" lon="-117.65503">
        <ele>2914.0</ele>
      </trkpt>
      <trkpt lat="34.28388" lon="-117.65472">
        <ele>2916.0</ele>
      </trkpt>
      <trkpt lat="34.28397" lon="-117.65437">
        <ele>2917.0</ele>
      </trkpt>
      <trkpt lat="34.28408" lon="-117.65418">
        <ele>2926.0</ele>
      </trkpt>
      <trkpt lat="34.28421" lon="-117.65403">
        <ele>2926.0</ele>
      </trkpt>
      <trkpt lat="34.28451" lon="-117.65383">
        <ele>2935.0</ele>
      </trkpt>
      <trkpt lat="34.28466" lon="-117.65354">
        <ele>2944.0</ele>
      </trkpt>
      <trkpt lat="34.28515" lon="-117.65307">
        <ele>2957.0</ele>
      </trkpt>
      <trkpt lat="34.28531" lon="-117.653">
        <ele>2957.0</ele>
      </trkpt>
      <trkpt lat="34.28542" lon="-117.6528">
        <ele>2966.0</ele>
      </trkpt>
      <trkpt lat="34.28581" lon="-117.65249">
        <ele>2971.0</ele>
      </trkpt>
      <trkpt lat="34.28641" lon="-117.6523">
        <ele>2976.0</ele>
      </trkpt>
      <trkpt lat="34.28719" lon="-117.65189">
        <ele>3000.0</ele>
      </trkpt>
      <trkpt lat="34.28755" lon="-117.65156">
        <ele>3005.0</ele>
      </trkpt>
      <trkpt lat="34.28773" lon="-117.65103">
        <ele>3010.0</ele>
      </trkpt>
      <trkpt lat="34.28772" lon="-117.65069">
        <ele>3012.0</ele>
      </trkpt>
      <trkpt lat="34.2878" lon="-117.6505">
        <ele>3012.0</ele>
      </trkpt>
      <trkpt lat="34.2878" lon="-117.65006">
        <ele>3012.0</ele>
      </trkpt>
      <trkpt lat="34.28784" lon="-117.64918">
        <ele>3023.0</ele>
      </trkpt>
      <trkpt lat="34.28786635191838" lon="-117.6489779686257">
        <ele>3028.0</ele>
      </trkpt>
      <trkpt lat="34.28786635191895" lon="-117.6489779686257">
        <ele>3028.0</ele>
      </trkpt>
      <trkpt lat="34.28787" lon="-117.64895">
        <ele>3028.0</ele>
      </trkpt>
      <trkpt lat="34.28779" lon="-117.64868">
        <ele>3030.0</ele>
      </trkpt>
      <trkpt lat="34.28777" lon="-117.64845">
        <ele>3032.0</ele>
      </trkpt>
      <trkpt lat="34.28779" lon="-117.64821">
        <ele>3032.0</ele>
      </trkpt>
      <trkpt lat="34.28789" lon="-117.64801">
        <ele>3033.0</ele>
      </trkpt>
      <trkpt lat="34.28813" lon="-117.64782">
        <ele>3042.0</ele>
      </trkpt>
      <trkpt lat="34.28861" lon="-117.64701">
        <ele>3058.0</ele>
      </trkpt>
      <trkpt lat="34.28872" lon="-117.64678">
        <ele>3057.0</ele>
      </trkpt>
      <trkpt lat="34.28889" lon="-117.64657">
        <ele>3065.0</ele>
      </trkpt>
      <trkpt lat="34.28899" lon="-117.6465">
        <ele>3065.0</ele>
      </trkpt>
      <trkpt lat="34.28899" lon="-117.6465">
        <ele>3065.0</ele>
      </trkpt>
      <trkpt lat="34.28911811566174" lon="-117.646401449491">
        <ele>3069.0</ele>
      </trkpt>
      <trkpt lat="34.28904283437107" lon="-117.646459043026">
        <ele>3069.0</ele>
      </trkpt>
      <trkpt lat="34.28898300080245" lon="-117.6465046405792">
        <ele>3065.0</ele>
      </trkpt>
      <trkpt lat="34.28898309349195" lon="-117.6465048345583">
        <ele>3065.0</ele>
      </trkpt>
      <trkpt lat="34.28889" lon="-117.64657">
        <ele>3065.0</ele>
      </trkpt>
      <trkpt lat="34.28877960192251" lon="-117.6467063740957">
        <ele>3065.0</ele>
      </trkpt>
      <trkpt lat="34.28877960196164" lon="-117.6467063740957">
        <ele>3065.0</ele>
      </trkpt>
      <trkpt lat="34.28872" lon="-117.64678">
        <ele>3057.0</ele>
      </trkpt>
      <trkpt lat="34.28861" lon="-117.64701">
        <ele>3058.0</ele>
      </trkpt>
      <trkpt lat="34.28813" lon="-117.64782">
        <ele>3042.0</ele>
      </trkpt>
      <trkpt lat="34.28806860466248" lon="-117.6478686046422">
        <ele>3042.0</ele>
      </trkpt>
      <trkpt lat="34.28806860472771" lon="-117.6478686046422">
        <ele>3042.0</ele>
      </trkpt>
      <trkpt lat="34.28789" lon="-117.64801">
        <ele>3033.0</ele>
      </trkpt>
      <trkpt lat="34.28779" lon="-117.64821">
        <ele>3032.0</ele>
      </trkpt>
      <trkpt lat="34.28777" lon="-117.64845">
        <ele>3032.0</ele>
      </trkpt>
      <trkpt lat="34.28779" lon="-117.64868">
        <ele>3030.0</ele>
      </trkpt>
      <trkpt lat="34.28787" lon="-117.64895">
        <ele>3028.0</ele>
      </trkpt>
      <trkpt lat="34.28784" lon="-117.64918">
        <ele>3023.0</ele>
      </trkpt>
      <trkpt lat="34.2878" lon="-117.65006">
        <ele>3012.0</ele>
      </trkpt>
      <trkpt lat="34.2878" lon="-117.6505">
        <ele>3012.0</ele>
      </trkpt>
      <trkpt lat="34.28772" lon="-117.65069">
        <ele>3012.0</ele>
      </trkpt>
      <trkpt lat="34.28773" lon="-117.65103">
        <ele>3010.0</ele>
      </trkpt>
      <trkpt lat="34.28755" lon="-117.65156">
        <ele>3005.0</ele>
      </trkpt>
      <trkpt lat="34.28719" lon="-117.65189">
        <ele>3000.0</ele>
      </trkpt>
      <trkpt lat="34.28641" lon="-117.6523">
        <ele>2976.0</ele>
      </trkpt>
      <trkpt lat="34.28581" lon="-117.65249">
        <ele>2971.0</ele>
      </trkpt>
      <trkpt lat="34.28542" lon="-117.6528">
        <ele>2966.0</ele>
      </trkpt>
      <trkpt lat="34.28531" lon="-117.653">
        <ele>2957.0</ele>
      </trkpt>
      <trkpt lat="34.28515" lon="-117.65307">
        <ele>2957.0</ele>
      </trkpt>
      <trkpt lat="34.28466" lon="-117.65354">
        <ele>2944.0</ele>
      </trkpt>
      <trkpt lat="34.28451" lon="-117.65383">
        <ele>2935.0</ele>
      </trkpt>
      <trkpt lat="34.28421" lon="-117.65403">
        <ele>2926.0</ele>
      </trkpt>
      <trkpt lat="34.28408" lon="-117.65418">
        <ele>2926.0</ele>
      </trkpt>
      <trkpt lat="34.28397" lon="-117.65437">
        <ele>2917.0</ele>
      </trkpt>
      <trkpt lat="34.28388" lon="-117.65472">
        <ele>2916.0</ele>
      </trkpt>
      <trkpt lat="34.28384" lon="-117.65503">
        <ele>2914.0</ele>
      </trkpt>
      <trkpt lat="34.28376" lon="-117.65502">
        <ele>2914.0</ele>
      </trkpt>
      <trkpt lat="34.28376" lon="-117.6551">
        <ele>2914.0</ele>
      </trkpt>
      <trkpt lat="34.2832" lon="-117.65554">
        <ele>2892.0</ele>
      </trkpt>
      <trkpt lat="34.28269" lon="-117.65581">
        <ele>2891.0</ele>
      </trkpt>
      <trkpt lat="34.28232" lon="-117.65623">
        <ele>2895.0</ele>
      </trkpt>
      <trkpt lat="34.28231920579289" lon="-117.6562304992159">
        <ele>2895.0</ele>
      </trkpt>
      <trkpt lat="34.28231920579452" lon="-117.6562304992159">
        <ele>2895.0</ele>
      </trkpt>
      <trkpt lat="34.28197" lon="-117.65645">
        <ele>2895.0</ele>
      </trkpt>
      <trkpt lat="34.28175" lon="-117.65676">
        <ele>2887.0</ele>
      </trkpt>
      <trkpt lat="34.28151" lon="-117.6572">
        <ele>2879.0</ele>
      </trkpt>
      <trkpt lat="34.28114" lon="-117.65801">
        <ele>2863.0</ele>
      </trkpt>
      <trkpt lat="34.28097" lon="-117.65832">
        <ele>2857.0</ele>
      </trkpt>
      <trkpt lat="34.2808" lon="-117.65836">
        <ele>2857.0</ele>
      </trkpt>
      <trkpt lat="34.28056" lon="-117.65857">
        <ele>2854.0</ele>
      </trkpt>
      <trkpt lat="34.28008" lon="-117.65857">
        <ele>2853.0</ele>
      </trkpt>
      <trkpt lat="34.27989" lon="-117.65849">
        <ele>2853.0</ele>
      </trkpt>
      <trkpt lat="34.27948" lon="-117.65816">
        <ele>2846.0</ele>
      </trkpt>
      <trkpt lat="34.27904" lon="-117.65795">
        <ele>2851.0</ele>
      </trkpt>
      <trkpt lat="34.27853" lon="-117.65739">
        <ele>2860.0</ele>
      </trkpt>
      <trkpt lat="34.27845" lon="-117.6572">
        <ele>2861.0</ele>
      </trkpt>
      <trkpt lat="34.27831" lon="-117.65705">
        <ele>2854.0</ele>
      </trkpt>
      <trkpt lat="34.27797" lon="-117.65649">
        <ele>2849.0</ele>
      </trkpt>
      <trkpt lat="34.27778" lon="-117.65644">
        <ele>2845.0</ele>
      </trkpt>
      <trkpt lat="34.27764" lon="-117.6565">
        <ele>2845.0</ele>
      </trkpt>
      <trkpt lat="34.27741" lon="-117.65652">
        <ele>2832.0</ele>
      </trkpt>
      <trkpt lat="34.27709" lon="-117.65663">
        <ele>2826.0</ele>
      </trkpt>
      <trkpt lat="34.27669" lon="-117.65686">
        <ele>2815.0</ele>
      </trkpt>
      <trkpt lat="34.27625" lon="-117.65699">
        <ele>2810.0</ele>
      </trkpt>
      <trkpt lat="34.27598" lon="-117.65694">
        <ele>2810.0</ele>
      </trkpt>
      <trkpt lat="34.27557" lon="-117.65673">
        <ele>2785.0</ele>
      </trkpt>
      <trkpt lat="34.27547" lon="-117.6565">
        <ele>2779.0</ele>
      </trkpt>
      <trkpt lat="34.27528" lon="-117.6563">
        <ele>2774.0</ele>
      </trkpt>
      <trkpt lat="34.27504" lon="-117.65585">
        <ele>2767.0</ele>
      </trkpt>
      <trkpt lat="34.27483" lon="-117.65555">
        <ele>2756.0</ele>
      </trkpt>
      <trkpt lat="34.27447" lon="-117.65542">
        <ele>2750.0</ele>
      </trkpt>
      <trkpt lat="34.27439" lon="-117.65528">
        <ele>2750.0</ele>
      </trkpt>
      <trkpt lat="34.27430707606274" lon="-117.6552136608502">
        <ele>2750.0</ele>
      </trkpt>
      <trkpt lat="34.27430707607117" lon="-117.6552136608502">
        <ele>2750.0</ele>
      </trkpt>
      <trkpt lat="34.27429" lon="-117.6552">
        <ele>2746.0</ele>
      </trkpt>
      <trkpt lat="34.27389" lon="-117.6552">
        <ele>2737.0</ele>
      </trkpt>
      <trkpt lat="34.27348" lon="-117.65506">
        <ele>2728.0</ele>
      </trkpt>
      <trkpt lat="34.27304" lon="-117.65496">
        <ele>2732.0</ele>
      </trkpt>
      <trkpt lat="34.27291" lon="-117.65507">
        <ele>2732.0</ele>
      </trkpt>
      <trkpt lat="34.27259" lon="-117.65501">
        <ele>2725.0</ele>
      </trkpt>
      <trkpt lat="34.27248" lon="-117.65504">
        <ele>2725.0</ele>
      </trkpt>
      <trkpt lat="34.27197" lon="-117.65482">
        <ele>2691.0</ele>
      </trkpt>
      <trkpt lat="34.27189" lon="-117.65504">
        <ele>2694.0</ele>
      </trkpt>
      <trkpt lat="34.2716" lon="-117.65483">
        <ele>2682.0</ele>
      </trkpt>
      <trkpt lat="34.27151" lon="-117.65485">
        <ele>2676.0</ele>
      </trkpt>
      <trkpt lat="34.27155" lon="-117.65503">
        <ele>2682.0</ele>
      </trkpt>
      <trkpt lat="34.27154" lon="-117.65568">
        <ele>2677.0</ele>
      </trkpt>
      <trkpt lat="34.27167" lon="-117.65583">
        <ele>2671.0</ele>
      </trkpt>
      <trkpt lat="34.27166" lon="-117.65591">
        <ele>2671.0</ele>
      </trkpt>
      <trkpt lat="34.27158" lon="-117.65585">
        <ele>2671.0</ele>
      </trkpt>
      <trkpt lat="34.27152" lon="-117.6559">
        <ele>2656.0</ele>
      </trkpt>
      <trkpt lat="34.27159" lon="-117.65608">
        <ele>2670.0</ele>
      </trkpt>
      <trkpt lat="34.27159" lon="-117.65645">
        <ele>2663.0</ele>
      </trkpt>
      <trkpt lat="34.27151" lon="-117.65673">
        <ele>2635.0</ele>
      </trkpt>
      <trkpt lat="34.27138" lon="-117.65684">
        <ele>2625.0</ele>
      </trkpt>
      <trkpt lat="34.27086" lon="-117.65695">
        <ele>2607.0</ele>
      </trkpt>
      <trkpt lat="34.27084" lon="-117.65697">
        <ele>2607.0</ele>
      </trkpt>
      <trkpt lat="34.27084" lon="-117.65697">
        <ele>2607.0</ele>
      </trkpt>
      <trkpt lat="34.2706" lon="-117.65723">
        <ele>2599.0</ele>
      </trkpt>
      <trkpt lat="34.27056" lon="-117.65747">
        <ele>2598.0</ele>
      </trkpt>
      <trkpt lat="34.27044" lon="-117.65745">
        <ele>2598.0</ele>
      </trkpt>
      <trkpt lat="34.27017" lon="-117.65745">
        <ele>2590.0</ele>
      </trkpt>
      <trkpt lat="34.26976" lon="-117.65761">
        <ele>2563.0</ele>
      </trkpt>
      <trkpt lat="34.26911" lon="-117.6578">
        <ele>2552.0</ele>
      </trkpt>
      <trkpt lat="34.26893093879661" lon="-117.6577772103923">
        <ele>2546.0</ele>
      </trkpt>
      <trkpt lat="34.26893093919156" lon="-117.6577772103923">
        <ele>2546.0</ele>
      </trkpt>
      <trkpt lat="34.26856" lon="-117.65773">
        <ele>2540.0</ele>
      </trkpt>
      <trkpt lat="34.26839" lon="-117.65777">
        <ele>2543.0</ele>
      </trkpt>
      <trkpt lat="34.2683" lon="-117.65776">
        <ele>2543.0</ele>
      </trkpt>
      <trkpt lat="34.26825" lon="-117.65773">
        <ele>2543.0</ele>
      </trkpt>
      <trkpt lat="34.26791" lon="-117.65776">
        <ele>2535.0</ele>
      </trkpt>
      <trkpt lat="34.26778" lon="-117.65784">
        <ele>2535.0</ele>
      </trkpt>
      <trkpt lat="34.267" lon="-117.65787">
        <ele>2511.0</ele>
      </trkpt>
      <trkpt lat="34.26681" lon="-117.65785">
        <ele>2511.0</ele>
      </trkpt>
      <trkpt lat="34.26658" lon="-117.65764">
        <ele>2504.0</ele>
      </trkpt>
      <trkpt lat="34.26628" lon="-117.65755">
        <ele>2492.0</ele>
      </trkpt>
      <trkpt lat="34.26621" lon="-117.65757">
        <ele>2481.0</ele>
      </trkpt>
      <trkpt lat="34.26613" lon="-117.65765">
        <ele>2484.0</ele>
      </trkpt>
      <trkpt lat="34.26613" lon="-117.65775">
        <ele>2484.0</ele>
      </trkpt>
      <trkpt lat="34.26608" lon="-117.65775">
        <ele>2484.0</ele>
      </trkpt>
      <trkpt lat="34.26598" lon="-117.65756">
        <ele>2481.0</ele>
      </trkpt>
      <trkpt lat="34.26593" lon="-117.65756">
        <ele>2467.0</ele>
      </trkpt>
      <trkpt lat="34.26587" lon="-117.65766">
        <ele>2469.0</ele>
      </trkpt>
      <trkpt lat="34.26583" lon="-117.65767">
        <ele>2469.0</ele>
      </trkpt>
      <trkpt lat="34.26579" lon="-117.65764">
        <ele>2469.0</ele>
      </trkpt>
      <trkpt lat="34.26573" lon="-117.65747">
        <ele>2467.0</ele>
      </trkpt>
      <trkpt lat="34.26565" lon="-117.65752">
        <ele>2449.0</ele>
      </trkpt>
      <trkpt lat="34.26558" lon="-117.65752">
        <ele>2449.0</ele>
      </trkpt>
      <trkpt lat="34.26557" lon="-117.65747">
        <ele>2449.0</ele>
      </trkpt>
      <trkpt lat="34.26548" lon="-117.65757">
        <ele>2449.0</ele>
      </trkpt>
      <trkpt lat="34.26542" lon="-117.65756">
        <ele>2449.0</ele>
      </trkpt>
      <trkpt lat="34.26539" lon="-117.6576">
        <ele>2437.0</ele>
      </trkpt>
      <trkpt lat="34.26534" lon="-117.65752">
        <ele>2437.0</ele>
      </trkpt>
      <trkpt lat="34.26528" lon="-117.65758">
        <ele>2437.0</ele>
      </trkpt>
      <trkpt lat="34.26526" lon="-117.65764">
        <ele>2442.0</ele>
      </trkpt>
      <trkpt lat="34.26522" lon="-117.65766">
        <ele>2442.0</ele>
      </trkpt>
      <trkpt lat="34.26518" lon="-117.65765">
        <ele>2442.0</ele>
      </trkpt>
      <trkpt lat="34.26511" lon="-117.65752">
        <ele>2427.0</ele>
      </trkpt>
      <trkpt lat="34.26498" lon="-117.65764">
        <ele>2429.0</ele>
      </trkpt>
      <trkpt lat="34.26496" lon="-117.65767">
        <ele>2429.0</ele>
      </trkpt>
      <trkpt lat="34.26497" lon="-117.65777">
        <ele>2429.0</ele>
      </trkpt>
      <trkpt lat="34.26484" lon="-117.6577">
        <ele>2419.0</ele>
      </trkpt>
      <trkpt lat="34.26437" lon="-117.65717">
        <ele>2401.0</ele>
      </trkpt>
      <trkpt lat="34.26424" lon="-117.65724">
        <ele>2391.0</ele>
      </trkpt>
      <trkpt lat="34.26417" lon="-117.6574">
        <ele>2392.0</ele>
      </trkpt>
      <trkpt lat="34.26414" lon="-117.6574">
        <ele>2392.0</ele>
      </trkpt>
      <trkpt lat="34.26407" lon="-117.65732">
        <ele>2391.0</ele>
      </trkpt>
      <trkpt lat="34.26392" lon="-117.65702">
        <ele>2381.0</ele>
      </trkpt>
      <trkpt lat="34.26387" lon="-117.65697">
        <ele>2381.0</ele>
      </trkpt>
      <trkpt lat="34.26303" lon="-117.65659">
        <ele>2366.0</ele>
      </trkpt>
      <trkpt lat="34.26284" lon="-117.65637">
        <ele>2365.0</ele>
      </trkpt>
      <trkpt lat="34.26269" lon="-117.65639">
        <ele>2365.0</ele>
      </trkpt>
      <trkpt lat="34.2626462214749" lon="-117.6563462214749">
        <ele>2365.0</ele>
      </trkpt>
      <trkpt lat="34.26264622147651" lon="-117.6563462214749">
        <ele>2365.0</ele>
      </trkpt>
      <trkpt lat="34.26264" lon="-117.65634">
        <ele>2365.0</ele>
      </trkpt>
      <trkpt lat="34.26235" lon="-117.65636">
        <ele>2355.0</ele>
      </trkpt>
      <trkpt lat="34.26224" lon="-117.65634">
        <ele>2355.0</ele>
      </trkpt>
      <trkpt lat="34.26222" lon="-117.6563">
        <ele>2355.0</ele>
      </trkpt>
      <trkpt lat="34.26216" lon="-117.65628">
        <ele>2355.0</ele>
      </trkpt>
      <trkpt lat="34.26171" lon="-117.65634">
        <ele>2350.0</ele>
      </trkpt>
      <trkpt lat="34.26138" lon="-117.65625">
        <ele>2353.0</ele>
      </trkpt>
      <trkpt lat="34.26116" lon="-117.65625">
        <ele>2342.0</ele>
      </trkpt>
      <trkpt lat="34.26114" lon="-117.65626">
        <ele>2334.0</ele>
      </trkpt>
      <trkpt lat="34.26116" lon="-117.65633">
        <ele>2334.0</ele>
      </trkpt>
      <trkpt lat="34.26113" lon="-117.65633">
        <ele>2334.0</ele>
      </trkpt>
      <trkpt lat="34.26099" lon="-117.65626">
        <ele>2334.0</ele>
      </trkpt>
      <trkpt lat="34.26094" lon="-117.65629">
        <ele>2320.0</ele>
      </trkpt>
      <trkpt lat="34.26082" lon="-117.65626">
        <ele>2320.0</ele>
      </trkpt>
      <trkpt lat="34.26077" lon="-117.6562">
        <ele>2329.0</ele>
      </trkpt>
      <trkpt lat="34.26064" lon="-117.65615">
        <ele>2319.0</ele>
      </trkpt>
      <trkpt lat="34.26053" lon="-117.65619">
        <ele>2319.0</ele>
      </trkpt>
      <trkpt lat="34.26035" lon="-117.65612">
        <ele>2311.0</ele>
      </trkpt>
      <trkpt lat="34.26013" lon="-117.65609">
        <ele>2303.0</ele>
      </trkpt>
      <trkpt lat="34.25994" lon="-117.6561">
        <ele>2303.0</ele>
      </trkpt>
      <trkpt lat="34.25989" lon="-117.65607">
        <ele>2303.0</ele>
      </trkpt>
      <trkpt lat="34.25979" lon="-117.65617">
        <ele>2297.0</ele>
      </trkpt>
      <trkpt lat="34.25954" lon="-117.65631">
        <ele>2296.0</ele>
      </trkpt>
      <trkpt lat="34.25921" lon="-117.65655">
        <ele>2286.0</ele>
      </trkpt>
      <trkpt lat="34.2592" lon="-117.65664">
        <ele>2286.0</ele>
      </trkpt>
      <trkpt lat="34.25915" lon="-117.65666">
        <ele>2286.0</ele>
      </trkpt>
      <trkpt lat="34.25912" lon="-117.65672">
        <ele>2286.0</ele>
      </trkpt>
      <trkpt lat="34.25906" lon="-117.65673">
        <ele>2286.0</ele>
      </trkpt>
      <trkpt lat="34.25909" lon="-117.65685">
        <ele>2284.0</ele>
      </trkpt>
      <trkpt lat="34.25919" lon="-117.65697">
        <ele>2284.0</ele>
      </trkpt>
      <trkpt lat="34.25915" lon="-117.65701">
        <ele>2284.0</ele>
      </trkpt>
      <trkpt lat="34.25902" lon="-117.65705">
        <ele>2277.0</ele>
      </trkpt>
      <trkpt lat="34.25897" lon="-117.65712">
        <ele>2271.0</ele>
      </trkpt>
      <trkpt lat="34.25893" lon="-117.65709">
        <ele>2271.0</ele>
      </trkpt>
      <trkpt lat="34.25874" lon="-117.65707">
        <ele>2271.0</ele>
      </trkpt>
      <trkpt lat="34.25866" lon="-117.65721">
        <ele>2271.0</ele>
      </trkpt>
      <trkpt lat="34.25851" lon="-117.65732">
        <ele>2271.0</ele>
      </trkpt>
      <trkpt lat="34.25845" lon="-117.65739">
        <ele>2266.0</ele>
      </trkpt>
      <trkpt lat="34.25822" lon="-117.65746">
        <ele>2266.0</ele>
      </trkpt>
      <trkpt lat="34.25798" lon="-117.65748">
        <ele>2259.0</ele>
      </trkpt>
      <trkpt lat="34.25794" lon="-117.65752">
        <ele>2259.0</ele>
      </trkpt>
      <trkpt lat="34.25792" lon="-117.65772">
        <ele>2254.0</ele>
      </trkpt>
      <trkpt lat="34.25788" lon="-117.65778">
        <ele>2248.0</ele>
      </trkpt>
      <trkpt lat="34.25786" lon="-117.65779">
        <ele>2248.0</ele>
      </trkpt>
      <trkpt lat="34.25769" lon="-117.65762">
        <ele>2245.0</ele>
      </trkpt>
      <trkpt lat="34.25766" lon="-117.65759">
        <ele>2245.0</ele>
      </trkpt>
      <trkpt lat="34.25761" lon="-117.65761">
        <ele>2231.0</ele>
      </trkpt>
      <trkpt lat="34.25746" lon="-117.65781">
        <ele>2239.0</ele>
      </trkpt>
      <trkpt lat="34.25744" lon="-117.65791">
        <ele>2239.0</ele>
      </trkpt>
      <trkpt lat="34.25738" lon="-117.65789">
        <ele>2239.0</ele>
      </trkpt>
      <trkpt lat="34.25722" lon="-117.65768">
        <ele>2225.0</ele>
      </trkpt>
      <trkpt lat="34.25716" lon="-117.65744">
        <ele>2217.0</ele>
      </trkpt>
      <trkpt lat="34.25704" lon="-117.65742">
        <ele>2201.0</ele>
      </trkpt>
      <trkpt lat="34.25697" lon="-117.65744">
        <ele>2201.0</ele>
      </trkpt>
      <trkpt lat="34.25687" lon="-117.65754">
        <ele>2201.0</ele>
      </trkpt>
      <trkpt lat="34.25684" lon="-117.65752">
        <ele>2201.0</ele>
      </trkpt>
      <trkpt lat="34.25682" lon="-117.65743">
        <ele>2201.0</ele>
      </trkpt>
      <trkpt lat="34.25678" lon="-117.65739">
        <ele>2188.0</ele>
      </trkpt>
      <trkpt lat="34.25682" lon="-117.65725">
        <ele>2196.0</ele>
      </trkpt>
      <trkpt lat="34.25681" lon="-117.65723">
        <ele>2196.0</ele>
      </trkpt>
      <trkpt lat="34.25671" lon="-117.65723">
        <ele>2187.0</ele>
      </trkpt>
      <trkpt lat="34.25667" lon="-117.65732">
        <ele>2187.0</ele>
      </trkpt>
      <trkpt lat="34.25656" lon="-117.65725">
        <ele>2187.0</ele>
      </trkpt>
      <trkpt lat="34.25655" lon="-117.65729">
        <ele>2187.0</ele>
      </trkpt>
      <trkpt lat="34.25646" lon="-117.65718">
        <ele>2178.0</ele>
      </trkpt>
      <trkpt lat="34.2562" lon="-117.65722">
        <ele>2163.0</ele>
      </trkpt>
      <trkpt lat="34.25597" lon="-117.65708">
        <ele>2148.0</ele>
      </trkpt>
      <trkpt lat="34.25591" lon="-117.65713">
        <ele>2151.0</ele>
      </trkpt>
      <trkpt lat="34.25588" lon="-117.65713">
        <ele>2151.0</ele>
      </trkpt>
      <trkpt lat="34.25584" lon="-117.65701">
        <ele>2148.0</ele>
      </trkpt>
      <trkpt lat="34.25567" lon="-117.65709">
        <ele>2141.0</ele>
      </trkpt>
      <trkpt lat="34.25548" lon="-117.65727">
        <ele>2141.0</ele>
      </trkpt>
      <trkpt lat="34.25541" lon="-117.65715">
        <ele>2132.0</ele>
      </trkpt>
      <trkpt lat="34.25534" lon="-117.65714">
        <ele>2132.0</ele>
      </trkpt>
      <trkpt lat="34.25532" lon="-117.65725">
        <ele>2132.0</ele>
      </trkpt>
      <trkpt lat="34.25525" lon="-117.65736">
        <ele>2132.0</ele>
      </trkpt>
      <trkpt lat="34.25519" lon="-117.65738">
        <ele>2131.0</ele>
      </trkpt>
      <trkpt lat="34.2551" lon="-117.65725">
        <ele>2122.0</ele>
      </trkpt>
      <trkpt lat="34.25505" lon="-117.65731">
        <ele>2122.0</ele>
      </trkpt>
      <trkpt lat="34.25504" lon="-117.65737">
        <ele>2120.0</ele>
      </trkpt>
      <trkpt lat="34.25501" lon="-117.65737">
        <ele>2120.0</ele>
      </trkpt>
      <trkpt lat="34.2549" lon="-117.65725">
        <ele>2122.0</ele>
      </trkpt>
      <trkpt lat="34.25491" lon="-117.65718">
        <ele>2122.0</ele>
      </trkpt>
      <trkpt lat="34.25485" lon="-117.65704">
        <ele>2106.0</ele>
      </trkpt>
      <trkpt lat="34.25476" lon="-117.65665">
        <ele>2101.0</ele>
      </trkpt>
      <trkpt lat="34.25462" lon="-117.65647">
        <ele>2091.0</ele>
      </trkpt>
      <trkpt lat="34.25453" lon="-117.65644">
        <ele>2086.0</ele>
      </trkpt>
      <trkpt lat="34.25448" lon="-117.65637">
        <ele>2086.0</ele>
      </trkpt>
      <trkpt lat="34.25436" lon="-117.65631">
        <ele>2086.0</ele>
      </trkpt>
      <trkpt lat="34.25435" lon="-117.65617">
        <ele>2075.0</ele>
      </trkpt>
      <trkpt lat="34.25431" lon="-117.65613">
        <ele>2075.0</ele>
      </trkpt>
      <trkpt lat="34.25431" lon="-117.6561">
        <ele>2075.0</ele>
      </trkpt>
      <trkpt lat="34.25434" lon="-117.65602">
        <ele>2075.0</ele>
      </trkpt>
      <trkpt lat="34.25442" lon="-117.65597">
        <ele>2062.0</ele>
      </trkpt>
      <trkpt lat="34.25441" lon="-117.65591">
        <ele>2062.0</ele>
      </trkpt>
      <trkpt lat="34.25424" lon="-117.65575">
        <ele>2056.0</ele>
      </trkpt>
      <trkpt lat="34.25416" lon="-117.65573">
        <ele>2056.0</ele>
      </trkpt>
      <trkpt lat="34.25405" lon="-117.65577">
        <ele>2056.0</ele>
      </trkpt>
      <trkpt lat="34.25408" lon="-117.65565">
        <ele>2044.0</ele>
      </trkpt>
      <trkpt lat="34.25418" lon="-117.65555">
        <ele>2044.0</ele>
      </trkpt>
      <trkpt lat="34.25434" lon="-117.65556">
        <ele>2046.0</ele>
      </trkpt>
      <trkpt lat="34.25421" lon="-117.65533">
        <ele>2031.0</ele>
      </trkpt>
      <trkpt lat="34.25415" lon="-117.6553">
        <ele>2031.0</ele>
      </trkpt>
      <trkpt lat="34.25398" lon="-117.6553">
        <ele>2029.0</ele>
      </trkpt>
      <trkpt lat="34.25386" lon="-117.65536">
        <ele>2029.0</ele>
      </trkpt>
      <trkpt lat="34.25379" lon="-117.65545">
        <ele>2037.0</ele>
      </trkpt>
      <trkpt lat="34.25369" lon="-117.6555">
        <ele>2018.0</ele>
      </trkpt>
      <trkpt lat="34.25358" lon="-117.65565">
        <ele>2018.0</ele>
      </trkpt>
      <trkpt lat="34.25352" lon="-117.65568">
        <ele>2018.0</ele>
      </trkpt>
      <trkpt lat="34.25326" lon="-117.6559">
        <ele>2009.0</ele>
      </trkpt>
      <trkpt lat="34.25301" lon="-117.65604">
        <ele>2002.0</ele>
      </trkpt>
      <trkpt lat="34.25301" lon="-117.65599">
        <ele>2002.0</ele>
      </trkpt>
      <trkpt lat="34.25305" lon="-117.65595">
        <ele>1993.0</ele>
      </trkpt>
      <trkpt lat="34.25316" lon="-117.65563">
        <ele>1984.0</ele>
      </trkpt>
      <trkpt lat="34.25317" lon="-117.65544">
        <ele>1984.0</ele>
      </trkpt>
      <trkpt lat="34.25284" lon="-117.65558">
        <ele>1976.0</ele>
      </trkpt>
      <trkpt lat="34.25268" lon="-117.65559">
        <ele>1976.0</ele>
      </trkpt>
      <trkpt lat="34.25268" lon="-117.65559">
        <ele>1976.0</ele>
      </trkpt>
      <trkpt lat="34.25257" lon="-117.65561">
        <ele>1960.0</ele>
      </trkpt>
      <trkpt lat="34.25254" lon="-117.65559">
        <ele>1960.0</ele>
      </trkpt>
      <trkpt lat="34.25268" lon="-117.65545">
        <ele>1976.0</ele>
      </trkpt>
      <trkpt lat="34.25268" lon="-117.65545">
        <ele>1976.0</ele>
      </trkpt>
      <trkpt lat="34.25271" lon="-117.65543">
        <ele>1976.0</ele>
      </trkpt>
      <trkpt lat="34.25271" lon="-117.65534">
        <ele>1964.0</ele>
      </trkpt>
      <trkpt lat="34.2528" lon="-117.65514">
        <ele>1964.0</ele>
      </trkpt>
      <trkpt lat="34.25281" lon="-117.65497">
        <ele>1951.0</ele>
      </trkpt>
      <trkpt lat="34.25285" lon="-117.65479">
        <ele>1943.0</ele>
      </trkpt>
      <trkpt lat="34.25284" lon="-117.65477">
        <ele>1943.0</ele>
      </trkpt>
      <trkpt lat="34.25268" lon="-117.65495">
        <ele>1951.0</ele>
      </trkpt>
      <trkpt lat="34.25268" lon="-117.65495">
        <ele>1951.0</ele>
      </trkpt>
      <trkpt lat="34.25251" lon="-117.65509">
        <ele>1936.0</ele>
      </trkpt>
      <trkpt lat="34.25212" lon="-117.65509">
        <ele>1921.0</ele>
      </trkpt>
      <trkpt lat="34.25237" lon="-117.6549">
        <ele>1936.0</ele>
      </trkpt>
      <trkpt lat="34.25243" lon="-117.65474">
        <ele>1926.0</ele>
      </trkpt>
      <trkpt lat="34.25242" lon="-117.65469">
        <ele>1926.0</ele>
      </trkpt>
      <trkpt lat="34.25237" lon="-117.65475">
        <ele>1926.0</ele>
      </trkpt>
      <trkpt lat="34.25228" lon="-117.65478">
        <ele>1912.0</ele>
      </trkpt>
      <trkpt lat="34.25196" lon="-117.65479">
        <ele>1897.0</ele>
      </trkpt>
      <trkpt lat="34.25182" lon="-117.65483">
        <ele>1897.0</ele>
      </trkpt>
      <trkpt lat="34.25155" lon="-117.65497">
        <ele>1899.0</ele>
      </trkpt>
      <trkpt lat="34.25098" lon="-117.65504">
        <ele>1873.0</ele>
      </trkpt>
      <trkpt lat="34.25053" lon="-117.65525">
        <ele>1859.0</ele>
      </trkpt>
      <trkpt lat="34.25043" lon="-117.65541">
        <ele>1859.0</ele>
      </trkpt>
      <trkpt lat="34.2504" lon="-117.65535">
        <ele>1842.0</ele>
      </trkpt>
      <trkpt lat="34.25041" lon="-117.65521">
        <ele>1842.0</ele>
      </trkpt>
      <trkpt lat="34.25053" lon="-117.65477">
        <ele>1846.0</ele>
      </trkpt>
      <trkpt lat="34.2507" lon="-117.6546">
        <ele>1853.0</ele>
      </trkpt>
      <trkpt lat="34.251" lon="-117.65443">
        <ele>1846.0</ele>
      </trkpt>
      <trkpt lat="34.251" lon="-117.6544">
        <ele>1846.0</ele>
      </trkpt>
      <trkpt lat="34.25056" lon="-117.65428">
        <ele>1825.0</ele>
      </trkpt>
      <trkpt lat="34.25022" lon="-117.65428">
        <ele>1813.0</ele>
      </trkpt>
      <trkpt lat="34.25008" lon="-117.65425">
        <ele>1798.0</ele>
      </trkpt>
      <trkpt lat="34.25029" lon="-117.65406">
        <ele>1813.0</ele>
      </trkpt>
      <trkpt lat="34.25043" lon="-117.65389">
        <ele>1813.0</ele>
      </trkpt>
      <trkpt lat="34.25042" lon="-117.65387">
        <ele>1813.0</ele>
      </trkpt>
      <trkpt lat="34.25018" lon="-117.65386">
        <ele>1801.0</ele>
      </trkpt>
      <trkpt lat="34.24995" lon="-117.65393">
        <ele>1787.0</ele>
      </trkpt>
      <trkpt lat="34.24992" lon="-117.65392">
        <ele>1787.0</ele>
      </trkpt>
      <trkpt lat="34.25002" lon="-117.65376">
        <ele>1787.0</ele>
      </trkpt>
      <trkpt lat="34.24974" lon="-117.65381">
        <ele>1769.0</ele>
      </trkpt>
      <trkpt lat="34.24957" lon="-117.65387">
        <ele>1748.0</ele>
      </trkpt>
      <trkpt lat="34.24940302887987" lon="-117.6540787139002">
        <ele>1758.0</ele>
      </trkpt>
      <trkpt lat="34.24940302891265" lon="-117.6540787139002">
        <ele>1758.0</ele>
      </trkpt>
      <trkpt lat="34.24937" lon="-117.65412">
        <ele>1758.0</ele>
      </trkpt>
      <trkpt lat="34.24941" lon="-117.65374">
        <ele>1743.0</ele>
      </trkpt>
      <trkpt lat="34.2493" lon="-117.65392">
        <ele>1733.0</ele>
      </trkpt>
      <trkpt lat="34.24915" lon="-117.65409">
        <ele>1740.0</ele>
      </trkpt>
      <trkpt lat="34.24907" lon="-117.65414">
        <ele>1740.0</ele>
      </trkpt>
      <trkpt lat="34.24899" lon="-117.65413">
        <ele>1728.0</ele>
      </trkpt>
      <trkpt lat="34.24874" lon="-117.65421">
        <ele>1714.0</ele>
      </trkpt>
      <trkpt lat="34.24861" lon="-117.65431">
        <ele>1720.0</ele>
      </trkpt>
      <trkpt lat="34.24849" lon="-117.65435">
        <ele>1720.0</ele>
      </trkpt>
      <trkpt lat="34.24839" lon="-117.65446">
        <ele>1701.0</ele>
      </trkpt>
      <trkpt lat="34.24837" lon="-117.65446">
        <ele>1701.0</ele>
      </trkpt>
      <trkpt lat="34.24843" lon="-117.65426">
        <ele>1699.0</ele>
      </trkpt>
      <trkpt lat="34.24859" lon="-117.65397">
        <ele>1712.0</ele>
      </trkpt>
      <trkpt lat="34.24863" lon="-117.65378">
        <ele>1712.0</ele>
      </trkpt>
      <trkpt lat="34.24856" lon="-117.6538">
        <ele>1712.0</ele>
      </trkpt>
      <trkpt lat="34.24848" lon="-117.65371">
        <ele>1711.0</ele>
      </trkpt>
      <trkpt lat="34.24816" lon="-117.65365">
        <ele>1692.0</ele>
      </trkpt>
      <trkpt lat="34.2481" lon="-117.65368">
        <ele>1692.0</ele>
      </trkpt>
      <trkpt lat="34.24803" lon="-117.65368">
        <ele>1692.0</ele>
      </trkpt>
      <trkpt lat="34.24783" lon="-117.65379">
        <ele>1686.0</ele>
      </trkpt>
      <trkpt lat="34.24768" lon="-117.65395">
        <ele>1686.0</ele>
      </trkpt>
      <trkpt lat="34.2476" lon="-117.65422">
        <ele>1682.0</ele>
      </trkpt>
      <trkpt lat="34.24728" lon="-117.6546">
        <ele>1665.0</ele>
      </trkpt>
      <trkpt lat="34.24701" lon="-117.65462">
        <ele>1664.0</ele>
      </trkpt>
      <trkpt lat="34.24689" lon="-117.6548">
        <ele>1664.0</ele>
      </trkpt>
      <trkpt lat="34.24653" lon="-117.65518">
        <ele>1655.0</ele>
      </trkpt>
      <trkpt lat="34.24617" lon="-117.65573">
        <ele>1662.0</ele>
      </trkpt>
      <trkpt lat="34.24584" lon="-117.65635">
        <ele>1654.0</ele>
      </trkpt>
      <trkpt lat="34.24521" lon="-117.6572">
        <ele>1645.0</ele>
      </trkpt>
      <trkpt lat="34.245" lon="-117.65789">
        <ele>1634.0</ele>
      </trkpt>
      <trkpt lat="34.24485" lon="-117.6587">
        <ele>1623.0</ele>
      </trkpt>
      <trkpt lat="34.2445" lon="-117.65993">
        <ele>1574.0</ele>
      </trkpt>
      <trkpt lat="34.24437" lon="-117.66004">
        <ele>1574.0</ele>
      </trkpt>
      <trkpt lat="34.24399" lon="-117.66019">
        <ele>1572.0</ele>
      </trkpt>
      <trkpt lat="34.24385" lon="-117.66021">
        <ele>1572.0</ele>
      </trkpt>
      <trkpt lat="34.24378" lon="-117.65999">
        <ele>1575.0</ele>
      </trkpt>
      <trkpt lat="34.24375" lon="-117.65974">
        <ele>1566.0</ele>
      </trkpt>
      <trkpt lat="34.24382" lon="-117.65946">
        <ele>1584.0</ele>
      </trkpt>
      <trkpt lat="34.2438" lon="-117.65939">
        <ele>1584.0</ele>
      </trkpt>
      <trkpt lat="34.24357" lon="-117.6598">
        <ele>1566.0</ele>
      </trkpt>
      <trkpt lat="34.24356" lon="-117.66013">
        <ele>1568.0</ele>
      </trkpt>
      <trkpt lat="34.24349" lon="-117.66042">
        <ele>1552.0</ele>
      </trkpt>
      <trkpt lat="34.24357" lon="-117.66094">
        <ele>1547.0</ele>
      </trkpt>
      <trkpt lat="34.24383" lon="-117.66085">
        <ele>1547.0</ele>
      </trkpt>
      <trkpt lat="34.24484" lon="-117.66073">
        <ele>1538.0</ele>
      </trkpt>
      <trkpt lat="34.24505" lon="-117.66059">
        <ele>1540.0</ele>
      </trkpt>
      <trkpt lat="34.24524" lon="-117.66034">
        <ele>1543.0</ele>
      </trkpt>
      <trkpt lat="34.24524" lon="-117.6607">
        <ele>1524.0</ele>
      </trkpt>
      <trkpt lat="34.24514" lon="-117.66087">
        <ele>1524.0</ele>
      </trkpt>
      <trkpt lat="34.24484" lon="-117.66107">
        <ele>1529.0</ele>
      </trkpt>
      <trkpt lat="34.244" lon="-117.66155">
        <ele>1507.0</ele>
      </trkpt>
      <trkpt lat="34.2437" lon="-117.6619">
        <ele>1496.0</ele>
      </trkpt>
      <trkpt lat="34.2434" lon="-117.66249">
        <ele>1480.0</ele>
      </trkpt>
      <trkpt lat="34.2433" lon="-117.66235">
        <ele>1484.0</ele>
      </trkpt>
      <trkpt lat="34.24324" lon="-117.66232">
        <ele>1484.0</ele>
      </trkpt>
      <trkpt lat="34.24334" lon="-117.66294">
        <ele>1461.0</ele>
      </trkpt>
      <trkpt lat="34.24327" lon="-117.66311">
        <ele>1461.0</ele>
      </trkpt>
      <trkpt lat="34.24332" lon="-117.66322">
        <ele>1458.0</ele>
      </trkpt>
      <trkpt lat="34.24316" lon="-117.66332">
        <ele>1451.0</ele>
      </trkpt>
      <trkpt lat="34.24293" lon="-117.66298">
        <ele>1445.0</ele>
      </trkpt>
      <trkpt lat="34.24252" lon="-117.66208">
        <ele>1444.0</ele>
      </trkpt>
      <trkpt lat="34.24238" lon="-117.66219">
        <ele>1440.0</ele>
      </trkpt>
      <trkpt lat="34.24229" lon="-117.66202">
        <ele>1416.0</ele>
      </trkpt>
      <trkpt lat="34.24165" lon="-117.66152">
        <ele>1405.0</ele>
      </trkpt>
      <trkpt lat="34.2416" lon="-117.66131">
        <ele>1405.0</ele>
      </trkpt>
      <trkpt lat="34.2416" lon="-117.66131">
        <ele>1405.0</ele>
      </trkpt>
      <trkpt lat="34.24157" lon="-117.66115">
        <ele>1406.0</ele>
      </trkpt>
      <trkpt lat="34.2413" lon="-117.66093">
        <ele>1402.0</ele>
      </trkpt>
      <trkpt lat="34.24093" lon="-117.6607">
        <ele>1391.0</ele>
      </trkpt>
      <trkpt lat="34.24086" lon="-117.66051">
        <ele>1387.0</ele>
      </trkpt>
      <trkpt lat="34.24041" lon="-117.66034">
        <ele>1376.0</ele>
      </trkpt>
      <trkpt lat="34.24015" lon="-117.6604">
        <ele>1376.0</ele>
      </trkpt>
      <trkpt lat="34.23964" lon="-117.66065">
        <ele>1363.0</ele>
      </trkpt>
      <trkpt lat="34.23924" lon="-117.661">
        <ele>1354.0</ele>
      </trkpt>
      <trkpt lat="34.23884" lon="-117.66091">
        <ele>1343.0</ele>
      </trkpt>
      <trkpt lat="34.23884" lon="-117.66091">
        <ele>1343.0</ele>
      </trkpt>
      <trkpt lat="34.23864" lon="-117.6608">
        <ele>1340.0</ele>
      </trkpt>
      <trkpt lat="34.23865" lon="-117.6606">
        <ele>1336.0</ele>
      </trkpt>
      <trkpt lat="34.23862" lon="-117.66036">
        <ele>1332.0</ele>
      </trkpt>
      <trkpt lat="34.2385303683831" lon="-117.6602853069859">
        <ele>1332.0</ele>
      </trkpt>
      <trkpt lat="34.23853036852702" lon="-117.6602853069859">
        <ele>1332.0</ele>
      </trkpt>
      <trkpt lat="34.23826" lon="-117.66006">
        <ele>1322.0</ele>
      </trkpt>
      <trkpt lat="34.23803" lon="-117.65922">
        <ele>1311.0</ele>
      </trkpt>
      <trkpt lat="34.23794" lon="-117.65904">
        <ele>1311.0</ele>
      </trkpt>
      <trkpt lat="34.23794" lon="-117.6586">
        <ele>1312.0</ele>
      </trkpt>
      <trkpt lat="34.23779" lon="-117.65816">
        <ele>1307.0</ele>
      </trkpt>
      <trkpt lat="34.23774717833245" lon="-117.6579244808285">
        <ele>1307.0</ele>
      </trkpt>
    </trkseg>
  </trk>
</gpx>
