<?xml version="1.0" encoding="UTF-8"?>
<gpx xmlns:xsi="http://www.w3.org/2001/XMLSchema-instance" version="1.1" creator="The Outbound Collective, Inc. 1.1.1 -- https://www.theoutbound.com" xsi:schemaLocation="http://www.topografix.com/GPX/1/1 http://www.topografix.com/GPX/1/1/gpx.xsd">
  <metadata>
    <name/>
    <time>2026-02-19T22:00:26+00:00</time>
    <bound minlat="33.74011" minlon="-118.3673300326318" maxlat="33.75767089591356" maxlon="-118.35664"/>
  </metadata>
  <trk>
    <name/>
    <trkseg>
      <trkpt lat="33.75767089591356" lon="-118.3673214912415">
        <ele>356.0</ele>
      </trkpt>
      <trkpt lat="33.75766182708139" lon="-118.3673300326318">
        <ele>356.0</ele>
      </trkpt>
      <trkpt lat="33.75766182708139" lon="-118.3673300326318">
        <ele>356.0</ele>
      </trkpt>
      <trkpt lat="33.75766182708139" lon="-118.3673300326318">
        <ele>356.0</ele>
      </trkpt>
      <trkpt lat="33.75764" lon="-118.36725">
        <ele>356.0</ele>
      </trkpt>
      <trkpt lat="33.75748" lon="-118.36712">
        <ele>354.0</ele>
      </trkpt>
      <trkpt lat="33.75715" lon="-118.3667">
        <ele>352.0</ele>
      </trkpt>
      <trkpt lat="33.75715" lon="-118.3667">
        <ele>352.0</ele>
      </trkpt>
      <trkpt lat="33.75665682461572" lon="-118.3660723222382">
        <ele>348.0</ele>
      </trkpt>
      <trkpt lat="33.75665" lon="-118.36608">
        <ele>348.0</ele>
      </trkpt>
      <trkpt lat="33.75657" lon="-118.3661">
        <ele>348.0</ele>
      </trkpt>
      <trkpt lat="33.75631" lon="-118.36592">
        <ele>347.0</ele>
      </trkpt>
      <trkpt lat="33.75631" lon="-118.36592">
        <ele>347.0</ele>
      </trkpt>
      <trkpt lat="33.75612256066895" lon="-118.3658200323568">
        <ele>345.0</ele>
      </trkpt>
      <trkpt lat="33.75612256090893" lon="-118.3658200323568">
        <ele>345.0</ele>
      </trkpt>
      <trkpt lat="33.75590304820069" lon="-118.3657029590404">
        <ele>344.0</ele>
      </trkpt>
      <trkpt lat="33.75590304820069" lon="-118.3657029590404">
        <ele>344.0</ele>
      </trkpt>
      <trkpt lat="33.75586" lon="-118.36568">
        <ele>345.0</ele>
      </trkpt>
      <trkpt lat="33.75581" lon="-118.36552">
        <ele>345.0</ele>
      </trkpt>
      <trkpt lat="33.75583" lon="-118.36546">
        <ele>345.0</ele>
      </trkpt>
      <trkpt lat="33.75584615774254" lon="-118.3654384563433">
        <ele>345.0</ele>
      </trkpt>
      <trkpt lat="33.75584615774951" lon="-118.3654384563433">
        <ele>345.0</ele>
      </trkpt>
      <trkpt lat="33.75592" lon="-118.36534">
        <ele>344.0</ele>
      </trkpt>
      <trkpt lat="33.75596" lon="-118.36523">
        <ele>344.0</ele>
      </trkpt>
      <trkpt lat="33.75596651036035" lon="-118.3652083396959">
        <ele>344.0</ele>
      </trkpt>
      <trkpt lat="33.75591" lon="-118.36506">
        <ele>343.0</ele>
      </trkpt>
      <trkpt lat="33.75591" lon="-118.36506">
        <ele>343.0</ele>
      </trkpt>
      <trkpt lat="33.75593" lon="-118.36487">
        <ele>343.0</ele>
      </trkpt>
      <trkpt lat="33.75593168371336" lon="-118.3648692195114">
        <ele>343.0</ele>
      </trkpt>
      <trkpt lat="33.75589" lon="-118.36474">
        <ele>342.0</ele>
      </trkpt>
      <trkpt lat="33.75574438779238" lon="-118.3639148641568">
        <ele>343.0</ele>
      </trkpt>
      <trkpt lat="33.75572115972024" lon="-118.3639164017577">
        <ele>343.0</ele>
      </trkpt>
      <trkpt lat="33.75572" lon="-118.3639">
        <ele>343.0</ele>
      </trkpt>
      <trkpt lat="33.75574" lon="-118.36389">
        <ele>343.0</ele>
      </trkpt>
      <trkpt lat="33.75574" lon="-118.36389">
        <ele>343.0</ele>
      </trkpt>
      <trkpt lat="33.75574" lon="-118.36389">
        <ele>343.0</ele>
      </trkpt>
      <trkpt lat="33.75574" lon="-118.36389">
        <ele>343.0</ele>
      </trkpt>
      <trkpt lat="33.75572" lon="-118.36305">
        <ele>342.0</ele>
      </trkpt>
      <trkpt lat="33.7556707436744" lon="-118.3627298338836">
        <ele>327.0</ele>
      </trkpt>
      <trkpt lat="33.7556707436744" lon="-118.3627298338836">
        <ele>327.0</ele>
      </trkpt>
      <trkpt lat="33.75548" lon="-118.36149">
        <ele>321.0</ele>
      </trkpt>
      <trkpt lat="33.75538" lon="-118.36107">
        <ele>309.0</ele>
      </trkpt>
      <trkpt lat="33.75528" lon="-118.36049">
        <ele>310.0</ele>
      </trkpt>
      <trkpt lat="33.75526498128139" lon="-118.3602497005022">
        <ele>310.0</ele>
      </trkpt>
      <trkpt lat="33.75526498128139" lon="-118.3602497005022">
        <ele>310.0</ele>
      </trkpt>
      <trkpt lat="33.75526" lon="-118.36017">
        <ele>310.0</ele>
      </trkpt>
      <trkpt lat="33.75524284363983" lon="-118.3601185309195">
        <ele>310.0</ele>
      </trkpt>
      <trkpt lat="33.75524284363983" lon="-118.3601185309195">
        <ele>310.0</ele>
      </trkpt>
      <trkpt lat="33.75518" lon="-118.35993">
        <ele>310.0</ele>
      </trkpt>
      <trkpt lat="33.7551" lon="-118.35978">
        <ele>303.0</ele>
      </trkpt>
      <trkpt lat="33.7551" lon="-118.35978">
        <ele>303.0</ele>
      </trkpt>
      <trkpt lat="33.7551" lon="-118.35978">
        <ele>303.0</ele>
      </trkpt>
      <trkpt lat="33.75479" lon="-118.35955">
        <ele>295.0</ele>
      </trkpt>
      <trkpt lat="33.75459" lon="-118.3594">
        <ele>295.0</ele>
      </trkpt>
      <trkpt lat="33.75436" lon="-118.35935">
        <ele>290.0</ele>
      </trkpt>
      <trkpt lat="33.75414" lon="-118.35935">
        <ele>283.0</ele>
      </trkpt>
      <trkpt lat="33.75392" lon="-118.35942">
        <ele>281.0</ele>
      </trkpt>
      <trkpt lat="33.75356" lon="-118.35968">
        <ele>286.0</ele>
      </trkpt>
      <trkpt lat="33.7534" lon="-118.35988">
        <ele>286.0</ele>
      </trkpt>
      <trkpt lat="33.75339277922872" lon="-118.3598927223113">
        <ele>286.0</ele>
      </trkpt>
      <trkpt lat="33.75339277923726" lon="-118.3598927223113">
        <ele>286.0</ele>
      </trkpt>
      <trkpt lat="33.75319" lon="-118.36025">
        <ele>281.0</ele>
      </trkpt>
      <trkpt lat="33.75299" lon="-118.3607">
        <ele>283.0</ele>
      </trkpt>
      <trkpt lat="33.75287" lon="-118.36109">
        <ele>277.0</ele>
      </trkpt>
      <trkpt lat="33.75283" lon="-118.36167">
        <ele>271.0</ele>
      </trkpt>
      <trkpt lat="33.75289" lon="-118.36207">
        <ele>268.0</ele>
      </trkpt>
      <trkpt lat="33.75289" lon="-118.36207">
        <ele>268.0</ele>
      </trkpt>
      <trkpt lat="33.75289" lon="-118.36207">
        <ele>268.0</ele>
      </trkpt>
      <trkpt lat="33.75299" lon="-118.36239">
        <ele>263.0</ele>
      </trkpt>
      <trkpt lat="33.75311" lon="-118.36267">
        <ele>264.0</ele>
      </trkpt>
      <trkpt lat="33.75339" lon="-118.36328">
        <ele>260.0</ele>
      </trkpt>
      <trkpt lat="33.75364" lon="-118.36371">
        <ele>254.0</ele>
      </trkpt>
      <trkpt lat="33.75364" lon="-118.36371">
        <ele>254.0</ele>
      </trkpt>
      <trkpt lat="33.75364" lon="-118.36371">
        <ele>254.0</ele>
      </trkpt>
      <trkpt lat="33.75375" lon="-118.36379">
        <ele>252.0</ele>
      </trkpt>
      <trkpt lat="33.75387" lon="-118.36396">
        <ele>255.0</ele>
      </trkpt>
      <trkpt lat="33.75387" lon="-118.36396">
        <ele>255.0</ele>
      </trkpt>
      <trkpt lat="33.75387" lon="-118.36396">
        <ele>255.0</ele>
      </trkpt>
      <trkpt lat="33.75415" lon="-118.36458">
        <ele>252.0</ele>
      </trkpt>
      <trkpt lat="33.75428" lon="-118.36501">
        <ele>250.0</ele>
      </trkpt>
      <trkpt lat="33.75431" lon="-118.36553">
        <ele>262.0</ele>
      </trkpt>
      <trkpt lat="33.75424" lon="-118.36599">
        <ele>251.0</ele>
      </trkpt>
      <trkpt lat="33.75408" lon="-118.36638">
        <ele>251.0</ele>
      </trkpt>
      <trkpt lat="33.75395" lon="-118.36657">
        <ele>247.0</ele>
      </trkpt>
      <trkpt lat="33.75381" lon="-118.3667">
        <ele>247.0</ele>
      </trkpt>
      <trkpt lat="33.75379185690315" lon="-118.3667063500839">
        <ele>247.0</ele>
      </trkpt>
      <trkpt lat="33.75361" lon="-118.36677">
        <ele>242.0</ele>
      </trkpt>
      <trkpt lat="33.75356970128087" lon="-118.3667780597438">
        <ele>242.0</ele>
      </trkpt>
      <trkpt lat="33.75356970128087" lon="-118.3667780597438">
        <ele>242.0</ele>
      </trkpt>
      <trkpt lat="33.75311" lon="-118.36687">
        <ele>240.0</ele>
      </trkpt>
      <trkpt lat="33.75287" lon="-118.36678">
        <ele>231.0</ele>
      </trkpt>
      <trkpt lat="33.75275" lon="-118.3667">
        <ele>231.0</ele>
      </trkpt>
      <trkpt lat="33.75275" lon="-118.3667">
        <ele>231.0</ele>
      </trkpt>
      <trkpt lat="33.75238" lon="-118.36648">
        <ele>222.0</ele>
      </trkpt>
      <trkpt lat="33.75238" lon="-118.36648">
        <ele>222.0</ele>
      </trkpt>
      <trkpt lat="33.75238" lon="-118.36648">
        <ele>222.0</ele>
      </trkpt>
      <trkpt lat="33.75222295387331" lon="-118.3663175376514">
        <ele>217.0</ele>
      </trkpt>
      <trkpt lat="33.75222295387331" lon="-118.3663175376514">
        <ele>217.0</ele>
      </trkpt>
      <trkpt lat="33.75209" lon="-118.36618">
        <ele>217.0</ele>
      </trkpt>
      <trkpt lat="33.75187" lon="-118.36586">
        <ele>214.0</ele>
      </trkpt>
      <trkpt lat="33.75187" lon="-118.36586">
        <ele>214.0</ele>
      </trkpt>
      <trkpt lat="33.75161" lon="-118.36565">
        <ele>212.0</ele>
      </trkpt>
      <trkpt lat="33.75122" lon="-118.36523">
        <ele>205.0</ele>
      </trkpt>
      <trkpt lat="33.75086" lon="-118.36507">
        <ele>203.0</ele>
      </trkpt>
      <trkpt lat="33.75065" lon="-118.36468">
        <ele>197.0</ele>
      </trkpt>
      <trkpt lat="33.75042" lon="-118.36446">
        <ele>200.0</ele>
      </trkpt>
      <trkpt lat="33.75028" lon="-118.36428">
        <ele>191.0</ele>
      </trkpt>
      <trkpt lat="33.75005" lon="-118.36371">
        <ele>182.0</ele>
      </trkpt>
      <trkpt lat="33.75005" lon="-118.36371">
        <ele>182.0</ele>
      </trkpt>
      <trkpt lat="33.75005" lon="-118.36371">
        <ele>182.0</ele>
      </trkpt>
      <trkpt lat="33.75002" lon="-118.36316">
        <ele>182.0</ele>
      </trkpt>
      <trkpt lat="33.74999820332433" lon="-118.3630634718649">
        <ele>182.0</ele>
      </trkpt>
      <trkpt lat="33.74999820333047" lon="-118.3630634718649">
        <ele>182.0</ele>
      </trkpt>
      <trkpt lat="33.74995" lon="-118.36285">
        <ele>180.0</ele>
      </trkpt>
      <trkpt lat="33.74988" lon="-118.36271">
        <ele>180.0</ele>
      </trkpt>
      <trkpt lat="33.74972" lon="-118.36249">
        <ele>176.0</ele>
      </trkpt>
      <trkpt lat="33.74972" lon="-118.36249">
        <ele>176.0</ele>
      </trkpt>
      <trkpt lat="33.74972" lon="-118.36249">
        <ele>176.0</ele>
      </trkpt>
      <trkpt lat="33.74962" lon="-118.36244">
        <ele>176.0</ele>
      </trkpt>
      <trkpt lat="33.74962" lon="-118.36244">
        <ele>176.0</ele>
      </trkpt>
      <trkpt lat="33.74962" lon="-118.36244">
        <ele>176.0</ele>
      </trkpt>
      <trkpt lat="33.74941" lon="-118.36221">
        <ele>173.0</ele>
      </trkpt>
      <trkpt lat="33.74891" lon="-118.36188">
        <ele>167.0</ele>
      </trkpt>
      <trkpt lat="33.74873" lon="-118.36167">
        <ele>164.0</ele>
      </trkpt>
      <trkpt lat="33.74861" lon="-118.36142">
        <ele>166.0</ele>
      </trkpt>
      <trkpt lat="33.74862" lon="-118.36123">
        <ele>168.0</ele>
      </trkpt>
      <trkpt lat="33.74855" lon="-118.36103">
        <ele>168.0</ele>
      </trkpt>
      <trkpt lat="33.74818" lon="-118.36041">
        <ele>154.0</ele>
      </trkpt>
      <trkpt lat="33.74799" lon="-118.36">
        <ele>158.0</ele>
      </trkpt>
      <trkpt lat="33.74794" lon="-118.35995">
        <ele>158.0</ele>
      </trkpt>
      <trkpt lat="33.74768" lon="-118.3597">
        <ele>154.0</ele>
      </trkpt>
      <trkpt lat="33.74765977151289" lon="-118.3596889224952">
        <ele>154.0</ele>
      </trkpt>
      <trkpt lat="33.74765977156004" lon="-118.3596889224952">
        <ele>154.0</ele>
      </trkpt>
      <trkpt lat="33.74726" lon="-118.35947">
        <ele>151.0</ele>
      </trkpt>
      <trkpt lat="33.74697" lon="-118.3592">
        <ele>149.0</ele>
      </trkpt>
      <trkpt lat="33.74647" lon="-118.35897">
        <ele>145.0</ele>
      </trkpt>
      <trkpt lat="33.74604152143345" lon="-118.3586768304545">
        <ele>144.0</ele>
      </trkpt>
      <trkpt lat="33.74604152143345" lon="-118.3586768304545">
        <ele>144.0</ele>
      </trkpt>
      <trkpt lat="33.7459" lon="-118.35858">
        <ele>143.0</ele>
      </trkpt>
      <trkpt lat="33.74552" lon="-118.35847">
        <ele>150.0</ele>
      </trkpt>
      <trkpt lat="33.74552" lon="-118.35847">
        <ele>150.0</ele>
      </trkpt>
      <trkpt lat="33.74552" lon="-118.35847">
        <ele>150.0</ele>
      </trkpt>
      <trkpt lat="33.74545" lon="-118.35842">
        <ele>150.0</ele>
      </trkpt>
      <trkpt lat="33.74545" lon="-118.35842">
        <ele>150.0</ele>
      </trkpt>
      <trkpt lat="33.74545" lon="-118.35842">
        <ele>150.0</ele>
      </trkpt>
      <trkpt lat="33.74521" lon="-118.35814">
        <ele>153.0</ele>
      </trkpt>
      <trkpt lat="33.74521" lon="-118.35814">
        <ele>153.0</ele>
      </trkpt>
      <trkpt lat="33.74521" lon="-118.35814">
        <ele>153.0</ele>
      </trkpt>
      <trkpt lat="33.74488" lon="-118.35761">
        <ele>156.0</ele>
      </trkpt>
      <trkpt lat="33.74492" lon="-118.3571">
        <ele>160.0</ele>
      </trkpt>
      <trkpt lat="33.74489582448443" lon="-118.3569670346644">
        <ele>163.0</ele>
      </trkpt>
      <trkpt lat="33.74489582448667" lon="-118.3569670346644">
        <ele>163.0</ele>
      </trkpt>
      <trkpt lat="33.74488" lon="-118.35688">
        <ele>163.0</ele>
      </trkpt>
      <trkpt lat="33.74477" lon="-118.35677">
        <ele>164.0</ele>
      </trkpt>
      <trkpt lat="33.74456" lon="-118.35674">
        <ele>172.0</ele>
      </trkpt>
      <trkpt lat="33.74394" lon="-118.357">
        <ele>183.0</ele>
      </trkpt>
      <trkpt lat="33.7435" lon="-118.35708">
        <ele>187.0</ele>
      </trkpt>
      <trkpt lat="33.74332" lon="-118.35701">
        <ele>185.0</ele>
      </trkpt>
      <trkpt lat="33.74325" lon="-118.35694">
        <ele>185.0</ele>
      </trkpt>
      <trkpt lat="33.74325" lon="-118.35694">
        <ele>185.0</ele>
      </trkpt>
      <trkpt lat="33.74325" lon="-118.35694">
        <ele>185.0</ele>
      </trkpt>
      <trkpt lat="33.74299" lon="-118.35698">
        <ele>178.0</ele>
      </trkpt>
      <trkpt lat="33.74273889922213" lon="-118.3569667841696">
        <ele>166.0</ele>
      </trkpt>
      <trkpt lat="33.74273889941082" lon="-118.3569667841696">
        <ele>166.0</ele>
      </trkpt>
      <trkpt lat="33.74261" lon="-118.35696">
        <ele>152.0</ele>
      </trkpt>
      <trkpt lat="33.74261" lon="-118.35696">
        <ele>152.0</ele>
      </trkpt>
      <trkpt lat="33.74196056935222" lon="-118.3569902063576">
        <ele>137.0</ele>
      </trkpt>
      <trkpt lat="33.74196056935222" lon="-118.3569902063576">
        <ele>137.0</ele>
      </trkpt>
      <trkpt lat="33.74175" lon="-118.357">
        <ele>129.0</ele>
      </trkpt>
      <trkpt lat="33.74132883811788" lon="-118.357140387294">
        <ele>124.0</ele>
      </trkpt>
      <trkpt lat="33.74132883811788" lon="-118.357140387294">
        <ele>124.0</ele>
      </trkpt>
      <trkpt lat="33.7413" lon="-118.35715">
        <ele>124.0</ele>
      </trkpt>
      <trkpt lat="33.74121" lon="-118.35701">
        <ele>115.0</ele>
      </trkpt>
      <trkpt lat="33.74118" lon="-118.35688">
        <ele>115.0</ele>
      </trkpt>
      <trkpt lat="33.7412" lon="-118.35672">
        <ele>114.0</ele>
      </trkpt>
      <trkpt lat="33.74118" lon="-118.35667">
        <ele>114.0</ele>
      </trkpt>
      <trkpt lat="33.74118" lon="-118.35667">
        <ele>114.0</ele>
      </trkpt>
      <trkpt lat="33.74118" lon="-118.35667">
        <ele>114.0</ele>
      </trkpt>
      <trkpt lat="33.74111" lon="-118.35664">
        <ele>114.0</ele>
      </trkpt>
      <trkpt lat="33.74095" lon="-118.35665">
        <ele>111.0</ele>
      </trkpt>
      <trkpt lat="33.74081918640063" lon="-118.3567395040417">
        <ele>111.0</ele>
      </trkpt>
      <trkpt lat="33.74081918644576" lon="-118.3567395040417">
        <ele>111.0</ele>
      </trkpt>
      <trkpt lat="33.74076" lon="-118.35678">
        <ele>111.0</ele>
      </trkpt>
      <trkpt lat="33.74049159754996" lon="-118.3570720850192">
        <ele>106.0</ele>
      </trkpt>
      <trkpt lat="33.74049159754996" lon="-118.3570720850192">
        <ele>106.0</ele>
      </trkpt>
      <trkpt lat="33.74042" lon="-118.35715">
        <ele>107.0</ele>
      </trkpt>
      <trkpt lat="33.74029" lon="-118.35738">
        <ele>96.0</ele>
      </trkpt>
      <trkpt lat="33.74025" lon="-118.35751">
        <ele>96.0</ele>
      </trkpt>
      <trkpt lat="33.74022" lon="-118.35777">
        <ele>94.0</ele>
      </trkpt>
      <trkpt lat="33.74013" lon="-118.35817">
        <ele>82.0</ele>
      </trkpt>
      <trkpt lat="33.7401274886094" lon="-118.3582013923825">
        <ele>77.0</ele>
      </trkpt>
      <trkpt lat="33.74012748860964" lon="-118.3582013923825">
        <ele>77.0</ele>
      </trkpt>
      <trkpt lat="33.74011" lon="-118.35842">
        <ele>77.0</ele>
      </trkpt>
      <trkpt lat="33.74012" lon="-118.35854">
        <ele>76.0</ele>
      </trkpt>
      <trkpt lat="33.74018" lon="-118.35869">
        <ele>84.0</ele>
      </trkpt>
      <trkpt lat="33.74025" lon="-118.35874">
        <ele>84.0</ele>
      </trkpt>
      <trkpt lat="33.74032" lon="-118.35878">
        <ele>80.0</ele>
      </trkpt>
      <trkpt lat="33.74053" lon="-118.3588">
        <ele>82.0</ele>
      </trkpt>
      <trkpt lat="33.7407" lon="-118.35888">
        <ele>86.0</ele>
      </trkpt>
      <trkpt lat="33.74091" lon="-118.35908">
        <ele>77.0</ele>
      </trkpt>
      <trkpt lat="33.74096" lon="-118.35918">
        <ele>77.0</ele>
      </trkpt>
      <trkpt lat="33.74098" lon="-118.3593">
        <ele>83.0</ele>
      </trkpt>
      <trkpt lat="33.74096" lon="-118.35938">
        <ele>71.0</ele>
      </trkpt>
      <trkpt lat="33.74092" lon="-118.35942">
        <ele>71.0</ele>
      </trkpt>
      <trkpt lat="33.74041" lon="-118.35949">
        <ele>65.0</ele>
      </trkpt>
      <trkpt lat="33.74027" lon="-118.35964">
        <ele>59.0</ele>
      </trkpt>
      <trkpt lat="33.74021" lon="-118.35978">
        <ele>59.0</ele>
      </trkpt>
      <trkpt lat="33.74021" lon="-118.35978">
        <ele>59.0</ele>
      </trkpt>
      <trkpt lat="33.74021" lon="-118.35978">
        <ele>59.0</ele>
      </trkpt>
      <trkpt lat="33.7404885611264" lon="-118.3598587237966">
        <ele>63.0</ele>
      </trkpt>
      <trkpt lat="33.74048856142101" lon="-118.3598587237966">
        <ele>63.0</ele>
      </trkpt>
      <trkpt lat="33.74067" lon="-118.35991">
        <ele>59.0</ele>
      </trkpt>
      <trkpt lat="33.74078" lon="-118.35991">
        <ele>59.0</ele>
      </trkpt>
      <trkpt lat="33.74078" lon="-118.35991">
        <ele>59.0</ele>
      </trkpt>
      <trkpt lat="33.74065" lon="-118.36047">
        <ele>54.0</ele>
      </trkpt>
      <trkpt lat="33.74065" lon="-118.36047">
        <ele>54.0</ele>
      </trkpt>
      <trkpt lat="33.74054" lon="-118.36058">
        <ele>54.0</ele>
      </trkpt>
      <trkpt lat="33.74047" lon="-118.36077">
        <ele>51.0</ele>
      </trkpt>
      <trkpt lat="33.74056" lon="-118.3622">
        <ele>47.0</ele>
      </trkpt>
      <trkpt lat="33.7405598704185" lon="-118.3622007360048">
        <ele>47.0</ele>
      </trkpt>
      <trkpt lat="33.74062774960014" lon="-118.3622181409231">
        <ele>47.0</ele>
      </trkpt>
      <trkpt lat="33.74062774968017" lon="-118.3622181409231">
        <ele>47.0</ele>
      </trkpt>
      <trkpt lat="33.74083" lon="-118.36227">
        <ele>48.0</ele>
      </trkpt>
      <trkpt lat="33.74136" lon="-118.36217">
        <ele>49.0</ele>
      </trkpt>
      <trkpt lat="33.74149" lon="-118.36212">
        <ele>49.0</ele>
      </trkpt>
      <trkpt lat="33.74149" lon="-118.36212">
        <ele>49.0</ele>
      </trkpt>
      <trkpt lat="33.7415604122973" lon="-118.3621792945661">
        <ele>50.0</ele>
      </trkpt>
      <trkpt lat="33.7415604122973" lon="-118.3621792945661">
        <ele>50.0</ele>
      </trkpt>
      <trkpt lat="33.74168" lon="-118.36228">
        <ele>50.0</ele>
      </trkpt>
      <trkpt lat="33.74219" lon="-118.36248">
        <ele>54.0</ele>
      </trkpt>
      <trkpt lat="33.74229" lon="-118.36258">
        <ele>54.0</ele>
      </trkpt>
      <trkpt lat="33.74237" lon="-118.36273">
        <ele>62.0</ele>
      </trkpt>
      <trkpt lat="33.74252" lon="-118.36312">
        <ele>66.0</ele>
      </trkpt>
      <trkpt lat="33.74261" lon="-118.36322">
        <ele>69.0</ele>
      </trkpt>
      <trkpt lat="33.74261" lon="-118.36322">
        <ele>69.0</ele>
      </trkpt>
      <trkpt lat="33.74275" lon="-118.36331">
        <ele>75.0</ele>
      </trkpt>
      <trkpt lat="33.74298" lon="-118.36334">
        <ele>80.0</ele>
      </trkpt>
      <trkpt lat="33.74353" lon="-118.36328">
        <ele>85.0</ele>
      </trkpt>
      <trkpt lat="33.7439" lon="-118.36316">
        <ele>85.0</ele>
      </trkpt>
      <trkpt lat="33.74425" lon="-118.36312">
        <ele>91.0</ele>
      </trkpt>
      <trkpt lat="33.74456" lon="-118.36297">
        <ele>90.0</ele>
      </trkpt>
      <trkpt lat="33.74474" lon="-118.36292">
        <ele>92.0</ele>
      </trkpt>
      <trkpt lat="33.74492197821247" lon="-118.362716184402">
        <ele>94.0</ele>
      </trkpt>
      <trkpt lat="33.74492197828463" lon="-118.362716184402">
        <ele>94.0</ele>
      </trkpt>
      <trkpt lat="33.74499" lon="-118.36264">
        <ele>94.0</ele>
      </trkpt>
      <trkpt lat="33.7451" lon="-118.36246">
        <ele>93.0</ele>
      </trkpt>
      <trkpt lat="33.74518" lon="-118.36225">
        <ele>86.0</ele>
      </trkpt>
      <trkpt lat="33.74527" lon="-118.36211">
        <ele>86.0</ele>
      </trkpt>
      <trkpt lat="33.7454" lon="-118.36201">
        <ele>84.0</ele>
      </trkpt>
      <trkpt lat="33.74566342668804" lon="-118.3619046293248">
        <ele>82.0</ele>
      </trkpt>
      <trkpt lat="33.74566342668804" lon="-118.3619046293248">
        <ele>82.0</ele>
      </trkpt>
      <trkpt lat="33.74575" lon="-118.36187">
        <ele>83.0</ele>
      </trkpt>
      <trkpt lat="33.74575" lon="-118.36187">
        <ele>83.0</ele>
      </trkpt>
      <trkpt lat="33.74575" lon="-118.36187">
        <ele>83.0</ele>
      </trkpt>
      <trkpt lat="33.74591" lon="-118.36221">
        <ele>84.0</ele>
      </trkpt>
      <trkpt lat="33.74672" lon="-118.36345">
        <ele>91.0</ele>
      </trkpt>
      <trkpt lat="33.74696" lon="-118.36365">
        <ele>97.0</ele>
      </trkpt>
      <trkpt lat="33.74696" lon="-118.36365">
        <ele>97.0</ele>
      </trkpt>
      <trkpt lat="33.74696" lon="-118.36365">
        <ele>97.0</ele>
      </trkpt>
      <trkpt lat="33.74764" lon="-118.36389">
        <ele>120.0</ele>
      </trkpt>
      <trkpt lat="33.74772" lon="-118.3639">
        <ele>120.0</ele>
      </trkpt>
      <trkpt lat="33.74782" lon="-118.36382">
        <ele>120.0</ele>
      </trkpt>
      <trkpt lat="33.74785" lon="-118.36372">
        <ele>122.0</ele>
      </trkpt>
      <trkpt lat="33.74789" lon="-118.3633">
        <ele>123.0</ele>
      </trkpt>
      <trkpt lat="33.74787" lon="-118.36303">
        <ele>123.0</ele>
      </trkpt>
      <trkpt lat="33.74787" lon="-118.36303">
        <ele>123.0</ele>
      </trkpt>
      <trkpt lat="33.74774" lon="-118.36245">
        <ele>129.0</ele>
      </trkpt>
      <trkpt lat="33.74769" lon="-118.36209">
        <ele>137.0</ele>
      </trkpt>
      <trkpt lat="33.74769" lon="-118.362">
        <ele>142.0</ele>
      </trkpt>
      <trkpt lat="33.74776" lon="-118.3619">
        <ele>142.0</ele>
      </trkpt>
      <trkpt lat="33.74776" lon="-118.3619">
        <ele>142.0</ele>
      </trkpt>
      <trkpt lat="33.74783" lon="-118.36189">
        <ele>142.0</ele>
      </trkpt>
      <trkpt lat="33.74798" lon="-118.36203">
        <ele>149.0</ele>
      </trkpt>
      <trkpt lat="33.74798" lon="-118.36203">
        <ele>149.0</ele>
      </trkpt>
      <trkpt lat="33.74798" lon="-118.36203">
        <ele>149.0</ele>
      </trkpt>
      <trkpt lat="33.74803" lon="-118.36202">
        <ele>149.0</ele>
      </trkpt>
      <trkpt lat="33.74807" lon="-118.3619">
        <ele>149.0</ele>
      </trkpt>
      <trkpt lat="33.74805" lon="-118.36181">
        <ele>149.0</ele>
      </trkpt>
      <trkpt lat="33.74809" lon="-118.36173">
        <ele>152.0</ele>
      </trkpt>
      <trkpt lat="33.74819" lon="-118.36172">
        <ele>152.0</ele>
      </trkpt>
      <trkpt lat="33.74828" lon="-118.36175">
        <ele>160.0</ele>
      </trkpt>
      <trkpt lat="33.74842" lon="-118.36192">
        <ele>157.0</ele>
      </trkpt>
      <trkpt lat="33.74853" lon="-118.36225">
        <ele>160.0</ele>
      </trkpt>
      <trkpt lat="33.74853" lon="-118.36233">
        <ele>160.0</ele>
      </trkpt>
      <trkpt lat="33.74857" lon="-118.36249">
        <ele>159.0</ele>
      </trkpt>
      <trkpt lat="33.74858" lon="-118.36278">
        <ele>158.0</ele>
      </trkpt>
      <trkpt lat="33.74863" lon="-118.36292">
        <ele>155.0</ele>
      </trkpt>
      <trkpt lat="33.74867" lon="-118.36299">
        <ele>155.0</ele>
      </trkpt>
      <trkpt lat="33.74873" lon="-118.36302">
        <ele>155.0</ele>
      </trkpt>
      <trkpt lat="33.7489" lon="-118.36304">
        <ele>163.0</ele>
      </trkpt>
      <trkpt lat="33.74896" lon="-118.36293">
        <ele>163.0</ele>
      </trkpt>
      <trkpt lat="33.7492" lon="-118.3628">
        <ele>170.0</ele>
      </trkpt>
      <trkpt lat="33.74914" lon="-118.36277">
        <ele>170.0</ele>
      </trkpt>
      <trkpt lat="33.74912" lon="-118.36273">
        <ele>170.0</ele>
      </trkpt>
      <trkpt lat="33.74926" lon="-118.3627">
        <ele>170.0</ele>
      </trkpt>
      <trkpt lat="33.7493" lon="-118.36268">
        <ele>170.0</ele>
      </trkpt>
      <trkpt lat="33.74932" lon="-118.36261">
        <ele>171.0</ele>
      </trkpt>
      <trkpt lat="33.7494" lon="-118.36258">
        <ele>171.0</ele>
      </trkpt>
      <trkpt lat="33.74951" lon="-118.36247">
        <ele>171.0</ele>
      </trkpt>
      <trkpt lat="33.74962" lon="-118.36244">
        <ele>176.0</ele>
      </trkpt>
      <trkpt lat="33.74962" lon="-118.36244">
        <ele>176.0</ele>
      </trkpt>
      <trkpt lat="33.74962" lon="-118.36244">
        <ele>176.0</ele>
      </trkpt>
      <trkpt lat="33.74972" lon="-118.36249">
        <ele>176.0</ele>
      </trkpt>
      <trkpt lat="33.74972" lon="-118.36249">
        <ele>176.0</ele>
      </trkpt>
      <trkpt lat="33.74971" lon="-118.36241">
        <ele>176.0</ele>
      </trkpt>
      <trkpt lat="33.74955" lon="-118.36207">
        <ele>179.0</ele>
      </trkpt>
      <trkpt lat="33.74948" lon="-118.36186">
        <ele>179.0</ele>
      </trkpt>
      <trkpt lat="33.74944" lon="-118.36153">
        <ele>189.0</ele>
      </trkpt>
      <trkpt lat="33.74936" lon="-118.36132">
        <ele>196.0</ele>
      </trkpt>
      <trkpt lat="33.74942" lon="-118.36105">
        <ele>200.0</ele>
      </trkpt>
      <trkpt lat="33.74936" lon="-118.36092">
        <ele>207.0</ele>
      </trkpt>
      <trkpt lat="33.74936" lon="-118.36083">
        <ele>207.0</ele>
      </trkpt>
      <trkpt lat="33.74929" lon="-118.36054">
        <ele>199.0</ele>
      </trkpt>
      <trkpt lat="33.74929" lon="-118.36041">
        <ele>203.0</ele>
      </trkpt>
      <trkpt lat="33.74932" lon="-118.36036">
        <ele>214.0</ele>
      </trkpt>
      <trkpt lat="33.74939" lon="-118.36034">
        <ele>214.0</ele>
      </trkpt>
      <trkpt lat="33.74943" lon="-118.36056">
        <ele>212.0</ele>
      </trkpt>
      <trkpt lat="33.74947" lon="-118.36057">
        <ele>212.0</ele>
      </trkpt>
      <trkpt lat="33.74947589063908" lon="-118.3603461557151">
        <ele>214.0</ele>
      </trkpt>
      <trkpt lat="33.7494758906392" lon="-118.3603461557152">
        <ele>214.0</ele>
      </trkpt>
      <trkpt lat="33.74948" lon="-118.36019">
        <ele>214.0</ele>
      </trkpt>
      <trkpt lat="33.74952" lon="-118.36001">
        <ele>215.0</ele>
      </trkpt>
      <trkpt lat="33.74959" lon="-118.35983">
        <ele>224.0</ele>
      </trkpt>
      <trkpt lat="33.74975" lon="-118.35958">
        <ele>215.0</ele>
      </trkpt>
      <trkpt lat="33.74981" lon="-118.35942">
        <ele>215.0</ele>
      </trkpt>
      <trkpt lat="33.74986" lon="-118.35938">
        <ele>215.0</ele>
      </trkpt>
      <trkpt lat="33.7499" lon="-118.35939">
        <ele>227.0</ele>
      </trkpt>
      <trkpt lat="33.74985" lon="-118.35954">
        <ele>215.0</ele>
      </trkpt>
      <trkpt lat="33.74985" lon="-118.35975">
        <ele>224.0</ele>
      </trkpt>
      <trkpt lat="33.74987" lon="-118.36009">
        <ele>231.0</ele>
      </trkpt>
      <trkpt lat="33.74989" lon="-118.36015">
        <ele>226.0</ele>
      </trkpt>
      <trkpt lat="33.74995" lon="-118.36017">
        <ele>226.0</ele>
      </trkpt>
      <trkpt lat="33.74999" lon="-118.36009">
        <ele>231.0</ele>
      </trkpt>
      <trkpt lat="33.75007" lon="-118.35971">
        <ele>231.0</ele>
      </trkpt>
      <trkpt lat="33.75011" lon="-118.35967">
        <ele>231.0</ele>
      </trkpt>
      <trkpt lat="33.75021" lon="-118.35964">
        <ele>237.0</ele>
      </trkpt>
      <trkpt lat="33.75034" lon="-118.35948">
        <ele>237.0</ele>
      </trkpt>
      <trkpt lat="33.75041" lon="-118.35924">
        <ele>233.0</ele>
      </trkpt>
      <trkpt lat="33.75062" lon="-118.35913">
        <ele>242.0</ele>
      </trkpt>
      <trkpt lat="33.75072" lon="-118.359">
        <ele>244.0</ele>
      </trkpt>
      <trkpt lat="33.7509" lon="-118.35895">
        <ele>244.0</ele>
      </trkpt>
      <trkpt lat="33.75108" lon="-118.35877">
        <ele>252.0</ele>
      </trkpt>
      <trkpt lat="33.7511" lon="-118.35868">
        <ele>253.0</ele>
      </trkpt>
      <trkpt lat="33.7511" lon="-118.3586">
        <ele>253.0</ele>
      </trkpt>
      <trkpt lat="33.75102" lon="-118.35833">
        <ele>255.0</ele>
      </trkpt>
      <trkpt lat="33.75103" lon="-118.35824">
        <ele>255.0</ele>
      </trkpt>
      <trkpt lat="33.75113" lon="-118.35813">
        <ele>254.0</ele>
      </trkpt>
      <trkpt lat="33.75115" lon="-118.35796">
        <ele>254.0</ele>
      </trkpt>
      <trkpt lat="33.7512" lon="-118.35784">
        <ele>250.0</ele>
      </trkpt>
      <trkpt lat="33.75125" lon="-118.3578">
        <ele>250.0</ele>
      </trkpt>
      <trkpt lat="33.75158" lon="-118.3577">
        <ele>273.0</ele>
      </trkpt>
      <trkpt lat="33.75163" lon="-118.35764">
        <ele>273.0</ele>
      </trkpt>
      <trkpt lat="33.75181" lon="-118.35756">
        <ele>276.0</ele>
      </trkpt>
      <trkpt lat="33.7519" lon="-118.35756">
        <ele>276.0</ele>
      </trkpt>
      <trkpt lat="33.7524" lon="-118.35723">
        <ele>274.0</ele>
      </trkpt>
      <trkpt lat="33.7524" lon="-118.35723">
        <ele>274.0</ele>
      </trkpt>
      <trkpt lat="33.7524" lon="-118.35723">
        <ele>274.0</ele>
      </trkpt>
      <trkpt lat="33.7525001530647" lon="-118.3572244359409">
        <ele>274.0</ele>
      </trkpt>
      <trkpt lat="33.7525001530647" lon="-118.3572244359409">
        <ele>274.0</ele>
      </trkpt>
      <trkpt lat="33.75258" lon="-118.35722">
        <ele>274.0</ele>
      </trkpt>
      <trkpt lat="33.75272" lon="-118.35726">
        <ele>274.0</ele>
      </trkpt>
      <trkpt lat="33.75288" lon="-118.3574">
        <ele>272.0</ele>
      </trkpt>
      <trkpt lat="33.7529593941534" lon="-118.3575006950238">
        <ele>275.0</ele>
      </trkpt>
      <trkpt lat="33.7529593941534" lon="-118.3575006950238">
        <ele>275.0</ele>
      </trkpt>
      <trkpt lat="33.75329" lon="-118.35792">
        <ele>274.0</ele>
      </trkpt>
      <trkpt lat="33.75341" lon="-118.35802">
        <ele>274.0</ele>
      </trkpt>
      <trkpt lat="33.75367" lon="-118.35813">
        <ele>276.0</ele>
      </trkpt>
      <trkpt lat="33.75375" lon="-118.35819">
        <ele>276.0</ele>
      </trkpt>
      <trkpt lat="33.75397" lon="-118.35848">
        <ele>276.0</ele>
      </trkpt>
      <trkpt lat="33.75418" lon="-118.35858">
        <ele>278.0</ele>
      </trkpt>
      <trkpt lat="33.75451" lon="-118.35861">
        <ele>282.0</ele>
      </trkpt>
      <trkpt lat="33.7546" lon="-118.35865">
        <ele>290.0</ele>
      </trkpt>
      <trkpt lat="33.75489" lon="-118.35865">
        <ele>295.0</ele>
      </trkpt>
      <trkpt lat="33.75493" lon="-118.35868">
        <ele>295.0</ele>
      </trkpt>
      <trkpt lat="33.75492" lon="-118.35876">
        <ele>295.0</ele>
      </trkpt>
      <trkpt lat="33.75466932220036" lon="-118.3588745955656">
        <ele>290.0</ele>
      </trkpt>
      <trkpt lat="33.75466932234556" lon="-118.3588745955656">
        <ele>290.0</ele>
      </trkpt>
      <trkpt lat="33.75457" lon="-118.35892">
        <ele>283.0</ele>
      </trkpt>
      <trkpt lat="33.75454" lon="-118.35898">
        <ele>283.0</ele>
      </trkpt>
      <trkpt lat="33.75454" lon="-118.35909">
        <ele>289.0</ele>
      </trkpt>
      <trkpt lat="33.7546" lon="-118.3592">
        <ele>293.0</ele>
      </trkpt>
      <trkpt lat="33.75467" lon="-118.35927">
        <ele>293.0</ele>
      </trkpt>
      <trkpt lat="33.75503" lon="-118.35952">
        <ele>301.0</ele>
      </trkpt>
      <trkpt lat="33.75507" lon="-118.3596">
        <ele>303.0</ele>
      </trkpt>
      <trkpt lat="33.7551" lon="-118.35978">
        <ele>303.0</ele>
      </trkpt>
      <trkpt lat="33.7551" lon="-118.35978">
        <ele>303.0</ele>
      </trkpt>
      <trkpt lat="33.7551" lon="-118.35978">
        <ele>303.0</ele>
      </trkpt>
      <trkpt lat="33.75518" lon="-118.35993">
        <ele>310.0</ele>
      </trkpt>
      <trkpt lat="33.75524284363983" lon="-118.3601185309195">
        <ele>310.0</ele>
      </trkpt>
      <trkpt lat="33.75524284363983" lon="-118.3601185309195">
        <ele>310.0</ele>
      </trkpt>
      <trkpt lat="33.75526" lon="-118.36017">
        <ele>310.0</ele>
      </trkpt>
      <trkpt lat="33.75526498128139" lon="-118.3602497005022">
        <ele>310.0</ele>
      </trkpt>
      <trkpt lat="33.75526498128139" lon="-118.3602497005022">
        <ele>310.0</ele>
      </trkpt>
      <trkpt lat="33.75528" lon="-118.36049">
        <ele>310.0</ele>
      </trkpt>
      <trkpt lat="33.75538" lon="-118.36107">
        <ele>309.0</ele>
      </trkpt>
      <trkpt lat="33.75548" lon="-118.36149">
        <ele>321.0</ele>
      </trkpt>
      <trkpt lat="33.7556707436744" lon="-118.3627298338836">
        <ele>327.0</ele>
      </trkpt>
      <trkpt lat="33.7556707436744" lon="-118.3627298338836">
        <ele>327.0</ele>
      </trkpt>
      <trkpt lat="33.75572" lon="-118.36305">
        <ele>342.0</ele>
      </trkpt>
      <trkpt lat="33.75574" lon="-118.36389">
        <ele>343.0</ele>
      </trkpt>
      <trkpt lat="33.75572" lon="-118.3639">
        <ele>343.0</ele>
      </trkpt>
      <trkpt lat="33.75572115972024" lon="-118.3639164017577">
        <ele>343.0</ele>
      </trkpt>
      <trkpt lat="33.75574438779238" lon="-118.3639148641568">
        <ele>343.0</ele>
      </trkpt>
      <trkpt lat="33.75589" lon="-118.36474">
        <ele>342.0</ele>
      </trkpt>
      <trkpt lat="33.75593168371336" lon="-118.3648692195114">
        <ele>343.0</ele>
      </trkpt>
      <trkpt lat="33.75593" lon="-118.36487">
        <ele>343.0</ele>
      </trkpt>
      <trkpt lat="33.75591" lon="-118.36506">
        <ele>343.0</ele>
      </trkpt>
      <trkpt lat="33.75591" lon="-118.36506">
        <ele>343.0</ele>
      </trkpt>
      <trkpt lat="33.75596651036035" lon="-118.3652083396959">
        <ele>344.0</ele>
      </trkpt>
      <trkpt lat="33.75597159809853" lon="-118.3652216950086">
        <ele>344.0</ele>
      </trkpt>
      <trkpt lat="33.75599" lon="-118.36527">
        <ele>348.0</ele>
      </trkpt>
      <trkpt lat="33.75601" lon="-118.36533">
        <ele>348.0</ele>
      </trkpt>
      <trkpt lat="33.75598" lon="-118.36542">
        <ele>347.0</ele>
      </trkpt>
      <trkpt lat="33.75601" lon="-118.36548">
        <ele>347.0</ele>
      </trkpt>
      <trkpt lat="33.7561" lon="-118.36552">
        <ele>347.0</ele>
      </trkpt>
      <trkpt lat="33.75631" lon="-118.36592">
        <ele>347.0</ele>
      </trkpt>
      <trkpt lat="33.75631" lon="-118.36592">
        <ele>347.0</ele>
      </trkpt>
      <trkpt lat="33.75631" lon="-118.36592">
        <ele>347.0</ele>
      </trkpt>
      <trkpt lat="33.75637551348414" lon="-118.365965355489">
        <ele>347.0</ele>
      </trkpt>
      <trkpt lat="33.75637551355847" lon="-118.365965355489">
        <ele>347.0</ele>
      </trkpt>
      <trkpt lat="33.75657" lon="-118.3661">
        <ele>348.0</ele>
      </trkpt>
      <trkpt lat="33.75665" lon="-118.36608">
        <ele>348.0</ele>
      </trkpt>
      <trkpt lat="33.75665682461572" lon="-118.3660723222382">
        <ele>348.0</ele>
      </trkpt>
      <trkpt lat="33.75715" lon="-118.3667">
        <ele>352.0</ele>
      </trkpt>
      <trkpt lat="33.75715" lon="-118.3667">
        <ele>352.0</ele>
      </trkpt>
      <trkpt lat="33.75748" lon="-118.36712">
        <ele>354.0</ele>
      </trkpt>
      <trkpt lat="33.75764" lon="-118.36725">
        <ele>356.0</ele>
      </trkpt>
    </trkseg>
  </trk>
</gpx>
