<?xml version="1.0" encoding="UTF-8"?>
<gpx xmlns:xsi="http://www.w3.org/2001/XMLSchema-instance" version="1.1" creator="The Outbound Collective, Inc. 1.1.1 -- https://www.theoutbound.com" xsi:schemaLocation="http://www.topografix.com/GPX/1/1 http://www.topografix.com/GPX/1/1/gpx.xsd">
  <metadata>
    <name/>
    <time>2026-02-19T21:56:58+00:00</time>
    <bound minlat="34.46488" minlon="-119.71281" maxlat="34.49556" maxlon="-119.6968"/>
  </metadata>
  <trk>
    <name/>
    <trkseg>
      <trkpt lat="34.46488196365828" lon="-119.7128033638001">
        <ele>302.0</ele>
      </trkpt>
      <trkpt lat="34.46488" lon="-119.71281">
        <ele>302.0</ele>
      </trkpt>
      <trkpt lat="34.46488" lon="-119.71281">
        <ele>302.0</ele>
      </trkpt>
      <trkpt lat="34.46488" lon="-119.71281">
        <ele>302.0</ele>
      </trkpt>
      <trkpt lat="34.46536" lon="-119.71195">
        <ele>303.0</ele>
      </trkpt>
      <trkpt lat="34.46551" lon="-119.7114">
        <ele>309.0</ele>
      </trkpt>
      <trkpt lat="34.46556" lon="-119.71132">
        <ele>309.0</ele>
      </trkpt>
      <trkpt lat="34.46579" lon="-119.71109">
        <ele>312.0</ele>
      </trkpt>
      <trkpt lat="34.46585" lon="-119.71107">
        <ele>312.0</ele>
      </trkpt>
      <trkpt lat="34.46592" lon="-119.71109">
        <ele>312.0</ele>
      </trkpt>
      <trkpt lat="34.46608" lon="-119.71121">
        <ele>313.0</ele>
      </trkpt>
      <trkpt lat="34.46621" lon="-119.71124">
        <ele>313.0</ele>
      </trkpt>
      <trkpt lat="34.46634" lon="-119.7113">
        <ele>324.0</ele>
      </trkpt>
      <trkpt lat="34.46654" lon="-119.7112">
        <ele>327.0</ele>
      </trkpt>
      <trkpt lat="34.46676" lon="-119.71131">
        <ele>328.0</ele>
      </trkpt>
      <trkpt lat="34.46686" lon="-119.71139">
        <ele>337.0</ele>
      </trkpt>
      <trkpt lat="34.46694" lon="-119.71137">
        <ele>337.0</ele>
      </trkpt>
      <trkpt lat="34.46698" lon="-119.71126">
        <ele>337.0</ele>
      </trkpt>
      <trkpt lat="34.467" lon="-119.71096">
        <ele>334.0</ele>
      </trkpt>
      <trkpt lat="34.46689" lon="-119.71075">
        <ele>334.0</ele>
      </trkpt>
      <trkpt lat="34.46683" lon="-119.71058">
        <ele>336.0</ele>
      </trkpt>
      <trkpt lat="34.46682" lon="-119.71045">
        <ele>336.0</ele>
      </trkpt>
      <trkpt lat="34.4668243096781" lon="-119.7104155225752">
        <ele>337.0</ele>
      </trkpt>
      <trkpt lat="34.4668243096798" lon="-119.7104155225752">
        <ele>337.0</ele>
      </trkpt>
      <trkpt lat="34.46689" lon="-119.70989">
        <ele>333.0</ele>
      </trkpt>
      <trkpt lat="34.46692" lon="-119.70982">
        <ele>328.0</ele>
      </trkpt>
      <trkpt lat="34.46717" lon="-119.70954">
        <ele>333.0</ele>
      </trkpt>
      <trkpt lat="34.46728" lon="-119.70955">
        <ele>333.0</ele>
      </trkpt>
      <trkpt lat="34.46739" lon="-119.70962">
        <ele>347.0</ele>
      </trkpt>
      <trkpt lat="34.46761" lon="-119.70964">
        <ele>347.0</ele>
      </trkpt>
      <trkpt lat="34.46799" lon="-119.70947">
        <ele>361.0</ele>
      </trkpt>
      <trkpt lat="34.46801" lon="-119.70942">
        <ele>361.0</ele>
      </trkpt>
      <trkpt lat="34.468" lon="-119.70933">
        <ele>361.0</ele>
      </trkpt>
      <trkpt lat="34.46781" lon="-119.70891">
        <ele>345.0</ele>
      </trkpt>
      <trkpt lat="34.46777" lon="-119.70877">
        <ele>345.0</ele>
      </trkpt>
      <trkpt lat="34.46778" lon="-119.70869">
        <ele>343.0</ele>
      </trkpt>
      <trkpt lat="34.46784" lon="-119.70856">
        <ele>343.0</ele>
      </trkpt>
      <trkpt lat="34.46802" lon="-119.70832">
        <ele>353.0</ele>
      </trkpt>
      <trkpt lat="34.46825" lon="-119.70821">
        <ele>364.0</ele>
      </trkpt>
      <trkpt lat="34.4683" lon="-119.70815">
        <ele>359.0</ele>
      </trkpt>
      <trkpt lat="34.46832" lon="-119.70807">
        <ele>359.0</ele>
      </trkpt>
      <trkpt lat="34.46829" lon="-119.70786">
        <ele>355.0</ele>
      </trkpt>
      <trkpt lat="34.4683" lon="-119.70774">
        <ele>355.0</ele>
      </trkpt>
      <trkpt lat="34.4683" lon="-119.70774">
        <ele>355.0</ele>
      </trkpt>
      <trkpt lat="34.4683" lon="-119.70774">
        <ele>355.0</ele>
      </trkpt>
      <trkpt lat="34.4685" lon="-119.70746">
        <ele>363.0</ele>
      </trkpt>
      <trkpt lat="34.46856753383393" lon="-119.7074293028028">
        <ele>363.0</ele>
      </trkpt>
      <trkpt lat="34.46856753389562" lon="-119.7074293028028">
        <ele>363.0</ele>
      </trkpt>
      <trkpt lat="34.46872" lon="-119.70736">
        <ele>361.0</ele>
      </trkpt>
      <trkpt lat="34.46879" lon="-119.70721">
        <ele>370.0</ele>
      </trkpt>
      <trkpt lat="34.46882" lon="-119.70703">
        <ele>365.0</ele>
      </trkpt>
      <trkpt lat="34.46882" lon="-119.70703">
        <ele>365.0</ele>
      </trkpt>
      <trkpt lat="34.46885" lon="-119.7069">
        <ele>365.0</ele>
      </trkpt>
      <trkpt lat="34.4689" lon="-119.70683">
        <ele>365.0</ele>
      </trkpt>
      <trkpt lat="34.46894" lon="-119.70684">
        <ele>365.0</ele>
      </trkpt>
      <trkpt lat="34.46908" lon="-119.70697">
        <ele>370.0</ele>
      </trkpt>
      <trkpt lat="34.4692" lon="-119.70703">
        <ele>370.0</ele>
      </trkpt>
      <trkpt lat="34.4692" lon="-119.70703">
        <ele>370.0</ele>
      </trkpt>
      <trkpt lat="34.46952" lon="-119.70727">
        <ele>374.0</ele>
      </trkpt>
      <trkpt lat="34.46961" lon="-119.70741">
        <ele>371.0</ele>
      </trkpt>
      <trkpt lat="34.46966" lon="-119.70743">
        <ele>371.0</ele>
      </trkpt>
      <trkpt lat="34.46981" lon="-119.70744">
        <ele>371.0</ele>
      </trkpt>
      <trkpt lat="34.46985" lon="-119.70736">
        <ele>371.0</ele>
      </trkpt>
      <trkpt lat="34.46985" lon="-119.70736">
        <ele>371.0</ele>
      </trkpt>
      <trkpt lat="34.46987" lon="-119.7073">
        <ele>375.0</ele>
      </trkpt>
      <trkpt lat="34.46987" lon="-119.7073">
        <ele>375.0</ele>
      </trkpt>
      <trkpt lat="34.46986" lon="-119.70723">
        <ele>371.0</ele>
      </trkpt>
      <trkpt lat="34.46974" lon="-119.70703">
        <ele>374.0</ele>
      </trkpt>
      <trkpt lat="34.46974" lon="-119.70703">
        <ele>374.0</ele>
      </trkpt>
      <trkpt lat="34.46966" lon="-119.70672">
        <ele>376.0</ele>
      </trkpt>
      <trkpt lat="34.46966" lon="-119.70654">
        <ele>376.0</ele>
      </trkpt>
      <trkpt lat="34.46963" lon="-119.70636">
        <ele>377.0</ele>
      </trkpt>
      <trkpt lat="34.46965" lon="-119.7062">
        <ele>375.0</ele>
      </trkpt>
      <trkpt lat="34.46975" lon="-119.70599">
        <ele>375.0</ele>
      </trkpt>
      <trkpt lat="34.4698" lon="-119.70594">
        <ele>370.0</ele>
      </trkpt>
      <trkpt lat="34.47012" lon="-119.70599">
        <ele>381.0</ele>
      </trkpt>
      <trkpt lat="34.47012" lon="-119.70599">
        <ele>381.0</ele>
      </trkpt>
      <trkpt lat="34.47034" lon="-119.70613">
        <ele>387.0</ele>
      </trkpt>
      <trkpt lat="34.47034" lon="-119.70613">
        <ele>387.0</ele>
      </trkpt>
      <trkpt lat="34.4705" lon="-119.70634">
        <ele>397.0</ele>
      </trkpt>
      <trkpt lat="34.47058" lon="-119.70675">
        <ele>399.0</ele>
      </trkpt>
      <trkpt lat="34.47065" lon="-119.7069">
        <ele>399.0</ele>
      </trkpt>
      <trkpt lat="34.47065" lon="-119.7069">
        <ele>399.0</ele>
      </trkpt>
      <trkpt lat="34.47072" lon="-119.7068">
        <ele>406.0</ele>
      </trkpt>
      <trkpt lat="34.47075" lon="-119.70671">
        <ele>406.0</ele>
      </trkpt>
      <trkpt lat="34.47076" lon="-119.70642">
        <ele>404.0</ele>
      </trkpt>
      <trkpt lat="34.4708" lon="-119.70628">
        <ele>404.0</ele>
      </trkpt>
      <trkpt lat="34.4709" lon="-119.70615">
        <ele>405.0</ele>
      </trkpt>
      <trkpt lat="34.47112554468849" lon="-119.7059752028664">
        <ele>413.0</ele>
      </trkpt>
      <trkpt lat="34.47112554492422" lon="-119.7059752028664">
        <ele>413.0</ele>
      </trkpt>
      <trkpt lat="34.4713" lon="-119.70584">
        <ele>422.0</ele>
      </trkpt>
      <trkpt lat="34.4715" lon="-119.70536">
        <ele>414.0</ele>
      </trkpt>
      <trkpt lat="34.47167" lon="-119.70525">
        <ele>428.0</ele>
      </trkpt>
      <trkpt lat="34.47176" lon="-119.70526">
        <ele>428.0</ele>
      </trkpt>
      <trkpt lat="34.47178" lon="-119.70511">
        <ele>427.0</ele>
      </trkpt>
      <trkpt lat="34.47197" lon="-119.70491">
        <ele>441.0</ele>
      </trkpt>
      <trkpt lat="34.472" lon="-119.70484">
        <ele>444.0</ele>
      </trkpt>
      <trkpt lat="34.47212" lon="-119.70479">
        <ele>452.0</ele>
      </trkpt>
      <trkpt lat="34.47228" lon="-119.70467">
        <ele>452.0</ele>
      </trkpt>
      <trkpt lat="34.47228" lon="-119.70449">
        <ele>455.0</ele>
      </trkpt>
      <trkpt lat="34.47221" lon="-119.70425">
        <ele>459.0</ele>
      </trkpt>
      <trkpt lat="34.47222" lon="-119.7041">
        <ele>459.0</ele>
      </trkpt>
      <trkpt lat="34.47218" lon="-119.70401">
        <ele>463.0</ele>
      </trkpt>
      <trkpt lat="34.47207" lon="-119.70401">
        <ele>454.0</ele>
      </trkpt>
      <trkpt lat="34.47205" lon="-119.70398">
        <ele>454.0</ele>
      </trkpt>
      <trkpt lat="34.47202" lon="-119.70389">
        <ele>454.0</ele>
      </trkpt>
      <trkpt lat="34.47216" lon="-119.70377">
        <ele>463.0</ele>
      </trkpt>
      <trkpt lat="34.47224" lon="-119.70356">
        <ele>466.0</ele>
      </trkpt>
      <trkpt lat="34.47223" lon="-119.70342">
        <ele>467.0</ele>
      </trkpt>
      <trkpt lat="34.47236" lon="-119.70315">
        <ele>470.0</ele>
      </trkpt>
      <trkpt lat="34.47238" lon="-119.70301">
        <ele>483.0</ele>
      </trkpt>
      <trkpt lat="34.47243870310591" lon="-119.7028925937882">
        <ele>484.0</ele>
      </trkpt>
      <trkpt lat="34.47243870310591" lon="-119.7028925937882">
        <ele>484.0</ele>
      </trkpt>
      <trkpt lat="34.47247" lon="-119.70283">
        <ele>484.0</ele>
      </trkpt>
      <trkpt lat="34.47248" lon="-119.70265">
        <ele>484.0</ele>
      </trkpt>
      <trkpt lat="34.4726" lon="-119.70251">
        <ele>483.0</ele>
      </trkpt>
      <trkpt lat="34.47262" lon="-119.70241">
        <ele>483.0</ele>
      </trkpt>
      <trkpt lat="34.47258" lon="-119.70228">
        <ele>477.0</ele>
      </trkpt>
      <trkpt lat="34.47261" lon="-119.70216">
        <ele>477.0</ele>
      </trkpt>
      <trkpt lat="34.47267" lon="-119.7021">
        <ele>493.0</ele>
      </trkpt>
      <trkpt lat="34.47291" lon="-119.70211">
        <ele>493.0</ele>
      </trkpt>
      <trkpt lat="34.47306" lon="-119.70209">
        <ele>508.0</ele>
      </trkpt>
      <trkpt lat="34.47315" lon="-119.70198">
        <ele>501.0</ele>
      </trkpt>
      <trkpt lat="34.47317" lon="-119.7018">
        <ele>494.0</ele>
      </trkpt>
      <trkpt lat="34.4732" lon="-119.70177">
        <ele>507.0</ele>
      </trkpt>
      <trkpt lat="34.47323" lon="-119.70195">
        <ele>514.0</ele>
      </trkpt>
      <trkpt lat="34.47321" lon="-119.70212">
        <ele>520.0</ele>
      </trkpt>
      <trkpt lat="34.47317" lon="-119.70225">
        <ele>508.0</ele>
      </trkpt>
      <trkpt lat="34.47307" lon="-119.7023">
        <ele>508.0</ele>
      </trkpt>
      <trkpt lat="34.47303" lon="-119.70239">
        <ele>515.0</ele>
      </trkpt>
      <trkpt lat="34.47303" lon="-119.7026">
        <ele>515.0</ele>
      </trkpt>
      <trkpt lat="34.47306" lon="-119.70272">
        <ele>519.0</ele>
      </trkpt>
      <trkpt lat="34.47302" lon="-119.70283">
        <ele>519.0</ele>
      </trkpt>
      <trkpt lat="34.47306" lon="-119.70295">
        <ele>519.0</ele>
      </trkpt>
      <trkpt lat="34.47310001292404" lon="-119.7029675056543">
        <ele>519.0</ele>
      </trkpt>
      <trkpt lat="34.47310001295281" lon="-119.7029675056543">
        <ele>519.0</ele>
      </trkpt>
      <trkpt lat="34.47322" lon="-119.70302">
        <ele>528.0</ele>
      </trkpt>
      <trkpt lat="34.47335" lon="-119.70303">
        <ele>528.0</ele>
      </trkpt>
      <trkpt lat="34.47347" lon="-119.70297">
        <ele>528.0</ele>
      </trkpt>
      <trkpt lat="34.47363" lon="-119.70301">
        <ele>537.0</ele>
      </trkpt>
      <trkpt lat="34.47379" lon="-119.70301">
        <ele>539.0</ele>
      </trkpt>
      <trkpt lat="34.47391" lon="-119.70305">
        <ele>539.0</ele>
      </trkpt>
      <trkpt lat="34.47408" lon="-119.7029">
        <ele>556.0</ele>
      </trkpt>
      <trkpt lat="34.47426" lon="-119.70279">
        <ele>556.0</ele>
      </trkpt>
      <trkpt lat="34.47427" lon="-119.70276">
        <ele>556.0</ele>
      </trkpt>
      <trkpt lat="34.47414" lon="-119.70278">
        <ele>556.0</ele>
      </trkpt>
      <trkpt lat="34.47403" lon="-119.70276">
        <ele>556.0</ele>
      </trkpt>
      <trkpt lat="34.47389" lon="-119.70265">
        <ele>547.0</ele>
      </trkpt>
      <trkpt lat="34.4739" lon="-119.70263">
        <ele>551.0</ele>
      </trkpt>
      <trkpt lat="34.47407" lon="-119.70266">
        <ele>556.0</ele>
      </trkpt>
      <trkpt lat="34.47429" lon="-119.70257">
        <ele>563.0</ele>
      </trkpt>
      <trkpt lat="34.47407" lon="-119.70251">
        <ele>563.0</ele>
      </trkpt>
      <trkpt lat="34.47396" lon="-119.70239">
        <ele>551.0</ele>
      </trkpt>
      <trkpt lat="34.47395" lon="-119.70228">
        <ele>548.0</ele>
      </trkpt>
      <trkpt lat="34.47405" lon="-119.70219">
        <ele>567.0</ele>
      </trkpt>
      <trkpt lat="34.47415" lon="-119.70222">
        <ele>567.0</ele>
      </trkpt>
      <trkpt lat="34.47422" lon="-119.70229">
        <ele>567.0</ele>
      </trkpt>
      <trkpt lat="34.47443" lon="-119.70233">
        <ele>583.0</ele>
      </trkpt>
      <trkpt lat="34.47479" lon="-119.70201">
        <ele>605.0</ele>
      </trkpt>
      <trkpt lat="34.47503" lon="-119.70194">
        <ele>618.0</ele>
      </trkpt>
      <trkpt lat="34.47502" lon="-119.70191">
        <ele>618.0</ele>
      </trkpt>
      <trkpt lat="34.47494" lon="-119.70193">
        <ele>618.0</ele>
      </trkpt>
      <trkpt lat="34.47483" lon="-119.7019">
        <ele>605.0</ele>
      </trkpt>
      <trkpt lat="34.47469" lon="-119.70191">
        <ele>605.0</ele>
      </trkpt>
      <trkpt lat="34.47495" lon="-119.70178">
        <ele>632.0</ele>
      </trkpt>
      <trkpt lat="34.47506" lon="-119.70168">
        <ele>632.0</ele>
      </trkpt>
      <trkpt lat="34.47518" lon="-119.70168">
        <ele>638.0</ele>
      </trkpt>
      <trkpt lat="34.4752" lon="-119.70165">
        <ele>638.0</ele>
      </trkpt>
      <trkpt lat="34.47506" lon="-119.70159">
        <ele>632.0</ele>
      </trkpt>
      <trkpt lat="34.47485" lon="-119.70164">
        <ele>618.0</ele>
      </trkpt>
      <trkpt lat="34.4748" lon="-119.70161">
        <ele>618.0</ele>
      </trkpt>
      <trkpt lat="34.47479" lon="-119.70148">
        <ele>626.0</ele>
      </trkpt>
      <trkpt lat="34.47496" lon="-119.70077">
        <ele>642.0</ele>
      </trkpt>
      <trkpt lat="34.47501" lon="-119.70071">
        <ele>642.0</ele>
      </trkpt>
      <trkpt lat="34.47511" lon="-119.7005">
        <ele>638.0</ele>
      </trkpt>
      <trkpt lat="34.47519" lon="-119.70041">
        <ele>645.0</ele>
      </trkpt>
      <trkpt lat="34.47543902601592" lon="-119.70041">
        <ele>654.0</ele>
      </trkpt>
      <trkpt lat="34.47543902601592" lon="-119.70041">
        <ele>654.0</ele>
      </trkpt>
      <trkpt lat="34.47547" lon="-119.70041">
        <ele>654.0</ele>
      </trkpt>
      <trkpt lat="34.47556" lon="-119.70035">
        <ele>654.0</ele>
      </trkpt>
      <trkpt lat="34.47573" lon="-119.7001">
        <ele>657.0</ele>
      </trkpt>
      <trkpt lat="34.47583" lon="-119.70003">
        <ele>657.0</ele>
      </trkpt>
      <trkpt lat="34.47595" lon="-119.69999">
        <ele>657.0</ele>
      </trkpt>
      <trkpt lat="34.47605" lon="-119.69953">
        <ele>667.0</ele>
      </trkpt>
      <trkpt lat="34.47604" lon="-119.69916">
        <ele>673.0</ele>
      </trkpt>
      <trkpt lat="34.47606" lon="-119.699">
        <ele>677.0</ele>
      </trkpt>
      <trkpt lat="34.47611" lon="-119.69899">
        <ele>677.0</ele>
      </trkpt>
      <trkpt lat="34.47611" lon="-119.69906">
        <ele>673.0</ele>
      </trkpt>
      <trkpt lat="34.47619" lon="-119.69912">
        <ele>673.0</ele>
      </trkpt>
      <trkpt lat="34.47626" lon="-119.69899">
        <ele>695.0</ele>
      </trkpt>
      <trkpt lat="34.47636" lon="-119.69889">
        <ele>695.0</ele>
      </trkpt>
      <trkpt lat="34.47647" lon="-119.69883">
        <ele>695.0</ele>
      </trkpt>
      <trkpt lat="34.47656" lon="-119.69885">
        <ele>704.0</ele>
      </trkpt>
      <trkpt lat="34.47665" lon="-119.6988">
        <ele>704.0</ele>
      </trkpt>
      <trkpt lat="34.47676" lon="-119.69885">
        <ele>704.0</ele>
      </trkpt>
      <trkpt lat="34.47684" lon="-119.69904">
        <ele>701.0</ele>
      </trkpt>
      <trkpt lat="34.47692" lon="-119.69912">
        <ele>701.0</ele>
      </trkpt>
      <trkpt lat="34.47713" lon="-119.6991">
        <ele>716.0</ele>
      </trkpt>
      <trkpt lat="34.47721" lon="-119.69914">
        <ele>716.0</ele>
      </trkpt>
      <trkpt lat="34.47725" lon="-119.69913">
        <ele>716.0</ele>
      </trkpt>
      <trkpt lat="34.47744" lon="-119.69923">
        <ele>729.0</ele>
      </trkpt>
      <trkpt lat="34.47759" lon="-119.6992">
        <ele>729.0</ele>
      </trkpt>
      <trkpt lat="34.47769" lon="-119.69934">
        <ele>733.0</ele>
      </trkpt>
      <trkpt lat="34.47769" lon="-119.69941">
        <ele>733.0</ele>
      </trkpt>
      <trkpt lat="34.47777" lon="-119.69956">
        <ele>733.0</ele>
      </trkpt>
      <trkpt lat="34.4777" lon="-119.6998">
        <ele>723.0</ele>
      </trkpt>
      <trkpt lat="34.47779" lon="-119.69997">
        <ele>713.0</ele>
      </trkpt>
      <trkpt lat="34.47789" lon="-119.7001">
        <ele>713.0</ele>
      </trkpt>
      <trkpt lat="34.478" lon="-119.70015">
        <ele>714.0</ele>
      </trkpt>
      <trkpt lat="34.47807" lon="-119.70021">
        <ele>714.0</ele>
      </trkpt>
      <trkpt lat="34.47818" lon="-119.70035">
        <ele>714.0</ele>
      </trkpt>
      <trkpt lat="34.47826" lon="-119.70038">
        <ele>718.0</ele>
      </trkpt>
      <trkpt lat="34.47826" lon="-119.70038">
        <ele>718.0</ele>
      </trkpt>
      <trkpt lat="34.47826" lon="-119.70038">
        <ele>718.0</ele>
      </trkpt>
      <trkpt lat="34.47829" lon="-119.70033">
        <ele>718.0</ele>
      </trkpt>
      <trkpt lat="34.47835" lon="-119.69999">
        <ele>724.0</ele>
      </trkpt>
      <trkpt lat="34.47831" lon="-119.69957">
        <ele>731.0</ele>
      </trkpt>
      <trkpt lat="34.47831" lon="-119.69911">
        <ele>734.0</ele>
      </trkpt>
      <trkpt lat="34.4783064088132" lon="-119.6990940961728">
        <ele>734.0</ele>
      </trkpt>
      <trkpt lat="34.47830640881462" lon="-119.6990940961728">
        <ele>734.0</ele>
      </trkpt>
      <trkpt lat="34.47824" lon="-119.6988">
        <ele>738.0</ele>
      </trkpt>
      <trkpt lat="34.47833" lon="-119.69831">
        <ele>746.0</ele>
      </trkpt>
      <trkpt lat="34.47834" lon="-119.69808">
        <ele>750.0</ele>
      </trkpt>
      <trkpt lat="34.47833" lon="-119.6976">
        <ele>753.0</ele>
      </trkpt>
      <trkpt lat="34.47828" lon="-119.69722">
        <ele>754.0</ele>
      </trkpt>
      <trkpt lat="34.47828" lon="-119.69722">
        <ele>754.0</ele>
      </trkpt>
      <trkpt lat="34.47843" lon="-119.69715">
        <ele>754.0</ele>
      </trkpt>
      <trkpt lat="34.47852" lon="-119.69683">
        <ele>761.0</ele>
      </trkpt>
      <trkpt lat="34.47856" lon="-119.6968">
        <ele>765.0</ele>
      </trkpt>
      <trkpt lat="34.47862" lon="-119.69681">
        <ele>761.0</ele>
      </trkpt>
      <trkpt lat="34.47888" lon="-119.69699">
        <ele>767.0</ele>
      </trkpt>
      <trkpt lat="34.47899" lon="-119.6972">
        <ele>760.0</ele>
      </trkpt>
      <trkpt lat="34.47915" lon="-119.69736">
        <ele>767.0</ele>
      </trkpt>
      <trkpt lat="34.47933" lon="-119.69743">
        <ele>765.0</ele>
      </trkpt>
      <trkpt lat="34.47959" lon="-119.6973">
        <ele>789.0</ele>
      </trkpt>
      <trkpt lat="34.47979" lon="-119.69748">
        <ele>775.0</ele>
      </trkpt>
      <trkpt lat="34.48013" lon="-119.6976">
        <ele>784.0</ele>
      </trkpt>
      <trkpt lat="34.48053" lon="-119.69765">
        <ele>774.0</ele>
      </trkpt>
      <trkpt lat="34.48068" lon="-119.69777">
        <ele>774.0</ele>
      </trkpt>
      <trkpt lat="34.48076" lon="-119.69777">
        <ele>777.0</ele>
      </trkpt>
      <trkpt lat="34.48083" lon="-119.69766">
        <ele>777.0</ele>
      </trkpt>
      <trkpt lat="34.48109" lon="-119.69758">
        <ele>783.0</ele>
      </trkpt>
      <trkpt lat="34.4815" lon="-119.69722">
        <ele>787.0</ele>
      </trkpt>
      <trkpt lat="34.48168" lon="-119.6969">
        <ele>789.0</ele>
      </trkpt>
      <trkpt lat="34.48177" lon="-119.69685">
        <ele>789.0</ele>
      </trkpt>
      <trkpt lat="34.48198" lon="-119.69693">
        <ele>793.0</ele>
      </trkpt>
      <trkpt lat="34.48203" lon="-119.69703">
        <ele>793.0</ele>
      </trkpt>
      <trkpt lat="34.48217" lon="-119.69718">
        <ele>797.0</ele>
      </trkpt>
      <trkpt lat="34.4822" lon="-119.69732">
        <ele>797.0</ele>
      </trkpt>
      <trkpt lat="34.48228" lon="-119.69744">
        <ele>785.0</ele>
      </trkpt>
      <trkpt lat="34.48242" lon="-119.69753">
        <ele>798.0</ele>
      </trkpt>
      <trkpt lat="34.48254" lon="-119.69765">
        <ele>782.0</ele>
      </trkpt>
      <trkpt lat="34.48276" lon="-119.69767">
        <ele>791.0</ele>
      </trkpt>
      <trkpt lat="34.48284" lon="-119.69762">
        <ele>800.0</ele>
      </trkpt>
      <trkpt lat="34.48286" lon="-119.69755">
        <ele>800.0</ele>
      </trkpt>
      <trkpt lat="34.48293" lon="-119.69749">
        <ele>805.0</ele>
      </trkpt>
      <trkpt lat="34.48324" lon="-119.69767">
        <ele>803.0</ele>
      </trkpt>
      <trkpt lat="34.48343" lon="-119.69781">
        <ele>803.0</ele>
      </trkpt>
      <trkpt lat="34.48353" lon="-119.69801">
        <ele>813.0</ele>
      </trkpt>
      <trkpt lat="34.48368" lon="-119.69822">
        <ele>804.0</ele>
      </trkpt>
      <trkpt lat="34.48373" lon="-119.69834">
        <ele>804.0</ele>
      </trkpt>
      <trkpt lat="34.48368" lon="-119.69847">
        <ele>804.0</ele>
      </trkpt>
      <trkpt lat="34.48369" lon="-119.69859">
        <ele>797.0</ele>
      </trkpt>
      <trkpt lat="34.48377" lon="-119.6987">
        <ele>817.0</ele>
      </trkpt>
      <trkpt lat="34.48382" lon="-119.69906">
        <ele>803.0</ele>
      </trkpt>
      <trkpt lat="34.48381" lon="-119.69917">
        <ele>803.0</ele>
      </trkpt>
      <trkpt lat="34.48388" lon="-119.69927">
        <ele>803.0</ele>
      </trkpt>
      <trkpt lat="34.48411" lon="-119.69941">
        <ele>808.0</ele>
      </trkpt>
      <trkpt lat="34.48426" lon="-119.69954">
        <ele>808.0</ele>
      </trkpt>
      <trkpt lat="34.48433" lon="-119.69962">
        <ele>805.0</ele>
      </trkpt>
      <trkpt lat="34.48447" lon="-119.69965">
        <ele>805.0</ele>
      </trkpt>
      <trkpt lat="34.48454" lon="-119.69976">
        <ele>805.0</ele>
      </trkpt>
      <trkpt lat="34.48463" lon="-119.69981">
        <ele>827.0</ele>
      </trkpt>
      <trkpt lat="34.48467" lon="-119.69995">
        <ele>810.0</ele>
      </trkpt>
      <trkpt lat="34.48479" lon="-119.69995">
        <ele>810.0</ele>
      </trkpt>
      <trkpt lat="34.48489" lon="-119.7">
        <ele>824.0</ele>
      </trkpt>
      <trkpt lat="34.48497" lon="-119.6999">
        <ele>824.0</ele>
      </trkpt>
      <trkpt lat="34.48503" lon="-119.69994">
        <ele>824.0</ele>
      </trkpt>
      <trkpt lat="34.485" lon="-119.70005">
        <ele>824.0</ele>
      </trkpt>
      <trkpt lat="34.48506" lon="-119.70008">
        <ele>824.0</ele>
      </trkpt>
      <trkpt lat="34.48527" lon="-119.70001">
        <ele>835.0</ele>
      </trkpt>
      <trkpt lat="34.48531" lon="-119.70014">
        <ele>834.0</ele>
      </trkpt>
      <trkpt lat="34.48521" lon="-119.70035">
        <ele>834.0</ele>
      </trkpt>
      <trkpt lat="34.48507" lon="-119.70039">
        <ele>816.0</ele>
      </trkpt>
      <trkpt lat="34.48492" lon="-119.70046">
        <ele>815.0</ele>
      </trkpt>
      <trkpt lat="34.48488713458185" lon="-119.7005421635454">
        <ele>815.0</ele>
      </trkpt>
      <trkpt lat="34.48488713458327" lon="-119.7005421635454">
        <ele>815.0</ele>
      </trkpt>
      <trkpt lat="34.48488" lon="-119.70056">
        <ele>815.0</ele>
      </trkpt>
      <trkpt lat="34.48489" lon="-119.70072">
        <ele>817.0</ele>
      </trkpt>
      <trkpt lat="34.48515" lon="-119.70125">
        <ele>836.0</ele>
      </trkpt>
      <trkpt lat="34.48522" lon="-119.70174">
        <ele>845.0</ele>
      </trkpt>
      <trkpt lat="34.48521" lon="-119.70186">
        <ele>845.0</ele>
      </trkpt>
      <trkpt lat="34.48504" lon="-119.70211">
        <ele>831.0</ele>
      </trkpt>
      <trkpt lat="34.48505" lon="-119.70215">
        <ele>831.0</ele>
      </trkpt>
      <trkpt lat="34.48529" lon="-119.70215">
        <ele>841.0</ele>
      </trkpt>
      <trkpt lat="34.4856" lon="-119.70224">
        <ele>849.0</ele>
      </trkpt>
      <trkpt lat="34.48569" lon="-119.70216">
        <ele>849.0</ele>
      </trkpt>
      <trkpt lat="34.48574" lon="-119.70208">
        <ele>863.0</ele>
      </trkpt>
      <trkpt lat="34.48584" lon="-119.70169">
        <ele>876.0</ele>
      </trkpt>
      <trkpt lat="34.48588" lon="-119.70133">
        <ele>883.0</ele>
      </trkpt>
      <trkpt lat="34.48602" lon="-119.70119">
        <ele>893.0</ele>
      </trkpt>
      <trkpt lat="34.48643" lon="-119.70101">
        <ele>901.0</ele>
      </trkpt>
      <trkpt lat="34.48665" lon="-119.70074">
        <ele>916.0</ele>
      </trkpt>
      <trkpt lat="34.48697" lon="-119.70069">
        <ele>936.0</ele>
      </trkpt>
      <trkpt lat="34.48707" lon="-119.70074">
        <ele>919.0</ele>
      </trkpt>
      <trkpt lat="34.48726" lon="-119.70073">
        <ele>925.0</ele>
      </trkpt>
      <trkpt lat="34.48745" lon="-119.7008">
        <ele>933.0</ele>
      </trkpt>
      <trkpt lat="34.48759" lon="-119.70081">
        <ele>933.0</ele>
      </trkpt>
      <trkpt lat="34.48769" lon="-119.70092">
        <ele>941.0</ele>
      </trkpt>
      <trkpt lat="34.48787" lon="-119.70098">
        <ele>921.0</ele>
      </trkpt>
      <trkpt lat="34.48812" lon="-119.70094">
        <ele>945.0</ele>
      </trkpt>
      <trkpt lat="34.48845" lon="-119.70096">
        <ele>941.0</ele>
      </trkpt>
      <trkpt lat="34.48845" lon="-119.70096">
        <ele>941.0</ele>
      </trkpt>
      <trkpt lat="34.48855" lon="-119.70091">
        <ele>938.0</ele>
      </trkpt>
      <trkpt lat="34.48865" lon="-119.7008">
        <ele>938.0</ele>
      </trkpt>
      <trkpt lat="34.48877" lon="-119.70046">
        <ele>951.0</ele>
      </trkpt>
      <trkpt lat="34.48899" lon="-119.70026">
        <ele>963.0</ele>
      </trkpt>
      <trkpt lat="34.48934" lon="-119.7001">
        <ele>969.0</ele>
      </trkpt>
      <trkpt lat="34.48942" lon="-119.7">
        <ele>969.0</ele>
      </trkpt>
      <trkpt lat="34.48954" lon="-119.69968">
        <ele>980.0</ele>
      </trkpt>
      <trkpt lat="34.48975" lon="-119.69954">
        <ele>981.0</ele>
      </trkpt>
      <trkpt lat="34.48973" lon="-119.6993">
        <ele>989.0</ele>
      </trkpt>
      <trkpt lat="34.48968" lon="-119.69911">
        <ele>989.0</ele>
      </trkpt>
      <trkpt lat="34.48973" lon="-119.69873">
        <ele>1006.0</ele>
      </trkpt>
      <trkpt lat="34.49" lon="-119.69878">
        <ele>999.0</ele>
      </trkpt>
      <trkpt lat="34.4903" lon="-119.69927">
        <ele>997.0</ele>
      </trkpt>
      <trkpt lat="34.49037" lon="-119.69933">
        <ele>989.0</ele>
      </trkpt>
      <trkpt lat="34.49051" lon="-119.69937">
        <ele>995.0</ele>
      </trkpt>
      <trkpt lat="34.49062" lon="-119.69937">
        <ele>995.0</ele>
      </trkpt>
      <trkpt lat="34.4912" lon="-119.69894">
        <ele>1012.0</ele>
      </trkpt>
      <trkpt lat="34.49129" lon="-119.69877">
        <ele>1012.0</ele>
      </trkpt>
      <trkpt lat="34.49136" lon="-119.6988">
        <ele>1012.0</ele>
      </trkpt>
      <trkpt lat="34.49153" lon="-119.69897">
        <ele>1013.0</ele>
      </trkpt>
      <trkpt lat="34.49166" lon="-119.69896">
        <ele>1013.0</ele>
      </trkpt>
      <trkpt lat="34.49205" lon="-119.69874">
        <ele>1026.0</ele>
      </trkpt>
      <trkpt lat="34.49247" lon="-119.69858">
        <ele>1024.0</ele>
      </trkpt>
      <trkpt lat="34.49294" lon="-119.69879">
        <ele>1015.0</ele>
      </trkpt>
      <trkpt lat="34.49318" lon="-119.69899">
        <ele>1015.0</ele>
      </trkpt>
      <trkpt lat="34.49336" lon="-119.69894">
        <ele>1013.0</ele>
      </trkpt>
      <trkpt lat="34.49351" lon="-119.69903">
        <ele>1023.0</ele>
      </trkpt>
      <trkpt lat="34.4938" lon="-119.69953">
        <ele>1028.0</ele>
      </trkpt>
      <trkpt lat="34.49394" lon="-119.6995">
        <ele>1028.0</ele>
      </trkpt>
      <trkpt lat="34.49406" lon="-119.69961">
        <ele>1035.0</ele>
      </trkpt>
      <trkpt lat="34.49411" lon="-119.69959">
        <ele>1035.0</ele>
      </trkpt>
      <trkpt lat="34.49421" lon="-119.69942">
        <ele>1029.0</ele>
      </trkpt>
      <trkpt lat="34.49425" lon="-119.6994">
        <ele>1029.0</ele>
      </trkpt>
      <trkpt lat="34.49429" lon="-119.69942">
        <ele>1029.0</ele>
      </trkpt>
      <trkpt lat="34.49438" lon="-119.69957">
        <ele>1030.0</ele>
      </trkpt>
      <trkpt lat="34.49444" lon="-119.69981">
        <ele>1035.0</ele>
      </trkpt>
      <trkpt lat="34.49447" lon="-119.69983">
        <ele>1035.0</ele>
      </trkpt>
      <trkpt lat="34.49462" lon="-119.69964">
        <ele>1036.0</ele>
      </trkpt>
      <trkpt lat="34.49485" lon="-119.69969">
        <ele>1036.0</ele>
      </trkpt>
      <trkpt lat="34.49515" lon="-119.6993">
        <ele>1034.0</ele>
      </trkpt>
      <trkpt lat="34.49515" lon="-119.6993">
        <ele>1034.0</ele>
      </trkpt>
      <trkpt lat="34.49546" lon="-119.69961">
        <ele>1035.0</ele>
      </trkpt>
      <trkpt lat="34.49551" lon="-119.69974">
        <ele>1035.0</ele>
      </trkpt>
      <trkpt lat="34.49556" lon="-119.69993">
        <ele>1037.0</ele>
      </trkpt>
      <trkpt lat="34.49551071997541" lon="-119.7000402316339">
        <ele>1037.0</ele>
      </trkpt>
      <trkpt lat="34.49551072007313" lon="-119.7000402316339">
        <ele>1037.0</ele>
      </trkpt>
      <trkpt lat="34.49518" lon="-119.70078">
        <ele>1051.0</ele>
      </trkpt>
      <trkpt lat="34.49509" lon="-119.70089">
        <ele>1057.0</ele>
      </trkpt>
      <trkpt lat="34.49485" lon="-119.70086">
        <ele>1060.0</ele>
      </trkpt>
      <trkpt lat="34.49485" lon="-119.70086">
        <ele>1060.0</ele>
      </trkpt>
      <trkpt lat="34.49479" lon="-119.70078">
        <ele>1060.0</ele>
      </trkpt>
      <trkpt lat="34.49468975684282" lon="-119.700749491213">
        <ele>1060.0</ele>
      </trkpt>
      <trkpt lat="34.49468975705907" lon="-119.700749491213">
        <ele>1060.0</ele>
      </trkpt>
      <trkpt lat="34.49433" lon="-119.70064">
        <ele>1053.0</ele>
      </trkpt>
      <trkpt lat="34.49412" lon="-119.70052">
        <ele>1058.0</ele>
      </trkpt>
      <trkpt lat="34.49398" lon="-119.70052">
        <ele>1061.0</ele>
      </trkpt>
      <trkpt lat="34.49385" lon="-119.70053">
        <ele>1061.0</ele>
      </trkpt>
      <trkpt lat="34.4937" lon="-119.7006">
        <ele>1057.0</ele>
      </trkpt>
      <trkpt lat="34.49363" lon="-119.70072">
        <ele>1069.0</ele>
      </trkpt>
      <trkpt lat="34.49348" lon="-119.70114">
        <ele>1078.0</ele>
      </trkpt>
      <trkpt lat="34.49336" lon="-119.70128">
        <ele>1073.0</ele>
      </trkpt>
      <trkpt lat="34.49329" lon="-119.70143">
        <ele>1073.0</ele>
      </trkpt>
      <trkpt lat="34.49343" lon="-119.70174">
        <ele>1077.0</ele>
      </trkpt>
      <trkpt lat="34.49352" lon="-119.70252">
        <ele>1093.0</ele>
      </trkpt>
      <trkpt lat="34.49339" lon="-119.70295">
        <ele>1086.0</ele>
      </trkpt>
      <trkpt lat="34.49336" lon="-119.70319">
        <ele>1086.0</ele>
      </trkpt>
      <trkpt lat="34.49339" lon="-119.70342">
        <ele>1089.0</ele>
      </trkpt>
      <trkpt lat="34.49369" lon="-119.70423">
        <ele>1102.0</ele>
      </trkpt>
      <trkpt lat="34.49406" lon="-119.70459">
        <ele>1122.0</ele>
      </trkpt>
      <trkpt lat="34.49417" lon="-119.70479">
        <ele>1122.0</ele>
      </trkpt>
      <trkpt lat="34.49437" lon="-119.70534">
        <ele>1119.0</ele>
      </trkpt>
      <trkpt lat="34.49454" lon="-119.70558">
        <ele>1121.0</ele>
      </trkpt>
      <trkpt lat="34.49459" lon="-119.70577">
        <ele>1120.0</ele>
      </trkpt>
      <trkpt lat="34.49452" lon="-119.70602">
        <ele>1125.0</ele>
      </trkpt>
      <trkpt lat="34.49442" lon="-119.70617">
        <ele>1125.0</ele>
      </trkpt>
      <trkpt lat="34.49436" lon="-119.70635">
        <ele>1125.0</ele>
      </trkpt>
      <trkpt lat="34.49436" lon="-119.70649">
        <ele>1125.0</ele>
      </trkpt>
      <trkpt lat="34.49442" lon="-119.70671">
        <ele>1126.0</ele>
      </trkpt>
      <trkpt lat="34.49461" lon="-119.70703">
        <ele>1123.0</ele>
      </trkpt>
      <trkpt lat="34.49461" lon="-119.70703">
        <ele>1123.0</ele>
      </trkpt>
      <trkpt lat="34.49466170949358" lon="-119.7070877929634">
        <ele>1128.0</ele>
      </trkpt>
      <trkpt lat="34.49466" lon="-119.70709">
        <ele>1128.0</ele>
      </trkpt>
      <trkpt lat="34.49471" lon="-119.70724">
        <ele>1128.0</ele>
      </trkpt>
      <trkpt lat="34.49483" lon="-119.70739">
        <ele>1135.0</ele>
      </trkpt>
      <trkpt lat="34.4948" lon="-119.70754">
        <ele>1135.0</ele>
      </trkpt>
      <trkpt lat="34.49496" lon="-119.70824">
        <ele>1158.0</ele>
      </trkpt>
      <trkpt lat="34.49481" lon="-119.70868">
        <ele>1162.0</ele>
      </trkpt>
      <trkpt lat="34.49481" lon="-119.70909">
        <ele>1169.0</ele>
      </trkpt>
      <trkpt lat="34.49465" lon="-119.70937">
        <ele>1170.0</ele>
      </trkpt>
      <trkpt lat="34.49458" lon="-119.70963">
        <ele>1169.0</ele>
      </trkpt>
      <trkpt lat="34.49456" lon="-119.70978">
        <ele>1169.0</ele>
      </trkpt>
      <trkpt lat="34.49457" lon="-119.70994">
        <ele>1167.0</ele>
      </trkpt>
      <trkpt lat="34.4946" lon="-119.71011">
        <ele>1169.0</ele>
      </trkpt>
      <trkpt lat="34.49458" lon="-119.71036">
        <ele>1165.0</ele>
      </trkpt>
      <trkpt lat="34.49463" lon="-119.71049">
        <ele>1166.0</ele>
      </trkpt>
      <trkpt lat="34.49465" lon="-119.71079">
        <ele>1165.0</ele>
      </trkpt>
      <trkpt lat="34.49474" lon="-119.71119">
        <ele>1165.0</ele>
      </trkpt>
      <trkpt lat="34.49469" lon="-119.71173">
        <ele>1167.0</ele>
      </trkpt>
      <trkpt lat="34.49459" lon="-119.71198">
        <ele>1169.0</ele>
      </trkpt>
      <trkpt lat="34.49451" lon="-119.71232">
        <ele>1180.0</ele>
      </trkpt>
      <trkpt lat="34.49455441116118" lon="-119.7124532334835">
        <ele>1188.0</ele>
      </trkpt>
      <trkpt lat="34.49455441116532" lon="-119.7124532334835">
        <ele>1188.0</ele>
      </trkpt>
      <trkpt lat="34.49451" lon="-119.71232">
        <ele>1180.0</ele>
      </trkpt>
      <trkpt lat="34.49459" lon="-119.71198">
        <ele>1169.0</ele>
      </trkpt>
      <trkpt lat="34.49469" lon="-119.71173">
        <ele>1167.0</ele>
      </trkpt>
      <trkpt lat="34.49474" lon="-119.71119">
        <ele>1165.0</ele>
      </trkpt>
      <trkpt lat="34.49465" lon="-119.71079">
        <ele>1165.0</ele>
      </trkpt>
      <trkpt lat="34.49463" lon="-119.71049">
        <ele>1166.0</ele>
      </trkpt>
      <trkpt lat="34.49458" lon="-119.71036">
        <ele>1165.0</ele>
      </trkpt>
      <trkpt lat="34.4946" lon="-119.71011">
        <ele>1169.0</ele>
      </trkpt>
      <trkpt lat="34.49457" lon="-119.70994">
        <ele>1167.0</ele>
      </trkpt>
      <trkpt lat="34.49456" lon="-119.70978">
        <ele>1169.0</ele>
      </trkpt>
      <trkpt lat="34.49458" lon="-119.70963">
        <ele>1169.0</ele>
      </trkpt>
      <trkpt lat="34.49465" lon="-119.70937">
        <ele>1170.0</ele>
      </trkpt>
      <trkpt lat="34.49481" lon="-119.70909">
        <ele>1169.0</ele>
      </trkpt>
      <trkpt lat="34.49481" lon="-119.70868">
        <ele>1162.0</ele>
      </trkpt>
      <trkpt lat="34.49496" lon="-119.70824">
        <ele>1158.0</ele>
      </trkpt>
      <trkpt lat="34.4948" lon="-119.70754">
        <ele>1135.0</ele>
      </trkpt>
      <trkpt lat="34.49483" lon="-119.70739">
        <ele>1135.0</ele>
      </trkpt>
      <trkpt lat="34.49471" lon="-119.70724">
        <ele>1128.0</ele>
      </trkpt>
      <trkpt lat="34.49466" lon="-119.70709">
        <ele>1128.0</ele>
      </trkpt>
      <trkpt lat="34.49466170949358" lon="-119.7070877929634">
        <ele>1128.0</ele>
      </trkpt>
      <trkpt lat="34.49461" lon="-119.70703">
        <ele>1123.0</ele>
      </trkpt>
      <trkpt lat="34.49461" lon="-119.70703">
        <ele>1123.0</ele>
      </trkpt>
      <trkpt lat="34.49459230182745" lon="-119.7070001925515">
        <ele>1123.0</ele>
      </trkpt>
      <trkpt lat="34.49459230184574" lon="-119.7070001925515">
        <ele>1123.0</ele>
      </trkpt>
      <trkpt lat="34.49442" lon="-119.70671">
        <ele>1126.0</ele>
      </trkpt>
      <trkpt lat="34.49436" lon="-119.70649">
        <ele>1125.0</ele>
      </trkpt>
      <trkpt lat="34.49436" lon="-119.70635">
        <ele>1125.0</ele>
      </trkpt>
      <trkpt lat="34.49442" lon="-119.70617">
        <ele>1125.0</ele>
      </trkpt>
      <trkpt lat="34.49452" lon="-119.70602">
        <ele>1125.0</ele>
      </trkpt>
      <trkpt lat="34.49459" lon="-119.70577">
        <ele>1120.0</ele>
      </trkpt>
      <trkpt lat="34.49454" lon="-119.70558">
        <ele>1121.0</ele>
      </trkpt>
      <trkpt lat="34.49437" lon="-119.70534">
        <ele>1119.0</ele>
      </trkpt>
      <trkpt lat="34.49417" lon="-119.70479">
        <ele>1122.0</ele>
      </trkpt>
      <trkpt lat="34.49406" lon="-119.70459">
        <ele>1122.0</ele>
      </trkpt>
      <trkpt lat="34.49369" lon="-119.70423">
        <ele>1102.0</ele>
      </trkpt>
      <trkpt lat="34.49339" lon="-119.70342">
        <ele>1089.0</ele>
      </trkpt>
      <trkpt lat="34.49336" lon="-119.70319">
        <ele>1086.0</ele>
      </trkpt>
      <trkpt lat="34.49339" lon="-119.70295">
        <ele>1086.0</ele>
      </trkpt>
      <trkpt lat="34.49352" lon="-119.70252">
        <ele>1093.0</ele>
      </trkpt>
      <trkpt lat="34.49343" lon="-119.70174">
        <ele>1077.0</ele>
      </trkpt>
      <trkpt lat="34.49329" lon="-119.70143">
        <ele>1073.0</ele>
      </trkpt>
      <trkpt lat="34.49336" lon="-119.70128">
        <ele>1073.0</ele>
      </trkpt>
      <trkpt lat="34.49348" lon="-119.70114">
        <ele>1078.0</ele>
      </trkpt>
      <trkpt lat="34.49363" lon="-119.70072">
        <ele>1069.0</ele>
      </trkpt>
      <trkpt lat="34.4937" lon="-119.7006">
        <ele>1057.0</ele>
      </trkpt>
      <trkpt lat="34.49385" lon="-119.70053">
        <ele>1061.0</ele>
      </trkpt>
      <trkpt lat="34.49398" lon="-119.70052">
        <ele>1061.0</ele>
      </trkpt>
      <trkpt lat="34.49412" lon="-119.70052">
        <ele>1058.0</ele>
      </trkpt>
      <trkpt lat="34.49433" lon="-119.70064">
        <ele>1053.0</ele>
      </trkpt>
      <trkpt lat="34.49479" lon="-119.70078">
        <ele>1060.0</ele>
      </trkpt>
      <trkpt lat="34.49485" lon="-119.70086">
        <ele>1060.0</ele>
      </trkpt>
      <trkpt lat="34.49485" lon="-119.70086">
        <ele>1060.0</ele>
      </trkpt>
      <trkpt lat="34.49509" lon="-119.70089">
        <ele>1057.0</ele>
      </trkpt>
      <trkpt lat="34.49518" lon="-119.70078">
        <ele>1051.0</ele>
      </trkpt>
      <trkpt lat="34.49556" lon="-119.69993">
        <ele>1037.0</ele>
      </trkpt>
      <trkpt lat="34.49551" lon="-119.69974">
        <ele>1035.0</ele>
      </trkpt>
      <trkpt lat="34.49546" lon="-119.69961">
        <ele>1035.0</ele>
      </trkpt>
      <trkpt lat="34.49515" lon="-119.6993">
        <ele>1034.0</ele>
      </trkpt>
      <trkpt lat="34.49515" lon="-119.6993">
        <ele>1034.0</ele>
      </trkpt>
      <trkpt lat="34.49485" lon="-119.69969">
        <ele>1036.0</ele>
      </trkpt>
      <trkpt lat="34.49462" lon="-119.69964">
        <ele>1036.0</ele>
      </trkpt>
      <trkpt lat="34.49447" lon="-119.69983">
        <ele>1035.0</ele>
      </trkpt>
      <trkpt lat="34.49444" lon="-119.69981">
        <ele>1035.0</ele>
      </trkpt>
      <trkpt lat="34.49438" lon="-119.69957">
        <ele>1030.0</ele>
      </trkpt>
      <trkpt lat="34.49429" lon="-119.69942">
        <ele>1029.0</ele>
      </trkpt>
      <trkpt lat="34.49425" lon="-119.6994">
        <ele>1029.0</ele>
      </trkpt>
      <trkpt lat="34.49421" lon="-119.69942">
        <ele>1029.0</ele>
      </trkpt>
      <trkpt lat="34.49411" lon="-119.69959">
        <ele>1035.0</ele>
      </trkpt>
      <trkpt lat="34.49406" lon="-119.69961">
        <ele>1035.0</ele>
      </trkpt>
      <trkpt lat="34.49394" lon="-119.6995">
        <ele>1028.0</ele>
      </trkpt>
      <trkpt lat="34.4938" lon="-119.69953">
        <ele>1028.0</ele>
      </trkpt>
      <trkpt lat="34.49351" lon="-119.69903">
        <ele>1023.0</ele>
      </trkpt>
      <trkpt lat="34.49336" lon="-119.69894">
        <ele>1013.0</ele>
      </trkpt>
      <trkpt lat="34.49318" lon="-119.69899">
        <ele>1015.0</ele>
      </trkpt>
      <trkpt lat="34.49294" lon="-119.69879">
        <ele>1015.0</ele>
      </trkpt>
      <trkpt lat="34.49247" lon="-119.69858">
        <ele>1024.0</ele>
      </trkpt>
      <trkpt lat="34.49205" lon="-119.69874">
        <ele>1026.0</ele>
      </trkpt>
      <trkpt lat="34.49182241717133" lon="-119.6988683800572">
        <ele>1019.0</ele>
      </trkpt>
      <trkpt lat="34.49182241739297" lon="-119.6988683800572">
        <ele>1019.0</ele>
      </trkpt>
      <trkpt lat="34.49166" lon="-119.69896">
        <ele>1013.0</ele>
      </trkpt>
      <trkpt lat="34.49153" lon="-119.69897">
        <ele>1013.0</ele>
      </trkpt>
      <trkpt lat="34.49136" lon="-119.6988">
        <ele>1012.0</ele>
      </trkpt>
      <trkpt lat="34.49129" lon="-119.69877">
        <ele>1012.0</ele>
      </trkpt>
      <trkpt lat="34.4912" lon="-119.69894">
        <ele>1012.0</ele>
      </trkpt>
      <trkpt lat="34.49062" lon="-119.69937">
        <ele>995.0</ele>
      </trkpt>
      <trkpt lat="34.49051" lon="-119.69937">
        <ele>995.0</ele>
      </trkpt>
      <trkpt lat="34.49037" lon="-119.69933">
        <ele>989.0</ele>
      </trkpt>
      <trkpt lat="34.4903" lon="-119.69927">
        <ele>997.0</ele>
      </trkpt>
      <trkpt lat="34.49" lon="-119.69878">
        <ele>999.0</ele>
      </trkpt>
      <trkpt lat="34.48973" lon="-119.69873">
        <ele>1006.0</ele>
      </trkpt>
      <trkpt lat="34.48968" lon="-119.69911">
        <ele>989.0</ele>
      </trkpt>
      <trkpt lat="34.48973" lon="-119.6993">
        <ele>989.0</ele>
      </trkpt>
      <trkpt lat="34.48975" lon="-119.69954">
        <ele>981.0</ele>
      </trkpt>
      <trkpt lat="34.48954" lon="-119.69968">
        <ele>980.0</ele>
      </trkpt>
      <trkpt lat="34.48942" lon="-119.7">
        <ele>969.0</ele>
      </trkpt>
      <trkpt lat="34.48934" lon="-119.7001">
        <ele>969.0</ele>
      </trkpt>
      <trkpt lat="34.48899" lon="-119.70026">
        <ele>963.0</ele>
      </trkpt>
      <trkpt lat="34.48877" lon="-119.70046">
        <ele>951.0</ele>
      </trkpt>
      <trkpt lat="34.48865" lon="-119.7008">
        <ele>938.0</ele>
      </trkpt>
      <trkpt lat="34.48855" lon="-119.70091">
        <ele>938.0</ele>
      </trkpt>
      <trkpt lat="34.48845" lon="-119.70096">
        <ele>941.0</ele>
      </trkpt>
      <trkpt lat="34.48845" lon="-119.70096">
        <ele>941.0</ele>
      </trkpt>
      <trkpt lat="34.48812" lon="-119.70094">
        <ele>945.0</ele>
      </trkpt>
      <trkpt lat="34.48787" lon="-119.70098">
        <ele>921.0</ele>
      </trkpt>
      <trkpt lat="34.48769" lon="-119.70092">
        <ele>941.0</ele>
      </trkpt>
      <trkpt lat="34.48759" lon="-119.70081">
        <ele>933.0</ele>
      </trkpt>
      <trkpt lat="34.48745" lon="-119.7008">
        <ele>933.0</ele>
      </trkpt>
      <trkpt lat="34.48726" lon="-119.70073">
        <ele>925.0</ele>
      </trkpt>
      <trkpt lat="34.48707" lon="-119.70074">
        <ele>919.0</ele>
      </trkpt>
      <trkpt lat="34.48697" lon="-119.70069">
        <ele>936.0</ele>
      </trkpt>
      <trkpt lat="34.48665" lon="-119.70074">
        <ele>916.0</ele>
      </trkpt>
      <trkpt lat="34.48659669959569" lon="-119.7008054141326">
        <ele>916.0</ele>
      </trkpt>
      <trkpt lat="34.48659669964895" lon="-119.7008054141325">
        <ele>916.0</ele>
      </trkpt>
      <trkpt lat="34.48643" lon="-119.70101">
        <ele>901.0</ele>
      </trkpt>
      <trkpt lat="34.48602" lon="-119.70119">
        <ele>893.0</ele>
      </trkpt>
      <trkpt lat="34.48588" lon="-119.70133">
        <ele>883.0</ele>
      </trkpt>
      <trkpt lat="34.48584" lon="-119.70169">
        <ele>876.0</ele>
      </trkpt>
      <trkpt lat="34.48574" lon="-119.70208">
        <ele>863.0</ele>
      </trkpt>
      <trkpt lat="34.48569" lon="-119.70216">
        <ele>849.0</ele>
      </trkpt>
      <trkpt lat="34.4856" lon="-119.70224">
        <ele>849.0</ele>
      </trkpt>
      <trkpt lat="34.48529" lon="-119.70215">
        <ele>841.0</ele>
      </trkpt>
      <trkpt lat="34.48505" lon="-119.70215">
        <ele>831.0</ele>
      </trkpt>
      <trkpt lat="34.48504" lon="-119.70211">
        <ele>831.0</ele>
      </trkpt>
      <trkpt lat="34.48521" lon="-119.70186">
        <ele>845.0</ele>
      </trkpt>
      <trkpt lat="34.48522" lon="-119.70174">
        <ele>845.0</ele>
      </trkpt>
      <trkpt lat="34.48515" lon="-119.70125">
        <ele>836.0</ele>
      </trkpt>
      <trkpt lat="34.48489" lon="-119.70072">
        <ele>817.0</ele>
      </trkpt>
      <trkpt lat="34.48488" lon="-119.70056">
        <ele>815.0</ele>
      </trkpt>
      <trkpt lat="34.48492" lon="-119.70046">
        <ele>815.0</ele>
      </trkpt>
      <trkpt lat="34.48507" lon="-119.70039">
        <ele>816.0</ele>
      </trkpt>
      <trkpt lat="34.48521" lon="-119.70035">
        <ele>834.0</ele>
      </trkpt>
      <trkpt lat="34.48531" lon="-119.70014">
        <ele>834.0</ele>
      </trkpt>
      <trkpt lat="34.48527" lon="-119.70001">
        <ele>835.0</ele>
      </trkpt>
      <trkpt lat="34.48506" lon="-119.70008">
        <ele>824.0</ele>
      </trkpt>
      <trkpt lat="34.485" lon="-119.70005">
        <ele>824.0</ele>
      </trkpt>
      <trkpt lat="34.48503" lon="-119.69994">
        <ele>824.0</ele>
      </trkpt>
      <trkpt lat="34.48497" lon="-119.6999">
        <ele>824.0</ele>
      </trkpt>
      <trkpt lat="34.48489" lon="-119.7">
        <ele>824.0</ele>
      </trkpt>
      <trkpt lat="34.48479" lon="-119.69995">
        <ele>810.0</ele>
      </trkpt>
      <trkpt lat="34.48467" lon="-119.69995">
        <ele>810.0</ele>
      </trkpt>
      <trkpt lat="34.48463" lon="-119.69981">
        <ele>827.0</ele>
      </trkpt>
      <trkpt lat="34.48454" lon="-119.69976">
        <ele>805.0</ele>
      </trkpt>
      <trkpt lat="34.48447" lon="-119.69965">
        <ele>805.0</ele>
      </trkpt>
      <trkpt lat="34.48433" lon="-119.69962">
        <ele>805.0</ele>
      </trkpt>
      <trkpt lat="34.48426" lon="-119.69954">
        <ele>808.0</ele>
      </trkpt>
      <trkpt lat="34.48411" lon="-119.69941">
        <ele>808.0</ele>
      </trkpt>
      <trkpt lat="34.48388" lon="-119.69927">
        <ele>803.0</ele>
      </trkpt>
      <trkpt lat="34.48381" lon="-119.69917">
        <ele>803.0</ele>
      </trkpt>
      <trkpt lat="34.48382" lon="-119.69906">
        <ele>803.0</ele>
      </trkpt>
      <trkpt lat="34.48377" lon="-119.6987">
        <ele>817.0</ele>
      </trkpt>
      <trkpt lat="34.48369" lon="-119.69859">
        <ele>797.0</ele>
      </trkpt>
      <trkpt lat="34.48368" lon="-119.69847">
        <ele>804.0</ele>
      </trkpt>
      <trkpt lat="34.48373" lon="-119.69834">
        <ele>804.0</ele>
      </trkpt>
      <trkpt lat="34.48368" lon="-119.69822">
        <ele>804.0</ele>
      </trkpt>
      <trkpt lat="34.48353" lon="-119.69801">
        <ele>813.0</ele>
      </trkpt>
      <trkpt lat="34.48343" lon="-119.69781">
        <ele>803.0</ele>
      </trkpt>
      <trkpt lat="34.48324" lon="-119.69767">
        <ele>803.0</ele>
      </trkpt>
      <trkpt lat="34.48293" lon="-119.69749">
        <ele>805.0</ele>
      </trkpt>
      <trkpt lat="34.48286" lon="-119.69755">
        <ele>800.0</ele>
      </trkpt>
      <trkpt lat="34.48284" lon="-119.69762">
        <ele>800.0</ele>
      </trkpt>
      <trkpt lat="34.48276" lon="-119.69767">
        <ele>791.0</ele>
      </trkpt>
      <trkpt lat="34.48254" lon="-119.69765">
        <ele>782.0</ele>
      </trkpt>
      <trkpt lat="34.48242" lon="-119.69753">
        <ele>798.0</ele>
      </trkpt>
      <trkpt lat="34.48228" lon="-119.69744">
        <ele>785.0</ele>
      </trkpt>
      <trkpt lat="34.4822" lon="-119.69732">
        <ele>797.0</ele>
      </trkpt>
      <trkpt lat="34.48217" lon="-119.69718">
        <ele>797.0</ele>
      </trkpt>
      <trkpt lat="34.48203" lon="-119.69703">
        <ele>793.0</ele>
      </trkpt>
      <trkpt lat="34.48198" lon="-119.69693">
        <ele>793.0</ele>
      </trkpt>
      <trkpt lat="34.48177" lon="-119.69685">
        <ele>789.0</ele>
      </trkpt>
      <trkpt lat="34.48168" lon="-119.6969">
        <ele>789.0</ele>
      </trkpt>
      <trkpt lat="34.4815" lon="-119.69722">
        <ele>787.0</ele>
      </trkpt>
      <trkpt lat="34.48109" lon="-119.69758">
        <ele>783.0</ele>
      </trkpt>
      <trkpt lat="34.48083" lon="-119.69766">
        <ele>777.0</ele>
      </trkpt>
      <trkpt lat="34.48076" lon="-119.69777">
        <ele>777.0</ele>
      </trkpt>
      <trkpt lat="34.48068" lon="-119.69777">
        <ele>774.0</ele>
      </trkpt>
      <trkpt lat="34.48053" lon="-119.69765">
        <ele>774.0</ele>
      </trkpt>
      <trkpt lat="34.48013" lon="-119.6976">
        <ele>784.0</ele>
      </trkpt>
      <trkpt lat="34.47979" lon="-119.69748">
        <ele>775.0</ele>
      </trkpt>
      <trkpt lat="34.47959" lon="-119.6973">
        <ele>789.0</ele>
      </trkpt>
      <trkpt lat="34.47933" lon="-119.69743">
        <ele>765.0</ele>
      </trkpt>
      <trkpt lat="34.47915" lon="-119.69736">
        <ele>767.0</ele>
      </trkpt>
      <trkpt lat="34.47899" lon="-119.6972">
        <ele>760.0</ele>
      </trkpt>
      <trkpt lat="34.47888" lon="-119.69699">
        <ele>767.0</ele>
      </trkpt>
      <trkpt lat="34.47862" lon="-119.69681">
        <ele>761.0</ele>
      </trkpt>
      <trkpt lat="34.47856" lon="-119.6968">
        <ele>765.0</ele>
      </trkpt>
      <trkpt lat="34.47852" lon="-119.69683">
        <ele>761.0</ele>
      </trkpt>
      <trkpt lat="34.47843" lon="-119.69715">
        <ele>754.0</ele>
      </trkpt>
      <trkpt lat="34.47828" lon="-119.69722">
        <ele>754.0</ele>
      </trkpt>
      <trkpt lat="34.47828" lon="-119.69722">
        <ele>754.0</ele>
      </trkpt>
      <trkpt lat="34.47833" lon="-119.6976">
        <ele>753.0</ele>
      </trkpt>
      <trkpt lat="34.47834" lon="-119.69808">
        <ele>750.0</ele>
      </trkpt>
      <trkpt lat="34.47833" lon="-119.69831">
        <ele>746.0</ele>
      </trkpt>
      <trkpt lat="34.47824" lon="-119.6988">
        <ele>738.0</ele>
      </trkpt>
      <trkpt lat="34.47831" lon="-119.69911">
        <ele>734.0</ele>
      </trkpt>
      <trkpt lat="34.47831" lon="-119.69957">
        <ele>731.0</ele>
      </trkpt>
      <trkpt lat="34.47835" lon="-119.69999">
        <ele>724.0</ele>
      </trkpt>
      <trkpt lat="34.47829" lon="-119.70033">
        <ele>718.0</ele>
      </trkpt>
      <trkpt lat="34.47826" lon="-119.70038">
        <ele>718.0</ele>
      </trkpt>
      <trkpt lat="34.47826" lon="-119.70038">
        <ele>718.0</ele>
      </trkpt>
      <trkpt lat="34.47826" lon="-119.70038">
        <ele>718.0</ele>
      </trkpt>
      <trkpt lat="34.47818" lon="-119.70035">
        <ele>714.0</ele>
      </trkpt>
      <trkpt lat="34.47807" lon="-119.70021">
        <ele>714.0</ele>
      </trkpt>
      <trkpt lat="34.478" lon="-119.70015">
        <ele>714.0</ele>
      </trkpt>
      <trkpt lat="34.47789" lon="-119.7001">
        <ele>713.0</ele>
      </trkpt>
      <trkpt lat="34.47779" lon="-119.69997">
        <ele>713.0</ele>
      </trkpt>
      <trkpt lat="34.4777" lon="-119.6998">
        <ele>723.0</ele>
      </trkpt>
      <trkpt lat="34.47777" lon="-119.69956">
        <ele>733.0</ele>
      </trkpt>
      <trkpt lat="34.47769" lon="-119.69941">
        <ele>733.0</ele>
      </trkpt>
      <trkpt lat="34.47769" lon="-119.69934">
        <ele>733.0</ele>
      </trkpt>
      <trkpt lat="34.47759" lon="-119.6992">
        <ele>729.0</ele>
      </trkpt>
      <trkpt lat="34.47744" lon="-119.69923">
        <ele>729.0</ele>
      </trkpt>
      <trkpt lat="34.47725" lon="-119.69913">
        <ele>716.0</ele>
      </trkpt>
      <trkpt lat="34.47721" lon="-119.69914">
        <ele>716.0</ele>
      </trkpt>
      <trkpt lat="34.47713" lon="-119.6991">
        <ele>716.0</ele>
      </trkpt>
      <trkpt lat="34.47692" lon="-119.69912">
        <ele>701.0</ele>
      </trkpt>
      <trkpt lat="34.47684" lon="-119.69904">
        <ele>701.0</ele>
      </trkpt>
      <trkpt lat="34.47676" lon="-119.69885">
        <ele>704.0</ele>
      </trkpt>
      <trkpt lat="34.47665" lon="-119.6988">
        <ele>704.0</ele>
      </trkpt>
      <trkpt lat="34.47656" lon="-119.69885">
        <ele>704.0</ele>
      </trkpt>
      <trkpt lat="34.47647" lon="-119.69883">
        <ele>695.0</ele>
      </trkpt>
      <trkpt lat="34.47636" lon="-119.69889">
        <ele>695.0</ele>
      </trkpt>
      <trkpt lat="34.47626" lon="-119.69899">
        <ele>695.0</ele>
      </trkpt>
      <trkpt lat="34.47619" lon="-119.69912">
        <ele>673.0</ele>
      </trkpt>
      <trkpt lat="34.47611" lon="-119.69906">
        <ele>673.0</ele>
      </trkpt>
      <trkpt lat="34.47611" lon="-119.69899">
        <ele>677.0</ele>
      </trkpt>
      <trkpt lat="34.47606" lon="-119.699">
        <ele>677.0</ele>
      </trkpt>
      <trkpt lat="34.47604" lon="-119.69916">
        <ele>673.0</ele>
      </trkpt>
      <trkpt lat="34.47605" lon="-119.69953">
        <ele>667.0</ele>
      </trkpt>
      <trkpt lat="34.47595" lon="-119.69999">
        <ele>657.0</ele>
      </trkpt>
      <trkpt lat="34.47583" lon="-119.70003">
        <ele>657.0</ele>
      </trkpt>
      <trkpt lat="34.47573" lon="-119.7001">
        <ele>657.0</ele>
      </trkpt>
      <trkpt lat="34.47556" lon="-119.70035">
        <ele>654.0</ele>
      </trkpt>
      <trkpt lat="34.47547" lon="-119.70041">
        <ele>654.0</ele>
      </trkpt>
      <trkpt lat="34.47543902601592" lon="-119.70041">
        <ele>654.0</ele>
      </trkpt>
      <trkpt lat="34.47543902601592" lon="-119.70041">
        <ele>654.0</ele>
      </trkpt>
      <trkpt lat="34.47519" lon="-119.70041">
        <ele>645.0</ele>
      </trkpt>
      <trkpt lat="34.47511" lon="-119.7005">
        <ele>638.0</ele>
      </trkpt>
      <trkpt lat="34.47501" lon="-119.70071">
        <ele>642.0</ele>
      </trkpt>
      <trkpt lat="34.47496" lon="-119.70077">
        <ele>642.0</ele>
      </trkpt>
      <trkpt lat="34.47479" lon="-119.70148">
        <ele>626.0</ele>
      </trkpt>
      <trkpt lat="34.4748" lon="-119.70161">
        <ele>618.0</ele>
      </trkpt>
      <trkpt lat="34.47485" lon="-119.70164">
        <ele>618.0</ele>
      </trkpt>
      <trkpt lat="34.47506" lon="-119.70159">
        <ele>632.0</ele>
      </trkpt>
      <trkpt lat="34.4752" lon="-119.70165">
        <ele>638.0</ele>
      </trkpt>
      <trkpt lat="34.47518" lon="-119.70168">
        <ele>638.0</ele>
      </trkpt>
      <trkpt lat="34.47506" lon="-119.70168">
        <ele>632.0</ele>
      </trkpt>
      <trkpt lat="34.47495" lon="-119.70178">
        <ele>632.0</ele>
      </trkpt>
      <trkpt lat="34.47469" lon="-119.70191">
        <ele>605.0</ele>
      </trkpt>
      <trkpt lat="34.47483" lon="-119.7019">
        <ele>605.0</ele>
      </trkpt>
      <trkpt lat="34.47494" lon="-119.70193">
        <ele>618.0</ele>
      </trkpt>
      <trkpt lat="34.47502" lon="-119.70191">
        <ele>618.0</ele>
      </trkpt>
      <trkpt lat="34.47503" lon="-119.70194">
        <ele>618.0</ele>
      </trkpt>
      <trkpt lat="34.47479" lon="-119.70201">
        <ele>605.0</ele>
      </trkpt>
      <trkpt lat="34.47443" lon="-119.70233">
        <ele>583.0</ele>
      </trkpt>
      <trkpt lat="34.47422" lon="-119.70229">
        <ele>567.0</ele>
      </trkpt>
      <trkpt lat="34.47415" lon="-119.70222">
        <ele>567.0</ele>
      </trkpt>
      <trkpt lat="34.47405" lon="-119.70219">
        <ele>567.0</ele>
      </trkpt>
      <trkpt lat="34.47395" lon="-119.70228">
        <ele>548.0</ele>
      </trkpt>
      <trkpt lat="34.47396" lon="-119.70239">
        <ele>551.0</ele>
      </trkpt>
      <trkpt lat="34.47407" lon="-119.70251">
        <ele>563.0</ele>
      </trkpt>
      <trkpt lat="34.47429" lon="-119.70257">
        <ele>563.0</ele>
      </trkpt>
      <trkpt lat="34.47407" lon="-119.70266">
        <ele>556.0</ele>
      </trkpt>
      <trkpt lat="34.4739" lon="-119.70263">
        <ele>551.0</ele>
      </trkpt>
      <trkpt lat="34.47389" lon="-119.70265">
        <ele>547.0</ele>
      </trkpt>
      <trkpt lat="34.47403" lon="-119.70276">
        <ele>556.0</ele>
      </trkpt>
      <trkpt lat="34.47414" lon="-119.70278">
        <ele>556.0</ele>
      </trkpt>
      <trkpt lat="34.47427" lon="-119.70276">
        <ele>556.0</ele>
      </trkpt>
      <trkpt lat="34.47426" lon="-119.70279">
        <ele>556.0</ele>
      </trkpt>
      <trkpt lat="34.47408" lon="-119.7029">
        <ele>556.0</ele>
      </trkpt>
      <trkpt lat="34.47391" lon="-119.70305">
        <ele>539.0</ele>
      </trkpt>
      <trkpt lat="34.47379" lon="-119.70301">
        <ele>539.0</ele>
      </trkpt>
      <trkpt lat="34.47363" lon="-119.70301">
        <ele>537.0</ele>
      </trkpt>
      <trkpt lat="34.47347" lon="-119.70297">
        <ele>528.0</ele>
      </trkpt>
      <trkpt lat="34.47335" lon="-119.70303">
        <ele>528.0</ele>
      </trkpt>
      <trkpt lat="34.47322" lon="-119.70302">
        <ele>528.0</ele>
      </trkpt>
      <trkpt lat="34.47306" lon="-119.70295">
        <ele>519.0</ele>
      </trkpt>
      <trkpt lat="34.47302" lon="-119.70283">
        <ele>519.0</ele>
      </trkpt>
      <trkpt lat="34.47306" lon="-119.70272">
        <ele>519.0</ele>
      </trkpt>
      <trkpt lat="34.47303" lon="-119.7026">
        <ele>515.0</ele>
      </trkpt>
      <trkpt lat="34.47303" lon="-119.70239">
        <ele>515.0</ele>
      </trkpt>
      <trkpt lat="34.47307" lon="-119.7023">
        <ele>508.0</ele>
      </trkpt>
      <trkpt lat="34.47317" lon="-119.70225">
        <ele>508.0</ele>
      </trkpt>
      <trkpt lat="34.47321" lon="-119.70212">
        <ele>520.0</ele>
      </trkpt>
      <trkpt lat="34.47323" lon="-119.70195">
        <ele>514.0</ele>
      </trkpt>
      <trkpt lat="34.4732" lon="-119.70177">
        <ele>507.0</ele>
      </trkpt>
      <trkpt lat="34.47317" lon="-119.7018">
        <ele>494.0</ele>
      </trkpt>
      <trkpt lat="34.47315" lon="-119.70198">
        <ele>501.0</ele>
      </trkpt>
      <trkpt lat="34.47306" lon="-119.70209">
        <ele>508.0</ele>
      </trkpt>
      <trkpt lat="34.47291" lon="-119.70211">
        <ele>493.0</ele>
      </trkpt>
      <trkpt lat="34.47267" lon="-119.7021">
        <ele>493.0</ele>
      </trkpt>
      <trkpt lat="34.47261" lon="-119.70216">
        <ele>477.0</ele>
      </trkpt>
      <trkpt lat="34.47258" lon="-119.70228">
        <ele>477.0</ele>
      </trkpt>
      <trkpt lat="34.47262" lon="-119.70241">
        <ele>483.0</ele>
      </trkpt>
      <trkpt lat="34.4726" lon="-119.70251">
        <ele>483.0</ele>
      </trkpt>
      <trkpt lat="34.47248" lon="-119.70265">
        <ele>484.0</ele>
      </trkpt>
      <trkpt lat="34.47247" lon="-119.70283">
        <ele>484.0</ele>
      </trkpt>
      <trkpt lat="34.47243870310591" lon="-119.7028925937882">
        <ele>484.0</ele>
      </trkpt>
      <trkpt lat="34.47243870310591" lon="-119.7028925937882">
        <ele>484.0</ele>
      </trkpt>
      <trkpt lat="34.47238" lon="-119.70301">
        <ele>483.0</ele>
      </trkpt>
      <trkpt lat="34.47236" lon="-119.70315">
        <ele>470.0</ele>
      </trkpt>
      <trkpt lat="34.47223" lon="-119.70342">
        <ele>467.0</ele>
      </trkpt>
      <trkpt lat="34.47224" lon="-119.70356">
        <ele>466.0</ele>
      </trkpt>
      <trkpt lat="34.47216" lon="-119.70377">
        <ele>463.0</ele>
      </trkpt>
      <trkpt lat="34.47202" lon="-119.70389">
        <ele>454.0</ele>
      </trkpt>
      <trkpt lat="34.47205" lon="-119.70398">
        <ele>454.0</ele>
      </trkpt>
      <trkpt lat="34.47207" lon="-119.70401">
        <ele>454.0</ele>
      </trkpt>
      <trkpt lat="34.47218" lon="-119.70401">
        <ele>463.0</ele>
      </trkpt>
      <trkpt lat="34.47222" lon="-119.7041">
        <ele>459.0</ele>
      </trkpt>
      <trkpt lat="34.47221" lon="-119.70425">
        <ele>459.0</ele>
      </trkpt>
      <trkpt lat="34.47226975794023" lon="-119.7044548843665">
        <ele>455.0</ele>
      </trkpt>
      <trkpt lat="34.4722697579439" lon="-119.7044548843666">
        <ele>455.0</ele>
      </trkpt>
      <trkpt lat="34.47228" lon="-119.70449">
        <ele>455.0</ele>
      </trkpt>
      <trkpt lat="34.47228" lon="-119.70467">
        <ele>452.0</ele>
      </trkpt>
      <trkpt lat="34.47212" lon="-119.70479">
        <ele>452.0</ele>
      </trkpt>
      <trkpt lat="34.472" lon="-119.70484">
        <ele>444.0</ele>
      </trkpt>
      <trkpt lat="34.47197" lon="-119.70491">
        <ele>441.0</ele>
      </trkpt>
      <trkpt lat="34.47178" lon="-119.70511">
        <ele>427.0</ele>
      </trkpt>
      <trkpt lat="34.47176" lon="-119.70526">
        <ele>428.0</ele>
      </trkpt>
      <trkpt lat="34.47167" lon="-119.70525">
        <ele>428.0</ele>
      </trkpt>
      <trkpt lat="34.4715" lon="-119.70536">
        <ele>414.0</ele>
      </trkpt>
      <trkpt lat="34.4713" lon="-119.70584">
        <ele>422.0</ele>
      </trkpt>
      <trkpt lat="34.4709" lon="-119.70615">
        <ele>405.0</ele>
      </trkpt>
      <trkpt lat="34.4708" lon="-119.70628">
        <ele>404.0</ele>
      </trkpt>
      <trkpt lat="34.47076" lon="-119.70642">
        <ele>404.0</ele>
      </trkpt>
      <trkpt lat="34.47075" lon="-119.70671">
        <ele>406.0</ele>
      </trkpt>
      <trkpt lat="34.47072" lon="-119.7068">
        <ele>406.0</ele>
      </trkpt>
      <trkpt lat="34.47065" lon="-119.7069">
        <ele>399.0</ele>
      </trkpt>
      <trkpt lat="34.47065" lon="-119.7069">
        <ele>399.0</ele>
      </trkpt>
      <trkpt lat="34.47058" lon="-119.70675">
        <ele>399.0</ele>
      </trkpt>
      <trkpt lat="34.4705" lon="-119.70634">
        <ele>397.0</ele>
      </trkpt>
      <trkpt lat="34.47034" lon="-119.70613">
        <ele>387.0</ele>
      </trkpt>
      <trkpt lat="34.47034" lon="-119.70613">
        <ele>387.0</ele>
      </trkpt>
      <trkpt lat="34.47012" lon="-119.70599">
        <ele>381.0</ele>
      </trkpt>
      <trkpt lat="34.47012" lon="-119.70599">
        <ele>381.0</ele>
      </trkpt>
      <trkpt lat="34.4698" lon="-119.70594">
        <ele>370.0</ele>
      </trkpt>
      <trkpt lat="34.46975" lon="-119.70599">
        <ele>375.0</ele>
      </trkpt>
      <trkpt lat="34.46965" lon="-119.7062">
        <ele>375.0</ele>
      </trkpt>
      <trkpt lat="34.46963" lon="-119.70636">
        <ele>377.0</ele>
      </trkpt>
      <trkpt lat="34.46966" lon="-119.70654">
        <ele>376.0</ele>
      </trkpt>
      <trkpt lat="34.46966" lon="-119.70672">
        <ele>376.0</ele>
      </trkpt>
      <trkpt lat="34.46974" lon="-119.70703">
        <ele>374.0</ele>
      </trkpt>
      <trkpt lat="34.46974" lon="-119.70703">
        <ele>374.0</ele>
      </trkpt>
      <trkpt lat="34.46986" lon="-119.70723">
        <ele>371.0</ele>
      </trkpt>
      <trkpt lat="34.46987" lon="-119.7073">
        <ele>375.0</ele>
      </trkpt>
      <trkpt lat="34.46987" lon="-119.7073">
        <ele>375.0</ele>
      </trkpt>
      <trkpt lat="34.46985" lon="-119.70736">
        <ele>371.0</ele>
      </trkpt>
      <trkpt lat="34.46985" lon="-119.70736">
        <ele>371.0</ele>
      </trkpt>
      <trkpt lat="34.46981" lon="-119.70744">
        <ele>371.0</ele>
      </trkpt>
      <trkpt lat="34.46966" lon="-119.70743">
        <ele>371.0</ele>
      </trkpt>
      <trkpt lat="34.46961" lon="-119.70741">
        <ele>371.0</ele>
      </trkpt>
      <trkpt lat="34.46952" lon="-119.70727">
        <ele>374.0</ele>
      </trkpt>
      <trkpt lat="34.4692" lon="-119.70703">
        <ele>370.0</ele>
      </trkpt>
      <trkpt lat="34.4692" lon="-119.70703">
        <ele>370.0</ele>
      </trkpt>
      <trkpt lat="34.46908" lon="-119.70697">
        <ele>370.0</ele>
      </trkpt>
      <trkpt lat="34.46894" lon="-119.70684">
        <ele>365.0</ele>
      </trkpt>
      <trkpt lat="34.4689" lon="-119.70683">
        <ele>365.0</ele>
      </trkpt>
      <trkpt lat="34.46885" lon="-119.7069">
        <ele>365.0</ele>
      </trkpt>
      <trkpt lat="34.46882" lon="-119.70703">
        <ele>365.0</ele>
      </trkpt>
      <trkpt lat="34.46882" lon="-119.70703">
        <ele>365.0</ele>
      </trkpt>
      <trkpt lat="34.46879" lon="-119.70721">
        <ele>370.0</ele>
      </trkpt>
      <trkpt lat="34.46872" lon="-119.70736">
        <ele>361.0</ele>
      </trkpt>
      <trkpt lat="34.4685" lon="-119.70746">
        <ele>363.0</ele>
      </trkpt>
      <trkpt lat="34.4683" lon="-119.70774">
        <ele>355.0</ele>
      </trkpt>
      <trkpt lat="34.4683" lon="-119.70774">
        <ele>355.0</ele>
      </trkpt>
      <trkpt lat="34.4683" lon="-119.70774">
        <ele>355.0</ele>
      </trkpt>
      <trkpt lat="34.46829" lon="-119.70786">
        <ele>355.0</ele>
      </trkpt>
      <trkpt lat="34.46832" lon="-119.70807">
        <ele>359.0</ele>
      </trkpt>
      <trkpt lat="34.4683" lon="-119.70815">
        <ele>359.0</ele>
      </trkpt>
      <trkpt lat="34.46825" lon="-119.70821">
        <ele>364.0</ele>
      </trkpt>
      <trkpt lat="34.46802" lon="-119.70832">
        <ele>353.0</ele>
      </trkpt>
      <trkpt lat="34.46784" lon="-119.70856">
        <ele>343.0</ele>
      </trkpt>
      <trkpt lat="34.46778" lon="-119.70869">
        <ele>343.0</ele>
      </trkpt>
      <trkpt lat="34.46777" lon="-119.70877">
        <ele>345.0</ele>
      </trkpt>
      <trkpt lat="34.46781" lon="-119.70891">
        <ele>345.0</ele>
      </trkpt>
      <trkpt lat="34.468" lon="-119.70933">
        <ele>361.0</ele>
      </trkpt>
      <trkpt lat="34.46801" lon="-119.70942">
        <ele>361.0</ele>
      </trkpt>
      <trkpt lat="34.46799" lon="-119.70947">
        <ele>361.0</ele>
      </trkpt>
      <trkpt lat="34.46761" lon="-119.70964">
        <ele>347.0</ele>
      </trkpt>
      <trkpt lat="34.46739" lon="-119.70962">
        <ele>347.0</ele>
      </trkpt>
      <trkpt lat="34.46728" lon="-119.70955">
        <ele>333.0</ele>
      </trkpt>
      <trkpt lat="34.46717" lon="-119.70954">
        <ele>333.0</ele>
      </trkpt>
      <trkpt lat="34.46692" lon="-119.70982">
        <ele>328.0</ele>
      </trkpt>
      <trkpt lat="34.46689" lon="-119.70989">
        <ele>333.0</ele>
      </trkpt>
      <trkpt lat="34.46682" lon="-119.71045">
        <ele>336.0</ele>
      </trkpt>
      <trkpt lat="34.46683" lon="-119.71058">
        <ele>336.0</ele>
      </trkpt>
      <trkpt lat="34.46689" lon="-119.71075">
        <ele>334.0</ele>
      </trkpt>
      <trkpt lat="34.467" lon="-119.71096">
        <ele>334.0</ele>
      </trkpt>
      <trkpt lat="34.46698" lon="-119.71126">
        <ele>337.0</ele>
      </trkpt>
      <trkpt lat="34.46694" lon="-119.71137">
        <ele>337.0</ele>
      </trkpt>
      <trkpt lat="34.46686" lon="-119.71139">
        <ele>337.0</ele>
      </trkpt>
      <trkpt lat="34.46676" lon="-119.71131">
        <ele>328.0</ele>
      </trkpt>
      <trkpt lat="34.46654" lon="-119.7112">
        <ele>327.0</ele>
      </trkpt>
      <trkpt lat="34.46634" lon="-119.7113">
        <ele>324.0</ele>
      </trkpt>
      <trkpt lat="34.46621" lon="-119.71124">
        <ele>313.0</ele>
      </trkpt>
      <trkpt lat="34.46608" lon="-119.71121">
        <ele>313.0</ele>
      </trkpt>
      <trkpt lat="34.46592" lon="-119.71109">
        <ele>312.0</ele>
      </trkpt>
      <trkpt lat="34.46585" lon="-119.71107">
        <ele>312.0</ele>
      </trkpt>
      <trkpt lat="34.46579" lon="-119.71109">
        <ele>312.0</ele>
      </trkpt>
      <trkpt lat="34.46556" lon="-119.71132">
        <ele>309.0</ele>
      </trkpt>
      <trkpt lat="34.46551" lon="-119.7114">
        <ele>309.0</ele>
      </trkpt>
      <trkpt lat="34.46536" lon="-119.71195">
        <ele>303.0</ele>
      </trkpt>
      <trkpt lat="34.46510995650472" lon="-119.7123979945957">
        <ele>299.0</ele>
      </trkpt>
      <trkpt lat="34.46510995684915" lon="-119.7123979945957">
        <ele>299.0</ele>
      </trkpt>
      <trkpt lat="34.4648845152233" lon="-119.7128019102249">
        <ele>302.0</ele>
      </trkpt>
    </trkseg>
  </trk>
</gpx>
