<?xml version="1.0" encoding="UTF-8"?>
<gpx xmlns:xsi="http://www.w3.org/2001/XMLSchema-instance" version="1.1" creator="The Outbound Collective, Inc. 1.1.1 -- https://www.theoutbound.com" xsi:schemaLocation="http://www.topografix.com/GPX/1/1 http://www.topografix.com/GPX/1/1/gpx.xsd">
  <metadata>
    <name/>
    <time>2026-02-19T21:57:04+00:00</time>
    <bound minlat="34.45599811775472" minlon="-119.6689594177913" maxlat="34.46752000000001" maxlon="-119.65301"/>
  </metadata>
  <trk>
    <name/>
    <trkseg>
      <trkpt lat="34.45600489420305" lon="-119.6531510353089">
        <ele>244.0</ele>
      </trkpt>
      <trkpt lat="34.45600663103101" lon="-119.653140391425">
        <ele>244.0</ele>
      </trkpt>
      <trkpt lat="34.45613" lon="-119.65317">
        <ele>244.0</ele>
      </trkpt>
      <trkpt lat="34.45648" lon="-119.65316">
        <ele>247.0</ele>
      </trkpt>
      <trkpt lat="34.45678" lon="-119.65302">
        <ele>250.0</ele>
      </trkpt>
      <trkpt lat="34.45685" lon="-119.65301">
        <ele>253.0</ele>
      </trkpt>
      <trkpt lat="34.457" lon="-119.65319">
        <ele>253.0</ele>
      </trkpt>
      <trkpt lat="34.45722" lon="-119.65327">
        <ele>257.0</ele>
      </trkpt>
      <trkpt lat="34.45736" lon="-119.65341">
        <ele>257.0</ele>
      </trkpt>
      <trkpt lat="34.45746" lon="-119.65363">
        <ele>258.0</ele>
      </trkpt>
      <trkpt lat="34.45746" lon="-119.65363">
        <ele>258.0</ele>
      </trkpt>
      <trkpt lat="34.45746" lon="-119.65363">
        <ele>258.0</ele>
      </trkpt>
      <trkpt lat="34.45765" lon="-119.65379">
        <ele>258.0</ele>
      </trkpt>
      <trkpt lat="34.45788" lon="-119.65393">
        <ele>258.0</ele>
      </trkpt>
      <trkpt lat="34.45803" lon="-119.654">
        <ele>265.0</ele>
      </trkpt>
      <trkpt lat="34.45854" lon="-119.65412">
        <ele>275.0</ele>
      </trkpt>
      <trkpt lat="34.4587" lon="-119.65422">
        <ele>275.0</ele>
      </trkpt>
      <trkpt lat="34.45895" lon="-119.65428">
        <ele>279.0</ele>
      </trkpt>
      <trkpt lat="34.45895" lon="-119.65428">
        <ele>279.0</ele>
      </trkpt>
      <trkpt lat="34.45897" lon="-119.65437">
        <ele>278.0</ele>
      </trkpt>
      <trkpt lat="34.45894" lon="-119.65458">
        <ele>278.0</ele>
      </trkpt>
      <trkpt lat="34.45897" lon="-119.65463">
        <ele>284.0</ele>
      </trkpt>
      <trkpt lat="34.45898918015676" lon="-119.6546362704359">
        <ele>284.0</ele>
      </trkpt>
      <trkpt lat="34.45898918021429" lon="-119.6546362704359">
        <ele>284.0</ele>
      </trkpt>
      <trkpt lat="34.45949" lon="-119.6548">
        <ele>287.0</ele>
      </trkpt>
      <trkpt lat="34.45968" lon="-119.655">
        <ele>287.0</ele>
      </trkpt>
      <trkpt lat="34.46003" lon="-119.65512">
        <ele>289.0</ele>
      </trkpt>
      <trkpt lat="34.46028" lon="-119.65527">
        <ele>295.0</ele>
      </trkpt>
      <trkpt lat="34.46076" lon="-119.65546">
        <ele>304.0</ele>
      </trkpt>
      <trkpt lat="34.46087" lon="-119.65559">
        <ele>304.0</ele>
      </trkpt>
      <trkpt lat="34.46107" lon="-119.65573">
        <ele>313.0</ele>
      </trkpt>
      <trkpt lat="34.46112" lon="-119.65571">
        <ele>313.0</ele>
      </trkpt>
      <trkpt lat="34.46125" lon="-119.65557">
        <ele>308.0</ele>
      </trkpt>
      <trkpt lat="34.46142" lon="-119.65561">
        <ele>316.0</ele>
      </trkpt>
      <trkpt lat="34.46165" lon="-119.65544">
        <ele>319.0</ele>
      </trkpt>
      <trkpt lat="34.46187" lon="-119.65542">
        <ele>316.0</ele>
      </trkpt>
      <trkpt lat="34.46193" lon="-119.65544">
        <ele>316.0</ele>
      </trkpt>
      <trkpt lat="34.462" lon="-119.6555">
        <ele>316.0</ele>
      </trkpt>
      <trkpt lat="34.46219" lon="-119.65578">
        <ele>316.0</ele>
      </trkpt>
      <trkpt lat="34.46229" lon="-119.65609">
        <ele>325.0</ele>
      </trkpt>
      <trkpt lat="34.46242" lon="-119.65629">
        <ele>331.0</ele>
      </trkpt>
      <trkpt lat="34.46271" lon="-119.65641">
        <ele>331.0</ele>
      </trkpt>
      <trkpt lat="34.46305" lon="-119.65647">
        <ele>329.0</ele>
      </trkpt>
      <trkpt lat="34.46337" lon="-119.65674">
        <ele>331.0</ele>
      </trkpt>
      <trkpt lat="34.46345" lon="-119.65685">
        <ele>339.0</ele>
      </trkpt>
      <trkpt lat="34.46353" lon="-119.6571">
        <ele>339.0</ele>
      </trkpt>
      <trkpt lat="34.46366" lon="-119.65739">
        <ele>344.0</ele>
      </trkpt>
      <trkpt lat="34.46389" lon="-119.65778">
        <ele>346.0</ele>
      </trkpt>
      <trkpt lat="34.46417" lon="-119.65807">
        <ele>355.0</ele>
      </trkpt>
      <trkpt lat="34.464371347018" lon="-119.6581672020087">
        <ele>361.0</ele>
      </trkpt>
      <trkpt lat="34.46437134712492" lon="-119.6581672020087">
        <ele>361.0</ele>
      </trkpt>
      <trkpt lat="34.46446" lon="-119.65821">
        <ele>367.0</ele>
      </trkpt>
      <trkpt lat="34.46468" lon="-119.65826">
        <ele>364.0</ele>
      </trkpt>
      <trkpt lat="34.4648" lon="-119.65843">
        <ele>364.0</ele>
      </trkpt>
      <trkpt lat="34.46495858124882" lon="-119.6585326113963">
        <ele>365.0</ele>
      </trkpt>
      <trkpt lat="34.46497789305637" lon="-119.6585487700626">
        <ele>365.0</ele>
      </trkpt>
      <trkpt lat="34.46506" lon="-119.65864">
        <ele>365.0</ele>
      </trkpt>
      <trkpt lat="34.46508" lon="-119.6588">
        <ele>371.0</ele>
      </trkpt>
      <trkpt lat="34.46495" lon="-119.65903">
        <ele>377.0</ele>
      </trkpt>
      <trkpt lat="34.46495" lon="-119.65918">
        <ele>377.0</ele>
      </trkpt>
      <trkpt lat="34.46501" lon="-119.65937">
        <ele>380.0</ele>
      </trkpt>
      <trkpt lat="34.46501" lon="-119.65937">
        <ele>380.0</ele>
      </trkpt>
      <trkpt lat="34.46501" lon="-119.65937">
        <ele>380.0</ele>
      </trkpt>
      <trkpt lat="34.46513" lon="-119.65957">
        <ele>380.0</ele>
      </trkpt>
      <trkpt lat="34.46517" lon="-119.6598">
        <ele>382.0</ele>
      </trkpt>
      <trkpt lat="34.46535" lon="-119.66012">
        <ele>388.0</ele>
      </trkpt>
      <trkpt lat="34.46535" lon="-119.66021">
        <ele>381.0</ele>
      </trkpt>
      <trkpt lat="34.46526" lon="-119.66038">
        <ele>381.0</ele>
      </trkpt>
      <trkpt lat="34.46529" lon="-119.66057">
        <ele>385.0</ele>
      </trkpt>
      <trkpt lat="34.46545" lon="-119.6609">
        <ele>393.0</ele>
      </trkpt>
      <trkpt lat="34.46558" lon="-119.66108">
        <ele>395.0</ele>
      </trkpt>
      <trkpt lat="34.4657688628952" lon="-119.6613074939419">
        <ele>399.0</ele>
      </trkpt>
      <trkpt lat="34.46576886317931" lon="-119.6613074939419">
        <ele>399.0</ele>
      </trkpt>
      <trkpt lat="34.46602" lon="-119.66161">
        <ele>398.0</ele>
      </trkpt>
      <trkpt lat="34.46614" lon="-119.66173">
        <ele>398.0</ele>
      </trkpt>
      <trkpt lat="34.46629" lon="-119.66183">
        <ele>402.0</ele>
      </trkpt>
      <trkpt lat="34.46644" lon="-119.66214">
        <ele>403.0</ele>
      </trkpt>
      <trkpt lat="34.46673" lon="-119.66234">
        <ele>414.0</ele>
      </trkpt>
      <trkpt lat="34.46695" lon="-119.66241">
        <ele>424.0</ele>
      </trkpt>
      <trkpt lat="34.46707" lon="-119.66249">
        <ele>424.0</ele>
      </trkpt>
      <trkpt lat="34.46724" lon="-119.66254">
        <ele>432.0</ele>
      </trkpt>
      <trkpt lat="34.46735" lon="-119.6626">
        <ele>432.0</ele>
      </trkpt>
      <trkpt lat="34.46737" lon="-119.66265">
        <ele>433.0</ele>
      </trkpt>
      <trkpt lat="34.46732" lon="-119.66281">
        <ele>427.0</ele>
      </trkpt>
      <trkpt lat="34.46733" lon="-119.66289">
        <ele>427.0</ele>
      </trkpt>
      <trkpt lat="34.46721" lon="-119.66292">
        <ele>431.0</ele>
      </trkpt>
      <trkpt lat="34.46711" lon="-119.6629">
        <ele>427.0</ele>
      </trkpt>
      <trkpt lat="34.46714" lon="-119.66297">
        <ele>431.0</ele>
      </trkpt>
      <trkpt lat="34.46721" lon="-119.66299">
        <ele>431.0</ele>
      </trkpt>
      <trkpt lat="34.46711" lon="-119.66304">
        <ele>431.0</ele>
      </trkpt>
      <trkpt lat="34.46712" lon="-119.66306">
        <ele>431.0</ele>
      </trkpt>
      <trkpt lat="34.46718" lon="-119.66306">
        <ele>431.0</ele>
      </trkpt>
      <trkpt lat="34.46718" lon="-119.66309">
        <ele>431.0</ele>
      </trkpt>
      <trkpt lat="34.46718" lon="-119.66309">
        <ele>431.0</ele>
      </trkpt>
      <trkpt lat="34.46713" lon="-119.66312">
        <ele>431.0</ele>
      </trkpt>
      <trkpt lat="34.4671" lon="-119.6632">
        <ele>443.0</ele>
      </trkpt>
      <trkpt lat="34.46706" lon="-119.66321">
        <ele>443.0</ele>
      </trkpt>
      <trkpt lat="34.46702" lon="-119.66318">
        <ele>429.0</ele>
      </trkpt>
      <trkpt lat="34.467" lon="-119.66309">
        <ele>429.0</ele>
      </trkpt>
      <trkpt lat="34.467" lon="-119.66309">
        <ele>429.0</ele>
      </trkpt>
      <trkpt lat="34.46688" lon="-119.66305">
        <ele>429.0</ele>
      </trkpt>
      <trkpt lat="34.46683" lon="-119.66306">
        <ele>429.0</ele>
      </trkpt>
      <trkpt lat="34.46683" lon="-119.66309">
        <ele>429.0</ele>
      </trkpt>
      <trkpt lat="34.46683" lon="-119.66309">
        <ele>429.0</ele>
      </trkpt>
      <trkpt lat="34.46693" lon="-119.66314">
        <ele>429.0</ele>
      </trkpt>
      <trkpt lat="34.46695" lon="-119.6632">
        <ele>443.0</ele>
      </trkpt>
      <trkpt lat="34.46686" lon="-119.66317">
        <ele>429.0</ele>
      </trkpt>
      <trkpt lat="34.46676" lon="-119.66319">
        <ele>426.0</ele>
      </trkpt>
      <trkpt lat="34.46666" lon="-119.66336">
        <ele>441.0</ele>
      </trkpt>
      <trkpt lat="34.46661" lon="-119.66339">
        <ele>441.0</ele>
      </trkpt>
      <trkpt lat="34.46654" lon="-119.66334">
        <ele>441.0</ele>
      </trkpt>
      <trkpt lat="34.46645" lon="-119.66332">
        <ele>444.0</ele>
      </trkpt>
      <trkpt lat="34.46633" lon="-119.66309">
        <ele>429.0</ele>
      </trkpt>
      <trkpt lat="34.46633" lon="-119.66309">
        <ele>429.0</ele>
      </trkpt>
      <trkpt lat="34.46629" lon="-119.66301">
        <ele>429.0</ele>
      </trkpt>
      <trkpt lat="34.46605" lon="-119.66285">
        <ele>428.0</ele>
      </trkpt>
      <trkpt lat="34.46605" lon="-119.66285">
        <ele>428.0</ele>
      </trkpt>
      <trkpt lat="34.46605" lon="-119.66285">
        <ele>428.0</ele>
      </trkpt>
      <trkpt lat="34.46594438016468" lon="-119.6625235386908">
        <ele>429.0</ele>
      </trkpt>
      <trkpt lat="34.46592898549331" lon="-119.66250173912">
        <ele>429.0</ele>
      </trkpt>
      <trkpt lat="34.46590602871611" lon="-119.6624845215371">
        <ele>429.0</ele>
      </trkpt>
      <trkpt lat="34.46590602873039" lon="-119.6624845215371">
        <ele>429.0</ele>
      </trkpt>
      <trkpt lat="34.46592898549331" lon="-119.66250173912">
        <ele>429.0</ele>
      </trkpt>
      <trkpt lat="34.46594438016468" lon="-119.6625235386908">
        <ele>429.0</ele>
      </trkpt>
      <trkpt lat="34.46605" lon="-119.66285">
        <ele>428.0</ele>
      </trkpt>
      <trkpt lat="34.46605" lon="-119.66285">
        <ele>428.0</ele>
      </trkpt>
      <trkpt lat="34.46605" lon="-119.66285">
        <ele>428.0</ele>
      </trkpt>
      <trkpt lat="34.46611" lon="-119.66309">
        <ele>440.0</ele>
      </trkpt>
      <trkpt lat="34.46611" lon="-119.66309">
        <ele>440.0</ele>
      </trkpt>
      <trkpt lat="34.46619" lon="-119.66318">
        <ele>440.0</ele>
      </trkpt>
      <trkpt lat="34.4662" lon="-119.6634">
        <ele>452.0</ele>
      </trkpt>
      <trkpt lat="34.46626" lon="-119.66352">
        <ele>455.0</ele>
      </trkpt>
      <trkpt lat="34.46626" lon="-119.66362">
        <ele>455.0</ele>
      </trkpt>
      <trkpt lat="34.46637" lon="-119.6637">
        <ele>455.0</ele>
      </trkpt>
      <trkpt lat="34.46638" lon="-119.66379">
        <ele>465.0</ele>
      </trkpt>
      <trkpt lat="34.46648" lon="-119.66396">
        <ele>465.0</ele>
      </trkpt>
      <trkpt lat="34.46647" lon="-119.66403">
        <ele>473.0</ele>
      </trkpt>
      <trkpt lat="34.4665" lon="-119.66413">
        <ele>473.0</ele>
      </trkpt>
      <trkpt lat="34.4666" lon="-119.66423">
        <ele>478.0</ele>
      </trkpt>
      <trkpt lat="34.46667" lon="-119.66426">
        <ele>478.0</ele>
      </trkpt>
      <trkpt lat="34.46669" lon="-119.66433">
        <ele>485.0</ele>
      </trkpt>
      <trkpt lat="34.46683" lon="-119.66451">
        <ele>489.0</ele>
      </trkpt>
      <trkpt lat="34.46699" lon="-119.66459">
        <ele>501.0</ele>
      </trkpt>
      <trkpt lat="34.46701" lon="-119.66468">
        <ele>501.0</ele>
      </trkpt>
      <trkpt lat="34.46696" lon="-119.66485">
        <ele>501.0</ele>
      </trkpt>
      <trkpt lat="34.46697" lon="-119.66495">
        <ele>514.0</ele>
      </trkpt>
      <trkpt lat="34.46702" lon="-119.66505">
        <ele>514.0</ele>
      </trkpt>
      <trkpt lat="34.46703" lon="-119.66516">
        <ele>524.0</ele>
      </trkpt>
      <trkpt lat="34.46706" lon="-119.6652">
        <ele>524.0</ele>
      </trkpt>
      <trkpt lat="34.46706" lon="-119.66529">
        <ele>524.0</ele>
      </trkpt>
      <trkpt lat="34.46705619191411" lon="-119.6652961919141">
        <ele>524.0</ele>
      </trkpt>
      <trkpt lat="34.46708" lon="-119.66532">
        <ele>524.0</ele>
      </trkpt>
      <trkpt lat="34.46706" lon="-119.66537">
        <ele>524.0</ele>
      </trkpt>
      <trkpt lat="34.46709" lon="-119.6654">
        <ele>530.0</ele>
      </trkpt>
      <trkpt lat="34.46709" lon="-119.6658">
        <ele>548.0</ele>
      </trkpt>
      <trkpt lat="34.46701" lon="-119.66589">
        <ele>538.0</ele>
      </trkpt>
      <trkpt lat="34.46692" lon="-119.66617">
        <ele>548.0</ele>
      </trkpt>
      <trkpt lat="34.46706" lon="-119.66605">
        <ele>548.0</ele>
      </trkpt>
      <trkpt lat="34.46721" lon="-119.66605">
        <ele>555.0</ele>
      </trkpt>
      <trkpt lat="34.46727" lon="-119.66581">
        <ele>548.0</ele>
      </trkpt>
      <trkpt lat="34.4673" lon="-119.6658">
        <ele>548.0</ele>
      </trkpt>
      <trkpt lat="34.46731" lon="-119.66582">
        <ele>548.0</ele>
      </trkpt>
      <trkpt lat="34.46729" lon="-119.66594">
        <ele>548.0</ele>
      </trkpt>
      <trkpt lat="34.46731" lon="-119.66603">
        <ele>555.0</ele>
      </trkpt>
      <trkpt lat="34.46732" lon="-119.66661">
        <ele>567.0</ele>
      </trkpt>
      <trkpt lat="34.46746" lon="-119.66713">
        <ele>563.0</ele>
      </trkpt>
      <trkpt lat="34.46747" lon="-119.66741">
        <ele>565.0</ele>
      </trkpt>
      <trkpt lat="34.46752" lon="-119.6679">
        <ele>570.0</ele>
      </trkpt>
      <trkpt lat="34.46752" lon="-119.668128490448">
        <ele>576.0</ele>
      </trkpt>
      <trkpt lat="34.46752000000001" lon="-119.668128490448">
        <ele>576.0</ele>
      </trkpt>
      <trkpt lat="34.46752" lon="-119.66825">
        <ele>580.0</ele>
      </trkpt>
      <trkpt lat="34.4674" lon="-119.66865">
        <ele>579.0</ele>
      </trkpt>
      <trkpt lat="34.46740220587714" lon="-119.668661344511">
        <ele>579.0</ele>
      </trkpt>
      <trkpt lat="34.46740220587802" lon="-119.668661344511">
        <ele>579.0</ele>
      </trkpt>
      <trkpt lat="34.46746016457053" lon="-119.6689594177913">
        <ele>578.0</ele>
      </trkpt>
      <trkpt lat="34.46746016457406" lon="-119.6689594177913">
        <ele>578.0</ele>
      </trkpt>
      <trkpt lat="34.4674" lon="-119.66865">
        <ele>579.0</ele>
      </trkpt>
      <trkpt lat="34.46752" lon="-119.66825">
        <ele>580.0</ele>
      </trkpt>
      <trkpt lat="34.46752" lon="-119.6679">
        <ele>570.0</ele>
      </trkpt>
      <trkpt lat="34.46748892171191" lon="-119.6675954327767">
        <ele>565.0</ele>
      </trkpt>
      <trkpt lat="34.46748892171542" lon="-119.6675954327767">
        <ele>565.0</ele>
      </trkpt>
      <trkpt lat="34.46747" lon="-119.66741">
        <ele>565.0</ele>
      </trkpt>
      <trkpt lat="34.46746" lon="-119.66713">
        <ele>563.0</ele>
      </trkpt>
      <trkpt lat="34.46732" lon="-119.66661">
        <ele>567.0</ele>
      </trkpt>
      <trkpt lat="34.46731" lon="-119.66603">
        <ele>555.0</ele>
      </trkpt>
      <trkpt lat="34.46729" lon="-119.66594">
        <ele>548.0</ele>
      </trkpt>
      <trkpt lat="34.46731" lon="-119.66582">
        <ele>548.0</ele>
      </trkpt>
      <trkpt lat="34.4673" lon="-119.6658">
        <ele>548.0</ele>
      </trkpt>
      <trkpt lat="34.46727" lon="-119.66581">
        <ele>548.0</ele>
      </trkpt>
      <trkpt lat="34.46721" lon="-119.66605">
        <ele>555.0</ele>
      </trkpt>
      <trkpt lat="34.46706" lon="-119.66605">
        <ele>548.0</ele>
      </trkpt>
      <trkpt lat="34.46692" lon="-119.66617">
        <ele>548.0</ele>
      </trkpt>
      <trkpt lat="34.46701" lon="-119.66589">
        <ele>538.0</ele>
      </trkpt>
      <trkpt lat="34.46709" lon="-119.6658">
        <ele>548.0</ele>
      </trkpt>
      <trkpt lat="34.46709" lon="-119.6654">
        <ele>530.0</ele>
      </trkpt>
      <trkpt lat="34.46706" lon="-119.66537">
        <ele>524.0</ele>
      </trkpt>
      <trkpt lat="34.46708" lon="-119.66532">
        <ele>524.0</ele>
      </trkpt>
      <trkpt lat="34.46705619191411" lon="-119.6652961919141">
        <ele>524.0</ele>
      </trkpt>
      <trkpt lat="34.46705619191411" lon="-119.6652961919141">
        <ele>524.0</ele>
      </trkpt>
      <trkpt lat="34.46704" lon="-119.66528">
        <ele>524.0</ele>
      </trkpt>
      <trkpt lat="34.46696" lon="-119.66535">
        <ele>524.0</ele>
      </trkpt>
      <trkpt lat="34.46696" lon="-119.66544">
        <ele>531.0</ele>
      </trkpt>
      <trkpt lat="34.46688" lon="-119.66559">
        <ele>531.0</ele>
      </trkpt>
      <trkpt lat="34.46672" lon="-119.66572">
        <ele>531.0</ele>
      </trkpt>
      <trkpt lat="34.46667" lon="-119.66571">
        <ele>531.0</ele>
      </trkpt>
      <trkpt lat="34.46658" lon="-119.66563">
        <ele>524.0</ele>
      </trkpt>
      <trkpt lat="34.46629" lon="-119.66556">
        <ele>513.0</ele>
      </trkpt>
      <trkpt lat="34.46625" lon="-119.66557">
        <ele>505.0</ele>
      </trkpt>
      <trkpt lat="34.46608" lon="-119.66572">
        <ele>516.0</ele>
      </trkpt>
      <trkpt lat="34.46614" lon="-119.66563">
        <ele>505.0</ele>
      </trkpt>
      <trkpt lat="34.46619" lon="-119.66543">
        <ele>505.0</ele>
      </trkpt>
      <trkpt lat="34.46624" lon="-119.6654">
        <ele>500.0</ele>
      </trkpt>
      <trkpt lat="34.46617" lon="-119.66538">
        <ele>500.0</ele>
      </trkpt>
      <trkpt lat="34.4661" lon="-119.66549">
        <ele>505.0</ele>
      </trkpt>
      <trkpt lat="34.46608" lon="-119.66549">
        <ele>505.0</ele>
      </trkpt>
      <trkpt lat="34.46612" lon="-119.6653">
        <ele>500.0</ele>
      </trkpt>
      <trkpt lat="34.46621" lon="-119.66522">
        <ele>500.0</ele>
      </trkpt>
      <trkpt lat="34.46618" lon="-119.66518">
        <ele>500.0</ele>
      </trkpt>
      <trkpt lat="34.46611" lon="-119.6652">
        <ele>500.0</ele>
      </trkpt>
      <trkpt lat="34.46583" lon="-119.66536">
        <ele>500.0</ele>
      </trkpt>
      <trkpt lat="34.46575" lon="-119.66551">
        <ele>505.0</ele>
      </trkpt>
      <trkpt lat="34.4657160369905" lon="-119.6655032073981">
        <ele>505.0</ele>
      </trkpt>
      <trkpt lat="34.4657160369905" lon="-119.6655032073981">
        <ele>505.0</ele>
      </trkpt>
      <trkpt lat="34.4657" lon="-119.6655">
        <ele>505.0</ele>
      </trkpt>
      <trkpt lat="34.46569710343267" lon="-119.6654826205961">
        <ele>505.0</ele>
      </trkpt>
      <trkpt lat="34.46569710343267" lon="-119.6654826205961">
        <ele>505.0</ele>
      </trkpt>
      <trkpt lat="34.46566" lon="-119.66526">
        <ele>511.0</ele>
      </trkpt>
      <trkpt lat="34.46572" lon="-119.66469">
        <ele>494.0</ele>
      </trkpt>
      <trkpt lat="34.46572" lon="-119.66416">
        <ele>483.0</ele>
      </trkpt>
      <trkpt lat="34.46568" lon="-119.66401">
        <ele>487.0</ele>
      </trkpt>
      <trkpt lat="34.46550523482413" lon="-119.6638227515973">
        <ele>487.0</ele>
      </trkpt>
      <trkpt lat="34.46550523493427" lon="-119.6638227515973">
        <ele>487.0</ele>
      </trkpt>
      <trkpt lat="34.4654" lon="-119.66371">
        <ele>491.0</ele>
      </trkpt>
      <trkpt lat="34.46546" lon="-119.66362">
        <ele>480.0</ele>
      </trkpt>
      <trkpt lat="34.46552" lon="-119.66336">
        <ele>471.0</ele>
      </trkpt>
      <trkpt lat="34.46553" lon="-119.66321">
        <ele>471.0</ele>
      </trkpt>
      <trkpt lat="34.46549" lon="-119.66309">
        <ele>461.0</ele>
      </trkpt>
      <trkpt lat="34.46549" lon="-119.66309">
        <ele>461.0</ele>
      </trkpt>
      <trkpt lat="34.4653" lon="-119.66288">
        <ele>467.0</ele>
      </trkpt>
      <trkpt lat="34.46536" lon="-119.66263">
        <ele>457.0</ele>
      </trkpt>
      <trkpt lat="34.46532" lon="-119.66251">
        <ele>457.0</ele>
      </trkpt>
      <trkpt lat="34.46532" lon="-119.66251">
        <ele>457.0</ele>
      </trkpt>
      <trkpt lat="34.46532" lon="-119.66251">
        <ele>457.0</ele>
      </trkpt>
      <trkpt lat="34.46529" lon="-119.66234">
        <ele>447.0</ele>
      </trkpt>
      <trkpt lat="34.46531" lon="-119.66209">
        <ele>447.0</ele>
      </trkpt>
      <trkpt lat="34.46537" lon="-119.66184">
        <ele>435.0</ele>
      </trkpt>
      <trkpt lat="34.46535" lon="-119.66167">
        <ele>422.0</ele>
      </trkpt>
      <trkpt lat="34.4651" lon="-119.66116">
        <ele>413.0</ele>
      </trkpt>
      <trkpt lat="34.46509" lon="-119.66104">
        <ele>413.0</ele>
      </trkpt>
      <trkpt lat="34.46493" lon="-119.6607">
        <ele>409.0</ele>
      </trkpt>
      <trkpt lat="34.46487" lon="-119.66053">
        <ele>402.0</ele>
      </trkpt>
      <trkpt lat="34.46487" lon="-119.66045">
        <ele>402.0</ele>
      </trkpt>
      <trkpt lat="34.46491" lon="-119.66038">
        <ele>403.0</ele>
      </trkpt>
      <trkpt lat="34.46493" lon="-119.66009">
        <ele>386.0</ele>
      </trkpt>
      <trkpt lat="34.46504" lon="-119.66005">
        <ele>386.0</ele>
      </trkpt>
      <trkpt lat="34.4651" lon="-119.65996">
        <ele>386.0</ele>
      </trkpt>
      <trkpt lat="34.46507" lon="-119.65984">
        <ele>383.0</ele>
      </trkpt>
      <trkpt lat="34.46508" lon="-119.65969">
        <ele>383.0</ele>
      </trkpt>
      <trkpt lat="34.46505863995898" lon="-119.6595923540982">
        <ele>383.0</ele>
      </trkpt>
      <trkpt lat="34.4650586399652" lon="-119.6595923540982">
        <ele>383.0</ele>
      </trkpt>
      <trkpt lat="34.46501" lon="-119.65937">
        <ele>380.0</ele>
      </trkpt>
      <trkpt lat="34.46501" lon="-119.65937">
        <ele>380.0</ele>
      </trkpt>
      <trkpt lat="34.46495" lon="-119.65918">
        <ele>377.0</ele>
      </trkpt>
      <trkpt lat="34.46495" lon="-119.65903">
        <ele>377.0</ele>
      </trkpt>
      <trkpt lat="34.46508" lon="-119.6588">
        <ele>371.0</ele>
      </trkpt>
      <trkpt lat="34.46506" lon="-119.65864">
        <ele>365.0</ele>
      </trkpt>
      <trkpt lat="34.46497789305637" lon="-119.6585487700626">
        <ele>365.0</ele>
      </trkpt>
      <trkpt lat="34.46495858124882" lon="-119.6585326113963">
        <ele>365.0</ele>
      </trkpt>
      <trkpt lat="34.4648" lon="-119.65843">
        <ele>364.0</ele>
      </trkpt>
      <trkpt lat="34.46479117360396" lon="-119.6584174959389">
        <ele>364.0</ele>
      </trkpt>
      <trkpt lat="34.46479117360982" lon="-119.658417495939">
        <ele>364.0</ele>
      </trkpt>
      <trkpt lat="34.46468" lon="-119.65826">
        <ele>364.0</ele>
      </trkpt>
      <trkpt lat="34.46446" lon="-119.65821">
        <ele>367.0</ele>
      </trkpt>
      <trkpt lat="34.46417" lon="-119.65807">
        <ele>355.0</ele>
      </trkpt>
      <trkpt lat="34.46389" lon="-119.65778">
        <ele>346.0</ele>
      </trkpt>
      <trkpt lat="34.46366" lon="-119.65739">
        <ele>344.0</ele>
      </trkpt>
      <trkpt lat="34.46353" lon="-119.6571">
        <ele>339.0</ele>
      </trkpt>
      <trkpt lat="34.46345" lon="-119.65685">
        <ele>339.0</ele>
      </trkpt>
      <trkpt lat="34.46337" lon="-119.65674">
        <ele>331.0</ele>
      </trkpt>
      <trkpt lat="34.46305" lon="-119.65647">
        <ele>329.0</ele>
      </trkpt>
      <trkpt lat="34.46271" lon="-119.65641">
        <ele>331.0</ele>
      </trkpt>
      <trkpt lat="34.46242" lon="-119.65629">
        <ele>331.0</ele>
      </trkpt>
      <trkpt lat="34.46229" lon="-119.65609">
        <ele>325.0</ele>
      </trkpt>
      <trkpt lat="34.46219" lon="-119.65578">
        <ele>316.0</ele>
      </trkpt>
      <trkpt lat="34.462" lon="-119.6555">
        <ele>316.0</ele>
      </trkpt>
      <trkpt lat="34.46193" lon="-119.65544">
        <ele>316.0</ele>
      </trkpt>
      <trkpt lat="34.46187" lon="-119.65542">
        <ele>316.0</ele>
      </trkpt>
      <trkpt lat="34.46165" lon="-119.65544">
        <ele>319.0</ele>
      </trkpt>
      <trkpt lat="34.46142" lon="-119.65561">
        <ele>316.0</ele>
      </trkpt>
      <trkpt lat="34.46125" lon="-119.65557">
        <ele>308.0</ele>
      </trkpt>
      <trkpt lat="34.46112" lon="-119.65571">
        <ele>313.0</ele>
      </trkpt>
      <trkpt lat="34.46107" lon="-119.65573">
        <ele>313.0</ele>
      </trkpt>
      <trkpt lat="34.46087" lon="-119.65559">
        <ele>304.0</ele>
      </trkpt>
      <trkpt lat="34.46076" lon="-119.65546">
        <ele>304.0</ele>
      </trkpt>
      <trkpt lat="34.46028" lon="-119.65527">
        <ele>295.0</ele>
      </trkpt>
      <trkpt lat="34.46003" lon="-119.65512">
        <ele>289.0</ele>
      </trkpt>
      <trkpt lat="34.45968" lon="-119.655">
        <ele>287.0</ele>
      </trkpt>
      <trkpt lat="34.45949" lon="-119.6548">
        <ele>287.0</ele>
      </trkpt>
      <trkpt lat="34.45897" lon="-119.65463">
        <ele>284.0</ele>
      </trkpt>
      <trkpt lat="34.45894" lon="-119.65458">
        <ele>278.0</ele>
      </trkpt>
      <trkpt lat="34.45897" lon="-119.65437">
        <ele>278.0</ele>
      </trkpt>
      <trkpt lat="34.45895" lon="-119.65428">
        <ele>279.0</ele>
      </trkpt>
      <trkpt lat="34.45895" lon="-119.65428">
        <ele>279.0</ele>
      </trkpt>
      <trkpt lat="34.4587" lon="-119.65422">
        <ele>275.0</ele>
      </trkpt>
      <trkpt lat="34.45854" lon="-119.65412">
        <ele>275.0</ele>
      </trkpt>
      <trkpt lat="34.45803" lon="-119.654">
        <ele>265.0</ele>
      </trkpt>
      <trkpt lat="34.45788" lon="-119.65393">
        <ele>258.0</ele>
      </trkpt>
      <trkpt lat="34.45769429997883" lon="-119.6538169652045">
        <ele>258.0</ele>
      </trkpt>
      <trkpt lat="34.45769430002809" lon="-119.6538169652045">
        <ele>258.0</ele>
      </trkpt>
      <trkpt lat="34.45765" lon="-119.65379">
        <ele>258.0</ele>
      </trkpt>
      <trkpt lat="34.45746" lon="-119.65363">
        <ele>258.0</ele>
      </trkpt>
      <trkpt lat="34.45746" lon="-119.65363">
        <ele>258.0</ele>
      </trkpt>
      <trkpt lat="34.45746" lon="-119.65363">
        <ele>258.0</ele>
      </trkpt>
      <trkpt lat="34.45736" lon="-119.65341">
        <ele>257.0</ele>
      </trkpt>
      <trkpt lat="34.45722" lon="-119.65327">
        <ele>257.0</ele>
      </trkpt>
      <trkpt lat="34.457" lon="-119.65319">
        <ele>253.0</ele>
      </trkpt>
      <trkpt lat="34.45685" lon="-119.65301">
        <ele>253.0</ele>
      </trkpt>
      <trkpt lat="34.45678" lon="-119.65302">
        <ele>250.0</ele>
      </trkpt>
      <trkpt lat="34.45648" lon="-119.65316">
        <ele>247.0</ele>
      </trkpt>
      <trkpt lat="34.45613" lon="-119.65317">
        <ele>244.0</ele>
      </trkpt>
      <trkpt lat="34.45599811775472" lon="-119.6531383482611">
        <ele>244.0</ele>
      </trkpt>
    </trkseg>
  </trk>
</gpx>
