<?xml version="1.0" encoding="UTF-8"?>
<gpx xmlns:xsi="http://www.w3.org/2001/XMLSchema-instance" version="1.1" creator="The Outbound Collective, Inc. 1.1.1 -- https://www.theoutbound.com" xsi:schemaLocation="http://www.topografix.com/GPX/1/1 http://www.topografix.com/GPX/1/1/gpx.xsd">
  <metadata>
    <name/>
    <time>2026-02-19T22:00:35+00:00</time>
    <bound minlat="34.12831" minlon="-117.7753043174744" maxlat="34.15162845263656" maxlon="-117.74498"/>
  </metadata>
  <trk>
    <name/>
    <trkseg>
      <trkpt lat="34.12955513649522" lon="-117.7753043174744">
        <ele>378.0</ele>
      </trkpt>
      <trkpt lat="34.12954847573022" lon="-117.7752104401589">
        <ele>378.0</ele>
      </trkpt>
      <trkpt lat="34.12954403521993" lon="-117.7751407027245">
        <ele>378.0</ele>
      </trkpt>
      <trkpt lat="34.12954468903075" lon="-117.7751406709184">
        <ele>378.0</ele>
      </trkpt>
      <trkpt lat="34.12954" lon="-117.775">
        <ele>378.0</ele>
      </trkpt>
      <trkpt lat="34.12954" lon="-117.775">
        <ele>378.0</ele>
      </trkpt>
      <trkpt lat="34.12947344040904" lon="-117.7749939491281">
        <ele>378.0</ele>
      </trkpt>
      <trkpt lat="34.12947344042613" lon="-117.7749939491281">
        <ele>378.0</ele>
      </trkpt>
      <trkpt lat="34.12943" lon="-117.77499">
        <ele>378.0</ele>
      </trkpt>
      <trkpt lat="34.12942" lon="-117.77459">
        <ele>380.0</ele>
      </trkpt>
      <trkpt lat="34.12953" lon="-117.77447">
        <ele>380.0</ele>
      </trkpt>
      <trkpt lat="34.12953" lon="-117.77447">
        <ele>380.0</ele>
      </trkpt>
      <trkpt lat="34.1295" lon="-117.77443">
        <ele>380.0</ele>
      </trkpt>
      <trkpt lat="34.12947638095994" lon="-117.7742823809996">
        <ele>380.0</ele>
      </trkpt>
      <trkpt lat="34.12947638096224" lon="-117.7742823809997">
        <ele>380.0</ele>
      </trkpt>
      <trkpt lat="34.12946" lon="-117.77418">
        <ele>380.0</ele>
      </trkpt>
      <trkpt lat="34.12923792052197" lon="-117.773522644745">
        <ele>383.0</ele>
      </trkpt>
      <trkpt lat="34.12923792055863" lon="-117.773522644745">
        <ele>383.0</ele>
      </trkpt>
      <trkpt lat="34.12921" lon="-117.77344">
        <ele>383.0</ele>
      </trkpt>
      <trkpt lat="34.12921" lon="-117.77344">
        <ele>383.0</ele>
      </trkpt>
      <trkpt lat="34.12920318190908" lon="-117.7733990914545">
        <ele>383.0</ele>
      </trkpt>
      <trkpt lat="34.12920318190908" lon="-117.7733990914545">
        <ele>383.0</ele>
      </trkpt>
      <trkpt lat="34.12918" lon="-117.77326">
        <ele>383.0</ele>
      </trkpt>
      <trkpt lat="34.12913445957571" lon="-117.7724584885325">
        <ele>381.0</ele>
      </trkpt>
      <trkpt lat="34.12913445957692" lon="-117.7724584885325">
        <ele>381.0</ele>
      </trkpt>
      <trkpt lat="34.12913" lon="-117.77238">
        <ele>381.0</ele>
      </trkpt>
      <trkpt lat="34.12913" lon="-117.77238">
        <ele>381.0</ele>
      </trkpt>
      <trkpt lat="34.12913" lon="-117.77238">
        <ele>381.0</ele>
      </trkpt>
      <trkpt lat="34.12908895073043" lon="-117.7723970458831">
        <ele>381.0</ele>
      </trkpt>
      <trkpt lat="34.12908895081504" lon="-117.7723970458831">
        <ele>381.0</ele>
      </trkpt>
      <trkpt lat="34.12874049511842" lon="-117.7725417435525">
        <ele>380.0</ele>
      </trkpt>
      <trkpt lat="34.12874" lon="-117.77254">
        <ele>380.0</ele>
      </trkpt>
      <trkpt lat="34.12873333235834" lon="-117.772514440707">
        <ele>380.0</ele>
      </trkpt>
      <trkpt lat="34.12873333236045" lon="-117.772514440707">
        <ele>380.0</ele>
      </trkpt>
      <trkpt lat="34.12868" lon="-117.77231">
        <ele>378.0</ele>
      </trkpt>
      <trkpt lat="34.12864" lon="-117.7719">
        <ele>374.0</ele>
      </trkpt>
      <trkpt lat="34.12858" lon="-117.77176">
        <ele>372.0</ele>
      </trkpt>
      <trkpt lat="34.12834" lon="-117.77137">
        <ele>370.0</ele>
      </trkpt>
      <trkpt lat="34.12831401476198" lon="-117.7712747207939">
        <ele>370.0</ele>
      </trkpt>
      <trkpt lat="34.12831401476259" lon="-117.7712747207939">
        <ele>370.0</ele>
      </trkpt>
      <trkpt lat="34.12831" lon="-117.77126">
        <ele>370.0</ele>
      </trkpt>
      <trkpt lat="34.12831" lon="-117.77126">
        <ele>370.0</ele>
      </trkpt>
      <trkpt lat="34.12831" lon="-117.77126">
        <ele>370.0</ele>
      </trkpt>
      <trkpt lat="34.12846" lon="-117.77124">
        <ele>371.0</ele>
      </trkpt>
      <trkpt lat="34.12934782059867" lon="-117.7714772624014">
        <ele>377.0</ele>
      </trkpt>
      <trkpt lat="34.12934782202797" lon="-117.7714772624014">
        <ele>377.0</ele>
      </trkpt>
      <trkpt lat="34.12962" lon="-117.77155">
        <ele>378.0</ele>
      </trkpt>
      <trkpt lat="34.12979" lon="-117.77152">
        <ele>375.0</ele>
      </trkpt>
      <trkpt lat="34.1305790227191" lon="-117.7712097101666">
        <ele>378.0</ele>
      </trkpt>
      <trkpt lat="34.13057902319038" lon="-117.7712097101666">
        <ele>378.0</ele>
      </trkpt>
      <trkpt lat="34.13068" lon="-117.77117">
        <ele>378.0</ele>
      </trkpt>
      <trkpt lat="34.13068" lon="-117.77117">
        <ele>378.0</ele>
      </trkpt>
      <trkpt lat="34.13077" lon="-117.77127">
        <ele>381.0</ele>
      </trkpt>
      <trkpt lat="34.13084" lon="-117.77129">
        <ele>381.0</ele>
      </trkpt>
      <trkpt lat="34.1309" lon="-117.77126">
        <ele>381.0</ele>
      </trkpt>
      <trkpt lat="34.13101" lon="-117.77113">
        <ele>381.0</ele>
      </trkpt>
      <trkpt lat="34.13106" lon="-117.77092">
        <ele>378.0</ele>
      </trkpt>
      <trkpt lat="34.13109806569568" lon="-117.7708480981304">
        <ele>378.0</ele>
      </trkpt>
      <trkpt lat="34.13109806570736" lon="-117.7708480981304">
        <ele>378.0</ele>
      </trkpt>
      <trkpt lat="34.13115" lon="-117.77075">
        <ele>378.0</ele>
      </trkpt>
      <trkpt lat="34.13122" lon="-117.77066">
        <ele>377.0</ele>
      </trkpt>
      <trkpt lat="34.13146" lon="-117.77049">
        <ele>384.0</ele>
      </trkpt>
      <trkpt lat="34.13168" lon="-117.77047">
        <ele>386.0</ele>
      </trkpt>
      <trkpt lat="34.13181" lon="-117.7704">
        <ele>385.0</ele>
      </trkpt>
      <trkpt lat="34.13205" lon="-117.77016">
        <ele>385.0</ele>
      </trkpt>
      <trkpt lat="34.13212" lon="-117.77004">
        <ele>385.0</ele>
      </trkpt>
      <trkpt lat="34.13218" lon="-117.76983">
        <ele>386.0</ele>
      </trkpt>
      <trkpt lat="34.13226" lon="-117.76966">
        <ele>386.0</ele>
      </trkpt>
      <trkpt lat="34.13239" lon="-117.76951">
        <ele>391.0</ele>
      </trkpt>
      <trkpt lat="34.1325" lon="-117.76944">
        <ele>391.0</ele>
      </trkpt>
      <trkpt lat="34.13274" lon="-117.7694">
        <ele>389.0</ele>
      </trkpt>
      <trkpt lat="34.13324" lon="-117.76908">
        <ele>387.0</ele>
      </trkpt>
      <trkpt lat="34.13374" lon="-117.76843">
        <ele>392.0</ele>
      </trkpt>
      <trkpt lat="34.13402" lon="-117.76779">
        <ele>392.0</ele>
      </trkpt>
      <trkpt lat="34.13403594842841" lon="-117.7677765224549">
        <ele>394.0</ele>
      </trkpt>
      <trkpt lat="34.13403594849386" lon="-117.7677765224549">
        <ele>394.0</ele>
      </trkpt>
      <trkpt lat="34.13473" lon="-117.76719">
        <ele>400.0</ele>
      </trkpt>
      <trkpt lat="34.13502" lon="-117.76702">
        <ele>404.0</ele>
      </trkpt>
      <trkpt lat="34.13538" lon="-117.76689">
        <ele>403.0</ele>
      </trkpt>
      <trkpt lat="34.13556" lon="-117.76666">
        <ele>401.0</ele>
      </trkpt>
      <trkpt lat="34.13565" lon="-117.76661">
        <ele>401.0</ele>
      </trkpt>
      <trkpt lat="34.13575" lon="-117.76646">
        <ele>399.0</ele>
      </trkpt>
      <trkpt lat="34.13581" lon="-117.76628">
        <ele>399.0</ele>
      </trkpt>
      <trkpt lat="34.13586" lon="-117.76606">
        <ele>400.0</ele>
      </trkpt>
      <trkpt lat="34.1359" lon="-117.7656">
        <ele>403.0</ele>
      </trkpt>
      <trkpt lat="34.13598" lon="-117.76544">
        <ele>399.0</ele>
      </trkpt>
      <trkpt lat="34.13633" lon="-117.76487">
        <ele>403.0</ele>
      </trkpt>
      <trkpt lat="34.13657" lon="-117.76465">
        <ele>403.0</ele>
      </trkpt>
      <trkpt lat="34.13677" lon="-117.76456">
        <ele>406.0</ele>
      </trkpt>
      <trkpt lat="34.13692732390471" lon="-117.7643677152276">
        <ele>403.0</ele>
      </trkpt>
      <trkpt lat="34.1369273239258" lon="-117.7643677152276">
        <ele>403.0</ele>
      </trkpt>
      <trkpt lat="34.13695" lon="-117.76434">
        <ele>403.0</ele>
      </trkpt>
      <trkpt lat="34.13709" lon="-117.76403">
        <ele>407.0</ele>
      </trkpt>
      <trkpt lat="34.13715" lon="-117.76396">
        <ele>411.0</ele>
      </trkpt>
      <trkpt lat="34.13755" lon="-117.76394">
        <ele>411.0</ele>
      </trkpt>
      <trkpt lat="34.13788" lon="-117.76366">
        <ele>413.0</ele>
      </trkpt>
      <trkpt lat="34.13795" lon="-117.76353">
        <ele>408.0</ele>
      </trkpt>
      <trkpt lat="34.13807" lon="-117.76307">
        <ele>413.0</ele>
      </trkpt>
      <trkpt lat="34.13809" lon="-117.76263">
        <ele>418.0</ele>
      </trkpt>
      <trkpt lat="34.13805" lon="-117.76231">
        <ele>422.0</ele>
      </trkpt>
      <trkpt lat="34.13806" lon="-117.76218">
        <ele>422.0</ele>
      </trkpt>
      <trkpt lat="34.13832" lon="-117.76169">
        <ele>419.0</ele>
      </trkpt>
      <trkpt lat="34.13862" lon="-117.76093">
        <ele>424.0</ele>
      </trkpt>
      <trkpt lat="34.1387" lon="-117.76066">
        <ele>431.0</ele>
      </trkpt>
      <trkpt lat="34.13872" lon="-117.76035">
        <ele>435.0</ele>
      </trkpt>
      <trkpt lat="34.13893" lon="-117.76003">
        <ele>432.0</ele>
      </trkpt>
      <trkpt lat="34.13918" lon="-117.75972">
        <ele>429.0</ele>
      </trkpt>
      <trkpt lat="34.13931" lon="-117.75944">
        <ele>426.0</ele>
      </trkpt>
      <trkpt lat="34.13935" lon="-117.75928">
        <ele>427.0</ele>
      </trkpt>
      <trkpt lat="34.13928" lon="-117.75904">
        <ele>434.0</ele>
      </trkpt>
      <trkpt lat="34.13937" lon="-117.75866">
        <ele>427.0</ele>
      </trkpt>
      <trkpt lat="34.13937" lon="-117.75866">
        <ele>427.0</ele>
      </trkpt>
      <trkpt lat="34.13956158460523" lon="-117.7584492569342">
        <ele>429.0</ele>
      </trkpt>
      <trkpt lat="34.13957356944265" lon="-117.7584257163476">
        <ele>429.0</ele>
      </trkpt>
      <trkpt lat="34.13962" lon="-117.75824">
        <ele>428.0</ele>
      </trkpt>
      <trkpt lat="34.13982" lon="-117.75785">
        <ele>430.0</ele>
      </trkpt>
      <trkpt lat="34.13986610020559" lon="-117.7577084065114">
        <ele>427.0</ele>
      </trkpt>
      <trkpt lat="34.1398661002312" lon="-117.7577084065114">
        <ele>427.0</ele>
      </trkpt>
      <trkpt lat="34.13996" lon="-117.75742">
        <ele>430.0</ele>
      </trkpt>
      <trkpt lat="34.14007" lon="-117.75722">
        <ele>433.0</ele>
      </trkpt>
      <trkpt lat="34.14015" lon="-117.75712">
        <ele>431.0</ele>
      </trkpt>
      <trkpt lat="34.14032" lon="-117.757">
        <ele>431.0</ele>
      </trkpt>
      <trkpt lat="34.14032" lon="-117.757">
        <ele>431.0</ele>
      </trkpt>
      <trkpt lat="34.14038" lon="-117.75655">
        <ele>434.0</ele>
      </trkpt>
      <trkpt lat="34.14035" lon="-117.7564">
        <ele>442.0</ele>
      </trkpt>
      <trkpt lat="34.1404" lon="-117.7562">
        <ele>454.0</ele>
      </trkpt>
      <trkpt lat="34.14049" lon="-117.75608">
        <ele>442.0</ele>
      </trkpt>
      <trkpt lat="34.14079" lon="-117.75591">
        <ele>441.0</ele>
      </trkpt>
      <trkpt lat="34.14094" lon="-117.75574">
        <ele>441.0</ele>
      </trkpt>
      <trkpt lat="34.14101" lon="-117.75558">
        <ele>439.0</ele>
      </trkpt>
      <trkpt lat="34.14104" lon="-117.7554">
        <ele>444.0</ele>
      </trkpt>
      <trkpt lat="34.1411" lon="-117.75533">
        <ele>444.0</ele>
      </trkpt>
      <trkpt lat="34.14117" lon="-117.75529">
        <ele>444.0</ele>
      </trkpt>
      <trkpt lat="34.14135" lon="-117.75531">
        <ele>445.0</ele>
      </trkpt>
      <trkpt lat="34.14146" lon="-117.75536">
        <ele>445.0</ele>
      </trkpt>
      <trkpt lat="34.14155" lon="-117.75536">
        <ele>447.0</ele>
      </trkpt>
      <trkpt lat="34.14165" lon="-117.75534">
        <ele>447.0</ele>
      </trkpt>
      <trkpt lat="34.14172" lon="-117.75522">
        <ele>447.0</ele>
      </trkpt>
      <trkpt lat="34.14175" lon="-117.75501">
        <ele>448.0</ele>
      </trkpt>
      <trkpt lat="34.14183" lon="-117.75476">
        <ele>451.0</ele>
      </trkpt>
      <trkpt lat="34.1418" lon="-117.75447">
        <ele>456.0</ele>
      </trkpt>
      <trkpt lat="34.14173" lon="-117.75423">
        <ele>460.0</ele>
      </trkpt>
      <trkpt lat="34.14173755311472" lon="-117.7541809047543">
        <ele>460.0</ele>
      </trkpt>
      <trkpt lat="34.14173755311616" lon="-117.7541809047543">
        <ele>460.0</ele>
      </trkpt>
      <trkpt lat="34.14177" lon="-117.75397">
        <ele>464.0</ele>
      </trkpt>
      <trkpt lat="34.14182" lon="-117.75383">
        <ele>459.0</ele>
      </trkpt>
      <trkpt lat="34.1418" lon="-117.75351">
        <ele>469.0</ele>
      </trkpt>
      <trkpt lat="34.14181" lon="-117.75335">
        <ele>467.0</ele>
      </trkpt>
      <trkpt lat="34.14239" lon="-117.75284">
        <ele>461.0</ele>
      </trkpt>
      <trkpt lat="34.14251" lon="-117.75265">
        <ele>461.0</ele>
      </trkpt>
      <trkpt lat="34.14266" lon="-117.75217">
        <ele>464.0</ele>
      </trkpt>
      <trkpt lat="34.1427" lon="-117.75189">
        <ele>466.0</ele>
      </trkpt>
      <trkpt lat="34.1427" lon="-117.75189">
        <ele>466.0</ele>
      </trkpt>
      <trkpt lat="34.1427" lon="-117.75189">
        <ele>466.0</ele>
      </trkpt>
      <trkpt lat="34.14267" lon="-117.75179">
        <ele>470.0</ele>
      </trkpt>
      <trkpt lat="34.14267" lon="-117.75179">
        <ele>470.0</ele>
      </trkpt>
      <trkpt lat="34.14267" lon="-117.7515">
        <ele>473.0</ele>
      </trkpt>
      <trkpt lat="34.14267" lon="-117.7515">
        <ele>473.0</ele>
      </trkpt>
      <trkpt lat="34.14268" lon="-117.75146">
        <ele>473.0</ele>
      </trkpt>
      <trkpt lat="34.14268" lon="-117.75146">
        <ele>473.0</ele>
      </trkpt>
      <trkpt lat="34.14272784047854" lon="-117.7513288244943">
        <ele>473.0</ele>
      </trkpt>
      <trkpt lat="34.14272784047854" lon="-117.7513288244943">
        <ele>473.0</ele>
      </trkpt>
      <trkpt lat="34.14289270863267" lon="-117.7508767666524">
        <ele>481.0</ele>
      </trkpt>
      <trkpt lat="34.14289270872758" lon="-117.7508767666524">
        <ele>481.0</ele>
      </trkpt>
      <trkpt lat="34.14299" lon="-117.75061">
        <ele>479.0</ele>
      </trkpt>
      <trkpt lat="34.14307" lon="-117.75051">
        <ele>479.0</ele>
      </trkpt>
      <trkpt lat="34.1433" lon="-117.75036">
        <ele>482.0</ele>
      </trkpt>
      <trkpt lat="34.14344774137311" lon="-117.7502212131336">
        <ele>482.0</ele>
      </trkpt>
      <trkpt lat="34.14346064170125" lon="-117.7502090946858">
        <ele>482.0</ele>
      </trkpt>
      <trkpt lat="34.14363" lon="-117.75005">
        <ele>479.0</ele>
      </trkpt>
      <trkpt lat="34.14363" lon="-117.75005">
        <ele>479.0</ele>
      </trkpt>
      <trkpt lat="34.14375" lon="-117.74992">
        <ele>479.0</ele>
      </trkpt>
      <trkpt lat="34.14376179789072" lon="-117.7498891943965">
        <ele>474.0</ele>
      </trkpt>
      <trkpt lat="34.14376179790247" lon="-117.7498891943965">
        <ele>474.0</ele>
      </trkpt>
      <trkpt lat="34.14393" lon="-117.74945">
        <ele>479.0</ele>
      </trkpt>
      <trkpt lat="34.14427" lon="-117.74903">
        <ele>483.0</ele>
      </trkpt>
      <trkpt lat="34.14438" lon="-117.74872">
        <ele>486.0</ele>
      </trkpt>
      <trkpt lat="34.14441" lon="-117.74826">
        <ele>486.0</ele>
      </trkpt>
      <trkpt lat="34.14453" lon="-117.74806">
        <ele>484.0</ele>
      </trkpt>
      <trkpt lat="34.14462" lon="-117.74799">
        <ele>485.0</ele>
      </trkpt>
      <trkpt lat="34.14468" lon="-117.7479">
        <ele>482.0</ele>
      </trkpt>
      <trkpt lat="34.14468" lon="-117.74748">
        <ele>483.0</ele>
      </trkpt>
      <trkpt lat="34.14474" lon="-117.74723">
        <ele>488.0</ele>
      </trkpt>
      <trkpt lat="34.14474881467937" lon="-117.7472106077054">
        <ele>488.0</ele>
      </trkpt>
      <trkpt lat="34.14474881468675" lon="-117.7472106077054">
        <ele>488.0</ele>
      </trkpt>
      <trkpt lat="34.14489" lon="-117.7469">
        <ele>489.0</ele>
      </trkpt>
      <trkpt lat="34.14508" lon="-117.74656">
        <ele>491.0</ele>
      </trkpt>
      <trkpt lat="34.1453" lon="-117.74606">
        <ele>497.0</ele>
      </trkpt>
      <trkpt lat="34.1454" lon="-117.74595">
        <ele>501.0</ele>
      </trkpt>
      <trkpt lat="34.14547" lon="-117.74594">
        <ele>498.0</ele>
      </trkpt>
      <trkpt lat="34.14584" lon="-117.74567">
        <ele>494.0</ele>
      </trkpt>
      <trkpt lat="34.14605" lon="-117.74567">
        <ele>493.0</ele>
      </trkpt>
      <trkpt lat="34.1460996841387" lon="-117.7456534386204">
        <ele>493.0</ele>
      </trkpt>
      <trkpt lat="34.14609968417704" lon="-117.7456534386204">
        <ele>493.0</ele>
      </trkpt>
      <trkpt lat="34.14623" lon="-117.74561">
        <ele>493.0</ele>
      </trkpt>
      <trkpt lat="34.14626" lon="-117.74556">
        <ele>495.0</ele>
      </trkpt>
      <trkpt lat="34.14623362272705" lon="-117.7454017363623">
        <ele>495.0</ele>
      </trkpt>
      <trkpt lat="34.14624" lon="-117.7454">
        <ele>495.0</ele>
      </trkpt>
      <trkpt lat="34.14672" lon="-117.74532">
        <ele>500.0</ele>
      </trkpt>
      <trkpt lat="34.14684" lon="-117.74544">
        <ele>501.0</ele>
      </trkpt>
      <trkpt lat="34.14687" lon="-117.74555">
        <ele>501.0</ele>
      </trkpt>
      <trkpt lat="34.14703" lon="-117.74561">
        <ele>501.0</ele>
      </trkpt>
      <trkpt lat="34.14722" lon="-117.74561">
        <ele>508.0</ele>
      </trkpt>
      <trkpt lat="34.14728" lon="-117.74558">
        <ele>508.0</ele>
      </trkpt>
      <trkpt lat="34.14776" lon="-117.74557">
        <ele>511.0</ele>
      </trkpt>
      <trkpt lat="34.14802" lon="-117.74581">
        <ele>507.0</ele>
      </trkpt>
      <trkpt lat="34.1481" lon="-117.74584">
        <ele>507.0</ele>
      </trkpt>
      <trkpt lat="34.14822939686356" lon="-117.7458030294676">
        <ele>509.0</ele>
      </trkpt>
      <trkpt lat="34.14822939687168" lon="-117.7458030294676">
        <ele>509.0</ele>
      </trkpt>
      <trkpt lat="34.14824" lon="-117.7458">
        <ele>509.0</ele>
      </trkpt>
      <trkpt lat="34.14858" lon="-117.74597">
        <ele>516.0</ele>
      </trkpt>
      <trkpt lat="34.14869" lon="-117.74582">
        <ele>516.0</ele>
      </trkpt>
      <trkpt lat="34.14887" lon="-117.74569">
        <ele>523.0</ele>
      </trkpt>
      <trkpt lat="34.14888" lon="-117.74585">
        <ele>518.0</ele>
      </trkpt>
      <trkpt lat="34.14891" lon="-117.74592">
        <ele>518.0</ele>
      </trkpt>
      <trkpt lat="34.14906" lon="-117.74602">
        <ele>520.0</ele>
      </trkpt>
      <trkpt lat="34.14929" lon="-117.74606">
        <ele>520.0</ele>
      </trkpt>
      <trkpt lat="34.14934" lon="-117.74602">
        <ele>521.0</ele>
      </trkpt>
      <trkpt lat="34.14934" lon="-117.74596">
        <ele>521.0</ele>
      </trkpt>
      <trkpt lat="34.14918" lon="-117.74584">
        <ele>519.0</ele>
      </trkpt>
      <trkpt lat="34.14916" lon="-117.74567">
        <ele>524.0</ele>
      </trkpt>
      <trkpt lat="34.14923" lon="-117.74556">
        <ele>524.0</ele>
      </trkpt>
      <trkpt lat="34.14952" lon="-117.74546">
        <ele>523.0</ele>
      </trkpt>
      <trkpt lat="34.14962" lon="-117.74549">
        <ele>525.0</ele>
      </trkpt>
      <trkpt lat="34.14973" lon="-117.74558">
        <ele>525.0</ele>
      </trkpt>
      <trkpt lat="34.15024" lon="-117.74559">
        <ele>535.0</ele>
      </trkpt>
      <trkpt lat="34.1504" lon="-117.7457">
        <ele>529.0</ele>
      </trkpt>
      <trkpt lat="34.1505" lon="-117.74569">
        <ele>539.0</ele>
      </trkpt>
      <trkpt lat="34.15056" lon="-117.74549">
        <ele>539.0</ele>
      </trkpt>
      <trkpt lat="34.15048" lon="-117.74537">
        <ele>542.0</ele>
      </trkpt>
      <trkpt lat="34.15042" lon="-117.74531">
        <ele>542.0</ele>
      </trkpt>
      <trkpt lat="34.15036" lon="-117.74516">
        <ele>538.0</ele>
      </trkpt>
      <trkpt lat="34.15036" lon="-117.74507">
        <ele>539.0</ele>
      </trkpt>
      <trkpt lat="34.1504" lon="-117.74501">
        <ele>539.0</ele>
      </trkpt>
      <trkpt lat="34.15045" lon="-117.74498">
        <ele>543.0</ele>
      </trkpt>
      <trkpt lat="34.15068" lon="-117.74498">
        <ele>543.0</ele>
      </trkpt>
      <trkpt lat="34.15086" lon="-117.74503">
        <ele>547.0</ele>
      </trkpt>
      <trkpt lat="34.15106" lon="-117.74516">
        <ele>558.0</ele>
      </trkpt>
      <trkpt lat="34.1514" lon="-117.74525">
        <ele>562.0</ele>
      </trkpt>
      <trkpt lat="34.1515" lon="-117.74535">
        <ele>562.0</ele>
      </trkpt>
      <trkpt lat="34.15157" lon="-117.74547">
        <ele>563.0</ele>
      </trkpt>
      <trkpt lat="34.15162845257721" lon="-117.7454623757508">
        <ele>563.0</ele>
      </trkpt>
      <trkpt lat="34.15162845263656" lon="-117.7454623757508">
        <ele>563.0</ele>
      </trkpt>
      <trkpt lat="34.15157" lon="-117.74547">
        <ele>563.0</ele>
      </trkpt>
      <trkpt lat="34.1515" lon="-117.74535">
        <ele>562.0</ele>
      </trkpt>
      <trkpt lat="34.1514" lon="-117.74525">
        <ele>562.0</ele>
      </trkpt>
      <trkpt lat="34.15106" lon="-117.74516">
        <ele>558.0</ele>
      </trkpt>
      <trkpt lat="34.15086" lon="-117.74503">
        <ele>547.0</ele>
      </trkpt>
      <trkpt lat="34.15068" lon="-117.74498">
        <ele>543.0</ele>
      </trkpt>
      <trkpt lat="34.15045" lon="-117.74498">
        <ele>543.0</ele>
      </trkpt>
      <trkpt lat="34.1504" lon="-117.74501">
        <ele>539.0</ele>
      </trkpt>
      <trkpt lat="34.15036" lon="-117.74507">
        <ele>539.0</ele>
      </trkpt>
      <trkpt lat="34.15036" lon="-117.74516">
        <ele>538.0</ele>
      </trkpt>
      <trkpt lat="34.15042" lon="-117.74531">
        <ele>542.0</ele>
      </trkpt>
      <trkpt lat="34.15048" lon="-117.74537">
        <ele>542.0</ele>
      </trkpt>
      <trkpt lat="34.15056" lon="-117.74549">
        <ele>539.0</ele>
      </trkpt>
      <trkpt lat="34.1505" lon="-117.74569">
        <ele>539.0</ele>
      </trkpt>
      <trkpt lat="34.1504" lon="-117.7457">
        <ele>529.0</ele>
      </trkpt>
      <trkpt lat="34.15024" lon="-117.74559">
        <ele>535.0</ele>
      </trkpt>
      <trkpt lat="34.14973" lon="-117.74558">
        <ele>525.0</ele>
      </trkpt>
      <trkpt lat="34.14962" lon="-117.74549">
        <ele>525.0</ele>
      </trkpt>
      <trkpt lat="34.14952" lon="-117.74546">
        <ele>523.0</ele>
      </trkpt>
      <trkpt lat="34.14923" lon="-117.74556">
        <ele>524.0</ele>
      </trkpt>
      <trkpt lat="34.14916" lon="-117.74567">
        <ele>524.0</ele>
      </trkpt>
      <trkpt lat="34.14918" lon="-117.74584">
        <ele>519.0</ele>
      </trkpt>
      <trkpt lat="34.14934" lon="-117.74596">
        <ele>521.0</ele>
      </trkpt>
      <trkpt lat="34.14934" lon="-117.74602">
        <ele>521.0</ele>
      </trkpt>
      <trkpt lat="34.14929" lon="-117.74606">
        <ele>520.0</ele>
      </trkpt>
      <trkpt lat="34.14906" lon="-117.74602">
        <ele>520.0</ele>
      </trkpt>
      <trkpt lat="34.14891" lon="-117.74592">
        <ele>518.0</ele>
      </trkpt>
      <trkpt lat="34.14888" lon="-117.74585">
        <ele>518.0</ele>
      </trkpt>
      <trkpt lat="34.14887" lon="-117.74569">
        <ele>523.0</ele>
      </trkpt>
      <trkpt lat="34.14869" lon="-117.74582">
        <ele>516.0</ele>
      </trkpt>
      <trkpt lat="34.14858" lon="-117.74597">
        <ele>516.0</ele>
      </trkpt>
      <trkpt lat="34.14824" lon="-117.7458">
        <ele>509.0</ele>
      </trkpt>
      <trkpt lat="34.1481" lon="-117.74584">
        <ele>507.0</ele>
      </trkpt>
      <trkpt lat="34.14802" lon="-117.74581">
        <ele>507.0</ele>
      </trkpt>
      <trkpt lat="34.14776" lon="-117.74557">
        <ele>511.0</ele>
      </trkpt>
      <trkpt lat="34.14738179502113" lon="-117.7455778792704">
        <ele>510.0</ele>
      </trkpt>
      <trkpt lat="34.14738179524901" lon="-117.7455778792704">
        <ele>510.0</ele>
      </trkpt>
      <trkpt lat="34.14728" lon="-117.74558">
        <ele>508.0</ele>
      </trkpt>
      <trkpt lat="34.14722" lon="-117.74561">
        <ele>508.0</ele>
      </trkpt>
      <trkpt lat="34.14703" lon="-117.74561">
        <ele>501.0</ele>
      </trkpt>
      <trkpt lat="34.14687" lon="-117.74555">
        <ele>501.0</ele>
      </trkpt>
      <trkpt lat="34.14684" lon="-117.74544">
        <ele>501.0</ele>
      </trkpt>
      <trkpt lat="34.14672" lon="-117.74532">
        <ele>500.0</ele>
      </trkpt>
      <trkpt lat="34.14624" lon="-117.7454">
        <ele>495.0</ele>
      </trkpt>
      <trkpt lat="34.14623362272705" lon="-117.7454017363623">
        <ele>495.0</ele>
      </trkpt>
      <trkpt lat="34.14626" lon="-117.74556">
        <ele>495.0</ele>
      </trkpt>
      <trkpt lat="34.14623" lon="-117.74561">
        <ele>493.0</ele>
      </trkpt>
      <trkpt lat="34.14605" lon="-117.74567">
        <ele>493.0</ele>
      </trkpt>
      <trkpt lat="34.14584" lon="-117.74567">
        <ele>494.0</ele>
      </trkpt>
      <trkpt lat="34.14547" lon="-117.74594">
        <ele>498.0</ele>
      </trkpt>
      <trkpt lat="34.1454" lon="-117.74595">
        <ele>501.0</ele>
      </trkpt>
      <trkpt lat="34.1453" lon="-117.74606">
        <ele>497.0</ele>
      </trkpt>
      <trkpt lat="34.14508" lon="-117.74656">
        <ele>491.0</ele>
      </trkpt>
      <trkpt lat="34.14489" lon="-117.7469">
        <ele>489.0</ele>
      </trkpt>
      <trkpt lat="34.14474" lon="-117.74723">
        <ele>488.0</ele>
      </trkpt>
      <trkpt lat="34.14471560506495" lon="-117.7473316455627">
        <ele>488.0</ele>
      </trkpt>
      <trkpt lat="34.1447156050701" lon="-117.7473316455627">
        <ele>488.0</ele>
      </trkpt>
      <trkpt lat="34.14468" lon="-117.74748">
        <ele>483.0</ele>
      </trkpt>
      <trkpt lat="34.14468" lon="-117.7479">
        <ele>482.0</ele>
      </trkpt>
      <trkpt lat="34.14462" lon="-117.74799">
        <ele>485.0</ele>
      </trkpt>
      <trkpt lat="34.14453" lon="-117.74806">
        <ele>484.0</ele>
      </trkpt>
      <trkpt lat="34.14441" lon="-117.74826">
        <ele>486.0</ele>
      </trkpt>
      <trkpt lat="34.14438" lon="-117.74872">
        <ele>486.0</ele>
      </trkpt>
      <trkpt lat="34.14427" lon="-117.74903">
        <ele>483.0</ele>
      </trkpt>
      <trkpt lat="34.14393" lon="-117.74945">
        <ele>479.0</ele>
      </trkpt>
      <trkpt lat="34.14375" lon="-117.74992">
        <ele>479.0</ele>
      </trkpt>
      <trkpt lat="34.14363" lon="-117.75005">
        <ele>479.0</ele>
      </trkpt>
      <trkpt lat="34.14363" lon="-117.75005">
        <ele>479.0</ele>
      </trkpt>
      <trkpt lat="34.14346064170125" lon="-117.7502090946858">
        <ele>482.0</ele>
      </trkpt>
      <trkpt lat="34.14344774137311" lon="-117.7502212131336">
        <ele>482.0</ele>
      </trkpt>
      <trkpt lat="34.1433" lon="-117.75036">
        <ele>482.0</ele>
      </trkpt>
      <trkpt lat="34.14307" lon="-117.75051">
        <ele>479.0</ele>
      </trkpt>
      <trkpt lat="34.14299" lon="-117.75061">
        <ele>479.0</ele>
      </trkpt>
      <trkpt lat="34.14272784047854" lon="-117.7513288244943">
        <ele>473.0</ele>
      </trkpt>
      <trkpt lat="34.14272784047854" lon="-117.7513288244943">
        <ele>473.0</ele>
      </trkpt>
      <trkpt lat="34.14268" lon="-117.75146">
        <ele>473.0</ele>
      </trkpt>
      <trkpt lat="34.14268" lon="-117.75146">
        <ele>473.0</ele>
      </trkpt>
      <trkpt lat="34.14267" lon="-117.7515">
        <ele>473.0</ele>
      </trkpt>
      <trkpt lat="34.14267" lon="-117.7515">
        <ele>473.0</ele>
      </trkpt>
      <trkpt lat="34.14267" lon="-117.75179">
        <ele>470.0</ele>
      </trkpt>
      <trkpt lat="34.14267" lon="-117.75179">
        <ele>470.0</ele>
      </trkpt>
      <trkpt lat="34.1427" lon="-117.75189">
        <ele>466.0</ele>
      </trkpt>
      <trkpt lat="34.1427" lon="-117.75189">
        <ele>466.0</ele>
      </trkpt>
      <trkpt lat="34.1427" lon="-117.75189">
        <ele>466.0</ele>
      </trkpt>
      <trkpt lat="34.14266" lon="-117.75217">
        <ele>464.0</ele>
      </trkpt>
      <trkpt lat="34.14256570923146" lon="-117.7524717304593">
        <ele>463.0</ele>
      </trkpt>
      <trkpt lat="34.14256570926253" lon="-117.7524717304593">
        <ele>463.0</ele>
      </trkpt>
      <trkpt lat="34.14251" lon="-117.75265">
        <ele>461.0</ele>
      </trkpt>
      <trkpt lat="34.14239" lon="-117.75284">
        <ele>461.0</ele>
      </trkpt>
      <trkpt lat="34.14181" lon="-117.75335">
        <ele>467.0</ele>
      </trkpt>
      <trkpt lat="34.1418" lon="-117.75351">
        <ele>469.0</ele>
      </trkpt>
      <trkpt lat="34.14182" lon="-117.75383">
        <ele>459.0</ele>
      </trkpt>
      <trkpt lat="34.14177" lon="-117.75397">
        <ele>464.0</ele>
      </trkpt>
      <trkpt lat="34.14173" lon="-117.75423">
        <ele>460.0</ele>
      </trkpt>
      <trkpt lat="34.1418" lon="-117.75447">
        <ele>456.0</ele>
      </trkpt>
      <trkpt lat="34.14183" lon="-117.75476">
        <ele>451.0</ele>
      </trkpt>
      <trkpt lat="34.14175" lon="-117.75501">
        <ele>448.0</ele>
      </trkpt>
      <trkpt lat="34.14172" lon="-117.75522">
        <ele>447.0</ele>
      </trkpt>
      <trkpt lat="34.14165" lon="-117.75534">
        <ele>447.0</ele>
      </trkpt>
      <trkpt lat="34.14155" lon="-117.75536">
        <ele>447.0</ele>
      </trkpt>
      <trkpt lat="34.14146" lon="-117.75536">
        <ele>445.0</ele>
      </trkpt>
      <trkpt lat="34.14135" lon="-117.75531">
        <ele>445.0</ele>
      </trkpt>
      <trkpt lat="34.14117" lon="-117.75529">
        <ele>444.0</ele>
      </trkpt>
      <trkpt lat="34.1411" lon="-117.75533">
        <ele>444.0</ele>
      </trkpt>
      <trkpt lat="34.14104" lon="-117.7554">
        <ele>444.0</ele>
      </trkpt>
      <trkpt lat="34.14101" lon="-117.75558">
        <ele>439.0</ele>
      </trkpt>
      <trkpt lat="34.14094" lon="-117.75574">
        <ele>441.0</ele>
      </trkpt>
      <trkpt lat="34.14079" lon="-117.75591">
        <ele>441.0</ele>
      </trkpt>
      <trkpt lat="34.14049" lon="-117.75608">
        <ele>442.0</ele>
      </trkpt>
      <trkpt lat="34.1404" lon="-117.7562">
        <ele>454.0</ele>
      </trkpt>
      <trkpt lat="34.14035" lon="-117.7564">
        <ele>442.0</ele>
      </trkpt>
      <trkpt lat="34.14038" lon="-117.75655">
        <ele>434.0</ele>
      </trkpt>
      <trkpt lat="34.14032" lon="-117.757">
        <ele>431.0</ele>
      </trkpt>
      <trkpt lat="34.14034" lon="-117.75702">
        <ele>431.0</ele>
      </trkpt>
      <trkpt lat="34.1401" lon="-117.75724">
        <ele>433.0</ele>
      </trkpt>
      <trkpt lat="34.13986" lon="-117.75783">
        <ele>430.0</ele>
      </trkpt>
      <trkpt lat="34.13971" lon="-117.75811">
        <ele>427.0</ele>
      </trkpt>
      <trkpt lat="34.13962" lon="-117.75837">
        <ele>428.0</ele>
      </trkpt>
      <trkpt lat="34.13957356944265" lon="-117.7584257163476">
        <ele>429.0</ele>
      </trkpt>
      <trkpt lat="34.13956158460523" lon="-117.7584492569342">
        <ele>429.0</ele>
      </trkpt>
      <trkpt lat="34.13937" lon="-117.75866">
        <ele>427.0</ele>
      </trkpt>
      <trkpt lat="34.13937" lon="-117.75866">
        <ele>427.0</ele>
      </trkpt>
      <trkpt lat="34.13928" lon="-117.75904">
        <ele>434.0</ele>
      </trkpt>
      <trkpt lat="34.13935" lon="-117.75928">
        <ele>427.0</ele>
      </trkpt>
      <trkpt lat="34.13931" lon="-117.75944">
        <ele>426.0</ele>
      </trkpt>
      <trkpt lat="34.13918" lon="-117.75972">
        <ele>429.0</ele>
      </trkpt>
      <trkpt lat="34.13893" lon="-117.76003">
        <ele>432.0</ele>
      </trkpt>
      <trkpt lat="34.13872" lon="-117.76035">
        <ele>435.0</ele>
      </trkpt>
      <trkpt lat="34.1387" lon="-117.76066">
        <ele>431.0</ele>
      </trkpt>
      <trkpt lat="34.13862" lon="-117.76093">
        <ele>424.0</ele>
      </trkpt>
      <trkpt lat="34.13848523451466" lon="-117.7612714058962">
        <ele>413.0</ele>
      </trkpt>
      <trkpt lat="34.13848523464642" lon="-117.7612714058962">
        <ele>413.0</ele>
      </trkpt>
      <trkpt lat="34.13832" lon="-117.76169">
        <ele>419.0</ele>
      </trkpt>
      <trkpt lat="34.13806" lon="-117.76218">
        <ele>422.0</ele>
      </trkpt>
      <trkpt lat="34.13805" lon="-117.76231">
        <ele>422.0</ele>
      </trkpt>
      <trkpt lat="34.13809" lon="-117.76263">
        <ele>418.0</ele>
      </trkpt>
      <trkpt lat="34.13807" lon="-117.76307">
        <ele>413.0</ele>
      </trkpt>
      <trkpt lat="34.13795" lon="-117.76353">
        <ele>408.0</ele>
      </trkpt>
      <trkpt lat="34.13788" lon="-117.76366">
        <ele>413.0</ele>
      </trkpt>
      <trkpt lat="34.13755" lon="-117.76394">
        <ele>411.0</ele>
      </trkpt>
      <trkpt lat="34.13715" lon="-117.76396">
        <ele>411.0</ele>
      </trkpt>
      <trkpt lat="34.13709" lon="-117.76403">
        <ele>407.0</ele>
      </trkpt>
      <trkpt lat="34.13695" lon="-117.76434">
        <ele>403.0</ele>
      </trkpt>
      <trkpt lat="34.13677" lon="-117.76456">
        <ele>406.0</ele>
      </trkpt>
      <trkpt lat="34.13657" lon="-117.76465">
        <ele>403.0</ele>
      </trkpt>
      <trkpt lat="34.13633" lon="-117.76487">
        <ele>403.0</ele>
      </trkpt>
      <trkpt lat="34.13598" lon="-117.76544">
        <ele>399.0</ele>
      </trkpt>
      <trkpt lat="34.1359" lon="-117.7656">
        <ele>403.0</ele>
      </trkpt>
      <trkpt lat="34.13586" lon="-117.76606">
        <ele>400.0</ele>
      </trkpt>
      <trkpt lat="34.13581" lon="-117.76628">
        <ele>399.0</ele>
      </trkpt>
      <trkpt lat="34.13575" lon="-117.76646">
        <ele>399.0</ele>
      </trkpt>
      <trkpt lat="34.13565" lon="-117.76661">
        <ele>401.0</ele>
      </trkpt>
      <trkpt lat="34.13556" lon="-117.76666">
        <ele>401.0</ele>
      </trkpt>
      <trkpt lat="34.13538" lon="-117.76689">
        <ele>403.0</ele>
      </trkpt>
      <trkpt lat="34.13502" lon="-117.76702">
        <ele>404.0</ele>
      </trkpt>
      <trkpt lat="34.13473" lon="-117.76719">
        <ele>400.0</ele>
      </trkpt>
      <trkpt lat="34.13402" lon="-117.76779">
        <ele>392.0</ele>
      </trkpt>
      <trkpt lat="34.13374" lon="-117.76843">
        <ele>392.0</ele>
      </trkpt>
      <trkpt lat="34.13324" lon="-117.76908">
        <ele>387.0</ele>
      </trkpt>
      <trkpt lat="34.13274" lon="-117.7694">
        <ele>389.0</ele>
      </trkpt>
      <trkpt lat="34.1325" lon="-117.76944">
        <ele>391.0</ele>
      </trkpt>
      <trkpt lat="34.13239" lon="-117.76951">
        <ele>391.0</ele>
      </trkpt>
      <trkpt lat="34.13226" lon="-117.76966">
        <ele>386.0</ele>
      </trkpt>
      <trkpt lat="34.13218" lon="-117.76983">
        <ele>386.0</ele>
      </trkpt>
      <trkpt lat="34.13212" lon="-117.77004">
        <ele>385.0</ele>
      </trkpt>
      <trkpt lat="34.13205" lon="-117.77016">
        <ele>385.0</ele>
      </trkpt>
      <trkpt lat="34.13181" lon="-117.7704">
        <ele>385.0</ele>
      </trkpt>
      <trkpt lat="34.13168" lon="-117.77047">
        <ele>386.0</ele>
      </trkpt>
      <trkpt lat="34.13146" lon="-117.77049">
        <ele>384.0</ele>
      </trkpt>
      <trkpt lat="34.13127743559163" lon="-117.7706193164559">
        <ele>384.0</ele>
      </trkpt>
      <trkpt lat="34.13127743565365" lon="-117.7706193164559">
        <ele>384.0</ele>
      </trkpt>
      <trkpt lat="34.13122" lon="-117.77066">
        <ele>377.0</ele>
      </trkpt>
      <trkpt lat="34.13115" lon="-117.77075">
        <ele>378.0</ele>
      </trkpt>
      <trkpt lat="34.13106" lon="-117.77092">
        <ele>378.0</ele>
      </trkpt>
      <trkpt lat="34.13101" lon="-117.77113">
        <ele>381.0</ele>
      </trkpt>
      <trkpt lat="34.1309" lon="-117.77126">
        <ele>381.0</ele>
      </trkpt>
      <trkpt lat="34.13084" lon="-117.77129">
        <ele>381.0</ele>
      </trkpt>
      <trkpt lat="34.13077" lon="-117.77127">
        <ele>381.0</ele>
      </trkpt>
      <trkpt lat="34.13068" lon="-117.77117">
        <ele>378.0</ele>
      </trkpt>
      <trkpt lat="34.13068" lon="-117.77117">
        <ele>378.0</ele>
      </trkpt>
      <trkpt lat="34.12979134656485" lon="-117.771519470452">
        <ele>375.0</ele>
      </trkpt>
      <trkpt lat="34.12979134657191" lon="-117.771519470452">
        <ele>375.0</ele>
      </trkpt>
      <trkpt lat="34.12979" lon="-117.77152">
        <ele>375.0</ele>
      </trkpt>
      <trkpt lat="34.12962" lon="-117.77155">
        <ele>378.0</ele>
      </trkpt>
      <trkpt lat="34.12846" lon="-117.77124">
        <ele>371.0</ele>
      </trkpt>
      <trkpt lat="34.12831" lon="-117.77126">
        <ele>370.0</ele>
      </trkpt>
      <trkpt lat="34.12831" lon="-117.77126">
        <ele>370.0</ele>
      </trkpt>
      <trkpt lat="34.12831" lon="-117.77126">
        <ele>370.0</ele>
      </trkpt>
      <trkpt lat="34.12834" lon="-117.77137">
        <ele>370.0</ele>
      </trkpt>
      <trkpt lat="34.12858" lon="-117.77176">
        <ele>372.0</ele>
      </trkpt>
      <trkpt lat="34.12864" lon="-117.7719">
        <ele>374.0</ele>
      </trkpt>
      <trkpt lat="34.12868" lon="-117.77231">
        <ele>378.0</ele>
      </trkpt>
      <trkpt lat="34.12874" lon="-117.77254">
        <ele>380.0</ele>
      </trkpt>
      <trkpt lat="34.12874049511842" lon="-117.7725417435525">
        <ele>380.0</ele>
      </trkpt>
      <trkpt lat="34.12913" lon="-117.77238">
        <ele>381.0</ele>
      </trkpt>
      <trkpt lat="34.12913" lon="-117.77238">
        <ele>381.0</ele>
      </trkpt>
      <trkpt lat="34.12913" lon="-117.77238">
        <ele>381.0</ele>
      </trkpt>
      <trkpt lat="34.12918" lon="-117.77326">
        <ele>383.0</ele>
      </trkpt>
      <trkpt lat="34.12920318190908" lon="-117.7733990914545">
        <ele>383.0</ele>
      </trkpt>
      <trkpt lat="34.12920318190908" lon="-117.7733990914545">
        <ele>383.0</ele>
      </trkpt>
      <trkpt lat="34.12921" lon="-117.77344">
        <ele>383.0</ele>
      </trkpt>
      <trkpt lat="34.12921" lon="-117.77344">
        <ele>383.0</ele>
      </trkpt>
      <trkpt lat="34.12946" lon="-117.77418">
        <ele>380.0</ele>
      </trkpt>
      <trkpt lat="34.1295" lon="-117.77443">
        <ele>380.0</ele>
      </trkpt>
      <trkpt lat="34.12953" lon="-117.77447">
        <ele>380.0</ele>
      </trkpt>
      <trkpt lat="34.12953" lon="-117.77447">
        <ele>380.0</ele>
      </trkpt>
      <trkpt lat="34.12943956430346" lon="-117.7745686571235">
        <ele>380.0</ele>
      </trkpt>
      <trkpt lat="34.12943956431392" lon="-117.7745686571235">
        <ele>380.0</ele>
      </trkpt>
      <trkpt lat="34.12942" lon="-117.77459">
        <ele>380.0</ele>
      </trkpt>
      <trkpt lat="34.12943" lon="-117.77499">
        <ele>378.0</ele>
      </trkpt>
      <trkpt lat="34.12954" lon="-117.775">
        <ele>378.0</ele>
      </trkpt>
      <trkpt lat="34.12954" lon="-117.775">
        <ele>378.0</ele>
      </trkpt>
      <trkpt lat="34.12954868785819" lon="-117.7752606357457">
        <ele>378.0</ele>
      </trkpt>
    </trkseg>
  </trk>
</gpx>
