<?xml version="1.0" encoding="UTF-8"?>
<gpx xmlns:xsi="http://www.w3.org/2001/XMLSchema-instance" version="1.1" creator="The Outbound Collective, Inc. 1.1.1 -- https://www.theoutbound.com" xsi:schemaLocation="http://www.topografix.com/GPX/1/1 http://www.topografix.com/GPX/1/1/gpx.xsd">
  <metadata>
    <name/>
    <time>2026-02-19T21:56:31+00:00</time>
    <bound minlat="35.976910174" minlon="-118.59676" maxlat="35.97982" maxlon="-118.59133"/>
  </metadata>
  <trk>
    <name/>
    <trkseg>
      <trkpt lat="35.976990353" lon="-118.596231937">
        <ele>1879.0</ele>
      </trkpt>
      <trkpt lat="35.97703" lon="-118.59624">
        <ele>1879.0</ele>
      </trkpt>
      <trkpt lat="35.97709" lon="-118.59637">
        <ele>1883.0</ele>
      </trkpt>
      <trkpt lat="35.9772" lon="-118.59631">
        <ele>1883.0</ele>
      </trkpt>
      <trkpt lat="35.97727" lon="-118.59659">
        <ele>1885.0</ele>
      </trkpt>
      <trkpt lat="35.97741" lon="-118.59665">
        <ele>1884.0</ele>
      </trkpt>
      <trkpt lat="35.97748" lon="-118.59663">
        <ele>1884.0</ele>
      </trkpt>
      <trkpt lat="35.9777" lon="-118.59676">
        <ele>1886.0</ele>
      </trkpt>
      <trkpt lat="35.97798" lon="-118.59647">
        <ele>1890.0</ele>
      </trkpt>
      <trkpt lat="35.97793" lon="-118.59636">
        <ele>1890.0</ele>
      </trkpt>
      <trkpt lat="35.97789" lon="-118.59611">
        <ele>1886.0</ele>
      </trkpt>
      <trkpt lat="35.97804" lon="-118.59582">
        <ele>1884.0</ele>
      </trkpt>
      <trkpt lat="35.97815" lon="-118.59578">
        <ele>1884.0</ele>
      </trkpt>
      <trkpt lat="35.97851" lon="-118.59579">
        <ele>1894.0</ele>
      </trkpt>
      <trkpt lat="35.97859" lon="-118.59585">
        <ele>1894.0</ele>
      </trkpt>
      <trkpt lat="35.97864" lon="-118.59595">
        <ele>1894.0</ele>
      </trkpt>
      <trkpt lat="35.97866" lon="-118.59606">
        <ele>1902.0</ele>
      </trkpt>
      <trkpt lat="35.97863" lon="-118.59616">
        <ele>1902.0</ele>
      </trkpt>
      <trkpt lat="35.97879" lon="-118.59601">
        <ele>1910.0</ele>
      </trkpt>
      <trkpt lat="35.97872" lon="-118.59617">
        <ele>1902.0</ele>
      </trkpt>
      <trkpt lat="35.97873" lon="-118.59623">
        <ele>1902.0</ele>
      </trkpt>
      <trkpt lat="35.97898" lon="-118.59595">
        <ele>1905.0</ele>
      </trkpt>
      <trkpt lat="35.97888" lon="-118.59626">
        <ele>1910.0</ele>
      </trkpt>
      <trkpt lat="35.97894" lon="-118.59619">
        <ele>1910.0</ele>
      </trkpt>
      <trkpt lat="35.97897" lon="-118.5962">
        <ele>1910.0</ele>
      </trkpt>
      <trkpt lat="35.97892" lon="-118.59632">
        <ele>1910.0</ele>
      </trkpt>
      <trkpt lat="35.97894" lon="-118.59647">
        <ele>1910.0</ele>
      </trkpt>
      <trkpt lat="35.97885" lon="-118.59663">
        <ele>1912.0</ele>
      </trkpt>
      <trkpt lat="35.97891" lon="-118.59667">
        <ele>1912.0</ele>
      </trkpt>
      <trkpt lat="35.97918" lon="-118.5965">
        <ele>1916.0</ele>
      </trkpt>
      <trkpt lat="35.97941" lon="-118.5965">
        <ele>1921.0</ele>
      </trkpt>
      <trkpt lat="35.97963" lon="-118.59643">
        <ele>1925.0</ele>
      </trkpt>
      <trkpt lat="35.97971" lon="-118.59633">
        <ele>1925.0</ele>
      </trkpt>
      <trkpt lat="35.97977" lon="-118.5964">
        <ele>1925.0</ele>
      </trkpt>
      <trkpt lat="35.97982" lon="-118.59638">
        <ele>1925.0</ele>
      </trkpt>
      <trkpt lat="35.97982" lon="-118.59623">
        <ele>1927.0</ele>
      </trkpt>
      <trkpt lat="35.97962" lon="-118.59565">
        <ele>1923.0</ele>
      </trkpt>
      <trkpt lat="35.97969" lon="-118.59553">
        <ele>1923.0</ele>
      </trkpt>
      <trkpt lat="35.97958" lon="-118.59547">
        <ele>1919.0</ele>
      </trkpt>
      <trkpt lat="35.97954" lon="-118.59555">
        <ele>1919.0</ele>
      </trkpt>
      <trkpt lat="35.97934" lon="-118.59531">
        <ele>1919.0</ele>
      </trkpt>
      <trkpt lat="35.97911" lon="-118.59517">
        <ele>1909.0</ele>
      </trkpt>
      <trkpt lat="35.97905" lon="-118.5952">
        <ele>1909.0</ele>
      </trkpt>
      <trkpt lat="35.97908" lon="-118.59534">
        <ele>1909.0</ele>
      </trkpt>
      <trkpt lat="35.97888" lon="-118.59498">
        <ele>1892.0</ele>
      </trkpt>
      <trkpt lat="35.97884" lon="-118.59475">
        <ele>1888.0</ele>
      </trkpt>
      <trkpt lat="35.9789" lon="-118.59472">
        <ele>1888.0</ele>
      </trkpt>
      <trkpt lat="35.97892" lon="-118.59464">
        <ele>1888.0</ele>
      </trkpt>
      <trkpt lat="35.97897" lon="-118.59459">
        <ele>1888.0</ele>
      </trkpt>
      <trkpt lat="35.97926" lon="-118.59451">
        <ele>1888.0</ele>
      </trkpt>
      <trkpt lat="35.97931" lon="-118.59444">
        <ele>1892.0</ele>
      </trkpt>
      <trkpt lat="35.97936" lon="-118.59423">
        <ele>1888.0</ele>
      </trkpt>
      <trkpt lat="35.97948" lon="-118.59406">
        <ele>1888.0</ele>
      </trkpt>
      <trkpt lat="35.97944" lon="-118.59391">
        <ele>1886.0</ele>
      </trkpt>
      <trkpt lat="35.97936" lon="-118.59386">
        <ele>1886.0</ele>
      </trkpt>
      <trkpt lat="35.97917" lon="-118.59386">
        <ele>1888.0</ele>
      </trkpt>
      <trkpt lat="35.9791" lon="-118.59383">
        <ele>1888.0</ele>
      </trkpt>
      <trkpt lat="35.979" lon="-118.59362">
        <ele>1886.0</ele>
      </trkpt>
      <trkpt lat="35.97884" lon="-118.59347">
        <ele>1888.0</ele>
      </trkpt>
      <trkpt lat="35.97882" lon="-118.59339">
        <ele>1888.0</ele>
      </trkpt>
      <trkpt lat="35.979" lon="-118.59306">
        <ele>1890.0</ele>
      </trkpt>
      <trkpt lat="35.97899" lon="-118.5928">
        <ele>1889.0</ele>
      </trkpt>
      <trkpt lat="35.97882" lon="-118.59255">
        <ele>1891.0</ele>
      </trkpt>
      <trkpt lat="35.97884" lon="-118.59237">
        <ele>1891.0</ele>
      </trkpt>
      <trkpt lat="35.97878" lon="-118.59208">
        <ele>1902.0</ele>
      </trkpt>
      <trkpt lat="35.9787" lon="-118.59199">
        <ele>1895.0</ele>
      </trkpt>
      <trkpt lat="35.97861" lon="-118.59195">
        <ele>1895.0</ele>
      </trkpt>
      <trkpt lat="35.97846" lon="-118.59177">
        <ele>1884.0</ele>
      </trkpt>
      <trkpt lat="35.97833" lon="-118.59149">
        <ele>1881.0</ele>
      </trkpt>
      <trkpt lat="35.97832" lon="-118.59136">
        <ele>1881.0</ele>
      </trkpt>
      <trkpt lat="35.97828" lon="-118.59133">
        <ele>1881.0</ele>
      </trkpt>
      <trkpt lat="35.97824" lon="-118.59145">
        <ele>1881.0</ele>
      </trkpt>
      <trkpt lat="35.97819" lon="-118.59137">
        <ele>1868.0</ele>
      </trkpt>
      <trkpt lat="35.97818" lon="-118.59157">
        <ele>1873.0</ele>
      </trkpt>
      <trkpt lat="35.97814" lon="-118.59142">
        <ele>1868.0</ele>
      </trkpt>
      <trkpt lat="35.97812" lon="-118.59153">
        <ele>1873.0</ele>
      </trkpt>
      <trkpt lat="35.97814" lon="-118.59185">
        <ele>1875.0</ele>
      </trkpt>
      <trkpt lat="35.97818" lon="-118.59197">
        <ele>1875.0</ele>
      </trkpt>
      <trkpt lat="35.97818" lon="-118.5922">
        <ele>1877.0</ele>
      </trkpt>
      <trkpt lat="35.97826" lon="-118.59243">
        <ele>1883.0</ele>
      </trkpt>
      <trkpt lat="35.97826" lon="-118.59256">
        <ele>1883.0</ele>
      </trkpt>
      <trkpt lat="35.97836" lon="-118.59283">
        <ele>1879.0</ele>
      </trkpt>
      <trkpt lat="35.97842" lon="-118.59284">
        <ele>1879.0</ele>
      </trkpt>
      <trkpt lat="35.97853" lon="-118.5927">
        <ele>1885.0</ele>
      </trkpt>
      <trkpt lat="35.97857" lon="-118.5927">
        <ele>1885.0</ele>
      </trkpt>
      <trkpt lat="35.9786" lon="-118.59289">
        <ele>1885.0</ele>
      </trkpt>
      <trkpt lat="35.97855" lon="-118.59297">
        <ele>1883.0</ele>
      </trkpt>
      <trkpt lat="35.97835" lon="-118.59304">
        <ele>1879.0</ele>
      </trkpt>
      <trkpt lat="35.97829" lon="-118.5931">
        <ele>1879.0</ele>
      </trkpt>
      <trkpt lat="35.97828" lon="-118.59319">
        <ele>1879.0</ele>
      </trkpt>
      <trkpt lat="35.97883" lon="-118.59387">
        <ele>1884.0</ele>
      </trkpt>
      <trkpt lat="35.97889" lon="-118.59392">
        <ele>1884.0</ele>
      </trkpt>
      <trkpt lat="35.9791" lon="-118.59399">
        <ele>1888.0</ele>
      </trkpt>
      <trkpt lat="35.97918" lon="-118.59408">
        <ele>1887.0</ele>
      </trkpt>
      <trkpt lat="35.9793" lon="-118.59411">
        <ele>1887.0</ele>
      </trkpt>
      <trkpt lat="35.9789" lon="-118.59431">
        <ele>1889.0</ele>
      </trkpt>
      <trkpt lat="35.97855" lon="-118.59424">
        <ele>1885.0</ele>
      </trkpt>
      <trkpt lat="35.97836" lon="-118.59429">
        <ele>1883.0</ele>
      </trkpt>
      <trkpt lat="35.9783" lon="-118.59418">
        <ele>1883.0</ele>
      </trkpt>
      <trkpt lat="35.97821" lon="-118.59415">
        <ele>1883.0</ele>
      </trkpt>
      <trkpt lat="35.97801" lon="-118.59421">
        <ele>1879.0</ele>
      </trkpt>
      <trkpt lat="35.9777" lon="-118.59424">
        <ele>1875.0</ele>
      </trkpt>
      <trkpt lat="35.97764" lon="-118.59418">
        <ele>1875.0</ele>
      </trkpt>
      <trkpt lat="35.97758" lon="-118.59442">
        <ele>1874.0</ele>
      </trkpt>
      <trkpt lat="35.97769" lon="-118.59466">
        <ele>1880.0</ele>
      </trkpt>
      <trkpt lat="35.97777" lon="-118.59475">
        <ele>1880.0</ele>
      </trkpt>
      <trkpt lat="35.97774" lon="-118.59503">
        <ele>1880.0</ele>
      </trkpt>
      <trkpt lat="35.97796" lon="-118.59522">
        <ele>1879.0</ele>
      </trkpt>
      <trkpt lat="35.97792" lon="-118.59532">
        <ele>1879.0</ele>
      </trkpt>
      <trkpt lat="35.97774" lon="-118.59555">
        <ele>1883.0</ele>
      </trkpt>
      <trkpt lat="35.97781" lon="-118.59587">
        <ele>1884.0</ele>
      </trkpt>
      <trkpt lat="35.97785" lon="-118.59582">
        <ele>1884.0</ele>
      </trkpt>
      <trkpt lat="35.97786" lon="-118.59605">
        <ele>1886.0</ele>
      </trkpt>
      <trkpt lat="35.97798" lon="-118.59647">
        <ele>1890.0</ele>
      </trkpt>
      <trkpt lat="35.9777" lon="-118.59676">
        <ele>1886.0</ele>
      </trkpt>
      <trkpt lat="35.97748" lon="-118.59663">
        <ele>1884.0</ele>
      </trkpt>
      <trkpt lat="35.97741" lon="-118.59665">
        <ele>1884.0</ele>
      </trkpt>
      <trkpt lat="35.97727" lon="-118.59659">
        <ele>1885.0</ele>
      </trkpt>
      <trkpt lat="35.9772" lon="-118.59631">
        <ele>1883.0</ele>
      </trkpt>
      <trkpt lat="35.97709" lon="-118.59637">
        <ele>1883.0</ele>
      </trkpt>
      <trkpt lat="35.97703" lon="-118.59624">
        <ele>1879.0</ele>
      </trkpt>
      <trkpt lat="35.97692" lon="-118.5962">
        <ele>1879.0</ele>
      </trkpt>
      <trkpt lat="35.976910174" lon="-118.596340019">
        <ele>1879.0</ele>
      </trkpt>
    </trkseg>
  </trk>
</gpx>
