<?xml version="1.0" encoding="UTF-8"?>
<gpx xmlns:xsi="http://www.w3.org/2001/XMLSchema-instance" version="1.1" creator="The Outbound Collective, Inc. 1.1.1 -- https://www.theoutbound.com" xsi:schemaLocation="http://www.topografix.com/GPX/1/1 http://www.topografix.com/GPX/1/1/gpx.xsd">
  <metadata>
    <name/>
    <time>2026-02-19T21:51:33+00:00</time>
    <bound minlat="38.91569706434687" minlon="-121.04066" maxlat="38.93574539890147" maxlon="-121.024593803299"/>
  </metadata>
  <trk>
    <name/>
    <trkseg>
      <trkpt lat="38.91571319874384" lon="-121.0357975959778">
        <ele>178.0</ele>
      </trkpt>
      <trkpt lat="38.91569706434687" lon="-121.035777798083">
        <ele>178.0</ele>
      </trkpt>
      <trkpt lat="38.91574" lon="-121.03572">
        <ele>178.0</ele>
      </trkpt>
      <trkpt lat="38.91574" lon="-121.03572">
        <ele>178.0</ele>
      </trkpt>
      <trkpt lat="38.91612" lon="-121.03566">
        <ele>182.0</ele>
      </trkpt>
      <trkpt lat="38.91612" lon="-121.03566">
        <ele>182.0</ele>
      </trkpt>
      <trkpt lat="38.9161872190633" lon="-121.0356852071487">
        <ele>182.0</ele>
      </trkpt>
      <trkpt lat="38.91619" lon="-121.03567">
        <ele>182.0</ele>
      </trkpt>
      <trkpt lat="38.9163" lon="-121.03538">
        <ele>195.0</ele>
      </trkpt>
      <trkpt lat="38.91646853641198" lon="-121.035281202793">
        <ele>195.0</ele>
      </trkpt>
      <trkpt lat="38.91646853655619" lon="-121.035281202793">
        <ele>195.0</ele>
      </trkpt>
      <trkpt lat="38.91659" lon="-121.03521">
        <ele>185.0</ele>
      </trkpt>
      <trkpt lat="38.91699" lon="-121.03508">
        <ele>193.0</ele>
      </trkpt>
      <trkpt lat="38.91707" lon="-121.03507">
        <ele>193.0</ele>
      </trkpt>
      <trkpt lat="38.91761" lon="-121.0352">
        <ele>159.0</ele>
      </trkpt>
      <trkpt lat="38.91821" lon="-121.03551">
        <ele>159.0</ele>
      </trkpt>
      <trkpt lat="38.91852" lon="-121.03571">
        <ele>164.0</ele>
      </trkpt>
      <trkpt lat="38.91852" lon="-121.03571">
        <ele>164.0</ele>
      </trkpt>
      <trkpt lat="38.91852" lon="-121.03571">
        <ele>164.0</ele>
      </trkpt>
      <trkpt lat="38.91873" lon="-121.03601">
        <ele>157.0</ele>
      </trkpt>
      <trkpt lat="38.91904" lon="-121.03624">
        <ele>166.0</ele>
      </trkpt>
      <trkpt lat="38.91943" lon="-121.03674">
        <ele>165.0</ele>
      </trkpt>
      <trkpt lat="38.91967" lon="-121.03694">
        <ele>161.0</ele>
      </trkpt>
      <trkpt lat="38.92008" lon="-121.03735">
        <ele>156.0</ele>
      </trkpt>
      <trkpt lat="38.9204" lon="-121.03756">
        <ele>159.0</ele>
      </trkpt>
      <trkpt lat="38.92074" lon="-121.03774">
        <ele>156.0</ele>
      </trkpt>
      <trkpt lat="38.92121" lon="-121.03783">
        <ele>154.0</ele>
      </trkpt>
      <trkpt lat="38.92150033383973" lon="-121.0379555497685">
        <ele>158.0</ele>
      </trkpt>
      <trkpt lat="38.92150033400276" lon="-121.0379555497686">
        <ele>158.0</ele>
      </trkpt>
      <trkpt lat="38.92158" lon="-121.03799">
        <ele>168.0</ele>
      </trkpt>
      <trkpt lat="38.92187" lon="-121.038">
        <ele>178.0</ele>
      </trkpt>
      <trkpt lat="38.92235" lon="-121.03822">
        <ele>163.0</ele>
      </trkpt>
      <trkpt lat="38.92237826949385" lon="-121.0382279133707">
        <ele>179.0</ele>
      </trkpt>
      <trkpt lat="38.92237826949385" lon="-121.0382279133707">
        <ele>179.0</ele>
      </trkpt>
      <trkpt lat="38.92245678729284" lon="-121.0382499031056">
        <ele>179.0</ele>
      </trkpt>
      <trkpt lat="38.92245678729284" lon="-121.0382499031056">
        <ele>179.0</ele>
      </trkpt>
      <trkpt lat="38.9226" lon="-121.03829">
        <ele>179.0</ele>
      </trkpt>
      <trkpt lat="38.92271" lon="-121.03827">
        <ele>182.0</ele>
      </trkpt>
      <trkpt lat="38.92289" lon="-121.03834">
        <ele>182.0</ele>
      </trkpt>
      <trkpt lat="38.92325" lon="-121.03834">
        <ele>188.0</ele>
      </trkpt>
      <trkpt lat="38.92351" lon="-121.03847">
        <ele>187.0</ele>
      </trkpt>
      <trkpt lat="38.92374" lon="-121.03853">
        <ele>177.0</ele>
      </trkpt>
      <trkpt lat="38.92407" lon="-121.03879">
        <ele>174.0</ele>
      </trkpt>
      <trkpt lat="38.92442" lon="-121.03896">
        <ele>177.0</ele>
      </trkpt>
      <trkpt lat="38.92456" lon="-121.03906">
        <ele>169.0</ele>
      </trkpt>
      <trkpt lat="38.92476882494829" lon="-121.0392968760607">
        <ele>172.0</ele>
      </trkpt>
      <trkpt lat="38.92476882542844" lon="-121.0392968760607">
        <ele>172.0</ele>
      </trkpt>
      <trkpt lat="38.92509507793098" lon="-121.039666954071">
        <ele>162.0</ele>
      </trkpt>
      <trkpt lat="38.92509507793098" lon="-121.039666954071">
        <ele>162.0</ele>
      </trkpt>
      <trkpt lat="38.92523" lon="-121.03982">
        <ele>171.0</ele>
      </trkpt>
      <trkpt lat="38.92523" lon="-121.03982">
        <ele>171.0</ele>
      </trkpt>
      <trkpt lat="38.92537" lon="-121.04">
        <ele>165.0</ele>
      </trkpt>
      <trkpt lat="38.92552" lon="-121.04032">
        <ele>171.0</ele>
      </trkpt>
      <trkpt lat="38.92567" lon="-121.04052">
        <ele>171.0</ele>
      </trkpt>
      <trkpt lat="38.92591" lon="-121.04066">
        <ele>174.0</ele>
      </trkpt>
      <trkpt lat="38.92625" lon="-121.04066">
        <ele>183.0</ele>
      </trkpt>
      <trkpt lat="38.92639" lon="-121.04061">
        <ele>181.0</ele>
      </trkpt>
      <trkpt lat="38.92652" lon="-121.04053">
        <ele>181.0</ele>
      </trkpt>
      <trkpt lat="38.92674009189028" lon="-121.0402719612321">
        <ele>186.0</ele>
      </trkpt>
      <trkpt lat="38.92674009199872" lon="-121.0402719612321">
        <ele>186.0</ele>
      </trkpt>
      <trkpt lat="38.92681" lon="-121.04019">
        <ele>180.0</ele>
      </trkpt>
      <trkpt lat="38.92715" lon="-121.03989">
        <ele>178.0</ele>
      </trkpt>
      <trkpt lat="38.92744" lon="-121.03979">
        <ele>184.0</ele>
      </trkpt>
      <trkpt lat="38.92805" lon="-121.03942">
        <ele>183.0</ele>
      </trkpt>
      <trkpt lat="38.92818" lon="-121.03932">
        <ele>183.0</ele>
      </trkpt>
      <trkpt lat="38.92834" lon="-121.03911">
        <ele>203.0</ele>
      </trkpt>
      <trkpt lat="38.92843" lon="-121.03908">
        <ele>203.0</ele>
      </trkpt>
      <trkpt lat="38.9286" lon="-121.03915">
        <ele>202.0</ele>
      </trkpt>
      <trkpt lat="38.92874" lon="-121.03915">
        <ele>202.0</ele>
      </trkpt>
      <trkpt lat="38.92899" lon="-121.03903">
        <ele>194.0</ele>
      </trkpt>
      <trkpt lat="38.92914" lon="-121.03887">
        <ele>210.0</ele>
      </trkpt>
      <trkpt lat="38.92921" lon="-121.03874">
        <ele>220.0</ele>
      </trkpt>
      <trkpt lat="38.92926" lon="-121.03861">
        <ele>220.0</ele>
      </trkpt>
      <trkpt lat="38.92927" lon="-121.03843">
        <ele>225.0</ele>
      </trkpt>
      <trkpt lat="38.92932" lon="-121.03834">
        <ele>215.0</ele>
      </trkpt>
      <trkpt lat="38.92972" lon="-121.03819">
        <ele>219.0</ele>
      </trkpt>
      <trkpt lat="38.93019" lon="-121.03792">
        <ele>212.0</ele>
      </trkpt>
      <trkpt lat="38.93031" lon="-121.03791">
        <ele>225.0</ele>
      </trkpt>
      <trkpt lat="38.9304" lon="-121.03795">
        <ele>212.0</ele>
      </trkpt>
      <trkpt lat="38.93054" lon="-121.03795">
        <ele>208.0</ele>
      </trkpt>
      <trkpt lat="38.93068" lon="-121.03789">
        <ele>220.0</ele>
      </trkpt>
      <trkpt lat="38.93083" lon="-121.03777">
        <ele>214.0</ele>
      </trkpt>
      <trkpt lat="38.93088749025906" lon="-121.0377061219344">
        <ele>214.0</ele>
      </trkpt>
      <trkpt lat="38.93088749025906" lon="-121.0377061219344">
        <ele>214.0</ele>
      </trkpt>
      <trkpt lat="38.9311" lon="-121.03747">
        <ele>218.0</ele>
      </trkpt>
      <trkpt lat="38.93152" lon="-121.03693">
        <ele>231.0</ele>
      </trkpt>
      <trkpt lat="38.93183" lon="-121.03661">
        <ele>233.0</ele>
      </trkpt>
      <trkpt lat="38.93226" lon="-121.03588">
        <ele>259.0</ele>
      </trkpt>
      <trkpt lat="38.93246" lon="-121.0355">
        <ele>244.0</ele>
      </trkpt>
      <trkpt lat="38.93253" lon="-121.03526">
        <ele>246.0</ele>
      </trkpt>
      <trkpt lat="38.93252" lon="-121.03499">
        <ele>247.0</ele>
      </trkpt>
      <trkpt lat="38.93243" lon="-121.03478">
        <ele>243.0</ele>
      </trkpt>
      <trkpt lat="38.93233" lon="-121.03465">
        <ele>264.0</ele>
      </trkpt>
      <trkpt lat="38.9322" lon="-121.03441">
        <ele>257.0</ele>
      </trkpt>
      <trkpt lat="38.93210638605145" lon="-121.0341066908067">
        <ele>251.0</ele>
      </trkpt>
      <trkpt lat="38.93210638615463" lon="-121.0341066908067">
        <ele>251.0</ele>
      </trkpt>
      <trkpt lat="38.93195" lon="-121.0336">
        <ele>256.0</ele>
      </trkpt>
      <trkpt lat="38.93188" lon="-121.03347">
        <ele>253.0</ele>
      </trkpt>
      <trkpt lat="38.93168" lon="-121.0333">
        <ele>265.0</ele>
      </trkpt>
      <trkpt lat="38.9316" lon="-121.03318">
        <ele>258.0</ele>
      </trkpt>
      <trkpt lat="38.93142" lon="-121.03263">
        <ele>261.0</ele>
      </trkpt>
      <trkpt lat="38.93113" lon="-121.03219">
        <ele>278.0</ele>
      </trkpt>
      <trkpt lat="38.93103" lon="-121.03197">
        <ele>279.0</ele>
      </trkpt>
      <trkpt lat="38.93103" lon="-121.03186">
        <ele>279.0</ele>
      </trkpt>
      <trkpt lat="38.93106" lon="-121.0318">
        <ele>281.0</ele>
      </trkpt>
      <trkpt lat="38.93131" lon="-121.03154">
        <ele>271.0</ele>
      </trkpt>
      <trkpt lat="38.93146" lon="-121.03131">
        <ele>279.0</ele>
      </trkpt>
      <trkpt lat="38.93155" lon="-121.03104">
        <ele>273.0</ele>
      </trkpt>
      <trkpt lat="38.93156" lon="-121.03042">
        <ele>280.0</ele>
      </trkpt>
      <trkpt lat="38.93149" lon="-121.03001">
        <ele>311.0</ele>
      </trkpt>
      <trkpt lat="38.93116" lon="-121.02881">
        <ele>305.0</ele>
      </trkpt>
      <trkpt lat="38.93116" lon="-121.02871">
        <ele>309.0</ele>
      </trkpt>
      <trkpt lat="38.9312" lon="-121.02864">
        <ele>309.0</ele>
      </trkpt>
      <trkpt lat="38.93133" lon="-121.02856">
        <ele>304.0</ele>
      </trkpt>
      <trkpt lat="38.93152" lon="-121.02849">
        <ele>304.0</ele>
      </trkpt>
      <trkpt lat="38.93152" lon="-121.02849">
        <ele>304.0</ele>
      </trkpt>
      <trkpt lat="38.93158" lon="-121.02854">
        <ele>288.0</ele>
      </trkpt>
      <trkpt lat="38.93202" lon="-121.02847">
        <ele>288.0</ele>
      </trkpt>
      <trkpt lat="38.93231" lon="-121.02855">
        <ele>282.0</ele>
      </trkpt>
      <trkpt lat="38.9326" lon="-121.02855">
        <ele>280.0</ele>
      </trkpt>
      <trkpt lat="38.93271" lon="-121.0285">
        <ele>279.0</ele>
      </trkpt>
      <trkpt lat="38.93298" lon="-121.02831">
        <ele>275.0</ele>
      </trkpt>
      <trkpt lat="38.9331" lon="-121.02811">
        <ele>283.0</ele>
      </trkpt>
      <trkpt lat="38.93313" lon="-121.02752">
        <ele>285.0</ele>
      </trkpt>
      <trkpt lat="38.93331" lon="-121.02732">
        <ele>277.0</ele>
      </trkpt>
      <trkpt lat="38.93352" lon="-121.02725">
        <ele>264.0</ele>
      </trkpt>
      <trkpt lat="38.93375" lon="-121.02706">
        <ele>267.0</ele>
      </trkpt>
      <trkpt lat="38.93393" lon="-121.02676">
        <ele>259.0</ele>
      </trkpt>
      <trkpt lat="38.93415" lon="-121.0265">
        <ele>263.0</ele>
      </trkpt>
      <trkpt lat="38.93441" lon="-121.02625">
        <ele>264.0</ele>
      </trkpt>
      <trkpt lat="38.93482" lon="-121.02571">
        <ele>252.0</ele>
      </trkpt>
      <trkpt lat="38.93485849555614" lon="-121.0256484071102">
        <ele>261.0</ele>
      </trkpt>
      <trkpt lat="38.93486" lon="-121.02565">
        <ele>261.0</ele>
      </trkpt>
      <trkpt lat="38.935" lon="-121.02554">
        <ele>243.0</ele>
      </trkpt>
      <trkpt lat="38.9351" lon="-121.02539">
        <ele>251.0</ele>
      </trkpt>
      <trkpt lat="38.9351" lon="-121.02539">
        <ele>251.0</ele>
      </trkpt>
      <trkpt lat="38.93526" lon="-121.02518">
        <ele>243.0</ele>
      </trkpt>
      <trkpt lat="38.9356" lon="-121.02486">
        <ele>232.0</ele>
      </trkpt>
      <trkpt lat="38.93571" lon="-121.0247">
        <ele>219.0</ele>
      </trkpt>
      <trkpt lat="38.93574539890034" lon="-121.024593803299">
        <ele>219.0</ele>
      </trkpt>
      <trkpt lat="38.93574539890147" lon="-121.024593803299">
        <ele>219.0</ele>
      </trkpt>
      <trkpt lat="38.93571" lon="-121.0247">
        <ele>219.0</ele>
      </trkpt>
      <trkpt lat="38.9356" lon="-121.02486">
        <ele>232.0</ele>
      </trkpt>
      <trkpt lat="38.93526" lon="-121.02518">
        <ele>243.0</ele>
      </trkpt>
      <trkpt lat="38.9351" lon="-121.02539">
        <ele>251.0</ele>
      </trkpt>
      <trkpt lat="38.9351" lon="-121.02539">
        <ele>251.0</ele>
      </trkpt>
      <trkpt lat="38.935" lon="-121.02554">
        <ele>243.0</ele>
      </trkpt>
      <trkpt lat="38.93486" lon="-121.02565">
        <ele>261.0</ele>
      </trkpt>
      <trkpt lat="38.93485849555614" lon="-121.0256484071102">
        <ele>261.0</ele>
      </trkpt>
      <trkpt lat="38.93482" lon="-121.02571">
        <ele>252.0</ele>
      </trkpt>
      <trkpt lat="38.93441" lon="-121.02625">
        <ele>264.0</ele>
      </trkpt>
      <trkpt lat="38.93415" lon="-121.0265">
        <ele>263.0</ele>
      </trkpt>
      <trkpt lat="38.93393" lon="-121.02676">
        <ele>259.0</ele>
      </trkpt>
      <trkpt lat="38.93375" lon="-121.02706">
        <ele>267.0</ele>
      </trkpt>
      <trkpt lat="38.93352" lon="-121.02725">
        <ele>264.0</ele>
      </trkpt>
      <trkpt lat="38.93331" lon="-121.02732">
        <ele>277.0</ele>
      </trkpt>
      <trkpt lat="38.93313" lon="-121.02752">
        <ele>285.0</ele>
      </trkpt>
      <trkpt lat="38.9331" lon="-121.02811">
        <ele>283.0</ele>
      </trkpt>
      <trkpt lat="38.93298" lon="-121.02831">
        <ele>275.0</ele>
      </trkpt>
      <trkpt lat="38.93271" lon="-121.0285">
        <ele>279.0</ele>
      </trkpt>
      <trkpt lat="38.9326" lon="-121.02855">
        <ele>280.0</ele>
      </trkpt>
      <trkpt lat="38.93231" lon="-121.02855">
        <ele>282.0</ele>
      </trkpt>
      <trkpt lat="38.93202" lon="-121.02847">
        <ele>288.0</ele>
      </trkpt>
      <trkpt lat="38.93158" lon="-121.02854">
        <ele>288.0</ele>
      </trkpt>
      <trkpt lat="38.93152" lon="-121.02849">
        <ele>304.0</ele>
      </trkpt>
      <trkpt lat="38.93152" lon="-121.02849">
        <ele>304.0</ele>
      </trkpt>
      <trkpt lat="38.93133" lon="-121.02856">
        <ele>304.0</ele>
      </trkpt>
      <trkpt lat="38.9312" lon="-121.02864">
        <ele>309.0</ele>
      </trkpt>
      <trkpt lat="38.93116" lon="-121.02871">
        <ele>309.0</ele>
      </trkpt>
      <trkpt lat="38.93116" lon="-121.02881">
        <ele>305.0</ele>
      </trkpt>
      <trkpt lat="38.93149" lon="-121.03001">
        <ele>311.0</ele>
      </trkpt>
      <trkpt lat="38.93156" lon="-121.03042">
        <ele>280.0</ele>
      </trkpt>
      <trkpt lat="38.93155" lon="-121.03104">
        <ele>273.0</ele>
      </trkpt>
      <trkpt lat="38.93146" lon="-121.03131">
        <ele>279.0</ele>
      </trkpt>
      <trkpt lat="38.93131" lon="-121.03154">
        <ele>271.0</ele>
      </trkpt>
      <trkpt lat="38.93106" lon="-121.0318">
        <ele>281.0</ele>
      </trkpt>
      <trkpt lat="38.93103" lon="-121.03186">
        <ele>279.0</ele>
      </trkpt>
      <trkpt lat="38.93103" lon="-121.03197">
        <ele>279.0</ele>
      </trkpt>
      <trkpt lat="38.93113" lon="-121.03219">
        <ele>278.0</ele>
      </trkpt>
      <trkpt lat="38.93142" lon="-121.03263">
        <ele>261.0</ele>
      </trkpt>
      <trkpt lat="38.9316" lon="-121.03318">
        <ele>258.0</ele>
      </trkpt>
      <trkpt lat="38.93168" lon="-121.0333">
        <ele>265.0</ele>
      </trkpt>
      <trkpt lat="38.93188" lon="-121.03347">
        <ele>253.0</ele>
      </trkpt>
      <trkpt lat="38.93195" lon="-121.0336">
        <ele>256.0</ele>
      </trkpt>
      <trkpt lat="38.9322" lon="-121.03441">
        <ele>257.0</ele>
      </trkpt>
      <trkpt lat="38.93233" lon="-121.03465">
        <ele>264.0</ele>
      </trkpt>
      <trkpt lat="38.93243" lon="-121.03478">
        <ele>243.0</ele>
      </trkpt>
      <trkpt lat="38.93252" lon="-121.03499">
        <ele>247.0</ele>
      </trkpt>
      <trkpt lat="38.93253" lon="-121.03526">
        <ele>246.0</ele>
      </trkpt>
      <trkpt lat="38.93246" lon="-121.0355">
        <ele>244.0</ele>
      </trkpt>
      <trkpt lat="38.93226" lon="-121.03588">
        <ele>259.0</ele>
      </trkpt>
      <trkpt lat="38.93183" lon="-121.03661">
        <ele>233.0</ele>
      </trkpt>
      <trkpt lat="38.93152" lon="-121.03693">
        <ele>231.0</ele>
      </trkpt>
      <trkpt lat="38.9311" lon="-121.03747">
        <ele>218.0</ele>
      </trkpt>
      <trkpt lat="38.93088749025906" lon="-121.0377061219344">
        <ele>214.0</ele>
      </trkpt>
      <trkpt lat="38.93088749025906" lon="-121.0377061219344">
        <ele>214.0</ele>
      </trkpt>
      <trkpt lat="38.93083" lon="-121.03777">
        <ele>214.0</ele>
      </trkpt>
      <trkpt lat="38.93068" lon="-121.03789">
        <ele>220.0</ele>
      </trkpt>
      <trkpt lat="38.93054" lon="-121.03795">
        <ele>208.0</ele>
      </trkpt>
      <trkpt lat="38.9304" lon="-121.03795">
        <ele>212.0</ele>
      </trkpt>
      <trkpt lat="38.93031" lon="-121.03791">
        <ele>225.0</ele>
      </trkpt>
      <trkpt lat="38.93019" lon="-121.03792">
        <ele>212.0</ele>
      </trkpt>
      <trkpt lat="38.92972" lon="-121.03819">
        <ele>219.0</ele>
      </trkpt>
      <trkpt lat="38.92932" lon="-121.03834">
        <ele>215.0</ele>
      </trkpt>
      <trkpt lat="38.92927" lon="-121.03843">
        <ele>225.0</ele>
      </trkpt>
      <trkpt lat="38.92926" lon="-121.03861">
        <ele>220.0</ele>
      </trkpt>
      <trkpt lat="38.92921" lon="-121.03874">
        <ele>220.0</ele>
      </trkpt>
      <trkpt lat="38.92914" lon="-121.03887">
        <ele>210.0</ele>
      </trkpt>
      <trkpt lat="38.92899" lon="-121.03903">
        <ele>194.0</ele>
      </trkpt>
      <trkpt lat="38.92874" lon="-121.03915">
        <ele>202.0</ele>
      </trkpt>
      <trkpt lat="38.9286" lon="-121.03915">
        <ele>202.0</ele>
      </trkpt>
      <trkpt lat="38.92843" lon="-121.03908">
        <ele>203.0</ele>
      </trkpt>
      <trkpt lat="38.92834" lon="-121.03911">
        <ele>203.0</ele>
      </trkpt>
      <trkpt lat="38.92818" lon="-121.03932">
        <ele>183.0</ele>
      </trkpt>
      <trkpt lat="38.92805" lon="-121.03942">
        <ele>183.0</ele>
      </trkpt>
      <trkpt lat="38.92744" lon="-121.03979">
        <ele>184.0</ele>
      </trkpt>
      <trkpt lat="38.92715" lon="-121.03989">
        <ele>178.0</ele>
      </trkpt>
      <trkpt lat="38.92681" lon="-121.04019">
        <ele>180.0</ele>
      </trkpt>
      <trkpt lat="38.92652" lon="-121.04053">
        <ele>181.0</ele>
      </trkpt>
      <trkpt lat="38.92639" lon="-121.04061">
        <ele>181.0</ele>
      </trkpt>
      <trkpt lat="38.92625" lon="-121.04066">
        <ele>183.0</ele>
      </trkpt>
      <trkpt lat="38.92591" lon="-121.04066">
        <ele>174.0</ele>
      </trkpt>
      <trkpt lat="38.92567" lon="-121.04052">
        <ele>171.0</ele>
      </trkpt>
      <trkpt lat="38.92552" lon="-121.04032">
        <ele>171.0</ele>
      </trkpt>
      <trkpt lat="38.92538988016965" lon="-121.0400424110286">
        <ele>165.0</ele>
      </trkpt>
      <trkpt lat="38.92538988018786" lon="-121.0400424110286">
        <ele>165.0</ele>
      </trkpt>
      <trkpt lat="38.92537" lon="-121.04">
        <ele>165.0</ele>
      </trkpt>
      <trkpt lat="38.92523" lon="-121.03982">
        <ele>171.0</ele>
      </trkpt>
      <trkpt lat="38.92523" lon="-121.03982">
        <ele>171.0</ele>
      </trkpt>
      <trkpt lat="38.92509507793098" lon="-121.039666954071">
        <ele>162.0</ele>
      </trkpt>
      <trkpt lat="38.92509507793098" lon="-121.039666954071">
        <ele>162.0</ele>
      </trkpt>
      <trkpt lat="38.92456" lon="-121.03906">
        <ele>169.0</ele>
      </trkpt>
      <trkpt lat="38.92442" lon="-121.03896">
        <ele>177.0</ele>
      </trkpt>
      <trkpt lat="38.92407" lon="-121.03879">
        <ele>174.0</ele>
      </trkpt>
      <trkpt lat="38.92374" lon="-121.03853">
        <ele>177.0</ele>
      </trkpt>
      <trkpt lat="38.92351" lon="-121.03847">
        <ele>187.0</ele>
      </trkpt>
      <trkpt lat="38.92325" lon="-121.03834">
        <ele>188.0</ele>
      </trkpt>
      <trkpt lat="38.92289" lon="-121.03834">
        <ele>182.0</ele>
      </trkpt>
      <trkpt lat="38.92271" lon="-121.03827">
        <ele>182.0</ele>
      </trkpt>
      <trkpt lat="38.9226" lon="-121.03829">
        <ele>179.0</ele>
      </trkpt>
      <trkpt lat="38.92245678729284" lon="-121.0382499031056">
        <ele>179.0</ele>
      </trkpt>
      <trkpt lat="38.92245678729284" lon="-121.0382499031056">
        <ele>179.0</ele>
      </trkpt>
      <trkpt lat="38.92237826949385" lon="-121.0382279133707">
        <ele>179.0</ele>
      </trkpt>
      <trkpt lat="38.92237826949385" lon="-121.0382279133707">
        <ele>179.0</ele>
      </trkpt>
      <trkpt lat="38.92235" lon="-121.03822">
        <ele>163.0</ele>
      </trkpt>
      <trkpt lat="38.92187" lon="-121.038">
        <ele>178.0</ele>
      </trkpt>
      <trkpt lat="38.92158" lon="-121.03799">
        <ele>168.0</ele>
      </trkpt>
      <trkpt lat="38.92121" lon="-121.03783">
        <ele>154.0</ele>
      </trkpt>
      <trkpt lat="38.92074" lon="-121.03774">
        <ele>156.0</ele>
      </trkpt>
      <trkpt lat="38.92062976454639" lon="-121.037681640054">
        <ele>152.0</ele>
      </trkpt>
      <trkpt lat="38.92062976472487" lon="-121.037681640054">
        <ele>152.0</ele>
      </trkpt>
      <trkpt lat="38.9204" lon="-121.03756">
        <ele>159.0</ele>
      </trkpt>
      <trkpt lat="38.92008" lon="-121.03735">
        <ele>156.0</ele>
      </trkpt>
      <trkpt lat="38.91967" lon="-121.03694">
        <ele>161.0</ele>
      </trkpt>
      <trkpt lat="38.91943" lon="-121.03674">
        <ele>165.0</ele>
      </trkpt>
      <trkpt lat="38.91904" lon="-121.03624">
        <ele>166.0</ele>
      </trkpt>
      <trkpt lat="38.91873" lon="-121.03601">
        <ele>157.0</ele>
      </trkpt>
      <trkpt lat="38.91852" lon="-121.03571">
        <ele>164.0</ele>
      </trkpt>
      <trkpt lat="38.91852" lon="-121.03571">
        <ele>164.0</ele>
      </trkpt>
      <trkpt lat="38.91852" lon="-121.03571">
        <ele>164.0</ele>
      </trkpt>
      <trkpt lat="38.91821" lon="-121.03551">
        <ele>159.0</ele>
      </trkpt>
      <trkpt lat="38.91761" lon="-121.0352">
        <ele>159.0</ele>
      </trkpt>
      <trkpt lat="38.91707" lon="-121.03507">
        <ele>193.0</ele>
      </trkpt>
      <trkpt lat="38.91699" lon="-121.03508">
        <ele>193.0</ele>
      </trkpt>
      <trkpt lat="38.91659" lon="-121.03521">
        <ele>185.0</ele>
      </trkpt>
      <trkpt lat="38.91657534071753" lon="-121.0352185933725">
        <ele>185.0</ele>
      </trkpt>
      <trkpt lat="38.91657534074594" lon="-121.0352185933725">
        <ele>185.0</ele>
      </trkpt>
      <trkpt lat="38.9163" lon="-121.03538">
        <ele>195.0</ele>
      </trkpt>
      <trkpt lat="38.91619" lon="-121.03567">
        <ele>182.0</ele>
      </trkpt>
      <trkpt lat="38.9161872190633" lon="-121.0356852071487">
        <ele>182.0</ele>
      </trkpt>
      <trkpt lat="38.91612" lon="-121.03566">
        <ele>182.0</ele>
      </trkpt>
      <trkpt lat="38.91612" lon="-121.03566">
        <ele>182.0</ele>
      </trkpt>
      <trkpt lat="38.91574" lon="-121.03572">
        <ele>178.0</ele>
      </trkpt>
      <trkpt lat="38.91574" lon="-121.03572">
        <ele>178.0</ele>
      </trkpt>
      <trkpt lat="38.91570123371211" lon="-121.0357721853875">
        <ele>178.0</ele>
      </trkpt>
      <trkpt lat="38.91571319874384" lon="-121.0357868671417">
        <ele>178.0</ele>
      </trkpt>
    </trkseg>
  </trk>
</gpx>
