<?xml version="1.0" encoding="UTF-8"?>
<gpx xmlns:xsi="http://www.w3.org/2001/XMLSchema-instance" version="1.1" creator="The Outbound Collective, Inc. 1.1.1 -- https://www.theoutbound.com" xsi:schemaLocation="http://www.topografix.com/GPX/1/1 http://www.topografix.com/GPX/1/1/gpx.xsd">
  <metadata>
    <name/>
    <time>2026-02-19T21:48:24+00:00</time>
    <bound minlat="37.80115" minlon="-122.18659" maxlat="37.8329" maxlon="-122.144"/>
  </metadata>
  <trk>
    <name/>
    <trkseg>
      <trkpt lat="37.80327385185868" lon="-122.145448923111">
        <ele>187.0</ele>
      </trkpt>
      <trkpt lat="37.80326103649484" lon="-122.1454448175291">
        <ele>187.0</ele>
      </trkpt>
      <trkpt lat="37.80327" lon="-122.1454">
        <ele>190.0</ele>
      </trkpt>
      <trkpt lat="37.80327" lon="-122.1454">
        <ele>190.0</ele>
      </trkpt>
      <trkpt lat="37.80313" lon="-122.14537">
        <ele>191.0</ele>
      </trkpt>
      <trkpt lat="37.80304390643595" lon="-122.1454247868135">
        <ele>190.0</ele>
      </trkpt>
      <trkpt lat="37.803043906514" lon="-122.1454247868135">
        <ele>190.0</ele>
      </trkpt>
      <trkpt lat="37.80291" lon="-122.14551">
        <ele>190.0</ele>
      </trkpt>
      <trkpt lat="37.80286" lon="-122.14562">
        <ele>190.0</ele>
      </trkpt>
      <trkpt lat="37.80286" lon="-122.14562">
        <ele>190.0</ele>
      </trkpt>
      <trkpt lat="37.80331" lon="-122.1459">
        <ele>189.0</ele>
      </trkpt>
      <trkpt lat="37.80356" lon="-122.14594">
        <ele>185.0</ele>
      </trkpt>
      <trkpt lat="37.80363" lon="-122.146">
        <ele>189.0</ele>
      </trkpt>
      <trkpt lat="37.80363" lon="-122.146">
        <ele>189.0</ele>
      </trkpt>
      <trkpt lat="37.80369" lon="-122.14605">
        <ele>189.0</ele>
      </trkpt>
      <trkpt lat="37.80377" lon="-122.14623">
        <ele>183.0</ele>
      </trkpt>
      <trkpt lat="37.80393" lon="-122.14646">
        <ele>190.0</ele>
      </trkpt>
      <trkpt lat="37.80433" lon="-122.14668">
        <ele>190.0</ele>
      </trkpt>
      <trkpt lat="37.80433" lon="-122.14668">
        <ele>190.0</ele>
      </trkpt>
      <trkpt lat="37.80422" lon="-122.14671">
        <ele>193.0</ele>
      </trkpt>
      <trkpt lat="37.80403" lon="-122.14664">
        <ele>193.0</ele>
      </trkpt>
      <trkpt lat="37.80376" lon="-122.1465">
        <ele>190.0</ele>
      </trkpt>
      <trkpt lat="37.80353" lon="-122.14633">
        <ele>197.0</ele>
      </trkpt>
      <trkpt lat="37.80309" lon="-122.14611">
        <ele>199.0</ele>
      </trkpt>
      <trkpt lat="37.8029" lon="-122.14614">
        <ele>205.0</ele>
      </trkpt>
      <trkpt lat="37.80272" lon="-122.14624">
        <ele>205.0</ele>
      </trkpt>
      <trkpt lat="37.80262" lon="-122.14627">
        <ele>221.0</ele>
      </trkpt>
      <trkpt lat="37.80259557039971" lon="-122.1462322451632">
        <ele>210.0</ele>
      </trkpt>
      <trkpt lat="37.80259557041385" lon="-122.1462322451632">
        <ele>210.0</ele>
      </trkpt>
      <trkpt lat="37.80251" lon="-122.1461">
        <ele>210.0</ele>
      </trkpt>
      <trkpt lat="37.80244" lon="-122.14603">
        <ele>210.0</ele>
      </trkpt>
      <trkpt lat="37.80232" lon="-122.146">
        <ele>215.0</ele>
      </trkpt>
      <trkpt lat="37.80232" lon="-122.146">
        <ele>215.0</ele>
      </trkpt>
      <trkpt lat="37.80195" lon="-122.14596">
        <ele>208.0</ele>
      </trkpt>
      <trkpt lat="37.80177" lon="-122.14585">
        <ele>216.0</ele>
      </trkpt>
      <trkpt lat="37.80156" lon="-122.14562">
        <ele>206.0</ele>
      </trkpt>
      <trkpt lat="37.8014" lon="-122.1456">
        <ele>207.0</ele>
      </trkpt>
      <trkpt lat="37.80131" lon="-122.14564">
        <ele>207.0</ele>
      </trkpt>
      <trkpt lat="37.80128" lon="-122.14569">
        <ele>207.0</ele>
      </trkpt>
      <trkpt lat="37.80125" lon="-122.146">
        <ele>209.0</ele>
      </trkpt>
      <trkpt lat="37.80125" lon="-122.146">
        <ele>209.0</ele>
      </trkpt>
      <trkpt lat="37.80128" lon="-122.14632">
        <ele>229.0</ele>
      </trkpt>
      <trkpt lat="37.80121" lon="-122.14656">
        <ele>217.0</ele>
      </trkpt>
      <trkpt lat="37.80115" lon="-122.14693">
        <ele>221.0</ele>
      </trkpt>
      <trkpt lat="37.80117" lon="-122.147">
        <ele>221.0</ele>
      </trkpt>
      <trkpt lat="37.80117" lon="-122.147">
        <ele>221.0</ele>
      </trkpt>
      <trkpt lat="37.80148" lon="-122.14715">
        <ele>236.0</ele>
      </trkpt>
      <trkpt lat="37.80155" lon="-122.14674">
        <ele>238.0</ele>
      </trkpt>
      <trkpt lat="37.80158" lon="-122.14669">
        <ele>238.0</ele>
      </trkpt>
      <trkpt lat="37.80164" lon="-122.1467">
        <ele>238.0</ele>
      </trkpt>
      <trkpt lat="37.80199" lon="-122.14742">
        <ele>261.0</ele>
      </trkpt>
      <trkpt lat="37.80207" lon="-122.14768">
        <ele>265.0</ele>
      </trkpt>
      <trkpt lat="37.80209036791951" lon="-122.147699768863">
        <ele>272.0</ele>
      </trkpt>
      <trkpt lat="37.80209036796359" lon="-122.147699768863">
        <ele>272.0</ele>
      </trkpt>
      <trkpt lat="37.80241" lon="-122.14801">
        <ele>283.0</ele>
      </trkpt>
      <trkpt lat="37.80248" lon="-122.14826">
        <ele>287.0</ele>
      </trkpt>
      <trkpt lat="37.80259" lon="-122.14843">
        <ele>287.0</ele>
      </trkpt>
      <trkpt lat="37.80266" lon="-122.14867">
        <ele>295.0</ele>
      </trkpt>
      <trkpt lat="37.8027" lon="-122.14907">
        <ele>305.0</ele>
      </trkpt>
      <trkpt lat="37.80276" lon="-122.14922">
        <ele>305.0</ele>
      </trkpt>
      <trkpt lat="37.80274" lon="-122.14942">
        <ele>309.0</ele>
      </trkpt>
      <trkpt lat="37.80276" lon="-122.14962">
        <ele>311.0</ele>
      </trkpt>
      <trkpt lat="37.80289" lon="-122.14985">
        <ele>311.0</ele>
      </trkpt>
      <trkpt lat="37.80294" lon="-122.15006">
        <ele>324.0</ele>
      </trkpt>
      <trkpt lat="37.80296424119162" lon="-122.1503993766827">
        <ele>329.0</ele>
      </trkpt>
      <trkpt lat="37.80296424119162" lon="-122.1503993766827">
        <ele>329.0</ele>
      </trkpt>
      <trkpt lat="37.80297" lon="-122.15048">
        <ele>333.0</ele>
      </trkpt>
      <trkpt lat="37.803" lon="-122.15066">
        <ele>333.0</ele>
      </trkpt>
      <trkpt lat="37.80308" lon="-122.15083">
        <ele>334.0</ele>
      </trkpt>
      <trkpt lat="37.80303" lon="-122.15099">
        <ele>336.0</ele>
      </trkpt>
      <trkpt lat="37.80305" lon="-122.15123">
        <ele>336.0</ele>
      </trkpt>
      <trkpt lat="37.80308" lon="-122.15136">
        <ele>335.0</ele>
      </trkpt>
      <trkpt lat="37.8032" lon="-122.15158">
        <ele>337.0</ele>
      </trkpt>
      <trkpt lat="37.80331" lon="-122.15173">
        <ele>337.0</ele>
      </trkpt>
      <trkpt lat="37.80337176360455" lon="-122.1517805338583">
        <ele>337.0</ele>
      </trkpt>
      <trkpt lat="37.8033717636707" lon="-122.1517805338583">
        <ele>337.0</ele>
      </trkpt>
      <trkpt lat="37.80353" lon="-122.15191">
        <ele>337.0</ele>
      </trkpt>
      <trkpt lat="37.80359" lon="-122.152">
        <ele>337.0</ele>
      </trkpt>
      <trkpt lat="37.80391" lon="-122.15307">
        <ele>345.0</ele>
      </trkpt>
      <trkpt lat="37.80409" lon="-122.15345">
        <ele>345.0</ele>
      </trkpt>
      <trkpt lat="37.80432" lon="-122.15366">
        <ele>346.0</ele>
      </trkpt>
      <trkpt lat="37.80464" lon="-122.15403">
        <ele>347.0</ele>
      </trkpt>
      <trkpt lat="37.80483" lon="-122.15434">
        <ele>347.0</ele>
      </trkpt>
      <trkpt lat="37.80483" lon="-122.15434">
        <ele>347.0</ele>
      </trkpt>
      <trkpt lat="37.80483" lon="-122.15434">
        <ele>347.0</ele>
      </trkpt>
      <trkpt lat="37.80493455959176" lon="-122.1544619861904">
        <ele>346.0</ele>
      </trkpt>
      <trkpt lat="37.80495397247483" lon="-122.154484634554">
        <ele>346.0</ele>
      </trkpt>
      <trkpt lat="37.80519" lon="-122.15476">
        <ele>344.0</ele>
      </trkpt>
      <trkpt lat="37.80536" lon="-122.15492">
        <ele>342.0</ele>
      </trkpt>
      <trkpt lat="37.80544" lon="-122.15494">
        <ele>344.0</ele>
      </trkpt>
      <trkpt lat="37.80544" lon="-122.15494">
        <ele>344.0</ele>
      </trkpt>
      <trkpt lat="37.8056" lon="-122.15498">
        <ele>344.0</ele>
      </trkpt>
      <trkpt lat="37.80599" lon="-122.15593">
        <ele>340.0</ele>
      </trkpt>
      <trkpt lat="37.80599" lon="-122.15593">
        <ele>340.0</ele>
      </trkpt>
      <trkpt lat="37.80599" lon="-122.15593">
        <ele>340.0</ele>
      </trkpt>
      <trkpt lat="37.80647" lon="-122.15689">
        <ele>346.0</ele>
      </trkpt>
      <trkpt lat="37.80657" lon="-122.15728">
        <ele>349.0</ele>
      </trkpt>
      <trkpt lat="37.80667" lon="-122.15746">
        <ele>349.0</ele>
      </trkpt>
      <trkpt lat="37.80697" lon="-122.15791">
        <ele>354.0</ele>
      </trkpt>
      <trkpt lat="37.807077916195" lon="-122.1580122363953">
        <ele>357.0</ele>
      </trkpt>
      <trkpt lat="37.80707791625499" lon="-122.1580122363953">
        <ele>357.0</ele>
      </trkpt>
      <trkpt lat="37.80716" lon="-122.15809">
        <ele>363.0</ele>
      </trkpt>
      <trkpt lat="37.80791259341135" lon="-122.1590868561852">
        <ele>359.0</ele>
      </trkpt>
      <trkpt lat="37.80791259341135" lon="-122.1590868561852">
        <ele>359.0</ele>
      </trkpt>
      <trkpt lat="37.8083" lon="-122.1596">
        <ele>370.0</ele>
      </trkpt>
      <trkpt lat="37.80864" lon="-122.15999">
        <ele>371.0</ele>
      </trkpt>
      <trkpt lat="37.80896" lon="-122.16048">
        <ele>370.0</ele>
      </trkpt>
      <trkpt lat="37.80907" lon="-122.16073">
        <ele>374.0</ele>
      </trkpt>
      <trkpt lat="37.80928" lon="-122.16103">
        <ele>370.0</ele>
      </trkpt>
      <trkpt lat="37.80959" lon="-122.16129">
        <ele>374.0</ele>
      </trkpt>
      <trkpt lat="37.81021" lon="-122.16173">
        <ele>374.0</ele>
      </trkpt>
      <trkpt lat="37.81046" lon="-122.16185">
        <ele>377.0</ele>
      </trkpt>
      <trkpt lat="37.81046" lon="-122.16185">
        <ele>377.0</ele>
      </trkpt>
      <trkpt lat="37.81046" lon="-122.16185">
        <ele>377.0</ele>
      </trkpt>
      <trkpt lat="37.81088" lon="-122.1622">
        <ele>383.0</ele>
      </trkpt>
      <trkpt lat="37.81101" lon="-122.16238">
        <ele>393.0</ele>
      </trkpt>
      <trkpt lat="37.81136" lon="-122.16317">
        <ele>395.0</ele>
      </trkpt>
      <trkpt lat="37.81161" lon="-122.16358">
        <ele>397.0</ele>
      </trkpt>
      <trkpt lat="37.81175" lon="-122.16402">
        <ele>396.0</ele>
      </trkpt>
      <trkpt lat="37.81187" lon="-122.1643">
        <ele>401.0</ele>
      </trkpt>
      <trkpt lat="37.81196" lon="-122.16439">
        <ele>404.0</ele>
      </trkpt>
      <trkpt lat="37.81207" lon="-122.16457">
        <ele>404.0</ele>
      </trkpt>
      <trkpt lat="37.81216" lon="-122.16484">
        <ele>407.0</ele>
      </trkpt>
      <trkpt lat="37.8121879995329" lon="-122.1649079988656">
        <ele>407.0</ele>
      </trkpt>
      <trkpt lat="37.81218799956741" lon="-122.1649079988656">
        <ele>407.0</ele>
      </trkpt>
      <trkpt lat="37.81237" lon="-122.16535">
        <ele>415.0</ele>
      </trkpt>
      <trkpt lat="37.81292" lon="-122.16679">
        <ele>421.0</ele>
      </trkpt>
      <trkpt lat="37.81281" lon="-122.16698">
        <ele>413.0</ele>
      </trkpt>
      <trkpt lat="37.81283" lon="-122.1671">
        <ele>411.0</ele>
      </trkpt>
      <trkpt lat="37.81291105123518" lon="-122.167335048582">
        <ele>411.0</ele>
      </trkpt>
      <trkpt lat="37.81291105123518" lon="-122.167335048582">
        <ele>411.0</ele>
      </trkpt>
      <trkpt lat="37.81303" lon="-122.16768">
        <ele>413.0</ele>
      </trkpt>
      <trkpt lat="37.81321" lon="-122.16797">
        <ele>413.0</ele>
      </trkpt>
      <trkpt lat="37.81321" lon="-122.16797">
        <ele>413.0</ele>
      </trkpt>
      <trkpt lat="37.81342" lon="-122.1684">
        <ele>413.0</ele>
      </trkpt>
      <trkpt lat="37.81342" lon="-122.16855">
        <ele>411.0</ele>
      </trkpt>
      <trkpt lat="37.81342" lon="-122.16855">
        <ele>411.0</ele>
      </trkpt>
      <trkpt lat="37.81354" lon="-122.16894">
        <ele>412.0</ele>
      </trkpt>
      <trkpt lat="37.81359" lon="-122.16906">
        <ele>413.0</ele>
      </trkpt>
      <trkpt lat="37.81403" lon="-122.16961">
        <ele>417.0</ele>
      </trkpt>
      <trkpt lat="37.81437" lon="-122.17018">
        <ele>425.0</ele>
      </trkpt>
      <trkpt lat="37.81461" lon="-122.17098">
        <ele>436.0</ele>
      </trkpt>
      <trkpt lat="37.81466520004611" lon="-122.1711353779076">
        <ele>436.0</ele>
      </trkpt>
      <trkpt lat="37.81466520012641" lon="-122.1711353779076">
        <ele>436.0</ele>
      </trkpt>
      <trkpt lat="37.81488" lon="-122.17174">
        <ele>444.0</ele>
      </trkpt>
      <trkpt lat="37.81523" lon="-122.17259">
        <ele>449.0</ele>
      </trkpt>
      <trkpt lat="37.81544" lon="-122.17298">
        <ele>457.0</ele>
      </trkpt>
      <trkpt lat="37.81568" lon="-122.17357">
        <ele>454.0</ele>
      </trkpt>
      <trkpt lat="37.81597" lon="-122.17416">
        <ele>456.0</ele>
      </trkpt>
      <trkpt lat="37.81606" lon="-122.17451">
        <ele>459.0</ele>
      </trkpt>
      <trkpt lat="37.81606" lon="-122.17451">
        <ele>459.0</ele>
      </trkpt>
      <trkpt lat="37.81606" lon="-122.17451">
        <ele>459.0</ele>
      </trkpt>
      <trkpt lat="37.81607" lon="-122.17464">
        <ele>462.0</ele>
      </trkpt>
      <trkpt lat="37.81599" lon="-122.1753">
        <ele>471.0</ele>
      </trkpt>
      <trkpt lat="37.81599" lon="-122.17557">
        <ele>476.0</ele>
      </trkpt>
      <trkpt lat="37.81601" lon="-122.17576">
        <ele>479.0</ele>
      </trkpt>
      <trkpt lat="37.81609" lon="-122.17608">
        <ele>478.0</ele>
      </trkpt>
      <trkpt lat="37.81609" lon="-122.17608">
        <ele>478.0</ele>
      </trkpt>
      <trkpt lat="37.81615" lon="-122.1763">
        <ele>471.0</ele>
      </trkpt>
      <trkpt lat="37.8161374189582" lon="-122.1764024456261">
        <ele>471.0</ele>
      </trkpt>
      <trkpt lat="37.81613333611572" lon="-122.1764356916291">
        <ele>471.0</ele>
      </trkpt>
      <trkpt lat="37.81608" lon="-122.17687">
        <ele>463.0</ele>
      </trkpt>
      <trkpt lat="37.81608" lon="-122.17687">
        <ele>463.0</ele>
      </trkpt>
      <trkpt lat="37.81619" lon="-122.17712">
        <ele>464.0</ele>
      </trkpt>
      <trkpt lat="37.81626475600262" lon="-122.1772209206035">
        <ele>462.0</ele>
      </trkpt>
      <trkpt lat="37.81626475606604" lon="-122.1772209206035">
        <ele>462.0</ele>
      </trkpt>
      <trkpt lat="37.81639" lon="-122.17739">
        <ele>467.0</ele>
      </trkpt>
      <trkpt lat="37.81659" lon="-122.17777">
        <ele>473.0</ele>
      </trkpt>
      <trkpt lat="37.81676" lon="-122.17796">
        <ele>477.0</ele>
      </trkpt>
      <trkpt lat="37.81695" lon="-122.17808">
        <ele>483.0</ele>
      </trkpt>
      <trkpt lat="37.81712" lon="-122.17827">
        <ele>480.0</ele>
      </trkpt>
      <trkpt lat="37.81712" lon="-122.17827">
        <ele>480.0</ele>
      </trkpt>
      <trkpt lat="37.81712" lon="-122.17827">
        <ele>480.0</ele>
      </trkpt>
      <trkpt lat="37.81722" lon="-122.1785">
        <ele>471.0</ele>
      </trkpt>
      <trkpt lat="37.81741" lon="-122.17874">
        <ele>475.0</ele>
      </trkpt>
      <trkpt lat="37.81742798953885" lon="-122.1789468796968">
        <ele>471.0</ele>
      </trkpt>
      <trkpt lat="37.8174279895391" lon="-122.1789468796968">
        <ele>471.0</ele>
      </trkpt>
      <trkpt lat="37.81743" lon="-122.17897">
        <ele>471.0</ele>
      </trkpt>
      <trkpt lat="37.81742" lon="-122.17906">
        <ele>468.0</ele>
      </trkpt>
      <trkpt lat="37.81745378818858" lon="-122.1791824857796">
        <ele>468.0</ele>
      </trkpt>
      <trkpt lat="37.81746336163482" lon="-122.1792171905412">
        <ele>468.0</ele>
      </trkpt>
      <trkpt lat="37.8175" lon="-122.17935">
        <ele>466.0</ele>
      </trkpt>
      <trkpt lat="37.81761" lon="-122.17955">
        <ele>466.0</ele>
      </trkpt>
      <trkpt lat="37.81771" lon="-122.17964">
        <ele>469.0</ele>
      </trkpt>
      <trkpt lat="37.81778" lon="-122.17979">
        <ele>469.0</ele>
      </trkpt>
      <trkpt lat="37.81786" lon="-122.17988">
        <ele>466.0</ele>
      </trkpt>
      <trkpt lat="37.81793" lon="-122.18013">
        <ele>471.0</ele>
      </trkpt>
      <trkpt lat="37.81793" lon="-122.18013">
        <ele>471.0</ele>
      </trkpt>
      <trkpt lat="37.81793" lon="-122.18013">
        <ele>471.0</ele>
      </trkpt>
      <trkpt lat="37.81801" lon="-122.18021">
        <ele>468.0</ele>
      </trkpt>
      <trkpt lat="37.81808" lon="-122.1804">
        <ele>468.0</ele>
      </trkpt>
      <trkpt lat="37.81825" lon="-122.18068">
        <ele>465.0</ele>
      </trkpt>
      <trkpt lat="37.81831" lon="-122.18084">
        <ele>459.0</ele>
      </trkpt>
      <trkpt lat="37.8185" lon="-122.18111">
        <ele>461.0</ele>
      </trkpt>
      <trkpt lat="37.81856" lon="-122.18165">
        <ele>454.0</ele>
      </trkpt>
      <trkpt lat="37.8186" lon="-122.18178">
        <ele>454.0</ele>
      </trkpt>
      <trkpt lat="37.81889" lon="-122.18206">
        <ele>462.0</ele>
      </trkpt>
      <trkpt lat="37.81896895328131" lon="-122.1821872025088">
        <ele>460.0</ele>
      </trkpt>
      <trkpt lat="37.81896895333537" lon="-122.1821872025088">
        <ele>460.0</ele>
      </trkpt>
      <trkpt lat="37.81907" lon="-122.18235">
        <ele>464.0</ele>
      </trkpt>
      <trkpt lat="37.81921" lon="-122.18242">
        <ele>461.0</ele>
      </trkpt>
      <trkpt lat="37.81936" lon="-122.18244">
        <ele>467.0</ele>
      </trkpt>
      <trkpt lat="37.81956" lon="-122.18274">
        <ele>463.0</ele>
      </trkpt>
      <trkpt lat="37.81973" lon="-122.18293">
        <ele>464.0</ele>
      </trkpt>
      <trkpt lat="37.81976995252797" lon="-122.1829594347681">
        <ele>464.0</ele>
      </trkpt>
      <trkpt lat="37.81976995252797" lon="-122.1829594347681">
        <ele>464.0</ele>
      </trkpt>
      <trkpt lat="37.81992" lon="-122.18307">
        <ele>466.0</ele>
      </trkpt>
      <trkpt lat="37.81999" lon="-122.18334">
        <ele>464.0</ele>
      </trkpt>
      <trkpt lat="37.82008" lon="-122.18385">
        <ele>463.0</ele>
      </trkpt>
      <trkpt lat="37.82008" lon="-122.18385">
        <ele>463.0</ele>
      </trkpt>
      <trkpt lat="37.82008" lon="-122.18385">
        <ele>463.0</ele>
      </trkpt>
      <trkpt lat="37.82012" lon="-122.18394">
        <ele>463.0</ele>
      </trkpt>
      <trkpt lat="37.82019" lon="-122.18397">
        <ele>460.0</ele>
      </trkpt>
      <trkpt lat="37.82019" lon="-122.18397">
        <ele>460.0</ele>
      </trkpt>
      <trkpt lat="37.82019" lon="-122.18397">
        <ele>460.0</ele>
      </trkpt>
      <trkpt lat="37.82062" lon="-122.18398">
        <ele>456.0</ele>
      </trkpt>
      <trkpt lat="37.82072939539314" lon="-122.1840529302621">
        <ele>451.0</ele>
      </trkpt>
      <trkpt lat="37.82072939540101" lon="-122.1840529302621">
        <ele>451.0</ele>
      </trkpt>
      <trkpt lat="37.82074" lon="-122.18406">
        <ele>451.0</ele>
      </trkpt>
      <trkpt lat="37.82087" lon="-122.18425">
        <ele>451.0</ele>
      </trkpt>
      <trkpt lat="37.82104" lon="-122.18429">
        <ele>446.0</ele>
      </trkpt>
      <trkpt lat="37.82114" lon="-122.18435">
        <ele>450.0</ele>
      </trkpt>
      <trkpt lat="37.82118" lon="-122.18445">
        <ele>450.0</ele>
      </trkpt>
      <trkpt lat="37.82118" lon="-122.18459">
        <ele>450.0</ele>
      </trkpt>
      <trkpt lat="37.82106" lon="-122.18504">
        <ele>447.0</ele>
      </trkpt>
      <trkpt lat="37.82108" lon="-122.18512">
        <ele>447.0</ele>
      </trkpt>
      <trkpt lat="37.82114" lon="-122.18521">
        <ele>446.0</ele>
      </trkpt>
      <trkpt lat="37.82133" lon="-122.18535">
        <ele>435.0</ele>
      </trkpt>
      <trkpt lat="37.82142" lon="-122.18547">
        <ele>436.0</ele>
      </trkpt>
      <trkpt lat="37.82146" lon="-122.1856">
        <ele>436.0</ele>
      </trkpt>
      <trkpt lat="37.82152" lon="-122.18596">
        <ele>438.0</ele>
      </trkpt>
      <trkpt lat="37.82159" lon="-122.18609">
        <ele>433.0</ele>
      </trkpt>
      <trkpt lat="37.82164" lon="-122.18645">
        <ele>435.0</ele>
      </trkpt>
      <trkpt lat="37.82169" lon="-122.18656">
        <ele>437.0</ele>
      </trkpt>
      <trkpt lat="37.82169" lon="-122.18656">
        <ele>437.0</ele>
      </trkpt>
      <trkpt lat="37.82169" lon="-122.18656">
        <ele>437.0</ele>
      </trkpt>
      <trkpt lat="37.82194" lon="-122.18647">
        <ele>433.0</ele>
      </trkpt>
      <trkpt lat="37.8221" lon="-122.18646">
        <ele>430.0</ele>
      </trkpt>
      <trkpt lat="37.8223" lon="-122.1865">
        <ele>430.0</ele>
      </trkpt>
      <trkpt lat="37.82249" lon="-122.18647">
        <ele>423.0</ele>
      </trkpt>
      <trkpt lat="37.82268" lon="-122.18659">
        <ele>421.0</ele>
      </trkpt>
      <trkpt lat="37.8228" lon="-122.18658">
        <ele>421.0</ele>
      </trkpt>
      <trkpt lat="37.8228" lon="-122.18658">
        <ele>421.0</ele>
      </trkpt>
      <trkpt lat="37.82291" lon="-122.18651">
        <ele>417.0</ele>
      </trkpt>
      <trkpt lat="37.82297" lon="-122.18639">
        <ele>419.0</ele>
      </trkpt>
      <trkpt lat="37.82294009638176" lon="-122.1859499896173">
        <ele>419.0</ele>
      </trkpt>
      <trkpt lat="37.82294009638176" lon="-122.1859499896173">
        <ele>419.0</ele>
      </trkpt>
      <trkpt lat="37.8229" lon="-122.18536">
        <ele>415.0</ele>
      </trkpt>
      <trkpt lat="37.8229303938148" lon="-122.185081390031">
        <ele>421.0</ele>
      </trkpt>
      <trkpt lat="37.82293039382088" lon="-122.1850813900311">
        <ele>421.0</ele>
      </trkpt>
      <trkpt lat="37.82296" lon="-122.18481">
        <ele>420.0</ele>
      </trkpt>
      <trkpt lat="37.823" lon="-122.18472">
        <ele>420.0</ele>
      </trkpt>
      <trkpt lat="37.82307" lon="-122.18465">
        <ele>420.0</ele>
      </trkpt>
      <trkpt lat="37.8232" lon="-122.18457">
        <ele>417.0</ele>
      </trkpt>
      <trkpt lat="37.82344" lon="-122.18454">
        <ele>417.0</ele>
      </trkpt>
      <trkpt lat="37.82355" lon="-122.18448">
        <ele>419.0</ele>
      </trkpt>
      <trkpt lat="37.82388" lon="-122.18404">
        <ele>419.0</ele>
      </trkpt>
      <trkpt lat="37.82414" lon="-122.18343">
        <ele>415.0</ele>
      </trkpt>
      <trkpt lat="37.8242" lon="-122.18336">
        <ele>415.0</ele>
      </trkpt>
      <trkpt lat="37.82431" lon="-122.18338">
        <ele>418.0</ele>
      </trkpt>
      <trkpt lat="37.82446" lon="-122.18362">
        <ele>425.0</ele>
      </trkpt>
      <trkpt lat="37.82479" lon="-122.18389">
        <ele>426.0</ele>
      </trkpt>
      <trkpt lat="37.82489" lon="-122.18402">
        <ele>416.0</ele>
      </trkpt>
      <trkpt lat="37.82501" lon="-122.18434">
        <ele>427.0</ele>
      </trkpt>
      <trkpt lat="37.82506" lon="-122.18441">
        <ele>427.0</ele>
      </trkpt>
      <trkpt lat="37.82517" lon="-122.18449">
        <ele>425.0</ele>
      </trkpt>
      <trkpt lat="37.82538" lon="-122.18451">
        <ele>425.0</ele>
      </trkpt>
      <trkpt lat="37.82567" lon="-122.18438">
        <ele>424.0</ele>
      </trkpt>
      <trkpt lat="37.8258" lon="-122.1844">
        <ele>420.0</ele>
      </trkpt>
      <trkpt lat="37.82601" lon="-122.1845">
        <ele>415.0</ele>
      </trkpt>
      <trkpt lat="37.82623" lon="-122.18475">
        <ele>424.0</ele>
      </trkpt>
      <trkpt lat="37.8263" lon="-122.18479">
        <ele>420.0</ele>
      </trkpt>
      <trkpt lat="37.82636" lon="-122.18479">
        <ele>420.0</ele>
      </trkpt>
      <trkpt lat="37.82655" lon="-122.18467">
        <ele>422.0</ele>
      </trkpt>
      <trkpt lat="37.8266" lon="-122.18461">
        <ele>422.0</ele>
      </trkpt>
      <trkpt lat="37.82662" lon="-122.18429">
        <ele>411.0</ele>
      </trkpt>
      <trkpt lat="37.82671" lon="-122.18393">
        <ele>407.0</ele>
      </trkpt>
      <trkpt lat="37.82671" lon="-122.18381">
        <ele>407.0</ele>
      </trkpt>
      <trkpt lat="37.82655" lon="-122.18341">
        <ele>401.0</ele>
      </trkpt>
      <trkpt lat="37.82648" lon="-122.18306">
        <ele>395.0</ele>
      </trkpt>
      <trkpt lat="37.8265" lon="-122.18289">
        <ele>393.0</ele>
      </trkpt>
      <trkpt lat="37.82655680652469" lon="-122.1828435219343">
        <ele>395.0</ele>
      </trkpt>
      <trkpt lat="37.82655680652469" lon="-122.1828435219343">
        <ele>395.0</ele>
      </trkpt>
      <trkpt lat="37.82661" lon="-122.1828">
        <ele>395.0</ele>
      </trkpt>
      <trkpt lat="37.82669" lon="-122.18281">
        <ele>395.0</ele>
      </trkpt>
      <trkpt lat="37.82677" lon="-122.18288">
        <ele>395.0</ele>
      </trkpt>
      <trkpt lat="37.82688" lon="-122.18318">
        <ele>401.0</ele>
      </trkpt>
      <trkpt lat="37.82699" lon="-122.1833">
        <ele>404.0</ele>
      </trkpt>
      <trkpt lat="37.82722" lon="-122.18342">
        <ele>407.0</ele>
      </trkpt>
      <trkpt lat="37.82744" lon="-122.18345">
        <ele>409.0</ele>
      </trkpt>
      <trkpt lat="37.82753" lon="-122.1835">
        <ele>415.0</ele>
      </trkpt>
      <trkpt lat="37.82757" lon="-122.18357">
        <ele>415.0</ele>
      </trkpt>
      <trkpt lat="37.82757" lon="-122.18403">
        <ele>422.0</ele>
      </trkpt>
      <trkpt lat="37.82762" lon="-122.18419">
        <ele>422.0</ele>
      </trkpt>
      <trkpt lat="37.82782" lon="-122.18447">
        <ele>415.0</ele>
      </trkpt>
      <trkpt lat="37.82785" lon="-122.18456">
        <ele>415.0</ele>
      </trkpt>
      <trkpt lat="37.82778" lon="-122.18513">
        <ele>424.0</ele>
      </trkpt>
      <trkpt lat="37.82782" lon="-122.18525">
        <ele>426.0</ele>
      </trkpt>
      <trkpt lat="37.82792" lon="-122.18537">
        <ele>409.0</ele>
      </trkpt>
      <trkpt lat="37.828" lon="-122.18541">
        <ele>409.0</ele>
      </trkpt>
      <trkpt lat="37.82807" lon="-122.18541">
        <ele>409.0</ele>
      </trkpt>
      <trkpt lat="37.8285" lon="-122.1853">
        <ele>397.0</ele>
      </trkpt>
      <trkpt lat="37.82864" lon="-122.18534">
        <ele>397.0</ele>
      </trkpt>
      <trkpt lat="37.82873" lon="-122.18547">
        <ele>411.0</ele>
      </trkpt>
      <trkpt lat="37.82881" lon="-122.1857">
        <ele>420.0</ele>
      </trkpt>
      <trkpt lat="37.82887" lon="-122.18576">
        <ele>420.0</ele>
      </trkpt>
      <trkpt lat="37.82894" lon="-122.18577">
        <ele>420.0</ele>
      </trkpt>
      <trkpt lat="37.82917" lon="-122.18573">
        <ele>411.0</ele>
      </trkpt>
      <trkpt lat="37.82924" lon="-122.18577">
        <ele>411.0</ele>
      </trkpt>
      <trkpt lat="37.82928" lon="-122.18583">
        <ele>411.0</ele>
      </trkpt>
      <trkpt lat="37.82936" lon="-122.18617">
        <ele>407.0</ele>
      </trkpt>
      <trkpt lat="37.82941" lon="-122.18624">
        <ele>407.0</ele>
      </trkpt>
      <trkpt lat="37.82948" lon="-122.18627">
        <ele>413.0</ele>
      </trkpt>
      <trkpt lat="37.82962" lon="-122.18624">
        <ele>404.0</ele>
      </trkpt>
      <trkpt lat="37.82978" lon="-122.18609">
        <ele>404.0</ele>
      </trkpt>
      <trkpt lat="37.82990884619721" lon="-122.1858081489436">
        <ele>393.0</ele>
      </trkpt>
      <trkpt lat="37.82990884622441" lon="-122.1858081489436">
        <ele>393.0</ele>
      </trkpt>
      <trkpt lat="37.82994" lon="-122.18574">
        <ele>393.0</ele>
      </trkpt>
      <trkpt lat="37.82997" lon="-122.18565">
        <ele>386.0</ele>
      </trkpt>
      <trkpt lat="37.82998" lon="-122.1854">
        <ele>377.0</ele>
      </trkpt>
      <trkpt lat="37.83006" lon="-122.18526">
        <ele>377.0</ele>
      </trkpt>
      <trkpt lat="37.83012" lon="-122.18527">
        <ele>377.0</ele>
      </trkpt>
      <trkpt lat="37.83017" lon="-122.18534">
        <ele>387.0</ele>
      </trkpt>
      <trkpt lat="37.83028" lon="-122.18539">
        <ele>387.0</ele>
      </trkpt>
      <trkpt lat="37.83043" lon="-122.18543">
        <ele>399.0</ele>
      </trkpt>
      <trkpt lat="37.83056" lon="-122.18542">
        <ele>399.0</ele>
      </trkpt>
      <trkpt lat="37.83078" lon="-122.1853">
        <ele>392.0</ele>
      </trkpt>
      <trkpt lat="37.83099" lon="-122.18508">
        <ele>386.0</ele>
      </trkpt>
      <trkpt lat="37.83101035752055" lon="-122.1850712753483">
        <ele>386.0</ele>
      </trkpt>
      <trkpt lat="37.83101035752055" lon="-122.1850712753483">
        <ele>386.0</ele>
      </trkpt>
      <trkpt lat="37.83106" lon="-122.18505">
        <ele>386.0</ele>
      </trkpt>
      <trkpt lat="37.83142" lon="-122.18522">
        <ele>399.0</ele>
      </trkpt>
      <trkpt lat="37.83142" lon="-122.18522">
        <ele>399.0</ele>
      </trkpt>
      <trkpt lat="37.83142" lon="-122.18522">
        <ele>399.0</ele>
      </trkpt>
      <trkpt lat="37.83152" lon="-122.18517">
        <ele>399.0</ele>
      </trkpt>
      <trkpt lat="37.83152" lon="-122.18517">
        <ele>399.0</ele>
      </trkpt>
      <trkpt lat="37.83175" lon="-122.1851">
        <ele>396.0</ele>
      </trkpt>
      <trkpt lat="37.83189" lon="-122.18497">
        <ele>394.0</ele>
      </trkpt>
      <trkpt lat="37.83193" lon="-122.18498">
        <ele>394.0</ele>
      </trkpt>
      <trkpt lat="37.83193" lon="-122.18498">
        <ele>394.0</ele>
      </trkpt>
      <trkpt lat="37.83225" lon="-122.18466">
        <ele>392.0</ele>
      </trkpt>
      <trkpt lat="37.83229000000387" lon="-122.1845799999923">
        <ele>389.0</ele>
      </trkpt>
      <trkpt lat="37.83229000000387" lon="-122.1845799999923">
        <ele>389.0</ele>
      </trkpt>
      <trkpt lat="37.83231" lon="-122.18454">
        <ele>389.0</ele>
      </trkpt>
      <trkpt lat="37.83246" lon="-122.18413">
        <ele>395.0</ele>
      </trkpt>
      <trkpt lat="37.83265522149073" lon="-122.1838300255142">
        <ele>399.0</ele>
      </trkpt>
      <trkpt lat="37.83265522177486" lon="-122.1838300255142">
        <ele>399.0</ele>
      </trkpt>
      <trkpt lat="37.83287" lon="-122.1835">
        <ele>395.0</ele>
      </trkpt>
      <trkpt lat="37.8329" lon="-122.18332">
        <ele>392.0</ele>
      </trkpt>
      <trkpt lat="37.83276" lon="-122.18264">
        <ele>396.0</ele>
      </trkpt>
      <trkpt lat="37.83276" lon="-122.18264">
        <ele>396.0</ele>
      </trkpt>
      <trkpt lat="37.83268725895741" lon="-122.1823611593367">
        <ele>399.0</ele>
      </trkpt>
      <trkpt lat="37.83268725895741" lon="-122.1823611593367">
        <ele>399.0</ele>
      </trkpt>
      <trkpt lat="37.83264" lon="-122.18218">
        <ele>401.0</ele>
      </trkpt>
      <trkpt lat="37.83247" lon="-122.18171">
        <ele>403.0</ele>
      </trkpt>
      <trkpt lat="37.83222" lon="-122.18094">
        <ele>408.0</ele>
      </trkpt>
      <trkpt lat="37.83221494188139" lon="-122.1809136977832">
        <ele>408.0</ele>
      </trkpt>
      <trkpt lat="37.83221494188294" lon="-122.1809136977833">
        <ele>408.0</ele>
      </trkpt>
      <trkpt lat="37.83217" lon="-122.18068">
        <ele>412.0</ele>
      </trkpt>
      <trkpt lat="37.83214358553387" lon="-122.1804792500574">
        <ele>412.0</ele>
      </trkpt>
      <trkpt lat="37.83214358553387" lon="-122.1804792500574">
        <ele>412.0</ele>
      </trkpt>
      <trkpt lat="37.83212" lon="-122.1803">
        <ele>414.0</ele>
      </trkpt>
      <trkpt lat="37.83203" lon="-122.17991">
        <ele>413.0</ele>
      </trkpt>
      <trkpt lat="37.83185" lon="-122.17953">
        <ele>411.0</ele>
      </trkpt>
      <trkpt lat="37.83181915591224" lon="-122.1794914448903">
        <ele>411.0</ele>
      </trkpt>
      <trkpt lat="37.83181915594026" lon="-122.1794914448903">
        <ele>411.0</ele>
      </trkpt>
      <trkpt lat="37.83168502683849" lon="-122.1793237835481">
        <ele>411.0</ele>
      </trkpt>
      <trkpt lat="37.83168502683849" lon="-122.1793237835481">
        <ele>411.0</ele>
      </trkpt>
      <trkpt lat="37.83161" lon="-122.17923">
        <ele>409.0</ele>
      </trkpt>
      <trkpt lat="37.8315803384578" lon="-122.1791994660595">
        <ele>409.0</ele>
      </trkpt>
      <trkpt lat="37.8315803384578" lon="-122.1791994660595">
        <ele>409.0</ele>
      </trkpt>
      <trkpt lat="37.83127" lon="-122.17888">
        <ele>406.0</ele>
      </trkpt>
      <trkpt lat="37.83123" lon="-122.17881">
        <ele>401.0</ele>
      </trkpt>
      <trkpt lat="37.83121791752036" lon="-122.1787767721931">
        <ele>401.0</ele>
      </trkpt>
      <trkpt lat="37.83121791752036" lon="-122.1787767721931">
        <ele>401.0</ele>
      </trkpt>
      <trkpt lat="37.83119" lon="-122.1787">
        <ele>396.0</ele>
      </trkpt>
      <trkpt lat="37.83115" lon="-122.17827">
        <ele>392.0</ele>
      </trkpt>
      <trkpt lat="37.83104" lon="-122.17785">
        <ele>390.0</ele>
      </trkpt>
      <trkpt lat="37.83090822127748" lon="-122.1774810195769">
        <ele>388.0</ele>
      </trkpt>
      <trkpt lat="37.83090822127748" lon="-122.1774810195769">
        <ele>388.0</ele>
      </trkpt>
      <trkpt lat="37.83079" lon="-122.17715">
        <ele>389.0</ele>
      </trkpt>
      <trkpt lat="37.83067" lon="-122.1769">
        <ele>386.0</ele>
      </trkpt>
      <trkpt lat="37.83059" lon="-122.17677">
        <ele>387.0</ele>
      </trkpt>
      <trkpt lat="37.83051032942203" lon="-122.1766937926651">
        <ele>387.0</ele>
      </trkpt>
      <trkpt lat="37.83051032942203" lon="-122.1766937926651">
        <ele>387.0</ele>
      </trkpt>
      <trkpt lat="37.83017912581188" lon="-122.1763769898172">
        <ele>385.0</ele>
      </trkpt>
      <trkpt lat="37.83017912592214" lon="-122.1763769898172">
        <ele>385.0</ele>
      </trkpt>
      <trkpt lat="37.83013" lon="-122.17633">
        <ele>380.0</ele>
      </trkpt>
      <trkpt lat="37.82921" lon="-122.1755">
        <ele>380.0</ele>
      </trkpt>
      <trkpt lat="37.82886" lon="-122.17524">
        <ele>382.0</ele>
      </trkpt>
      <trkpt lat="37.82874" lon="-122.17512">
        <ele>379.0</ele>
      </trkpt>
      <trkpt lat="37.82869" lon="-122.17503">
        <ele>379.0</ele>
      </trkpt>
      <trkpt lat="37.82869" lon="-122.17503">
        <ele>379.0</ele>
      </trkpt>
      <trkpt lat="37.82869" lon="-122.17503">
        <ele>379.0</ele>
      </trkpt>
      <trkpt lat="37.82856" lon="-122.17462">
        <ele>377.0</ele>
      </trkpt>
      <trkpt lat="37.82841" lon="-122.17383">
        <ele>368.0</ele>
      </trkpt>
      <trkpt lat="37.82821" lon="-122.1733">
        <ele>375.0</ele>
      </trkpt>
      <trkpt lat="37.82809" lon="-122.17309">
        <ele>376.0</ele>
      </trkpt>
      <trkpt lat="37.82801" lon="-122.17299">
        <ele>376.0</ele>
      </trkpt>
      <trkpt lat="37.82759" lon="-122.1727">
        <ele>369.0</ele>
      </trkpt>
      <trkpt lat="37.82748" lon="-122.17258">
        <ele>372.0</ele>
      </trkpt>
      <trkpt lat="37.82734" lon="-122.17231">
        <ele>367.0</ele>
      </trkpt>
      <trkpt lat="37.82734" lon="-122.17231">
        <ele>367.0</ele>
      </trkpt>
      <trkpt lat="37.82734" lon="-122.17231">
        <ele>367.0</ele>
      </trkpt>
      <trkpt lat="37.82735" lon="-122.17202">
        <ele>362.0</ele>
      </trkpt>
      <trkpt lat="37.82743013567563" lon="-122.1716460335137">
        <ele>363.0</ele>
      </trkpt>
      <trkpt lat="37.82743013568096" lon="-122.1716460335137">
        <ele>363.0</ele>
      </trkpt>
      <trkpt lat="37.82744" lon="-122.1716">
        <ele>363.0</ele>
      </trkpt>
      <trkpt lat="37.82747" lon="-122.17133">
        <ele>360.0</ele>
      </trkpt>
      <trkpt lat="37.82745" lon="-122.17114">
        <ele>358.0</ele>
      </trkpt>
      <trkpt lat="37.82732" lon="-122.1708">
        <ele>355.0</ele>
      </trkpt>
      <trkpt lat="37.82718361719962" lon="-122.1705384951796">
        <ele>357.0</ele>
      </trkpt>
      <trkpt lat="37.82718361719962" lon="-122.1705384951796">
        <ele>357.0</ele>
      </trkpt>
      <trkpt lat="37.82623" lon="-122.16871">
        <ele>337.0</ele>
      </trkpt>
      <trkpt lat="37.82585" lon="-122.16818">
        <ele>330.0</ele>
      </trkpt>
      <trkpt lat="37.82565" lon="-122.16797">
        <ele>327.0</ele>
      </trkpt>
      <trkpt lat="37.82565" lon="-122.16797">
        <ele>327.0</ele>
      </trkpt>
      <trkpt lat="37.82528" lon="-122.16757">
        <ele>330.0</ele>
      </trkpt>
      <trkpt lat="37.82516304695346" lon="-122.1674262452136">
        <ele>330.0</ele>
      </trkpt>
      <trkpt lat="37.82516304724113" lon="-122.1674262452136">
        <ele>330.0</ele>
      </trkpt>
      <trkpt lat="37.8248" lon="-122.16698">
        <ele>325.0</ele>
      </trkpt>
      <trkpt lat="37.8248" lon="-122.16698">
        <ele>325.0</ele>
      </trkpt>
      <trkpt lat="37.8248" lon="-122.16698">
        <ele>325.0</ele>
      </trkpt>
      <trkpt lat="37.82417" lon="-122.16595">
        <ele>323.0</ele>
      </trkpt>
      <trkpt lat="37.82393" lon="-122.16567">
        <ele>326.0</ele>
      </trkpt>
      <trkpt lat="37.82372" lon="-122.16557">
        <ele>329.0</ele>
      </trkpt>
      <trkpt lat="37.8228" lon="-122.16527">
        <ele>340.0</ele>
      </trkpt>
      <trkpt lat="37.8228" lon="-122.16527">
        <ele>340.0</ele>
      </trkpt>
      <trkpt lat="37.82253" lon="-122.16518">
        <ele>337.0</ele>
      </trkpt>
      <trkpt lat="37.82245" lon="-122.16513">
        <ele>341.0</ele>
      </trkpt>
      <trkpt lat="37.82233" lon="-122.16501">
        <ele>338.0</ele>
      </trkpt>
      <trkpt lat="37.82211" lon="-122.16471">
        <ele>340.0</ele>
      </trkpt>
      <trkpt lat="37.82154" lon="-122.16381">
        <ele>338.0</ele>
      </trkpt>
      <trkpt lat="37.82127" lon="-122.16308">
        <ele>335.0</ele>
      </trkpt>
      <trkpt lat="37.82111" lon="-122.16273">
        <ele>335.0</ele>
      </trkpt>
      <trkpt lat="37.82009" lon="-122.16122">
        <ele>334.0</ele>
      </trkpt>
      <trkpt lat="37.81968071703994" lon="-122.1604250465583">
        <ele>337.0</ele>
      </trkpt>
      <trkpt lat="37.81968071734688" lon="-122.1604250465584">
        <ele>337.0</ele>
      </trkpt>
      <trkpt lat="37.81957" lon="-122.16021">
        <ele>338.0</ele>
      </trkpt>
      <trkpt lat="37.81869" lon="-122.15893">
        <ele>342.0</ele>
      </trkpt>
      <trkpt lat="37.81832" lon="-122.15824">
        <ele>337.0</ele>
      </trkpt>
      <trkpt lat="37.81804" lon="-122.15756">
        <ele>334.0</ele>
      </trkpt>
      <trkpt lat="37.81766" lon="-122.15685">
        <ele>336.0</ele>
      </trkpt>
      <trkpt lat="37.81739" lon="-122.15652">
        <ele>333.0</ele>
      </trkpt>
      <trkpt lat="37.81684" lon="-122.15607">
        <ele>335.0</ele>
      </trkpt>
      <trkpt lat="37.81667" lon="-122.15588">
        <ele>337.0</ele>
      </trkpt>
      <trkpt lat="37.81646" lon="-122.1556">
        <ele>336.0</ele>
      </trkpt>
      <trkpt lat="37.81634" lon="-122.15532">
        <ele>335.0</ele>
      </trkpt>
      <trkpt lat="37.81622" lon="-122.15471">
        <ele>326.0</ele>
      </trkpt>
      <trkpt lat="37.81602" lon="-122.15425">
        <ele>325.0</ele>
      </trkpt>
      <trkpt lat="37.81569" lon="-122.15376">
        <ele>323.0</ele>
      </trkpt>
      <trkpt lat="37.81526" lon="-122.15327">
        <ele>328.0</ele>
      </trkpt>
      <trkpt lat="37.81503" lon="-122.15292">
        <ele>328.0</ele>
      </trkpt>
      <trkpt lat="37.81498" lon="-122.1527">
        <ele>329.0</ele>
      </trkpt>
      <trkpt lat="37.81500205553791" lon="-122.1525345834656">
        <ele>328.0</ele>
      </trkpt>
      <trkpt lat="37.81500205554057" lon="-122.1525345834656">
        <ele>328.0</ele>
      </trkpt>
      <trkpt lat="37.81502" lon="-122.1524">
        <ele>328.0</ele>
      </trkpt>
      <trkpt lat="37.81511" lon="-122.15211">
        <ele>323.0</ele>
      </trkpt>
      <trkpt lat="37.8153" lon="-122.15166">
        <ele>319.0</ele>
      </trkpt>
      <trkpt lat="37.81533" lon="-122.15152">
        <ele>318.0</ele>
      </trkpt>
      <trkpt lat="37.81535" lon="-122.1512">
        <ele>317.0</ele>
      </trkpt>
      <trkpt lat="37.81532" lon="-122.15107">
        <ele>317.0</ele>
      </trkpt>
      <trkpt lat="37.81507" lon="-122.15045">
        <ele>310.0</ele>
      </trkpt>
      <trkpt lat="37.81482" lon="-122.14952">
        <ele>312.0</ele>
      </trkpt>
      <trkpt lat="37.81468" lon="-122.14922">
        <ele>311.0</ele>
      </trkpt>
      <trkpt lat="37.81453" lon="-122.14899">
        <ele>313.0</ele>
      </trkpt>
      <trkpt lat="37.81443248695337" lon="-122.1488570276637">
        <ele>313.0</ele>
      </trkpt>
      <trkpt lat="37.81443248695337" lon="-122.1488570276637">
        <ele>313.0</ele>
      </trkpt>
      <trkpt lat="37.81409" lon="-122.14839">
        <ele>314.0</ele>
      </trkpt>
      <trkpt lat="37.81372" lon="-122.14782">
        <ele>316.0</ele>
      </trkpt>
      <trkpt lat="37.81317" lon="-122.14716">
        <ele>304.0</ele>
      </trkpt>
      <trkpt lat="37.81281" lon="-122.14663">
        <ele>294.0</ele>
      </trkpt>
      <trkpt lat="37.81269" lon="-122.14652">
        <ele>296.0</ele>
      </trkpt>
      <trkpt lat="37.81232" lon="-122.14635">
        <ele>296.0</ele>
      </trkpt>
      <trkpt lat="37.81205" lon="-122.14617">
        <ele>302.0</ele>
      </trkpt>
      <trkpt lat="37.81185" lon="-122.146">
        <ele>302.0</ele>
      </trkpt>
      <trkpt lat="37.81185" lon="-122.146">
        <ele>302.0</ele>
      </trkpt>
      <trkpt lat="37.81159" lon="-122.14572">
        <ele>303.0</ele>
      </trkpt>
      <trkpt lat="37.81114" lon="-122.14535">
        <ele>295.0</ele>
      </trkpt>
      <trkpt lat="37.81099" lon="-122.14519">
        <ele>295.0</ele>
      </trkpt>
      <trkpt lat="37.81080994988808" lon="-122.1449449826473">
        <ele>289.0</ele>
      </trkpt>
      <trkpt lat="37.81038469327891" lon="-122.1443662836373">
        <ele>284.0</ele>
      </trkpt>
      <trkpt lat="37.81039" lon="-122.14436">
        <ele>284.0</ele>
      </trkpt>
      <trkpt lat="37.81006" lon="-122.14426">
        <ele>278.0</ele>
      </trkpt>
      <trkpt lat="37.80959" lon="-122.14407">
        <ele>272.0</ele>
      </trkpt>
      <trkpt lat="37.8093" lon="-122.144">
        <ele>280.0</ele>
      </trkpt>
      <trkpt lat="37.80921" lon="-122.14401">
        <ele>280.0</ele>
      </trkpt>
      <trkpt lat="37.80916" lon="-122.14409">
        <ele>272.0</ele>
      </trkpt>
      <trkpt lat="37.80917" lon="-122.14419">
        <ele>272.0</ele>
      </trkpt>
      <trkpt lat="37.8093" lon="-122.14455">
        <ele>269.0</ele>
      </trkpt>
      <trkpt lat="37.80934" lon="-122.14479">
        <ele>262.0</ele>
      </trkpt>
      <trkpt lat="37.8093" lon="-122.1451">
        <ele>265.0</ele>
      </trkpt>
      <trkpt lat="37.80921" lon="-122.14529">
        <ele>264.0</ele>
      </trkpt>
      <trkpt lat="37.80901" lon="-122.1455">
        <ele>261.0</ele>
      </trkpt>
      <trkpt lat="37.80893" lon="-122.14569">
        <ele>261.0</ele>
      </trkpt>
      <trkpt lat="37.80890049331682" lon="-122.1458206724541">
        <ele>254.0</ele>
      </trkpt>
      <trkpt lat="37.80890049332491" lon="-122.1458206724541">
        <ele>254.0</ele>
      </trkpt>
      <trkpt lat="37.80886" lon="-122.146">
        <ele>249.0</ele>
      </trkpt>
      <trkpt lat="37.80886" lon="-122.146">
        <ele>249.0</ele>
      </trkpt>
      <trkpt lat="37.80875" lon="-122.14644">
        <ele>246.0</ele>
      </trkpt>
      <trkpt lat="37.80851" lon="-122.14719">
        <ele>226.0</ele>
      </trkpt>
      <trkpt lat="37.80837" lon="-122.14743">
        <ele>218.0</ele>
      </trkpt>
      <trkpt lat="37.8083" lon="-122.14749">
        <ele>218.0</ele>
      </trkpt>
      <trkpt lat="37.80798" lon="-122.14764">
        <ele>203.0</ele>
      </trkpt>
      <trkpt lat="37.80762" lon="-122.14799">
        <ele>186.0</ele>
      </trkpt>
      <trkpt lat="37.80762" lon="-122.14799">
        <ele>186.0</ele>
      </trkpt>
      <trkpt lat="37.80762" lon="-122.14799">
        <ele>186.0</ele>
      </trkpt>
      <trkpt lat="37.80742" lon="-122.14807">
        <ele>186.0</ele>
      </trkpt>
      <trkpt lat="37.8072745039135" lon="-122.1480950855322">
        <ele>183.0</ele>
      </trkpt>
      <trkpt lat="37.80727450405588" lon="-122.1480950855322">
        <ele>183.0</ele>
      </trkpt>
      <trkpt lat="37.80713" lon="-122.14812">
        <ele>183.0</ele>
      </trkpt>
      <trkpt lat="37.8069" lon="-122.14801">
        <ele>185.0</ele>
      </trkpt>
      <trkpt lat="37.80685941201335" lon="-122.1480061344775">
        <ele>185.0</ele>
      </trkpt>
      <trkpt lat="37.80685941201335" lon="-122.1480061344775">
        <ele>185.0</ele>
      </trkpt>
      <trkpt lat="37.80674459998068" lon="-122.1479951999981">
        <ele>186.0</ele>
      </trkpt>
      <trkpt lat="37.80674460002313" lon="-122.1479951999981">
        <ele>186.0</ele>
      </trkpt>
      <trkpt lat="37.80669" lon="-122.14799">
        <ele>186.0</ele>
      </trkpt>
      <trkpt lat="37.80669" lon="-122.14799">
        <ele>186.0</ele>
      </trkpt>
      <trkpt lat="37.80664" lon="-122.14801">
        <ele>186.0</ele>
      </trkpt>
      <trkpt lat="37.80659831411874" lon="-122.1480516858813">
        <ele>186.0</ele>
      </trkpt>
      <trkpt lat="37.80659831412392" lon="-122.1480516858813">
        <ele>186.0</ele>
      </trkpt>
      <trkpt lat="37.80658" lon="-122.14807">
        <ele>186.0</ele>
      </trkpt>
      <trkpt lat="37.80657558620133" lon="-122.1480714942281">
        <ele>186.0</ele>
      </trkpt>
      <trkpt lat="37.80656376219622" lon="-122.1480189430943">
        <ele>186.0</ele>
      </trkpt>
      <trkpt lat="37.80648235233963" lon="-122.1479004621506">
        <ele>191.0</ele>
      </trkpt>
      <trkpt lat="37.80647811398974" lon="-122.1478414535523">
        <ele>191.0</ele>
      </trkpt>
      <trkpt lat="37.80648189145764" lon="-122.1478396381466">
        <ele>191.0</ele>
      </trkpt>
      <trkpt lat="37.80644" lon="-122.1477">
        <ele>191.0</ele>
      </trkpt>
      <trkpt lat="37.80621" lon="-122.14733">
        <ele>189.0</ele>
      </trkpt>
      <trkpt lat="37.80575898417487" lon="-122.146940138863">
        <ele>184.0</ele>
      </trkpt>
      <trkpt lat="37.80575898459926" lon="-122.146940138863">
        <ele>184.0</ele>
      </trkpt>
      <trkpt lat="37.80562" lon="-122.14682">
        <ele>182.0</ele>
      </trkpt>
      <trkpt lat="37.80562" lon="-122.14682">
        <ele>182.0</ele>
      </trkpt>
      <trkpt lat="37.80556" lon="-122.14684">
        <ele>182.0</ele>
      </trkpt>
      <trkpt lat="37.80551" lon="-122.14681">
        <ele>182.0</ele>
      </trkpt>
      <trkpt lat="37.80547" lon="-122.14673">
        <ele>183.0</ele>
      </trkpt>
      <trkpt lat="37.80547741971291" lon="-122.146689191579">
        <ele>183.0</ele>
      </trkpt>
      <trkpt lat="37.80548" lon="-122.14669">
        <ele>183.0</ele>
      </trkpt>
      <trkpt lat="37.80544" lon="-122.14667">
        <ele>183.0</ele>
      </trkpt>
      <trkpt lat="37.80544" lon="-122.14667">
        <ele>183.0</ele>
      </trkpt>
      <trkpt lat="37.80514530014805" lon="-122.1465403320651">
        <ele>183.0</ele>
      </trkpt>
      <trkpt lat="37.80514530055766" lon="-122.1465403320651">
        <ele>183.0</ele>
      </trkpt>
      <trkpt lat="37.80494" lon="-122.14645">
        <ele>182.0</ele>
      </trkpt>
      <trkpt lat="37.80494" lon="-122.14645">
        <ele>182.0</ele>
      </trkpt>
      <trkpt lat="37.80485" lon="-122.14655">
        <ele>186.0</ele>
      </trkpt>
      <trkpt lat="37.80469" lon="-122.14651">
        <ele>183.0</ele>
      </trkpt>
      <trkpt lat="37.80465285274533" lon="-122.1464904488134">
        <ele>183.0</ele>
      </trkpt>
      <trkpt lat="37.80431228536855" lon="-122.1463233232498">
        <ele>182.0</ele>
      </trkpt>
      <trkpt lat="37.80431568057258" lon="-122.1463129897675">
        <ele>182.0</ele>
      </trkpt>
      <trkpt lat="37.80431" lon="-122.14631">
        <ele>182.0</ele>
      </trkpt>
      <trkpt lat="37.80398" lon="-122.14604">
        <ele>183.0</ele>
      </trkpt>
      <trkpt lat="37.80396" lon="-122.146">
        <ele>183.0</ele>
      </trkpt>
      <trkpt lat="37.80396" lon="-122.146">
        <ele>183.0</ele>
      </trkpt>
      <trkpt lat="37.80389" lon="-122.14586">
        <ele>182.0</ele>
      </trkpt>
      <trkpt lat="37.80389" lon="-122.14586">
        <ele>182.0</ele>
      </trkpt>
      <trkpt lat="37.80382" lon="-122.14571">
        <ele>182.0</ele>
      </trkpt>
      <trkpt lat="37.80382586199727" lon="-122.1456748284395">
        <ele>182.0</ele>
      </trkpt>
      <trkpt lat="37.80383" lon="-122.14568">
        <ele>182.0</ele>
      </trkpt>
      <trkpt lat="37.80375" lon="-122.14558">
        <ele>185.0</ele>
      </trkpt>
      <trkpt lat="37.80364773843761" lon="-122.1455416519141">
        <ele>185.0</ele>
      </trkpt>
      <trkpt lat="37.80364773869913" lon="-122.1455416519141">
        <ele>185.0</ele>
      </trkpt>
      <trkpt lat="37.80329388322173" lon="-122.1454089562081">
        <ele>190.0</ele>
      </trkpt>
      <trkpt lat="37.8032908059924" lon="-122.1454221010208">
        <ele>187.0</ele>
      </trkpt>
    </trkseg>
  </trk>
</gpx>
