<?xml version="1.0" encoding="UTF-8"?>
<gpx xmlns:xsi="http://www.w3.org/2001/XMLSchema-instance" version="1.1" creator="The Outbound Collective, Inc. 1.1.1 -- https://www.theoutbound.com" xsi:schemaLocation="http://www.topografix.com/GPX/1/1 http://www.topografix.com/GPX/1/1/gpx.xsd">
  <metadata>
    <name/>
    <time>2026-02-19T21:47:21+00:00</time>
    <bound minlat="37.35734" minlon="-122.24734" maxlat="37.37526440597718" maxlon="-122.2184"/>
  </metadata>
  <trk>
    <name/>
    <trkseg>
      <trkpt lat="37.37526440597718" lon="-122.2234797477722">
        <ele>175.0</ele>
      </trkpt>
      <trkpt lat="37.37525182507175" lon="-122.2234708935945">
        <ele>175.0</ele>
      </trkpt>
      <trkpt lat="37.37523" lon="-122.22352">
        <ele>175.0</ele>
      </trkpt>
      <trkpt lat="37.37522" lon="-122.22365">
        <ele>175.0</ele>
      </trkpt>
      <trkpt lat="37.37506323311311" lon="-122.223702255629">
        <ele>178.0</ele>
      </trkpt>
      <trkpt lat="37.37506323311311" lon="-122.223702255629">
        <ele>178.0</ele>
      </trkpt>
      <trkpt lat="37.37501" lon="-122.22372">
        <ele>178.0</ele>
      </trkpt>
      <trkpt lat="37.3749142465489" lon="-122.2238636301767">
        <ele>179.0</ele>
      </trkpt>
      <trkpt lat="37.37491424661543" lon="-122.2238636301767">
        <ele>179.0</ele>
      </trkpt>
      <trkpt lat="37.37481" lon="-122.22402">
        <ele>181.0</ele>
      </trkpt>
      <trkpt lat="37.37465" lon="-122.22408">
        <ele>182.0</ele>
      </trkpt>
      <trkpt lat="37.37449" lon="-122.22417">
        <ele>183.0</ele>
      </trkpt>
      <trkpt lat="37.37449" lon="-122.22417">
        <ele>183.0</ele>
      </trkpt>
      <trkpt lat="37.37449" lon="-122.22417">
        <ele>183.0</ele>
      </trkpt>
      <trkpt lat="37.37397" lon="-122.22384">
        <ele>182.0</ele>
      </trkpt>
      <trkpt lat="37.37367" lon="-122.2236">
        <ele>180.0</ele>
      </trkpt>
      <trkpt lat="37.37359478390001" lon="-122.2235308357701">
        <ele>180.0</ele>
      </trkpt>
      <trkpt lat="37.37359478429848" lon="-122.2235308357701">
        <ele>180.0</ele>
      </trkpt>
      <trkpt lat="37.3728" lon="-122.2228">
        <ele>176.0</ele>
      </trkpt>
      <trkpt lat="37.37257" lon="-122.22267">
        <ele>179.0</ele>
      </trkpt>
      <trkpt lat="37.37223" lon="-122.22256">
        <ele>186.0</ele>
      </trkpt>
      <trkpt lat="37.37177" lon="-122.22233">
        <ele>194.0</ele>
      </trkpt>
      <trkpt lat="37.37156" lon="-122.22219">
        <ele>194.0</ele>
      </trkpt>
      <trkpt lat="37.37118" lon="-122.22211">
        <ele>198.0</ele>
      </trkpt>
      <trkpt lat="37.37086" lon="-122.2219">
        <ele>196.0</ele>
      </trkpt>
      <trkpt lat="37.37070408183969" lon="-122.2218436962199">
        <ele>196.0</ele>
      </trkpt>
      <trkpt lat="37.37070408205174" lon="-122.2218436962199">
        <ele>196.0</ele>
      </trkpt>
      <trkpt lat="37.3705" lon="-122.22177">
        <ele>199.0</ele>
      </trkpt>
      <trkpt lat="37.3702" lon="-122.22174">
        <ele>201.0</ele>
      </trkpt>
      <trkpt lat="37.37016" lon="-122.22171">
        <ele>201.0</ele>
      </trkpt>
      <trkpt lat="37.37016" lon="-122.22171">
        <ele>201.0</ele>
      </trkpt>
      <trkpt lat="37.37005" lon="-122.22165">
        <ele>204.0</ele>
      </trkpt>
      <trkpt lat="37.36986" lon="-122.22138">
        <ele>211.0</ele>
      </trkpt>
      <trkpt lat="37.36954" lon="-122.22116">
        <ele>214.0</ele>
      </trkpt>
      <trkpt lat="37.36926" lon="-122.22103">
        <ele>213.0</ele>
      </trkpt>
      <trkpt lat="37.36863" lon="-122.22097">
        <ele>219.0</ele>
      </trkpt>
      <trkpt lat="37.36846360766061" lon="-122.2208901316771">
        <ele>222.0</ele>
      </trkpt>
      <trkpt lat="37.36846360775331" lon="-122.2208901316771">
        <ele>222.0</ele>
      </trkpt>
      <trkpt lat="37.36838" lon="-122.22085">
        <ele>222.0</ele>
      </trkpt>
      <trkpt lat="37.36809" lon="-122.2205">
        <ele>220.0</ele>
      </trkpt>
      <trkpt lat="37.36792343083368" lon="-122.2203572264289">
        <ele>217.0</ele>
      </trkpt>
      <trkpt lat="37.36792343088187" lon="-122.2203572264289">
        <ele>217.0</ele>
      </trkpt>
      <trkpt lat="37.36788" lon="-122.22032">
        <ele>217.0</ele>
      </trkpt>
      <trkpt lat="37.36775" lon="-122.22025">
        <ele>217.0</ele>
      </trkpt>
      <trkpt lat="37.36775" lon="-122.22025">
        <ele>217.0</ele>
      </trkpt>
      <trkpt lat="37.36775" lon="-122.22025">
        <ele>217.0</ele>
      </trkpt>
      <trkpt lat="37.36768" lon="-122.22024">
        <ele>217.0</ele>
      </trkpt>
      <trkpt lat="37.36768" lon="-122.22024">
        <ele>217.0</ele>
      </trkpt>
      <trkpt lat="37.3674" lon="-122.21996">
        <ele>217.0</ele>
      </trkpt>
      <trkpt lat="37.36713" lon="-122.21935">
        <ele>215.0</ele>
      </trkpt>
      <trkpt lat="37.36698419943495" lon="-122.2191453670495">
        <ele>222.0</ele>
      </trkpt>
      <trkpt lat="37.36656" lon="-122.21855">
        <ele>220.0</ele>
      </trkpt>
      <trkpt lat="37.36618" lon="-122.2184">
        <ele>215.0</ele>
      </trkpt>
      <trkpt lat="37.36611" lon="-122.21842">
        <ele>215.0</ele>
      </trkpt>
      <trkpt lat="37.36611" lon="-122.21842">
        <ele>215.0</ele>
      </trkpt>
      <trkpt lat="37.36599969170427" lon="-122.2184751541479">
        <ele>216.0</ele>
      </trkpt>
      <trkpt lat="37.36599969172611" lon="-122.2184751541479">
        <ele>216.0</ele>
      </trkpt>
      <trkpt lat="37.36597" lon="-122.21849">
        <ele>207.0</ele>
      </trkpt>
      <trkpt lat="37.36592" lon="-122.21867">
        <ele>207.0</ele>
      </trkpt>
      <trkpt lat="37.36592" lon="-122.21867">
        <ele>207.0</ele>
      </trkpt>
      <trkpt lat="37.36592" lon="-122.21867">
        <ele>207.0</ele>
      </trkpt>
      <trkpt lat="37.36582" lon="-122.21929">
        <ele>215.0</ele>
      </trkpt>
      <trkpt lat="37.36582" lon="-122.21929">
        <ele>215.0</ele>
      </trkpt>
      <trkpt lat="37.36559" lon="-122.21955">
        <ele>214.0</ele>
      </trkpt>
      <trkpt lat="37.36543" lon="-122.21985">
        <ele>218.0</ele>
      </trkpt>
      <trkpt lat="37.36513" lon="-122.22015">
        <ele>215.0</ele>
      </trkpt>
      <trkpt lat="37.36487" lon="-122.22067">
        <ele>219.0</ele>
      </trkpt>
      <trkpt lat="37.36466" lon="-122.22081">
        <ele>217.0</ele>
      </trkpt>
      <trkpt lat="37.36463913291753" lon="-122.2208527278355">
        <ele>217.0</ele>
      </trkpt>
      <trkpt lat="37.36463913294381" lon="-122.2208527278355">
        <ele>217.0</ele>
      </trkpt>
      <trkpt lat="37.36445" lon="-122.22124">
        <ele>217.0</ele>
      </trkpt>
      <trkpt lat="37.36379" lon="-122.22203">
        <ele>225.0</ele>
      </trkpt>
      <trkpt lat="37.36359" lon="-122.2221">
        <ele>225.0</ele>
      </trkpt>
      <trkpt lat="37.36355" lon="-122.22205">
        <ele>223.0</ele>
      </trkpt>
      <trkpt lat="37.36357" lon="-122.22176">
        <ele>221.0</ele>
      </trkpt>
      <trkpt lat="37.36348" lon="-122.22176">
        <ele>221.0</ele>
      </trkpt>
      <trkpt lat="37.36324" lon="-122.22199">
        <ele>224.0</ele>
      </trkpt>
      <trkpt lat="37.36321" lon="-122.22207">
        <ele>224.0</ele>
      </trkpt>
      <trkpt lat="37.36325" lon="-122.22217">
        <ele>228.0</ele>
      </trkpt>
      <trkpt lat="37.36315" lon="-122.22314">
        <ele>234.0</ele>
      </trkpt>
      <trkpt lat="37.36315" lon="-122.22314">
        <ele>234.0</ele>
      </trkpt>
      <trkpt lat="37.36318" lon="-122.22366">
        <ele>240.0</ele>
      </trkpt>
      <trkpt lat="37.36334" lon="-122.22407">
        <ele>246.0</ele>
      </trkpt>
      <trkpt lat="37.36339" lon="-122.22438">
        <ele>251.0</ele>
      </trkpt>
      <trkpt lat="37.3634075552435" lon="-122.2244326657305">
        <ele>251.0</ele>
      </trkpt>
      <trkpt lat="37.36340755524381" lon="-122.2244326657305">
        <ele>251.0</ele>
      </trkpt>
      <trkpt lat="37.36341" lon="-122.22444">
        <ele>251.0</ele>
      </trkpt>
      <trkpt lat="37.36357" lon="-122.22454">
        <ele>250.0</ele>
      </trkpt>
      <trkpt lat="37.36363" lon="-122.22461">
        <ele>255.0</ele>
      </trkpt>
      <trkpt lat="37.36368" lon="-122.22474">
        <ele>255.0</ele>
      </trkpt>
      <trkpt lat="37.36369" lon="-122.225">
        <ele>262.0</ele>
      </trkpt>
      <trkpt lat="37.36375" lon="-122.22521">
        <ele>267.0</ele>
      </trkpt>
      <trkpt lat="37.36371" lon="-122.22557">
        <ele>273.0</ele>
      </trkpt>
      <trkpt lat="37.3638" lon="-122.22611">
        <ele>270.0</ele>
      </trkpt>
      <trkpt lat="37.36384" lon="-122.22649">
        <ele>273.0</ele>
      </trkpt>
      <trkpt lat="37.36393" lon="-122.22673">
        <ele>277.0</ele>
      </trkpt>
      <trkpt lat="37.36399" lon="-122.22718">
        <ele>286.0</ele>
      </trkpt>
      <trkpt lat="37.36409" lon="-122.22744">
        <ele>284.0</ele>
      </trkpt>
      <trkpt lat="37.36413" lon="-122.22772">
        <ele>286.0</ele>
      </trkpt>
      <trkpt lat="37.364" lon="-122.22803">
        <ele>300.0</ele>
      </trkpt>
      <trkpt lat="37.36406" lon="-122.22822">
        <ele>290.0</ele>
      </trkpt>
      <trkpt lat="37.36403" lon="-122.22849">
        <ele>291.0</ele>
      </trkpt>
      <trkpt lat="37.36405" lon="-122.22857">
        <ele>291.0</ele>
      </trkpt>
      <trkpt lat="37.36419" lon="-122.22872">
        <ele>291.0</ele>
      </trkpt>
      <trkpt lat="37.36423" lon="-122.22885">
        <ele>292.0</ele>
      </trkpt>
      <trkpt lat="37.36421" lon="-122.2289">
        <ele>292.0</ele>
      </trkpt>
      <trkpt lat="37.36414" lon="-122.2289">
        <ele>292.0</ele>
      </trkpt>
      <trkpt lat="37.36405" lon="-122.22878">
        <ele>292.0</ele>
      </trkpt>
      <trkpt lat="37.36396" lon="-122.22874">
        <ele>304.0</ele>
      </trkpt>
      <trkpt lat="37.3639" lon="-122.22877">
        <ele>303.0</ele>
      </trkpt>
      <trkpt lat="37.36387" lon="-122.22884">
        <ele>303.0</ele>
      </trkpt>
      <trkpt lat="37.36392" lon="-122.22899">
        <ele>303.0</ele>
      </trkpt>
      <trkpt lat="37.36401" lon="-122.2292">
        <ele>305.0</ele>
      </trkpt>
      <trkpt lat="37.36414" lon="-122.22938">
        <ele>295.0</ele>
      </trkpt>
      <trkpt lat="37.36412" lon="-122.22962">
        <ele>296.0</ele>
      </trkpt>
      <trkpt lat="37.36403" lon="-122.22982">
        <ele>296.0</ele>
      </trkpt>
      <trkpt lat="37.36387" lon="-122.23009">
        <ele>304.0</ele>
      </trkpt>
      <trkpt lat="37.3638" lon="-122.23018">
        <ele>301.0</ele>
      </trkpt>
      <trkpt lat="37.36371" lon="-122.23025">
        <ele>307.0</ele>
      </trkpt>
      <trkpt lat="37.36356" lon="-122.23026">
        <ele>307.0</ele>
      </trkpt>
      <trkpt lat="37.3633" lon="-122.2301">
        <ele>314.0</ele>
      </trkpt>
      <trkpt lat="37.36307" lon="-122.23012">
        <ele>319.0</ele>
      </trkpt>
      <trkpt lat="37.36259" lon="-122.22993">
        <ele>328.0</ele>
      </trkpt>
      <trkpt lat="37.36246" lon="-122.22994">
        <ele>328.0</ele>
      </trkpt>
      <trkpt lat="37.36224" lon="-122.23003">
        <ele>328.0</ele>
      </trkpt>
      <trkpt lat="37.36215" lon="-122.23002">
        <ele>328.0</ele>
      </trkpt>
      <trkpt lat="37.36216" lon="-122.22987">
        <ele>328.0</ele>
      </trkpt>
      <trkpt lat="37.36225" lon="-122.22972">
        <ele>335.0</ele>
      </trkpt>
      <trkpt lat="37.3626" lon="-122.22945">
        <ele>339.0</ele>
      </trkpt>
      <trkpt lat="37.36274" lon="-122.22922">
        <ele>333.0</ele>
      </trkpt>
      <trkpt lat="37.36274" lon="-122.22918">
        <ele>333.0</ele>
      </trkpt>
      <trkpt lat="37.36271" lon="-122.22919">
        <ele>333.0</ele>
      </trkpt>
      <trkpt lat="37.36248" lon="-122.22938">
        <ele>339.0</ele>
      </trkpt>
      <trkpt lat="37.36241" lon="-122.22941">
        <ele>339.0</ele>
      </trkpt>
      <trkpt lat="37.36235" lon="-122.22939">
        <ele>341.0</ele>
      </trkpt>
      <trkpt lat="37.36245" lon="-122.22934">
        <ele>339.0</ele>
      </trkpt>
      <trkpt lat="37.3626" lon="-122.22916">
        <ele>342.0</ele>
      </trkpt>
      <trkpt lat="37.36271" lon="-122.22886">
        <ele>332.0</ele>
      </trkpt>
      <trkpt lat="37.36271" lon="-122.22835">
        <ele>333.0</ele>
      </trkpt>
      <trkpt lat="37.36268" lon="-122.22825">
        <ele>333.0</ele>
      </trkpt>
      <trkpt lat="37.36265" lon="-122.22824">
        <ele>333.0</ele>
      </trkpt>
      <trkpt lat="37.36259" lon="-122.2283">
        <ele>337.0</ele>
      </trkpt>
      <trkpt lat="37.36256" lon="-122.22871">
        <ele>339.0</ele>
      </trkpt>
      <trkpt lat="37.36232" lon="-122.22902">
        <ele>345.0</ele>
      </trkpt>
      <trkpt lat="37.36227" lon="-122.22905">
        <ele>346.0</ele>
      </trkpt>
      <trkpt lat="37.36215" lon="-122.22905">
        <ele>346.0</ele>
      </trkpt>
      <trkpt lat="37.36204" lon="-122.22908">
        <ele>349.0</ele>
      </trkpt>
      <trkpt lat="37.36189" lon="-122.22916">
        <ele>349.0</ele>
      </trkpt>
      <trkpt lat="37.3617420383363" lon="-122.229281059543">
        <ele>346.0</ele>
      </trkpt>
      <trkpt lat="37.36174203862421" lon="-122.229281059543">
        <ele>346.0</ele>
      </trkpt>
      <trkpt lat="37.36145" lon="-122.22952">
        <ele>346.0</ele>
      </trkpt>
      <trkpt lat="37.36136" lon="-122.22956">
        <ele>346.0</ele>
      </trkpt>
      <trkpt lat="37.36121" lon="-122.22973">
        <ele>348.0</ele>
      </trkpt>
      <trkpt lat="37.36091" lon="-122.22989">
        <ele>354.0</ele>
      </trkpt>
      <trkpt lat="37.36067" lon="-122.23023">
        <ele>347.0</ele>
      </trkpt>
      <trkpt lat="37.36059" lon="-122.2304">
        <ele>347.0</ele>
      </trkpt>
      <trkpt lat="37.36058" lon="-122.23054">
        <ele>354.0</ele>
      </trkpt>
      <trkpt lat="37.36061" lon="-122.23066">
        <ele>354.0</ele>
      </trkpt>
      <trkpt lat="37.36066" lon="-122.23118">
        <ele>362.0</ele>
      </trkpt>
      <trkpt lat="37.36068" lon="-122.23127">
        <ele>365.0</ele>
      </trkpt>
      <trkpt lat="37.36063" lon="-122.23126">
        <ele>365.0</ele>
      </trkpt>
      <trkpt lat="37.36052" lon="-122.2311">
        <ele>362.0</ele>
      </trkpt>
      <trkpt lat="37.36042" lon="-122.23108">
        <ele>362.0</ele>
      </trkpt>
      <trkpt lat="37.36028" lon="-122.23118">
        <ele>358.0</ele>
      </trkpt>
      <trkpt lat="37.36018" lon="-122.23137">
        <ele>365.0</ele>
      </trkpt>
      <trkpt lat="37.36018" lon="-122.23141">
        <ele>365.0</ele>
      </trkpt>
      <trkpt lat="37.36021" lon="-122.2314">
        <ele>365.0</ele>
      </trkpt>
      <trkpt lat="37.36024" lon="-122.23132">
        <ele>365.0</ele>
      </trkpt>
      <trkpt lat="37.36039" lon="-122.23124">
        <ele>358.0</ele>
      </trkpt>
      <trkpt lat="37.36048" lon="-122.23132">
        <ele>365.0</ele>
      </trkpt>
      <trkpt lat="37.36066" lon="-122.23159">
        <ele>370.0</ele>
      </trkpt>
      <trkpt lat="37.36071" lon="-122.23205">
        <ele>370.0</ele>
      </trkpt>
      <trkpt lat="37.36066" lon="-122.23215">
        <ele>382.0</ele>
      </trkpt>
      <trkpt lat="37.36066" lon="-122.23226">
        <ele>382.0</ele>
      </trkpt>
      <trkpt lat="37.36068" lon="-122.23236">
        <ele>382.0</ele>
      </trkpt>
      <trkpt lat="37.36082" lon="-122.23253">
        <ele>381.0</ele>
      </trkpt>
      <trkpt lat="37.36082" lon="-122.2326">
        <ele>381.0</ele>
      </trkpt>
      <trkpt lat="37.36096" lon="-122.23288">
        <ele>386.0</ele>
      </trkpt>
      <trkpt lat="37.36093" lon="-122.233">
        <ele>390.0</ele>
      </trkpt>
      <trkpt lat="37.36077" lon="-122.23314">
        <ele>390.0</ele>
      </trkpt>
      <trkpt lat="37.36069" lon="-122.23311">
        <ele>396.0</ele>
      </trkpt>
      <trkpt lat="37.36058" lon="-122.23302">
        <ele>396.0</ele>
      </trkpt>
      <trkpt lat="37.36051" lon="-122.23301">
        <ele>396.0</ele>
      </trkpt>
      <trkpt lat="37.36068" lon="-122.23334">
        <ele>400.0</ele>
      </trkpt>
      <trkpt lat="37.36066" lon="-122.23338">
        <ele>400.0</ele>
      </trkpt>
      <trkpt lat="37.36059" lon="-122.2333">
        <ele>400.0</ele>
      </trkpt>
      <trkpt lat="37.36048" lon="-122.23331">
        <ele>400.0</ele>
      </trkpt>
      <trkpt lat="37.36043" lon="-122.23327">
        <ele>400.0</ele>
      </trkpt>
      <trkpt lat="37.36029" lon="-122.23324">
        <ele>403.0</ele>
      </trkpt>
      <trkpt lat="37.3603" lon="-122.23328">
        <ele>403.0</ele>
      </trkpt>
      <trkpt lat="37.36039" lon="-122.23333">
        <ele>403.0</ele>
      </trkpt>
      <trkpt lat="37.36056" lon="-122.23354">
        <ele>405.0</ele>
      </trkpt>
      <trkpt lat="37.36039" lon="-122.23343">
        <ele>403.0</ele>
      </trkpt>
      <trkpt lat="37.3603" lon="-122.23343">
        <ele>403.0</ele>
      </trkpt>
      <trkpt lat="37.36027" lon="-122.23343">
        <ele>403.0</ele>
      </trkpt>
      <trkpt lat="37.36027" lon="-122.23347">
        <ele>403.0</ele>
      </trkpt>
      <trkpt lat="37.36043" lon="-122.23353">
        <ele>405.0</ele>
      </trkpt>
      <trkpt lat="37.36049" lon="-122.23361">
        <ele>405.0</ele>
      </trkpt>
      <trkpt lat="37.36021" lon="-122.23358">
        <ele>406.0</ele>
      </trkpt>
      <trkpt lat="37.3602" lon="-122.23362">
        <ele>406.0</ele>
      </trkpt>
      <trkpt lat="37.36042" lon="-122.23373">
        <ele>405.0</ele>
      </trkpt>
      <trkpt lat="37.36046" lon="-122.23378">
        <ele>413.0</ele>
      </trkpt>
      <trkpt lat="37.36049" lon="-122.23389">
        <ele>413.0</ele>
      </trkpt>
      <trkpt lat="37.36049" lon="-122.23389">
        <ele>413.0</ele>
      </trkpt>
      <trkpt lat="37.36051" lon="-122.23402">
        <ele>413.0</ele>
      </trkpt>
      <trkpt lat="37.36047" lon="-122.2341">
        <ele>419.0</ele>
      </trkpt>
      <trkpt lat="37.36045" lon="-122.23409">
        <ele>419.0</ele>
      </trkpt>
      <trkpt lat="37.36042" lon="-122.23394">
        <ele>413.0</ele>
      </trkpt>
      <trkpt lat="37.36036" lon="-122.23389">
        <ele>412.0</ele>
      </trkpt>
      <trkpt lat="37.3601" lon="-122.23396">
        <ele>414.0</ele>
      </trkpt>
      <trkpt lat="37.36025" lon="-122.23415">
        <ele>421.0</ele>
      </trkpt>
      <trkpt lat="37.36029" lon="-122.23437">
        <ele>426.0</ele>
      </trkpt>
      <trkpt lat="37.36026" lon="-122.23459">
        <ele>430.0</ele>
      </trkpt>
      <trkpt lat="37.36028" lon="-122.23475">
        <ele>430.0</ele>
      </trkpt>
      <trkpt lat="37.36024" lon="-122.23474">
        <ele>430.0</ele>
      </trkpt>
      <trkpt lat="37.36015" lon="-122.23461">
        <ele>430.0</ele>
      </trkpt>
      <trkpt lat="37.3601" lon="-122.23462">
        <ele>424.0</ele>
      </trkpt>
      <trkpt lat="37.3601" lon="-122.23467">
        <ele>424.0</ele>
      </trkpt>
      <trkpt lat="37.36014" lon="-122.23479">
        <ele>430.0</ele>
      </trkpt>
      <trkpt lat="37.36029" lon="-122.23491">
        <ele>434.0</ele>
      </trkpt>
      <trkpt lat="37.36042" lon="-122.23497">
        <ele>430.0</ele>
      </trkpt>
      <trkpt lat="37.36068473624674" lon="-122.2352799351181">
        <ele>437.0</ele>
      </trkpt>
      <trkpt lat="37.36068473650295" lon="-122.2352799351181">
        <ele>437.0</ele>
      </trkpt>
      <trkpt lat="37.36083" lon="-122.23545">
        <ele>443.0</ele>
      </trkpt>
      <trkpt lat="37.36089" lon="-122.2356">
        <ele>443.0</ele>
      </trkpt>
      <trkpt lat="37.36088" lon="-122.23582">
        <ele>446.0</ele>
      </trkpt>
      <trkpt lat="37.36083" lon="-122.23612">
        <ele>448.0</ele>
      </trkpt>
      <trkpt lat="37.36078" lon="-122.23623">
        <ele>448.0</ele>
      </trkpt>
      <trkpt lat="37.3607" lon="-122.23628">
        <ele>448.0</ele>
      </trkpt>
      <trkpt lat="37.36055" lon="-122.23628">
        <ele>456.0</ele>
      </trkpt>
      <trkpt lat="37.36051" lon="-122.2363">
        <ele>456.0</ele>
      </trkpt>
      <trkpt lat="37.36049" lon="-122.23656">
        <ele>461.0</ele>
      </trkpt>
      <trkpt lat="37.36046" lon="-122.23665">
        <ele>461.0</ele>
      </trkpt>
      <trkpt lat="37.36022" lon="-122.23712">
        <ele>472.0</ele>
      </trkpt>
      <trkpt lat="37.36022" lon="-122.2374">
        <ele>468.0</ele>
      </trkpt>
      <trkpt lat="37.36017" lon="-122.23755">
        <ele>468.0</ele>
      </trkpt>
      <trkpt lat="37.3601" lon="-122.23762">
        <ele>476.0</ele>
      </trkpt>
      <trkpt lat="37.35985" lon="-122.23765">
        <ele>482.0</ele>
      </trkpt>
      <trkpt lat="37.35977" lon="-122.23772">
        <ele>482.0</ele>
      </trkpt>
      <trkpt lat="37.35982" lon="-122.23807">
        <ele>484.0</ele>
      </trkpt>
      <trkpt lat="37.35974" lon="-122.23824">
        <ele>488.0</ele>
      </trkpt>
      <trkpt lat="37.35996" lon="-122.23829">
        <ele>480.0</ele>
      </trkpt>
      <trkpt lat="37.36003" lon="-122.23837">
        <ele>480.0</ele>
      </trkpt>
      <trkpt lat="37.36005" lon="-122.2385">
        <ele>482.0</ele>
      </trkpt>
      <trkpt lat="37.35999" lon="-122.23871">
        <ele>482.0</ele>
      </trkpt>
      <trkpt lat="37.35976" lon="-122.23923">
        <ele>495.0</ele>
      </trkpt>
      <trkpt lat="37.35976" lon="-122.23931">
        <ele>496.0</ele>
      </trkpt>
      <trkpt lat="37.35987" lon="-122.2395">
        <ele>485.0</ele>
      </trkpt>
      <trkpt lat="37.36004" lon="-122.23959">
        <ele>487.0</ele>
      </trkpt>
      <trkpt lat="37.36008" lon="-122.23969">
        <ele>487.0</ele>
      </trkpt>
      <trkpt lat="37.36013" lon="-122.23996">
        <ele>495.0</ele>
      </trkpt>
      <trkpt lat="37.3601" lon="-122.24009">
        <ele>495.0</ele>
      </trkpt>
      <trkpt lat="37.36007" lon="-122.24013">
        <ele>495.0</ele>
      </trkpt>
      <trkpt lat="37.35994" lon="-122.24024">
        <ele>502.0</ele>
      </trkpt>
      <trkpt lat="37.35958" lon="-122.24046">
        <ele>523.0</ele>
      </trkpt>
      <trkpt lat="37.35956" lon="-122.24057">
        <ele>523.0</ele>
      </trkpt>
      <trkpt lat="37.35958" lon="-122.24069">
        <ele>523.0</ele>
      </trkpt>
      <trkpt lat="37.35967" lon="-122.24073">
        <ele>516.0</ele>
      </trkpt>
      <trkpt lat="37.35978" lon="-122.24084">
        <ele>516.0</ele>
      </trkpt>
      <trkpt lat="37.35978073871609" lon="-122.2408496033092">
        <ele>516.0</ele>
      </trkpt>
      <trkpt lat="37.35978073871615" lon="-122.2408496033092">
        <ele>516.0</ele>
      </trkpt>
      <trkpt lat="37.35979" lon="-122.24097">
        <ele>516.0</ele>
      </trkpt>
      <trkpt lat="37.3599" lon="-122.24112">
        <ele>513.0</ele>
      </trkpt>
      <trkpt lat="37.35992" lon="-122.24122">
        <ele>513.0</ele>
      </trkpt>
      <trkpt lat="37.35991" lon="-122.24132">
        <ele>517.0</ele>
      </trkpt>
      <trkpt lat="37.35981" lon="-122.24156">
        <ele>533.0</ele>
      </trkpt>
      <trkpt lat="37.35975" lon="-122.24185">
        <ele>536.0</ele>
      </trkpt>
      <trkpt lat="37.3598" lon="-122.2419">
        <ele>536.0</ele>
      </trkpt>
      <trkpt lat="37.36006" lon="-122.24189">
        <ele>528.0</ele>
      </trkpt>
      <trkpt lat="37.36019" lon="-122.24196">
        <ele>522.0</ele>
      </trkpt>
      <trkpt lat="37.36038" lon="-122.24219">
        <ele>528.0</ele>
      </trkpt>
      <trkpt lat="37.36038" lon="-122.24219">
        <ele>528.0</ele>
      </trkpt>
      <trkpt lat="37.36038" lon="-122.24219">
        <ele>528.0</ele>
      </trkpt>
      <trkpt lat="37.36057184441083" lon="-122.2421324466767">
        <ele>518.0</ele>
      </trkpt>
      <trkpt lat="37.36057184442125" lon="-122.2421324466767">
        <ele>518.0</ele>
      </trkpt>
      <trkpt lat="37.36038" lon="-122.24219">
        <ele>528.0</ele>
      </trkpt>
      <trkpt lat="37.36038" lon="-122.24219">
        <ele>528.0</ele>
      </trkpt>
      <trkpt lat="37.36037" lon="-122.24229">
        <ele>528.0</ele>
      </trkpt>
      <trkpt lat="37.3603" lon="-122.24251">
        <ele>532.0</ele>
      </trkpt>
      <trkpt lat="37.36028" lon="-122.24277">
        <ele>532.0</ele>
      </trkpt>
      <trkpt lat="37.36015" lon="-122.24291">
        <ele>532.0</ele>
      </trkpt>
      <trkpt lat="37.35991" lon="-122.24299">
        <ele>531.0</ele>
      </trkpt>
      <trkpt lat="37.35985" lon="-122.24314">
        <ele>538.0</ele>
      </trkpt>
      <trkpt lat="37.35983" lon="-122.24313">
        <ele>538.0</ele>
      </trkpt>
      <trkpt lat="37.35982" lon="-122.24302">
        <ele>538.0</ele>
      </trkpt>
      <trkpt lat="37.35986" lon="-122.24287">
        <ele>540.0</ele>
      </trkpt>
      <trkpt lat="37.35993" lon="-122.2428">
        <ele>536.0</ele>
      </trkpt>
      <trkpt lat="37.36005" lon="-122.24277">
        <ele>536.0</ele>
      </trkpt>
      <trkpt lat="37.3601" lon="-122.24265">
        <ele>536.0</ele>
      </trkpt>
      <trkpt lat="37.36007" lon="-122.24224">
        <ele>532.0</ele>
      </trkpt>
      <trkpt lat="37.36004" lon="-122.24226">
        <ele>532.0</ele>
      </trkpt>
      <trkpt lat="37.36003" lon="-122.24245">
        <ele>535.0</ele>
      </trkpt>
      <trkpt lat="37.35994" lon="-122.24258">
        <ele>535.0</ele>
      </trkpt>
      <trkpt lat="37.35991" lon="-122.24259">
        <ele>535.0</ele>
      </trkpt>
      <trkpt lat="37.35998" lon="-122.24238">
        <ele>535.0</ele>
      </trkpt>
      <trkpt lat="37.35993" lon="-122.24232">
        <ele>532.0</ele>
      </trkpt>
      <trkpt lat="37.35982" lon="-122.24231">
        <ele>541.0</ele>
      </trkpt>
      <trkpt lat="37.3598" lon="-122.24233">
        <ele>541.0</ele>
      </trkpt>
      <trkpt lat="37.35982" lon="-122.24236">
        <ele>541.0</ele>
      </trkpt>
      <trkpt lat="37.35977" lon="-122.24245">
        <ele>541.0</ele>
      </trkpt>
      <trkpt lat="37.3596" lon="-122.24248">
        <ele>541.0</ele>
      </trkpt>
      <trkpt lat="37.35953" lon="-122.24256">
        <ele>548.0</ele>
      </trkpt>
      <trkpt lat="37.35942522203271" lon="-122.2426289328732">
        <ele>548.0</ele>
      </trkpt>
      <trkpt lat="37.35942522222483" lon="-122.2426289328732">
        <ele>548.0</ele>
      </trkpt>
      <trkpt lat="37.35915" lon="-122.24281">
        <ele>557.0</ele>
      </trkpt>
      <trkpt lat="37.35907" lon="-122.24281">
        <ele>557.0</ele>
      </trkpt>
      <trkpt lat="37.35917" lon="-122.2427">
        <ele>557.0</ele>
      </trkpt>
      <trkpt lat="37.3592" lon="-122.24259">
        <ele>556.0</ele>
      </trkpt>
      <trkpt lat="37.35917" lon="-122.24253">
        <ele>556.0</ele>
      </trkpt>
      <trkpt lat="37.35913475324784" lon="-122.2425018025983">
        <ele>556.0</ele>
      </trkpt>
      <trkpt lat="37.35913475325133" lon="-122.2425018025983">
        <ele>556.0</ele>
      </trkpt>
      <trkpt lat="37.35912" lon="-122.24249">
        <ele>556.0</ele>
      </trkpt>
      <trkpt lat="37.35898" lon="-122.24244">
        <ele>563.0</ele>
      </trkpt>
      <trkpt lat="37.35898" lon="-122.24244">
        <ele>563.0</ele>
      </trkpt>
      <trkpt lat="37.35906" lon="-122.24256">
        <ele>556.0</ele>
      </trkpt>
      <trkpt lat="37.35904" lon="-122.24268">
        <ele>557.0</ele>
      </trkpt>
      <trkpt lat="37.35898" lon="-122.24275">
        <ele>562.0</ele>
      </trkpt>
      <trkpt lat="37.35887" lon="-122.24307">
        <ele>564.0</ele>
      </trkpt>
      <trkpt lat="37.35864" lon="-122.24336">
        <ele>568.0</ele>
      </trkpt>
      <trkpt lat="37.35847" lon="-122.24374">
        <ele>571.0</ele>
      </trkpt>
      <trkpt lat="37.35816" lon="-122.24392">
        <ele>575.0</ele>
      </trkpt>
      <trkpt lat="37.35816450963861" lon="-122.2439711092375">
        <ele>575.0</ele>
      </trkpt>
      <trkpt lat="37.35816450963937" lon="-122.2439711092375">
        <ele>575.0</ele>
      </trkpt>
      <trkpt lat="37.35819" lon="-122.24426">
        <ele>575.0</ele>
      </trkpt>
      <trkpt lat="37.35816" lon="-122.24448">
        <ele>573.0</ele>
      </trkpt>
      <trkpt lat="37.35775" lon="-122.24488">
        <ele>568.0</ele>
      </trkpt>
      <trkpt lat="37.35735" lon="-122.24513">
        <ele>571.0</ele>
      </trkpt>
      <trkpt lat="37.35734" lon="-122.2452">
        <ele>571.0</ele>
      </trkpt>
      <trkpt lat="37.35737" lon="-122.24538">
        <ele>570.0</ele>
      </trkpt>
      <trkpt lat="37.35763" lon="-122.24569">
        <ele>571.0</ele>
      </trkpt>
      <trkpt lat="37.35781" lon="-122.24575">
        <ele>567.0</ele>
      </trkpt>
      <trkpt lat="37.35841" lon="-122.24537">
        <ele>564.0</ele>
      </trkpt>
      <trkpt lat="37.35852" lon="-122.24543">
        <ele>566.0</ele>
      </trkpt>
      <trkpt lat="37.35856" lon="-122.24553">
        <ele>566.0</ele>
      </trkpt>
      <trkpt lat="37.35858" lon="-122.24614">
        <ele>569.0</ele>
      </trkpt>
      <trkpt lat="37.35868" lon="-122.24628">
        <ele>567.0</ele>
      </trkpt>
      <trkpt lat="37.35889" lon="-122.2465">
        <ele>559.0</ele>
      </trkpt>
      <trkpt lat="37.35911" lon="-122.24663">
        <ele>558.0</ele>
      </trkpt>
      <trkpt lat="37.35934" lon="-122.24656">
        <ele>559.0</ele>
      </trkpt>
      <trkpt lat="37.35958" lon="-122.2464">
        <ele>552.0</ele>
      </trkpt>
      <trkpt lat="37.35979" lon="-122.24637">
        <ele>553.0</ele>
      </trkpt>
      <trkpt lat="37.36009" lon="-122.24609">
        <ele>549.0</ele>
      </trkpt>
      <trkpt lat="37.36021" lon="-122.24601">
        <ele>554.0</ele>
      </trkpt>
      <trkpt lat="37.36048" lon="-122.24589">
        <ele>549.0</ele>
      </trkpt>
      <trkpt lat="37.36055" lon="-122.24584">
        <ele>549.0</ele>
      </trkpt>
      <trkpt lat="37.36071" lon="-122.24563">
        <ele>545.0</ele>
      </trkpt>
      <trkpt lat="37.36078" lon="-122.24562">
        <ele>545.0</ele>
      </trkpt>
      <trkpt lat="37.36097" lon="-122.24568">
        <ele>545.0</ele>
      </trkpt>
      <trkpt lat="37.36114" lon="-122.24582">
        <ele>550.0</ele>
      </trkpt>
      <trkpt lat="37.36134" lon="-122.24611">
        <ele>552.0</ele>
      </trkpt>
      <trkpt lat="37.36157" lon="-122.24665">
        <ele>550.0</ele>
      </trkpt>
      <trkpt lat="37.36157" lon="-122.24665">
        <ele>550.0</ele>
      </trkpt>
      <trkpt lat="37.36157" lon="-122.24665">
        <ele>550.0</ele>
      </trkpt>
      <trkpt lat="37.36169" lon="-122.24674">
        <ele>550.0</ele>
      </trkpt>
      <trkpt lat="37.36169" lon="-122.24674">
        <ele>550.0</ele>
      </trkpt>
      <trkpt lat="37.36173" lon="-122.24661">
        <ele>550.0</ele>
      </trkpt>
      <trkpt lat="37.36192" lon="-122.24637">
        <ele>543.0</ele>
      </trkpt>
      <trkpt lat="37.36204" lon="-122.24632">
        <ele>543.0</ele>
      </trkpt>
      <trkpt lat="37.36204978303594" lon="-122.2463229948069">
        <ele>543.0</ele>
      </trkpt>
      <trkpt lat="37.36204978306722" lon="-122.2463229948069">
        <ele>543.0</ele>
      </trkpt>
      <trkpt lat="37.36253" lon="-122.24647">
        <ele>544.0</ele>
      </trkpt>
      <trkpt lat="37.36292" lon="-122.24663">
        <ele>540.0</ele>
      </trkpt>
      <trkpt lat="37.36317" lon="-122.24665">
        <ele>540.0</ele>
      </trkpt>
      <trkpt lat="37.36317" lon="-122.24665">
        <ele>540.0</ele>
      </trkpt>
      <trkpt lat="37.36333" lon="-122.24656">
        <ele>545.0</ele>
      </trkpt>
      <trkpt lat="37.36339" lon="-122.24648">
        <ele>548.0</ele>
      </trkpt>
      <trkpt lat="37.36339" lon="-122.24641">
        <ele>548.0</ele>
      </trkpt>
      <trkpt lat="37.36331" lon="-122.24625">
        <ele>553.0</ele>
      </trkpt>
      <trkpt lat="37.36312" lon="-122.2461">
        <ele>547.0</ele>
      </trkpt>
      <trkpt lat="37.36299" lon="-122.2459">
        <ele>549.0</ele>
      </trkpt>
      <trkpt lat="37.36295" lon="-122.24571">
        <ele>549.0</ele>
      </trkpt>
      <trkpt lat="37.36291" lon="-122.24523">
        <ele>545.0</ele>
      </trkpt>
      <trkpt lat="37.36296" lon="-122.2451">
        <ele>544.0</ele>
      </trkpt>
      <trkpt lat="37.36311" lon="-122.24507">
        <ele>544.0</ele>
      </trkpt>
      <trkpt lat="37.36327" lon="-122.24495">
        <ele>554.0</ele>
      </trkpt>
      <trkpt lat="37.36339" lon="-122.24466">
        <ele>548.0</ele>
      </trkpt>
      <trkpt lat="37.36341" lon="-122.24444">
        <ele>541.0</ele>
      </trkpt>
      <trkpt lat="37.36348" lon="-122.24436">
        <ele>548.0</ele>
      </trkpt>
      <trkpt lat="37.36354" lon="-122.24436">
        <ele>548.0</ele>
      </trkpt>
      <trkpt lat="37.36368" lon="-122.24444">
        <ele>548.0</ele>
      </trkpt>
      <trkpt lat="37.36377" lon="-122.24454">
        <ele>554.0</ele>
      </trkpt>
      <trkpt lat="37.36384" lon="-122.24469">
        <ele>563.0</ele>
      </trkpt>
      <trkpt lat="37.36396" lon="-122.24476">
        <ele>563.0</ele>
      </trkpt>
      <trkpt lat="37.3641" lon="-122.24498">
        <ele>568.0</ele>
      </trkpt>
      <trkpt lat="37.3642" lon="-122.2452">
        <ele>569.0</ele>
      </trkpt>
      <trkpt lat="37.3642" lon="-122.2452">
        <ele>569.0</ele>
      </trkpt>
      <trkpt lat="37.36425" lon="-122.24523">
        <ele>569.0</ele>
      </trkpt>
      <trkpt lat="37.36461" lon="-122.24506">
        <ele>566.0</ele>
      </trkpt>
      <trkpt lat="37.36468" lon="-122.24505">
        <ele>566.0</ele>
      </trkpt>
      <trkpt lat="37.36478" lon="-122.24509">
        <ele>566.0</ele>
      </trkpt>
      <trkpt lat="37.36486" lon="-122.24529">
        <ele>571.0</ele>
      </trkpt>
      <trkpt lat="37.36492" lon="-122.24568">
        <ele>571.0</ele>
      </trkpt>
      <trkpt lat="37.36492" lon="-122.24568">
        <ele>571.0</ele>
      </trkpt>
      <trkpt lat="37.36486" lon="-122.24575">
        <ele>573.0</ele>
      </trkpt>
      <trkpt lat="37.36474" lon="-122.24603">
        <ele>576.0</ele>
      </trkpt>
      <trkpt lat="37.36471" lon="-122.24623">
        <ele>576.0</ele>
      </trkpt>
      <trkpt lat="37.36473" lon="-122.24632">
        <ele>578.0</ele>
      </trkpt>
      <trkpt lat="37.36481" lon="-122.24634">
        <ele>578.0</ele>
      </trkpt>
      <trkpt lat="37.36489" lon="-122.24628">
        <ele>584.0</ele>
      </trkpt>
      <trkpt lat="37.3650278182009" lon="-122.2460338960698">
        <ele>582.0</ele>
      </trkpt>
      <trkpt lat="37.36489612615247" lon="-122.2462570667267">
        <ele>584.0</ele>
      </trkpt>
      <trkpt lat="37.36485349046481" lon="-122.2462999820709">
        <ele>578.0</ele>
      </trkpt>
      <trkpt lat="37.3648560772283" lon="-122.2463054420866">
        <ele>578.0</ele>
      </trkpt>
      <trkpt lat="37.36481" lon="-122.24634">
        <ele>578.0</ele>
      </trkpt>
      <trkpt lat="37.36473" lon="-122.24632">
        <ele>578.0</ele>
      </trkpt>
      <trkpt lat="37.36471" lon="-122.24623">
        <ele>576.0</ele>
      </trkpt>
      <trkpt lat="37.36474" lon="-122.24603">
        <ele>576.0</ele>
      </trkpt>
      <trkpt lat="37.36486" lon="-122.24575">
        <ele>573.0</ele>
      </trkpt>
      <trkpt lat="37.36492" lon="-122.24568">
        <ele>571.0</ele>
      </trkpt>
      <trkpt lat="37.36492" lon="-122.24568">
        <ele>571.0</ele>
      </trkpt>
      <trkpt lat="37.36496927848769" lon="-122.2457222387037">
        <ele>576.0</ele>
      </trkpt>
      <trkpt lat="37.36496927849448" lon="-122.2457222387037">
        <ele>576.0</ele>
      </trkpt>
      <trkpt lat="37.36499" lon="-122.24574">
        <ele>576.0</ele>
      </trkpt>
      <trkpt lat="37.36526" lon="-122.24588">
        <ele>575.0</ele>
      </trkpt>
      <trkpt lat="37.36549" lon="-122.24617">
        <ele>578.0</ele>
      </trkpt>
      <trkpt lat="37.36591" lon="-122.24626">
        <ele>578.0</ele>
      </trkpt>
      <trkpt lat="37.36598" lon="-122.24631">
        <ele>567.0</ele>
      </trkpt>
      <trkpt lat="37.36606" lon="-122.2464">
        <ele>567.0</ele>
      </trkpt>
      <trkpt lat="37.3662" lon="-122.24666">
        <ele>568.0</ele>
      </trkpt>
      <trkpt lat="37.36635" lon="-122.24712">
        <ele>564.0</ele>
      </trkpt>
      <trkpt lat="37.3664" lon="-122.24719">
        <ele>564.0</ele>
      </trkpt>
      <trkpt lat="37.36661" lon="-122.24734">
        <ele>555.0</ele>
      </trkpt>
      <trkpt lat="37.36671" lon="-122.24727">
        <ele>555.0</ele>
      </trkpt>
      <trkpt lat="37.36671" lon="-122.24727">
        <ele>555.0</ele>
      </trkpt>
      <trkpt lat="37.36651" lon="-122.24689">
        <ele>563.0</ele>
      </trkpt>
      <trkpt lat="37.36643" lon="-122.24664">
        <ele>561.0</ele>
      </trkpt>
      <trkpt lat="37.36643" lon="-122.24614">
        <ele>555.0</ele>
      </trkpt>
      <trkpt lat="37.36647" lon="-122.24582">
        <ele>549.0</ele>
      </trkpt>
      <trkpt lat="37.36644" lon="-122.24556">
        <ele>542.0</ele>
      </trkpt>
      <trkpt lat="37.36635" lon="-122.24522">
        <ele>536.0</ele>
      </trkpt>
      <trkpt lat="37.36618" lon="-122.24484">
        <ele>525.0</ele>
      </trkpt>
      <trkpt lat="37.36589" lon="-122.2443">
        <ele>521.0</ele>
      </trkpt>
      <trkpt lat="37.36564" lon="-122.24374">
        <ele>516.0</ele>
      </trkpt>
      <trkpt lat="37.36564" lon="-122.24374">
        <ele>516.0</ele>
      </trkpt>
      <trkpt lat="37.36559" lon="-122.24358">
        <ele>516.0</ele>
      </trkpt>
      <trkpt lat="37.36559" lon="-122.24358">
        <ele>516.0</ele>
      </trkpt>
      <trkpt lat="37.36557" lon="-122.2434">
        <ele>509.0</ele>
      </trkpt>
      <trkpt lat="37.36564" lon="-122.2431">
        <ele>503.0</ele>
      </trkpt>
      <trkpt lat="37.36581" lon="-122.24263">
        <ele>500.0</ele>
      </trkpt>
      <trkpt lat="37.36618" lon="-122.24217">
        <ele>494.0</ele>
      </trkpt>
      <trkpt lat="37.36646" lon="-122.24161">
        <ele>483.0</ele>
      </trkpt>
      <trkpt lat="37.36661" lon="-122.2415">
        <ele>479.0</ele>
      </trkpt>
      <trkpt lat="37.36678" lon="-122.24147">
        <ele>479.0</ele>
      </trkpt>
      <trkpt lat="37.36689" lon="-122.24138">
        <ele>481.0</ele>
      </trkpt>
      <trkpt lat="37.367" lon="-122.24108">
        <ele>477.0</ele>
      </trkpt>
      <trkpt lat="37.36701" lon="-122.24093">
        <ele>474.0</ele>
      </trkpt>
      <trkpt lat="37.36668" lon="-122.24062">
        <ele>472.0</ele>
      </trkpt>
      <trkpt lat="37.36657" lon="-122.24044">
        <ele>472.0</ele>
      </trkpt>
      <trkpt lat="37.36651" lon="-122.24026">
        <ele>472.0</ele>
      </trkpt>
      <trkpt lat="37.36649" lon="-122.23996">
        <ele>467.0</ele>
      </trkpt>
      <trkpt lat="37.36643" lon="-122.23965">
        <ele>459.0</ele>
      </trkpt>
      <trkpt lat="37.36627" lon="-122.23937">
        <ele>456.0</ele>
      </trkpt>
      <trkpt lat="37.36589" lon="-122.23903">
        <ele>446.0</ele>
      </trkpt>
      <trkpt lat="37.36564" lon="-122.23866">
        <ele>438.0</ele>
      </trkpt>
      <trkpt lat="37.36534" lon="-122.23794">
        <ele>435.0</ele>
      </trkpt>
      <trkpt lat="37.36533" lon="-122.23782">
        <ele>432.0</ele>
      </trkpt>
      <trkpt lat="37.3654" lon="-122.23773">
        <ele>432.0</ele>
      </trkpt>
      <trkpt lat="37.36548" lon="-122.23772">
        <ele>432.0</ele>
      </trkpt>
      <trkpt lat="37.36571" lon="-122.2379">
        <ele>429.0</ele>
      </trkpt>
      <trkpt lat="37.36594" lon="-122.23804">
        <ele>433.0</ele>
      </trkpt>
      <trkpt lat="37.36629" lon="-122.23815">
        <ele>430.0</ele>
      </trkpt>
      <trkpt lat="37.36651" lon="-122.23832">
        <ele>436.0</ele>
      </trkpt>
      <trkpt lat="37.3666" lon="-122.23831">
        <ele>435.0</ele>
      </trkpt>
      <trkpt lat="37.3666" lon="-122.23818">
        <ele>429.0</ele>
      </trkpt>
      <trkpt lat="37.36646" lon="-122.23768">
        <ele>424.0</ele>
      </trkpt>
      <trkpt lat="37.36644" lon="-122.23742">
        <ele>420.0</ele>
      </trkpt>
      <trkpt lat="37.3665" lon="-122.23724">
        <ele>414.0</ele>
      </trkpt>
      <trkpt lat="37.36677" lon="-122.23684">
        <ele>409.0</ele>
      </trkpt>
      <trkpt lat="37.36698" lon="-122.23662">
        <ele>402.0</ele>
      </trkpt>
      <trkpt lat="37.36736" lon="-122.23605">
        <ele>392.0</ele>
      </trkpt>
      <trkpt lat="37.36756" lon="-122.23556">
        <ele>384.0</ele>
      </trkpt>
      <trkpt lat="37.36792" lon="-122.23498">
        <ele>378.0</ele>
      </trkpt>
      <trkpt lat="37.36811" lon="-122.23424">
        <ele>363.0</ele>
      </trkpt>
      <trkpt lat="37.36818" lon="-122.23389">
        <ele>359.0</ele>
      </trkpt>
      <trkpt lat="37.36818" lon="-122.23389">
        <ele>359.0</ele>
      </trkpt>
      <trkpt lat="37.36822" lon="-122.23364">
        <ele>362.0</ele>
      </trkpt>
      <trkpt lat="37.36817" lon="-122.2331">
        <ele>356.0</ele>
      </trkpt>
      <trkpt lat="37.36821" lon="-122.23277">
        <ele>358.0</ele>
      </trkpt>
      <trkpt lat="37.36849" lon="-122.23216">
        <ele>352.0</ele>
      </trkpt>
      <trkpt lat="37.36856" lon="-122.23191">
        <ele>347.0</ele>
      </trkpt>
      <trkpt lat="37.36847" lon="-122.23082">
        <ele>335.0</ele>
      </trkpt>
      <trkpt lat="37.3684" lon="-122.2306">
        <ele>333.0</ele>
      </trkpt>
      <trkpt lat="37.36831" lon="-122.23012">
        <ele>329.0</ele>
      </trkpt>
      <trkpt lat="37.36832473985854" lon="-122.2298104629706">
        <ele>325.0</ele>
      </trkpt>
      <trkpt lat="37.36832473986005" lon="-122.2298104629706">
        <ele>325.0</ele>
      </trkpt>
      <trkpt lat="37.36834" lon="-122.22949">
        <ele>320.0</ele>
      </trkpt>
      <trkpt lat="37.36839" lon="-122.22925">
        <ele>314.0</ele>
      </trkpt>
      <trkpt lat="37.3684" lon="-122.229">
        <ele>311.0</ele>
      </trkpt>
      <trkpt lat="37.36822" lon="-122.22841">
        <ele>306.0</ele>
      </trkpt>
      <trkpt lat="37.3682" lon="-122.22798">
        <ele>303.0</ele>
      </trkpt>
      <trkpt lat="37.36826" lon="-122.22722">
        <ele>298.0</ele>
      </trkpt>
      <trkpt lat="37.36819" lon="-122.22698">
        <ele>294.0</ele>
      </trkpt>
      <trkpt lat="37.36809" lon="-122.22679">
        <ele>294.0</ele>
      </trkpt>
      <trkpt lat="37.36788" lon="-122.22658">
        <ele>292.0</ele>
      </trkpt>
      <trkpt lat="37.3677" lon="-122.22634">
        <ele>291.0</ele>
      </trkpt>
      <trkpt lat="37.36759" lon="-122.22601">
        <ele>289.0</ele>
      </trkpt>
      <trkpt lat="37.36758" lon="-122.22577">
        <ele>288.0</ele>
      </trkpt>
      <trkpt lat="37.36765" lon="-122.22548">
        <ele>288.0</ele>
      </trkpt>
      <trkpt lat="37.36765" lon="-122.22548">
        <ele>288.0</ele>
      </trkpt>
      <trkpt lat="37.36765" lon="-122.22548">
        <ele>288.0</ele>
      </trkpt>
      <trkpt lat="37.36775" lon="-122.22523">
        <ele>285.0</ele>
      </trkpt>
      <trkpt lat="37.36785" lon="-122.22521">
        <ele>285.0</ele>
      </trkpt>
      <trkpt lat="37.36811" lon="-122.22527">
        <ele>285.0</ele>
      </trkpt>
      <trkpt lat="37.36831" lon="-122.22538">
        <ele>280.0</ele>
      </trkpt>
      <trkpt lat="37.36842" lon="-122.22538">
        <ele>280.0</ele>
      </trkpt>
      <trkpt lat="37.36849" lon="-122.22532">
        <ele>277.0</ele>
      </trkpt>
      <trkpt lat="37.36851" lon="-122.22512">
        <ele>273.0</ele>
      </trkpt>
      <trkpt lat="37.36846" lon="-122.22487">
        <ele>276.0</ele>
      </trkpt>
      <trkpt lat="37.36841" lon="-122.22474">
        <ele>272.0</ele>
      </trkpt>
      <trkpt lat="37.36833" lon="-122.22468">
        <ele>272.0</ele>
      </trkpt>
      <trkpt lat="37.36812" lon="-122.2246">
        <ele>275.0</ele>
      </trkpt>
      <trkpt lat="37.36804" lon="-122.22453">
        <ele>271.0</ele>
      </trkpt>
      <trkpt lat="37.368" lon="-122.22427">
        <ele>269.0</ele>
      </trkpt>
      <trkpt lat="37.36802" lon="-122.22409">
        <ele>269.0</ele>
      </trkpt>
      <trkpt lat="37.36811" lon="-122.22398">
        <ele>265.0</ele>
      </trkpt>
      <trkpt lat="37.36829" lon="-122.22398">
        <ele>262.0</ele>
      </trkpt>
      <trkpt lat="37.36892" lon="-122.22437">
        <ele>264.0</ele>
      </trkpt>
      <trkpt lat="37.36905" lon="-122.22438">
        <ele>259.0</ele>
      </trkpt>
      <trkpt lat="37.36907" lon="-122.22426">
        <ele>255.0</ele>
      </trkpt>
      <trkpt lat="37.36854" lon="-122.22342">
        <ele>246.0</ele>
      </trkpt>
      <trkpt lat="37.36829" lon="-122.22319">
        <ele>244.0</ele>
      </trkpt>
      <trkpt lat="37.3682525477293" lon="-122.2231364942145">
        <ele>244.0</ele>
      </trkpt>
      <trkpt lat="37.3682525477293" lon="-122.2231364942145">
        <ele>244.0</ele>
      </trkpt>
      <trkpt lat="37.36815" lon="-122.22299">
        <ele>249.0</ele>
      </trkpt>
      <trkpt lat="37.36776204188509" lon="-122.2219716099484">
        <ele>241.0</ele>
      </trkpt>
      <trkpt lat="37.36776204212306" lon="-122.2219716099484">
        <ele>241.0</ele>
      </trkpt>
      <trkpt lat="37.36767" lon="-122.22173">
        <ele>238.0</ele>
      </trkpt>
      <trkpt lat="37.36753" lon="-122.22117">
        <ele>231.0</ele>
      </trkpt>
      <trkpt lat="37.36753" lon="-122.22117">
        <ele>231.0</ele>
      </trkpt>
      <trkpt lat="37.36753" lon="-122.22117">
        <ele>231.0</ele>
      </trkpt>
      <trkpt lat="37.36746" lon="-122.22083">
        <ele>228.0</ele>
      </trkpt>
      <trkpt lat="37.36746" lon="-122.22052">
        <ele>224.0</ele>
      </trkpt>
      <trkpt lat="37.36748" lon="-122.22043">
        <ele>224.0</ele>
      </trkpt>
      <trkpt lat="37.36752" lon="-122.22035">
        <ele>220.0</ele>
      </trkpt>
      <trkpt lat="37.36759" lon="-122.22028">
        <ele>220.0</ele>
      </trkpt>
      <trkpt lat="37.36768" lon="-122.22024">
        <ele>217.0</ele>
      </trkpt>
      <trkpt lat="37.36768" lon="-122.22024">
        <ele>217.0</ele>
      </trkpt>
      <trkpt lat="37.36768" lon="-122.22024">
        <ele>217.0</ele>
      </trkpt>
      <trkpt lat="37.36775" lon="-122.22025">
        <ele>217.0</ele>
      </trkpt>
      <trkpt lat="37.36775" lon="-122.22025">
        <ele>217.0</ele>
      </trkpt>
      <trkpt lat="37.36775" lon="-122.22025">
        <ele>217.0</ele>
      </trkpt>
      <trkpt lat="37.36788" lon="-122.22032">
        <ele>217.0</ele>
      </trkpt>
      <trkpt lat="37.36809" lon="-122.2205">
        <ele>220.0</ele>
      </trkpt>
      <trkpt lat="37.36838" lon="-122.22085">
        <ele>222.0</ele>
      </trkpt>
      <trkpt lat="37.36863" lon="-122.22097">
        <ele>219.0</ele>
      </trkpt>
      <trkpt lat="37.36926" lon="-122.22103">
        <ele>213.0</ele>
      </trkpt>
      <trkpt lat="37.36954" lon="-122.22116">
        <ele>214.0</ele>
      </trkpt>
      <trkpt lat="37.36986" lon="-122.22138">
        <ele>211.0</ele>
      </trkpt>
      <trkpt lat="37.37005" lon="-122.22165">
        <ele>204.0</ele>
      </trkpt>
      <trkpt lat="37.37016" lon="-122.22171">
        <ele>201.0</ele>
      </trkpt>
      <trkpt lat="37.37016" lon="-122.22171">
        <ele>201.0</ele>
      </trkpt>
      <trkpt lat="37.3702" lon="-122.22174">
        <ele>201.0</ele>
      </trkpt>
      <trkpt lat="37.3705" lon="-122.22177">
        <ele>199.0</ele>
      </trkpt>
      <trkpt lat="37.37086" lon="-122.2219">
        <ele>196.0</ele>
      </trkpt>
      <trkpt lat="37.37118" lon="-122.22211">
        <ele>198.0</ele>
      </trkpt>
      <trkpt lat="37.37156" lon="-122.22219">
        <ele>194.0</ele>
      </trkpt>
      <trkpt lat="37.37177" lon="-122.22233">
        <ele>194.0</ele>
      </trkpt>
      <trkpt lat="37.37223" lon="-122.22256">
        <ele>186.0</ele>
      </trkpt>
      <trkpt lat="37.37257" lon="-122.22267">
        <ele>179.0</ele>
      </trkpt>
      <trkpt lat="37.3728" lon="-122.2228">
        <ele>176.0</ele>
      </trkpt>
      <trkpt lat="37.37317365205556" lon="-122.2231435880971">
        <ele>176.0</ele>
      </trkpt>
      <trkpt lat="37.37317365329178" lon="-122.2231435880971">
        <ele>176.0</ele>
      </trkpt>
      <trkpt lat="37.37367" lon="-122.2236">
        <ele>180.0</ele>
      </trkpt>
      <trkpt lat="37.37397" lon="-122.22384">
        <ele>182.0</ele>
      </trkpt>
      <trkpt lat="37.37449" lon="-122.22417">
        <ele>183.0</ele>
      </trkpt>
      <trkpt lat="37.37449" lon="-122.22417">
        <ele>183.0</ele>
      </trkpt>
      <trkpt lat="37.37449" lon="-122.22417">
        <ele>183.0</ele>
      </trkpt>
      <trkpt lat="37.37465" lon="-122.22408">
        <ele>182.0</ele>
      </trkpt>
      <trkpt lat="37.37481" lon="-122.22402">
        <ele>181.0</ele>
      </trkpt>
      <trkpt lat="37.37501" lon="-122.22372">
        <ele>178.0</ele>
      </trkpt>
      <trkpt lat="37.37506323311311" lon="-122.223702255629">
        <ele>178.0</ele>
      </trkpt>
      <trkpt lat="37.37506323311311" lon="-122.223702255629">
        <ele>178.0</ele>
      </trkpt>
      <trkpt lat="37.37522" lon="-122.22365">
        <ele>175.0</ele>
      </trkpt>
      <trkpt lat="37.37523" lon="-122.22352">
        <ele>175.0</ele>
      </trkpt>
      <trkpt lat="37.37524209854353" lon="-122.2234927782771">
        <ele>175.0</ele>
      </trkpt>
      <trkpt lat="37.37523882810275" lon="-122.2234904766083">
        <ele>175.0</ele>
      </trkpt>
    </trkseg>
  </trk>
</gpx>
