<?xml version="1.0" encoding="UTF-8"?>
<gpx xmlns:xsi="http://www.w3.org/2001/XMLSchema-instance" version="1.1" creator="The Outbound Collective, Inc. 1.1.1 -- https://www.theoutbound.com" xsi:schemaLocation="http://www.topografix.com/GPX/1/1 http://www.topografix.com/GPX/1/1/gpx.xsd">
  <metadata>
    <name/>
    <time>2026-02-19T21:50:37+00:00</time>
    <bound minlat="36.52828607217285" minlon="-121.9157016277313" maxlat="36.53286" maxlon="-121.8939"/>
  </metadata>
  <trk>
    <name/>
    <trkseg>
      <trkpt lat="36.5324157609756" lon="-121.9156908988953">
        <ele>14.0</ele>
      </trkpt>
      <trkpt lat="36.53242874058198" lon="-121.9156886651926">
        <ele>14.0</ele>
      </trkpt>
      <trkpt lat="36.53236" lon="-121.91507">
        <ele>19.0</ele>
      </trkpt>
      <trkpt lat="36.53237" lon="-121.91484">
        <ele>14.0</ele>
      </trkpt>
      <trkpt lat="36.53273" lon="-121.91382">
        <ele>14.0</ele>
      </trkpt>
      <trkpt lat="36.53284" lon="-121.91333">
        <ele>14.0</ele>
      </trkpt>
      <trkpt lat="36.53275" lon="-121.91197">
        <ele>12.0</ele>
      </trkpt>
      <trkpt lat="36.53212" lon="-121.91049">
        <ele>18.0</ele>
      </trkpt>
      <trkpt lat="36.5319674502529" lon="-121.9102491319783">
        <ele>17.0</ele>
      </trkpt>
      <trkpt lat="36.53196745028983" lon="-121.9102491319783">
        <ele>17.0</ele>
      </trkpt>
      <trkpt lat="36.53193" lon="-121.91019">
        <ele>17.0</ele>
      </trkpt>
      <trkpt lat="36.53193" lon="-121.91019">
        <ele>17.0</ele>
      </trkpt>
      <trkpt lat="36.53089" lon="-121.90825">
        <ele>19.0</ele>
      </trkpt>
      <trkpt lat="36.53089028501681" lon="-121.9082474421173">
        <ele>19.0</ele>
      </trkpt>
      <trkpt lat="36.53077463514298" lon="-121.9079572662456">
        <ele>18.0</ele>
      </trkpt>
      <trkpt lat="36.53077463519877" lon="-121.9079572662456">
        <ele>18.0</ele>
      </trkpt>
      <trkpt lat="36.5307" lon="-121.90777">
        <ele>18.0</ele>
      </trkpt>
      <trkpt lat="36.53043" lon="-121.90725">
        <ele>18.0</ele>
      </trkpt>
      <trkpt lat="36.53043" lon="-121.90725">
        <ele>18.0</ele>
      </trkpt>
      <trkpt lat="36.53039" lon="-121.9071">
        <ele>25.0</ele>
      </trkpt>
      <trkpt lat="36.53041057964752" lon="-121.9068900875953">
        <ele>26.0</ele>
      </trkpt>
      <trkpt lat="36.53041057964752" lon="-121.9068900875953">
        <ele>26.0</ele>
      </trkpt>
      <trkpt lat="36.53044" lon="-121.90659">
        <ele>21.0</ele>
      </trkpt>
      <trkpt lat="36.53029" lon="-121.90626">
        <ele>28.0</ele>
      </trkpt>
      <trkpt lat="36.53023" lon="-121.90603">
        <ele>28.0</ele>
      </trkpt>
      <trkpt lat="36.53023682851656" lon="-121.9059862974941">
        <ele>28.0</ele>
      </trkpt>
      <trkpt lat="36.53023682852066" lon="-121.9059862974941">
        <ele>28.0</ele>
      </trkpt>
      <trkpt lat="36.53033" lon="-121.90539">
        <ele>34.0</ele>
      </trkpt>
      <trkpt lat="36.53034" lon="-121.90501">
        <ele>33.0</ele>
      </trkpt>
      <trkpt lat="36.53051" lon="-121.90457">
        <ele>33.0</ele>
      </trkpt>
      <trkpt lat="36.53052" lon="-121.9043">
        <ele>35.0</ele>
      </trkpt>
      <trkpt lat="36.53052" lon="-121.9043">
        <ele>35.0</ele>
      </trkpt>
      <trkpt lat="36.53054" lon="-121.90388">
        <ele>35.0</ele>
      </trkpt>
      <trkpt lat="36.53051" lon="-121.90351">
        <ele>35.0</ele>
      </trkpt>
      <trkpt lat="36.53051" lon="-121.90351">
        <ele>35.0</ele>
      </trkpt>
      <trkpt lat="36.53023" lon="-121.90325">
        <ele>41.0</ele>
      </trkpt>
      <trkpt lat="36.53008" lon="-121.90305">
        <ele>42.0</ele>
      </trkpt>
      <trkpt lat="36.52974" lon="-121.9027">
        <ele>44.0</ele>
      </trkpt>
      <trkpt lat="36.52972224117377" lon="-121.9026578227877">
        <ele>44.0</ele>
      </trkpt>
      <trkpt lat="36.52972224120847" lon="-121.9026578227877">
        <ele>44.0</ele>
      </trkpt>
      <trkpt lat="36.52942" lon="-121.90194">
        <ele>52.0</ele>
      </trkpt>
      <trkpt lat="36.52932" lon="-121.90167">
        <ele>51.0</ele>
      </trkpt>
      <trkpt lat="36.52926" lon="-121.90138">
        <ele>57.0</ele>
      </trkpt>
      <trkpt lat="36.52924" lon="-121.90117">
        <ele>58.0</ele>
      </trkpt>
      <trkpt lat="36.52925" lon="-121.90083">
        <ele>58.0</ele>
      </trkpt>
      <trkpt lat="36.52933" lon="-121.90036">
        <ele>50.0</ele>
      </trkpt>
      <trkpt lat="36.52933" lon="-121.90036">
        <ele>50.0</ele>
      </trkpt>
      <trkpt lat="36.52932" lon="-121.90024">
        <ele>50.0</ele>
      </trkpt>
      <trkpt lat="36.52921" lon="-121.89989">
        <ele>70.0</ele>
      </trkpt>
      <trkpt lat="36.52918" lon="-121.89962">
        <ele>76.0</ele>
      </trkpt>
      <trkpt lat="36.52926" lon="-121.89911">
        <ele>87.0</ele>
      </trkpt>
      <trkpt lat="36.52957" lon="-121.89836">
        <ele>121.0</ele>
      </trkpt>
      <trkpt lat="36.52999" lon="-121.89798">
        <ele>106.0</ele>
      </trkpt>
      <trkpt lat="36.53037" lon="-121.89774">
        <ele>116.0</ele>
      </trkpt>
      <trkpt lat="36.53072" lon="-121.89775">
        <ele>95.0</ele>
      </trkpt>
      <trkpt lat="36.53103" lon="-121.89759">
        <ele>111.0</ele>
      </trkpt>
      <trkpt lat="36.53131" lon="-121.8974">
        <ele>104.0</ele>
      </trkpt>
      <trkpt lat="36.53138" lon="-121.89738">
        <ele>104.0</ele>
      </trkpt>
      <trkpt lat="36.53183" lon="-121.89732">
        <ele>111.0</ele>
      </trkpt>
      <trkpt lat="36.53228" lon="-121.89733">
        <ele>117.0</ele>
      </trkpt>
      <trkpt lat="36.5325" lon="-121.89726">
        <ele>120.0</ele>
      </trkpt>
      <trkpt lat="36.53259" lon="-121.89718">
        <ele>120.0</ele>
      </trkpt>
      <trkpt lat="36.53266" lon="-121.89701">
        <ele>121.0</ele>
      </trkpt>
      <trkpt lat="36.53264" lon="-121.89648">
        <ele>128.0</ele>
      </trkpt>
      <trkpt lat="36.53269" lon="-121.89621">
        <ele>134.0</ele>
      </trkpt>
      <trkpt lat="36.53286" lon="-121.89578">
        <ele>142.0</ele>
      </trkpt>
      <trkpt lat="36.53286" lon="-121.89565">
        <ele>152.0</ele>
      </trkpt>
      <trkpt lat="36.53283" lon="-121.89553">
        <ele>152.0</ele>
      </trkpt>
      <trkpt lat="36.53272" lon="-121.8953">
        <ele>152.0</ele>
      </trkpt>
      <trkpt lat="36.53246" lon="-121.89497">
        <ele>155.0</ele>
      </trkpt>
      <trkpt lat="36.53225" lon="-121.89473">
        <ele>163.0</ele>
      </trkpt>
      <trkpt lat="36.53156" lon="-121.89423">
        <ele>165.0</ele>
      </trkpt>
      <trkpt lat="36.53119" lon="-121.8941">
        <ele>183.0</ele>
      </trkpt>
      <trkpt lat="36.53073" lon="-121.89404">
        <ele>185.0</ele>
      </trkpt>
      <trkpt lat="36.5303" lon="-121.8939">
        <ele>193.0</ele>
      </trkpt>
      <trkpt lat="36.53019" lon="-121.89391">
        <ele>193.0</ele>
      </trkpt>
      <trkpt lat="36.52995" lon="-121.89406">
        <ele>198.0</ele>
      </trkpt>
      <trkpt lat="36.52972" lon="-121.89429">
        <ele>206.0</ele>
      </trkpt>
      <trkpt lat="36.52972" lon="-121.89429">
        <ele>206.0</ele>
      </trkpt>
      <trkpt lat="36.52972" lon="-121.89459">
        <ele>202.0</ele>
      </trkpt>
      <trkpt lat="36.52961" lon="-121.89523">
        <ele>190.0</ele>
      </trkpt>
      <trkpt lat="36.52958" lon="-121.89561">
        <ele>192.0</ele>
      </trkpt>
      <trkpt lat="36.52957" lon="-121.89587">
        <ele>192.0</ele>
      </trkpt>
      <trkpt lat="36.52962" lon="-121.89634">
        <ele>189.0</ele>
      </trkpt>
      <trkpt lat="36.52958" lon="-121.89657">
        <ele>187.0</ele>
      </trkpt>
      <trkpt lat="36.5296" lon="-121.89668">
        <ele>187.0</ele>
      </trkpt>
      <trkpt lat="36.52957" lon="-121.89672">
        <ele>187.0</ele>
      </trkpt>
      <trkpt lat="36.5294" lon="-121.89679">
        <ele>187.0</ele>
      </trkpt>
      <trkpt lat="36.52918" lon="-121.89694">
        <ele>188.0</ele>
      </trkpt>
      <trkpt lat="36.52900274856063" lon="-121.8971419841984">
        <ele>177.0</ele>
      </trkpt>
      <trkpt lat="36.52900274885022" lon="-121.8971419841984">
        <ele>177.0</ele>
      </trkpt>
      <trkpt lat="36.52875" lon="-121.89743">
        <ele>175.0</ele>
      </trkpt>
      <trkpt lat="36.52863" lon="-121.89761">
        <ele>175.0</ele>
      </trkpt>
      <trkpt lat="36.52851" lon="-121.89768">
        <ele>175.0</ele>
      </trkpt>
      <trkpt lat="36.52845" lon="-121.89775">
        <ele>179.0</ele>
      </trkpt>
      <trkpt lat="36.52846" lon="-121.89768">
        <ele>179.0</ele>
      </trkpt>
      <trkpt lat="36.52845" lon="-121.89719">
        <ele>168.0</ele>
      </trkpt>
      <trkpt lat="36.52829" lon="-121.89691">
        <ele>179.0</ele>
      </trkpt>
      <trkpt lat="36.52828607217285" lon="-121.8969039278272">
        <ele>179.0</ele>
      </trkpt>
      <trkpt lat="36.52836671091255" lon="-121.8968232890875">
        <ele>179.0</ele>
      </trkpt>
      <trkpt lat="36.52836671107587" lon="-121.8968232890874">
        <ele>179.0</ele>
      </trkpt>
      <trkpt lat="36.52868" lon="-121.89651">
        <ele>212.0</ele>
      </trkpt>
      <trkpt lat="36.52911" lon="-121.896">
        <ele>193.0</ele>
      </trkpt>
      <trkpt lat="36.52926" lon="-121.89562">
        <ele>203.0</ele>
      </trkpt>
      <trkpt lat="36.52951" lon="-121.89458">
        <ele>210.0</ele>
      </trkpt>
      <trkpt lat="36.52959" lon="-121.89444">
        <ele>202.0</ele>
      </trkpt>
      <trkpt lat="36.52972" lon="-121.89429">
        <ele>206.0</ele>
      </trkpt>
      <trkpt lat="36.52972" lon="-121.89429">
        <ele>206.0</ele>
      </trkpt>
      <trkpt lat="36.52972" lon="-121.89429">
        <ele>206.0</ele>
      </trkpt>
      <trkpt lat="36.52995" lon="-121.89406">
        <ele>198.0</ele>
      </trkpt>
      <trkpt lat="36.53019" lon="-121.89391">
        <ele>193.0</ele>
      </trkpt>
      <trkpt lat="36.5303" lon="-121.8939">
        <ele>193.0</ele>
      </trkpt>
      <trkpt lat="36.53073" lon="-121.89404">
        <ele>185.0</ele>
      </trkpt>
      <trkpt lat="36.53119" lon="-121.8941">
        <ele>183.0</ele>
      </trkpt>
      <trkpt lat="36.53156" lon="-121.89423">
        <ele>165.0</ele>
      </trkpt>
      <trkpt lat="36.53225" lon="-121.89473">
        <ele>163.0</ele>
      </trkpt>
      <trkpt lat="36.53246" lon="-121.89497">
        <ele>155.0</ele>
      </trkpt>
      <trkpt lat="36.53272" lon="-121.8953">
        <ele>152.0</ele>
      </trkpt>
      <trkpt lat="36.53283" lon="-121.89553">
        <ele>152.0</ele>
      </trkpt>
      <trkpt lat="36.53286" lon="-121.89565">
        <ele>152.0</ele>
      </trkpt>
      <trkpt lat="36.53286" lon="-121.89578">
        <ele>142.0</ele>
      </trkpt>
      <trkpt lat="36.53269" lon="-121.89621">
        <ele>134.0</ele>
      </trkpt>
      <trkpt lat="36.53264" lon="-121.89648">
        <ele>128.0</ele>
      </trkpt>
      <trkpt lat="36.53266" lon="-121.89701">
        <ele>121.0</ele>
      </trkpt>
      <trkpt lat="36.53259" lon="-121.89718">
        <ele>120.0</ele>
      </trkpt>
      <trkpt lat="36.5325" lon="-121.89726">
        <ele>120.0</ele>
      </trkpt>
      <trkpt lat="36.53228" lon="-121.89733">
        <ele>117.0</ele>
      </trkpt>
      <trkpt lat="36.53183" lon="-121.89732">
        <ele>111.0</ele>
      </trkpt>
      <trkpt lat="36.53138" lon="-121.89738">
        <ele>104.0</ele>
      </trkpt>
      <trkpt lat="36.53131" lon="-121.8974">
        <ele>104.0</ele>
      </trkpt>
      <trkpt lat="36.53103" lon="-121.89759">
        <ele>111.0</ele>
      </trkpt>
      <trkpt lat="36.53072" lon="-121.89775">
        <ele>95.0</ele>
      </trkpt>
      <trkpt lat="36.53037" lon="-121.89774">
        <ele>116.0</ele>
      </trkpt>
      <trkpt lat="36.52999" lon="-121.89798">
        <ele>106.0</ele>
      </trkpt>
      <trkpt lat="36.52957" lon="-121.89836">
        <ele>121.0</ele>
      </trkpt>
      <trkpt lat="36.5294771423658" lon="-121.8985846555666">
        <ele>90.0</ele>
      </trkpt>
      <trkpt lat="36.52947714249616" lon="-121.8985846555666">
        <ele>90.0</ele>
      </trkpt>
      <trkpt lat="36.52926" lon="-121.89911">
        <ele>87.0</ele>
      </trkpt>
      <trkpt lat="36.52918" lon="-121.89962">
        <ele>76.0</ele>
      </trkpt>
      <trkpt lat="36.52921" lon="-121.89989">
        <ele>70.0</ele>
      </trkpt>
      <trkpt lat="36.52932" lon="-121.90024">
        <ele>50.0</ele>
      </trkpt>
      <trkpt lat="36.52933" lon="-121.90036">
        <ele>50.0</ele>
      </trkpt>
      <trkpt lat="36.52933" lon="-121.90036">
        <ele>50.0</ele>
      </trkpt>
      <trkpt lat="36.52925" lon="-121.90083">
        <ele>58.0</ele>
      </trkpt>
      <trkpt lat="36.52924" lon="-121.90117">
        <ele>58.0</ele>
      </trkpt>
      <trkpt lat="36.52926" lon="-121.90138">
        <ele>57.0</ele>
      </trkpt>
      <trkpt lat="36.52932" lon="-121.90167">
        <ele>51.0</ele>
      </trkpt>
      <trkpt lat="36.52942" lon="-121.90194">
        <ele>52.0</ele>
      </trkpt>
      <trkpt lat="36.52974" lon="-121.9027">
        <ele>44.0</ele>
      </trkpt>
      <trkpt lat="36.53008" lon="-121.90305">
        <ele>42.0</ele>
      </trkpt>
      <trkpt lat="36.53023" lon="-121.90325">
        <ele>41.0</ele>
      </trkpt>
      <trkpt lat="36.53051" lon="-121.90351">
        <ele>35.0</ele>
      </trkpt>
      <trkpt lat="36.53051" lon="-121.90351">
        <ele>35.0</ele>
      </trkpt>
      <trkpt lat="36.53054" lon="-121.90388">
        <ele>35.0</ele>
      </trkpt>
      <trkpt lat="36.53052" lon="-121.9043">
        <ele>35.0</ele>
      </trkpt>
      <trkpt lat="36.53052" lon="-121.9043">
        <ele>35.0</ele>
      </trkpt>
      <trkpt lat="36.53051" lon="-121.90457">
        <ele>33.0</ele>
      </trkpt>
      <trkpt lat="36.53034" lon="-121.90501">
        <ele>33.0</ele>
      </trkpt>
      <trkpt lat="36.53033" lon="-121.90539">
        <ele>34.0</ele>
      </trkpt>
      <trkpt lat="36.53023" lon="-121.90603">
        <ele>28.0</ele>
      </trkpt>
      <trkpt lat="36.5302442713506" lon="-121.906084706844">
        <ele>28.0</ele>
      </trkpt>
      <trkpt lat="36.53024427135484" lon="-121.9060847068439">
        <ele>28.0</ele>
      </trkpt>
      <trkpt lat="36.53029" lon="-121.90626">
        <ele>28.0</ele>
      </trkpt>
      <trkpt lat="36.53044" lon="-121.90659">
        <ele>21.0</ele>
      </trkpt>
      <trkpt lat="36.53041057964752" lon="-121.9068900875953">
        <ele>26.0</ele>
      </trkpt>
      <trkpt lat="36.53041057964752" lon="-121.9068900875953">
        <ele>26.0</ele>
      </trkpt>
      <trkpt lat="36.53039" lon="-121.9071">
        <ele>25.0</ele>
      </trkpt>
      <trkpt lat="36.53043" lon="-121.90725">
        <ele>18.0</ele>
      </trkpt>
      <trkpt lat="36.53043" lon="-121.90725">
        <ele>18.0</ele>
      </trkpt>
      <trkpt lat="36.5307" lon="-121.90777">
        <ele>18.0</ele>
      </trkpt>
      <trkpt lat="36.53089028501681" lon="-121.9082474421173">
        <ele>19.0</ele>
      </trkpt>
      <trkpt lat="36.53089" lon="-121.90825">
        <ele>19.0</ele>
      </trkpt>
      <trkpt lat="36.53193" lon="-121.91019">
        <ele>17.0</ele>
      </trkpt>
      <trkpt lat="36.53193" lon="-121.91019">
        <ele>17.0</ele>
      </trkpt>
      <trkpt lat="36.53212" lon="-121.91049">
        <ele>18.0</ele>
      </trkpt>
      <trkpt lat="36.53275" lon="-121.91197">
        <ele>12.0</ele>
      </trkpt>
      <trkpt lat="36.53280171039356" lon="-121.9127514015026">
        <ele>14.0</ele>
      </trkpt>
      <trkpt lat="36.53280171040635" lon="-121.9127514015026">
        <ele>14.0</ele>
      </trkpt>
      <trkpt lat="36.53284" lon="-121.91333">
        <ele>14.0</ele>
      </trkpt>
      <trkpt lat="36.53273" lon="-121.91382">
        <ele>14.0</ele>
      </trkpt>
      <trkpt lat="36.53237" lon="-121.91484">
        <ele>14.0</ele>
      </trkpt>
      <trkpt lat="36.53236" lon="-121.91507">
        <ele>19.0</ele>
      </trkpt>
      <trkpt lat="36.53242991030298" lon="-121.9156991927268">
        <ele>15.0</ele>
      </trkpt>
      <trkpt lat="36.5324157609756" lon="-121.9157016277313">
        <ele>15.0</ele>
      </trkpt>
    </trkseg>
  </trk>
</gpx>
