<?xml version="1.0" encoding="UTF-8"?>
<gpx xmlns:xsi="http://www.w3.org/2001/XMLSchema-instance" version="1.1" creator="The Outbound Collective, Inc. 1.1.1 -- https://www.theoutbound.com" xsi:schemaLocation="http://www.topografix.com/GPX/1/1 http://www.topografix.com/GPX/1/1/gpx.xsd">
  <metadata>
    <name/>
    <time>2026-02-19T21:50:31+00:00</time>
    <bound minlat="36.61882578950249" minlon="-121.9405227899552" maxlat="36.62106" maxlon="-121.9378387619151"/>
  </metadata>
  <trk>
    <name/>
    <trkseg>
      <trkpt lat="36.61883870629364" lon="-121.9405227899552">
        <ele>9.0</ele>
      </trkpt>
      <trkpt lat="36.61882999999999" lon="-121.9405227899552">
        <ele>9.0</ele>
      </trkpt>
      <trkpt lat="36.61883" lon="-121.94051">
        <ele>9.0</ele>
      </trkpt>
      <trkpt lat="36.61882714931082" lon="-121.940506929556">
        <ele>9.0</ele>
      </trkpt>
      <trkpt lat="36.61886" lon="-121.94046">
        <ele>9.0</ele>
      </trkpt>
      <trkpt lat="36.61891222332058" lon="-121.9403352445266">
        <ele>11.0</ele>
      </trkpt>
      <trkpt lat="36.61891222334808" lon="-121.9403352445266">
        <ele>11.0</ele>
      </trkpt>
      <trkpt lat="36.6189934699234" lon="-121.9401411557884">
        <ele>11.0</ele>
      </trkpt>
      <trkpt lat="36.61899" lon="-121.94014">
        <ele>11.0</ele>
      </trkpt>
      <trkpt lat="36.6192" lon="-121.94021">
        <ele>10.0</ele>
      </trkpt>
      <trkpt lat="36.61936" lon="-121.94019">
        <ele>12.0</ele>
      </trkpt>
      <trkpt lat="36.61948" lon="-121.94022">
        <ele>12.0</ele>
      </trkpt>
      <trkpt lat="36.61956088370779" lon="-121.940162225923">
        <ele>12.0</ele>
      </trkpt>
      <trkpt lat="36.6195608837388" lon="-121.940162225923">
        <ele>12.0</ele>
      </trkpt>
      <trkpt lat="36.61962" lon="-121.94012">
        <ele>13.0</ele>
      </trkpt>
      <trkpt lat="36.61967" lon="-121.94012">
        <ele>13.0</ele>
      </trkpt>
      <trkpt lat="36.61991" lon="-121.94036">
        <ele>17.0</ele>
      </trkpt>
      <trkpt lat="36.62022" lon="-121.94025">
        <ele>12.0</ele>
      </trkpt>
      <trkpt lat="36.62028" lon="-121.94027">
        <ele>12.0</ele>
      </trkpt>
      <trkpt lat="36.62041" lon="-121.94037">
        <ele>12.0</ele>
      </trkpt>
      <trkpt lat="36.62053" lon="-121.94041">
        <ele>12.0</ele>
      </trkpt>
      <trkpt lat="36.62071" lon="-121.94032">
        <ele>17.0</ele>
      </trkpt>
      <trkpt lat="36.62088" lon="-121.94038">
        <ele>17.0</ele>
      </trkpt>
      <trkpt lat="36.62096" lon="-121.94038">
        <ele>17.0</ele>
      </trkpt>
      <trkpt lat="36.621" lon="-121.94035">
        <ele>15.0</ele>
      </trkpt>
      <trkpt lat="36.62099" lon="-121.94028">
        <ele>15.0</ele>
      </trkpt>
      <trkpt lat="36.62088" lon="-121.94009">
        <ele>19.0</ele>
      </trkpt>
      <trkpt lat="36.62086" lon="-121.93996">
        <ele>19.0</ele>
      </trkpt>
      <trkpt lat="36.62101" lon="-121.93978">
        <ele>17.0</ele>
      </trkpt>
      <trkpt lat="36.62106" lon="-121.93954">
        <ele>19.0</ele>
      </trkpt>
      <trkpt lat="36.62106" lon="-121.93954">
        <ele>19.0</ele>
      </trkpt>
      <trkpt lat="36.62106" lon="-121.93954">
        <ele>19.0</ele>
      </trkpt>
      <trkpt lat="36.62093" lon="-121.93958">
        <ele>20.0</ele>
      </trkpt>
      <trkpt lat="36.62082" lon="-121.93955">
        <ele>20.0</ele>
      </trkpt>
      <trkpt lat="36.62069436625364" lon="-121.9394667147075">
        <ele>17.0</ele>
      </trkpt>
      <trkpt lat="36.62069436685806" lon="-121.9394667147075">
        <ele>17.0</ele>
      </trkpt>
      <trkpt lat="36.61995262964631" lon="-121.9389750016756">
        <ele>17.0</ele>
      </trkpt>
      <trkpt lat="36.61995262964631" lon="-121.9389750016756">
        <ele>17.0</ele>
      </trkpt>
      <trkpt lat="36.61993" lon="-121.93896">
        <ele>17.0</ele>
      </trkpt>
      <trkpt lat="36.61991" lon="-121.93891">
        <ele>17.0</ele>
      </trkpt>
      <trkpt lat="36.61991125003763" lon="-121.9388812534209">
        <ele>17.0</ele>
      </trkpt>
      <trkpt lat="36.61991262089418" lon="-121.9388497230487">
        <ele>17.0</ele>
      </trkpt>
      <trkpt lat="36.61992" lon="-121.93868">
        <ele>21.0</ele>
      </trkpt>
      <trkpt lat="36.61990184554611" lon="-121.9386001204029">
        <ele>21.0</ele>
      </trkpt>
      <trkpt lat="36.61990184554985" lon="-121.9386001204029">
        <ele>21.0</ele>
      </trkpt>
      <trkpt lat="36.61987" lon="-121.93846">
        <ele>23.0</ele>
      </trkpt>
      <trkpt lat="36.61988" lon="-121.93833">
        <ele>23.0</ele>
      </trkpt>
      <trkpt lat="36.61986343898862" lon="-121.9382306339317">
        <ele>23.0</ele>
      </trkpt>
      <trkpt lat="36.61986" lon="-121.93821">
        <ele>21.0</ele>
      </trkpt>
      <trkpt lat="36.61986434100211" lon="-121.9381969769937">
        <ele>23.0</ele>
      </trkpt>
      <trkpt lat="36.61987381065744" lon="-121.9381790532872">
        <ele>23.0</ele>
      </trkpt>
      <trkpt lat="36.61987" lon="-121.93816">
        <ele>23.0</ele>
      </trkpt>
      <trkpt lat="36.61989466592606" lon="-121.9380860022218">
        <ele>23.0</ele>
      </trkpt>
      <trkpt lat="36.61988396448123" lon="-121.9380619822406">
        <ele>23.0</ele>
      </trkpt>
      <trkpt lat="36.61976" lon="-121.938">
        <ele>21.0</ele>
      </trkpt>
      <trkpt lat="36.61976" lon="-121.938">
        <ele>21.0</ele>
      </trkpt>
      <trkpt lat="36.61976" lon="-121.938">
        <ele>21.0</ele>
      </trkpt>
      <trkpt lat="36.61973743753467" lon="-121.9380270749584">
        <ele>21.0</ele>
      </trkpt>
      <trkpt lat="36.6197374375387" lon="-121.9380270749584">
        <ele>21.0</ele>
      </trkpt>
      <trkpt lat="36.61976" lon="-121.938">
        <ele>21.0</ele>
      </trkpt>
      <trkpt lat="36.61976" lon="-121.938">
        <ele>21.0</ele>
      </trkpt>
      <trkpt lat="36.61961" lon="-121.93784">
        <ele>23.0</ele>
      </trkpt>
      <trkpt lat="36.6196081684942" lon="-121.9378387619151">
        <ele>23.0</ele>
      </trkpt>
      <trkpt lat="36.6196" lon="-121.93786">
        <ele>23.0</ele>
      </trkpt>
      <trkpt lat="36.61936" lon="-121.93795">
        <ele>19.0</ele>
      </trkpt>
      <trkpt lat="36.61936" lon="-121.93795">
        <ele>19.0</ele>
      </trkpt>
      <trkpt lat="36.61936" lon="-121.93795">
        <ele>19.0</ele>
      </trkpt>
      <trkpt lat="36.61931" lon="-121.93807">
        <ele>19.0</ele>
      </trkpt>
      <trkpt lat="36.61930580434748" lon="-121.9380794826085">
        <ele>19.0</ele>
      </trkpt>
      <trkpt lat="36.61934" lon="-121.9381">
        <ele>19.0</ele>
      </trkpt>
      <trkpt lat="36.61936516344542" lon="-121.9381335512606">
        <ele>19.0</ele>
      </trkpt>
      <trkpt lat="36.619365163456" lon="-121.9381335512606">
        <ele>19.0</ele>
      </trkpt>
      <trkpt lat="36.61943" lon="-121.93822">
        <ele>17.0</ele>
      </trkpt>
      <trkpt lat="36.61943" lon="-121.93822">
        <ele>17.0</ele>
      </trkpt>
      <trkpt lat="36.61943" lon="-121.93822">
        <ele>17.0</ele>
      </trkpt>
      <trkpt lat="36.61948" lon="-121.93834">
        <ele>17.0</ele>
      </trkpt>
      <trkpt lat="36.61948587089668" lon="-121.9384456761403">
        <ele>17.0</ele>
      </trkpt>
      <trkpt lat="36.61948737757857" lon="-121.9384727964142">
        <ele>15.0</ele>
      </trkpt>
      <trkpt lat="36.61949" lon="-121.93852">
        <ele>15.0</ele>
      </trkpt>
      <trkpt lat="36.61945" lon="-121.9387">
        <ele>15.0</ele>
      </trkpt>
      <trkpt lat="36.61934" lon="-121.93884">
        <ele>15.0</ele>
      </trkpt>
      <trkpt lat="36.61921" lon="-121.93892">
        <ele>14.0</ele>
      </trkpt>
      <trkpt lat="36.61910992854794" lon="-121.9389266714301">
        <ele>14.0</ele>
      </trkpt>
      <trkpt lat="36.61911" lon="-121.93893">
        <ele>14.0</ele>
      </trkpt>
      <trkpt lat="36.61911329569546" lon="-121.9389596612591">
        <ele>14.0</ele>
      </trkpt>
      <trkpt lat="36.61911329569546" lon="-121.9389596612591">
        <ele>14.0</ele>
      </trkpt>
      <trkpt lat="36.61911471067772" lon="-121.9389723960995">
        <ele>14.0</ele>
      </trkpt>
      <trkpt lat="36.61911471067786" lon="-121.9389723960995">
        <ele>14.0</ele>
      </trkpt>
      <trkpt lat="36.61913" lon="-121.93911">
        <ele>15.0</ele>
      </trkpt>
      <trkpt lat="36.61922" lon="-121.93951">
        <ele>15.0</ele>
      </trkpt>
      <trkpt lat="36.61922" lon="-121.9396">
        <ele>13.0</ele>
      </trkpt>
      <trkpt lat="36.6189934699234" lon="-121.9401411557884">
        <ele>11.0</ele>
      </trkpt>
      <trkpt lat="36.6189934699234" lon="-121.9401411557884">
        <ele>11.0</ele>
      </trkpt>
      <trkpt lat="36.61886" lon="-121.94046">
        <ele>9.0</ele>
      </trkpt>
      <trkpt lat="36.61882714931082" lon="-121.940506929556">
        <ele>9.0</ele>
      </trkpt>
      <trkpt lat="36.61883" lon="-121.94051">
        <ele>9.0</ele>
      </trkpt>
      <trkpt lat="36.61883" lon="-121.9405227899552">
        <ele>9.0</ele>
      </trkpt>
      <trkpt lat="36.61882578950249" lon="-121.9405227899552">
        <ele>9.0</ele>
      </trkpt>
    </trkseg>
  </trk>
</gpx>
