<?xml version="1.0" encoding="UTF-8"?>
<gpx xmlns:xsi="http://www.w3.org/2001/XMLSchema-instance" version="1.1" creator="The Outbound Collective, Inc. 1.1.1 -- https://www.theoutbound.com" xsi:schemaLocation="http://www.topografix.com/GPX/1/1 http://www.topografix.com/GPX/1/1/gpx.xsd">
  <metadata>
    <name/>
    <time>2026-02-19T21:47:56+00:00</time>
    <bound minlat="37.22614" minlon="-122.1227" maxlat="37.23478" maxlon="-122.0959138870239"/>
  </metadata>
  <trk>
    <name/>
    <trkseg>
      <trkpt lat="37.23051632026059" lon="-122.0959138870239">
        <ele>938.0</ele>
      </trkpt>
      <trkpt lat="37.23053000000001" lon="-122.0959138870239">
        <ele>938.0</ele>
      </trkpt>
      <trkpt lat="37.23053" lon="-122.09593">
        <ele>938.0</ele>
      </trkpt>
      <trkpt lat="37.2305210898838" lon="-122.0959507902711">
        <ele>938.0</ele>
      </trkpt>
      <trkpt lat="37.2305210898838" lon="-122.0959507902711">
        <ele>938.0</ele>
      </trkpt>
      <trkpt lat="37.23044" lon="-122.09614">
        <ele>940.0</ele>
      </trkpt>
      <trkpt lat="37.23038" lon="-122.09624">
        <ele>947.0</ele>
      </trkpt>
      <trkpt lat="37.23033" lon="-122.09629">
        <ele>944.0</ele>
      </trkpt>
      <trkpt lat="37.23033" lon="-122.09629">
        <ele>944.0</ele>
      </trkpt>
      <trkpt lat="37.23026" lon="-122.09635">
        <ele>944.0</ele>
      </trkpt>
      <trkpt lat="37.23019" lon="-122.09651">
        <ele>944.0</ele>
      </trkpt>
      <trkpt lat="37.23014" lon="-122.09669">
        <ele>941.0</ele>
      </trkpt>
      <trkpt lat="37.23012" lon="-122.09693">
        <ele>945.0</ele>
      </trkpt>
      <trkpt lat="37.23006" lon="-122.09705">
        <ele>945.0</ele>
      </trkpt>
      <trkpt lat="37.23006" lon="-122.09705">
        <ele>945.0</ele>
      </trkpt>
      <trkpt lat="37.23004" lon="-122.09715">
        <ele>944.0</ele>
      </trkpt>
      <trkpt lat="37.23004" lon="-122.09715">
        <ele>944.0</ele>
      </trkpt>
      <trkpt lat="37.22967" lon="-122.09762">
        <ele>938.0</ele>
      </trkpt>
      <trkpt lat="37.22967" lon="-122.09762">
        <ele>938.0</ele>
      </trkpt>
      <trkpt lat="37.22959" lon="-122.09762">
        <ele>938.0</ele>
      </trkpt>
      <trkpt lat="37.22959" lon="-122.09762">
        <ele>938.0</ele>
      </trkpt>
      <trkpt lat="37.22948" lon="-122.09793">
        <ele>933.0</ele>
      </trkpt>
      <trkpt lat="37.22948" lon="-122.09793">
        <ele>933.0</ele>
      </trkpt>
      <trkpt lat="37.22948" lon="-122.09793">
        <ele>933.0</ele>
      </trkpt>
      <trkpt lat="37.22948" lon="-122.09801">
        <ele>933.0</ele>
      </trkpt>
      <trkpt lat="37.22963" lon="-122.09827">
        <ele>926.0</ele>
      </trkpt>
      <trkpt lat="37.22942" lon="-122.09857">
        <ele>930.0</ele>
      </trkpt>
      <trkpt lat="37.22942" lon="-122.09899">
        <ele>931.0</ele>
      </trkpt>
      <trkpt lat="37.22932" lon="-122.09918">
        <ele>931.0</ele>
      </trkpt>
      <trkpt lat="37.22938" lon="-122.09929">
        <ele>931.0</ele>
      </trkpt>
      <trkpt lat="37.22938" lon="-122.0993041992188">
        <ele>931.0</ele>
      </trkpt>
      <trkpt lat="37.22937999999999" lon="-122.0993041992188">
        <ele>931.0</ele>
      </trkpt>
      <trkpt lat="37.22938" lon="-122.09949">
        <ele>929.0</ele>
      </trkpt>
      <trkpt lat="37.2292" lon="-122.09991">
        <ele>928.0</ele>
      </trkpt>
      <trkpt lat="37.2292" lon="-122.10003">
        <ele>928.0</ele>
      </trkpt>
      <trkpt lat="37.22908" lon="-122.10021">
        <ele>925.0</ele>
      </trkpt>
      <trkpt lat="37.22912" lon="-122.1004">
        <ele>925.0</ele>
      </trkpt>
      <trkpt lat="37.22881" lon="-122.1012">
        <ele>909.0</ele>
      </trkpt>
      <trkpt lat="37.22877" lon="-122.10143">
        <ele>906.0</ele>
      </trkpt>
      <trkpt lat="37.22871000000571" lon="-122.1015499999886">
        <ele>904.0</ele>
      </trkpt>
      <trkpt lat="37.22871000000571" lon="-122.1015499999886">
        <ele>904.0</ele>
      </trkpt>
      <trkpt lat="37.22869" lon="-122.10159">
        <ele>904.0</ele>
      </trkpt>
      <trkpt lat="37.22869" lon="-122.10177">
        <ele>904.0</ele>
      </trkpt>
      <trkpt lat="37.22846" lon="-122.10205">
        <ele>906.0</ele>
      </trkpt>
      <trkpt lat="37.22846" lon="-122.10205">
        <ele>906.0</ele>
      </trkpt>
      <trkpt lat="37.22805" lon="-122.10252">
        <ele>896.0</ele>
      </trkpt>
      <trkpt lat="37.2278" lon="-122.10286">
        <ele>889.0</ele>
      </trkpt>
      <trkpt lat="37.22752" lon="-122.10314">
        <ele>882.0</ele>
      </trkpt>
      <trkpt lat="37.22752" lon="-122.10316">
        <ele>882.0</ele>
      </trkpt>
      <trkpt lat="37.22752" lon="-122.10319">
        <ele>882.0</ele>
      </trkpt>
      <trkpt lat="37.22752" lon="-122.10321">
        <ele>876.0</ele>
      </trkpt>
      <trkpt lat="37.22758" lon="-122.1032">
        <ele>876.0</ele>
      </trkpt>
      <trkpt lat="37.22743" lon="-122.10343">
        <ele>876.0</ele>
      </trkpt>
      <trkpt lat="37.22743" lon="-122.10362">
        <ele>874.0</ele>
      </trkpt>
      <trkpt lat="37.22736" lon="-122.10389">
        <ele>865.0</ele>
      </trkpt>
      <trkpt lat="37.22716" lon="-122.10408">
        <ele>867.0</ele>
      </trkpt>
      <trkpt lat="37.22717" lon="-122.10419">
        <ele>867.0</ele>
      </trkpt>
      <trkpt lat="37.22711" lon="-122.10456">
        <ele>871.0</ele>
      </trkpt>
      <trkpt lat="37.22714" lon="-122.10473">
        <ele>869.0</ele>
      </trkpt>
      <trkpt lat="37.22727" lon="-122.105">
        <ele>865.0</ele>
      </trkpt>
      <trkpt lat="37.22729" lon="-122.10508">
        <ele>865.0</ele>
      </trkpt>
      <trkpt lat="37.2274" lon="-122.10523">
        <ele>871.0</ele>
      </trkpt>
      <trkpt lat="37.22746629385126" lon="-122.1052344195901">
        <ele>871.0</ele>
      </trkpt>
      <trkpt lat="37.22746629388806" lon="-122.1052344195901">
        <ele>871.0</ele>
      </trkpt>
      <trkpt lat="37.22755" lon="-122.10524">
        <ele>871.0</ele>
      </trkpt>
      <trkpt lat="37.2277" lon="-122.10542">
        <ele>879.0</ele>
      </trkpt>
      <trkpt lat="37.22774" lon="-122.1055">
        <ele>879.0</ele>
      </trkpt>
      <trkpt lat="37.22777" lon="-122.1059">
        <ele>876.0</ele>
      </trkpt>
      <trkpt lat="37.22769" lon="-122.10651">
        <ele>864.0</ele>
      </trkpt>
      <trkpt lat="37.22774" lon="-122.10659">
        <ele>855.0</ele>
      </trkpt>
      <trkpt lat="37.22788" lon="-122.10666">
        <ele>855.0</ele>
      </trkpt>
      <trkpt lat="37.22792" lon="-122.10675">
        <ele>879.0</ele>
      </trkpt>
      <trkpt lat="37.22808" lon="-122.10677">
        <ele>879.0</ele>
      </trkpt>
      <trkpt lat="37.2283" lon="-122.10688">
        <ele>889.0</ele>
      </trkpt>
      <trkpt lat="37.22832" lon="-122.10692">
        <ele>889.0</ele>
      </trkpt>
      <trkpt lat="37.22825" lon="-122.10702">
        <ele>889.0</ele>
      </trkpt>
      <trkpt lat="37.22823" lon="-122.10712">
        <ele>885.0</ele>
      </trkpt>
      <trkpt lat="37.22824" lon="-122.10731">
        <ele>885.0</ele>
      </trkpt>
      <trkpt lat="37.2283" lon="-122.10739">
        <ele>888.0</ele>
      </trkpt>
      <trkpt lat="37.22829" lon="-122.10749">
        <ele>888.0</ele>
      </trkpt>
      <trkpt lat="37.22814" lon="-122.10765">
        <ele>872.0</ele>
      </trkpt>
      <trkpt lat="37.22819053710905" lon="-122.1076676879882">
        <ele>872.0</ele>
      </trkpt>
      <trkpt lat="37.22819" lon="-122.10767">
        <ele>872.0</ele>
      </trkpt>
      <trkpt lat="37.22813995155505" lon="-122.1077951211124">
        <ele>872.0</ele>
      </trkpt>
      <trkpt lat="37.22813995155835" lon="-122.1077951211124">
        <ele>872.0</ele>
      </trkpt>
      <trkpt lat="37.22819" lon="-122.10767">
        <ele>872.0</ele>
      </trkpt>
      <trkpt lat="37.22819053710905" lon="-122.1076676879882">
        <ele>872.0</ele>
      </trkpt>
      <trkpt lat="37.22834" lon="-122.10772">
        <ele>893.0</ele>
      </trkpt>
      <trkpt lat="37.22849" lon="-122.10766">
        <ele>905.0</ele>
      </trkpt>
      <trkpt lat="37.22848" lon="-122.10771">
        <ele>905.0</ele>
      </trkpt>
      <trkpt lat="37.2284" lon="-122.1078">
        <ele>893.0</ele>
      </trkpt>
      <trkpt lat="37.22841" lon="-122.10788">
        <ele>893.0</ele>
      </trkpt>
      <trkpt lat="37.22841" lon="-122.10788">
        <ele>893.0</ele>
      </trkpt>
      <trkpt lat="37.22852" lon="-122.10801">
        <ele>908.0</ele>
      </trkpt>
      <trkpt lat="37.22852" lon="-122.10801">
        <ele>908.0</ele>
      </trkpt>
      <trkpt lat="37.22852" lon="-122.10801">
        <ele>908.0</ele>
      </trkpt>
      <trkpt lat="37.22862" lon="-122.10821">
        <ele>909.0</ele>
      </trkpt>
      <trkpt lat="37.2286" lon="-122.10835">
        <ele>909.0</ele>
      </trkpt>
      <trkpt lat="37.22844" lon="-122.10859">
        <ele>903.0</ele>
      </trkpt>
      <trkpt lat="37.22844" lon="-122.10865">
        <ele>903.0</ele>
      </trkpt>
      <trkpt lat="37.2284" lon="-122.10871">
        <ele>903.0</ele>
      </trkpt>
      <trkpt lat="37.22835" lon="-122.10873">
        <ele>903.0</ele>
      </trkpt>
      <trkpt lat="37.22830651726542" lon="-122.1087220940482">
        <ele>903.0</ele>
      </trkpt>
      <trkpt lat="37.22830651728459" lon="-122.1087220940483">
        <ele>903.0</ele>
      </trkpt>
      <trkpt lat="37.22835" lon="-122.10873">
        <ele>903.0</ele>
      </trkpt>
      <trkpt lat="37.2284" lon="-122.10871">
        <ele>903.0</ele>
      </trkpt>
      <trkpt lat="37.22844" lon="-122.10865">
        <ele>903.0</ele>
      </trkpt>
      <trkpt lat="37.22844" lon="-122.10859">
        <ele>903.0</ele>
      </trkpt>
      <trkpt lat="37.2286" lon="-122.10835">
        <ele>909.0</ele>
      </trkpt>
      <trkpt lat="37.22862" lon="-122.10821">
        <ele>909.0</ele>
      </trkpt>
      <trkpt lat="37.22852" lon="-122.10801">
        <ele>908.0</ele>
      </trkpt>
      <trkpt lat="37.22852" lon="-122.10801">
        <ele>908.0</ele>
      </trkpt>
      <trkpt lat="37.22872" lon="-122.10805">
        <ele>908.0</ele>
      </trkpt>
      <trkpt lat="37.229" lon="-122.1082">
        <ele>917.0</ele>
      </trkpt>
      <trkpt lat="37.22926" lon="-122.10801">
        <ele>921.0</ele>
      </trkpt>
      <trkpt lat="37.22958" lon="-122.10794">
        <ele>923.0</ele>
      </trkpt>
      <trkpt lat="37.22967" lon="-122.10798">
        <ele>921.0</ele>
      </trkpt>
      <trkpt lat="37.22971" lon="-122.10803">
        <ele>921.0</ele>
      </trkpt>
      <trkpt lat="37.22975" lon="-122.1083">
        <ele>913.0</ele>
      </trkpt>
      <trkpt lat="37.22984" lon="-122.10848">
        <ele>906.0</ele>
      </trkpt>
      <trkpt lat="37.22988" lon="-122.10871">
        <ele>908.0</ele>
      </trkpt>
      <trkpt lat="37.22996" lon="-122.10893">
        <ele>901.0</ele>
      </trkpt>
      <trkpt lat="37.23006986595871" lon="-122.1089092145483">
        <ele>901.0</ele>
      </trkpt>
      <trkpt lat="37.23006986614823" lon="-122.1089092145483">
        <ele>901.0</ele>
      </trkpt>
      <trkpt lat="37.23033" lon="-122.10886">
        <ele>900.0</ele>
      </trkpt>
      <trkpt lat="37.23033" lon="-122.10886">
        <ele>900.0</ele>
      </trkpt>
      <trkpt lat="37.23049" lon="-122.10873">
        <ele>905.0</ele>
      </trkpt>
      <trkpt lat="37.23059" lon="-122.10873">
        <ele>905.0</ele>
      </trkpt>
      <trkpt lat="37.23062422639265" lon="-122.1087685046917">
        <ele>899.0</ele>
      </trkpt>
      <trkpt lat="37.23062422639265" lon="-122.1087685046917">
        <ele>899.0</ele>
      </trkpt>
      <trkpt lat="37.23067" lon="-122.10882">
        <ele>899.0</ele>
      </trkpt>
      <trkpt lat="37.23069" lon="-122.10913">
        <ele>896.0</ele>
      </trkpt>
      <trkpt lat="37.23033" lon="-122.11011">
        <ele>893.0</ele>
      </trkpt>
      <trkpt lat="37.23033" lon="-122.11011">
        <ele>893.0</ele>
      </trkpt>
      <trkpt lat="37.23022" lon="-122.11061">
        <ele>891.0</ele>
      </trkpt>
      <trkpt lat="37.23004" lon="-122.11113">
        <ele>875.0</ele>
      </trkpt>
      <trkpt lat="37.23" lon="-122.11133">
        <ele>871.0</ele>
      </trkpt>
      <trkpt lat="37.22991" lon="-122.11153">
        <ele>867.0</ele>
      </trkpt>
      <trkpt lat="37.22977" lon="-122.11163">
        <ele>864.0</ele>
      </trkpt>
      <trkpt lat="37.2297" lon="-122.11171">
        <ele>864.0</ele>
      </trkpt>
      <trkpt lat="37.2297" lon="-122.11171">
        <ele>864.0</ele>
      </trkpt>
      <trkpt lat="37.2297" lon="-122.11171">
        <ele>864.0</ele>
      </trkpt>
      <trkpt lat="37.22945" lon="-122.1117">
        <ele>861.0</ele>
      </trkpt>
      <trkpt lat="37.22932" lon="-122.11158">
        <ele>861.0</ele>
      </trkpt>
      <trkpt lat="37.22918396367935" lon="-122.1115442009683">
        <ele>857.0</ele>
      </trkpt>
      <trkpt lat="37.22918396372802" lon="-122.1115442009683">
        <ele>857.0</ele>
      </trkpt>
      <trkpt lat="37.22932" lon="-122.11158">
        <ele>861.0</ele>
      </trkpt>
      <trkpt lat="37.22945" lon="-122.1117">
        <ele>861.0</ele>
      </trkpt>
      <trkpt lat="37.2297" lon="-122.11171">
        <ele>864.0</ele>
      </trkpt>
      <trkpt lat="37.2297" lon="-122.11171">
        <ele>864.0</ele>
      </trkpt>
      <trkpt lat="37.22969" lon="-122.11183">
        <ele>862.0</ele>
      </trkpt>
      <trkpt lat="37.22971" lon="-122.11189">
        <ele>862.0</ele>
      </trkpt>
      <trkpt lat="37.22986" lon="-122.1121">
        <ele>860.0</ele>
      </trkpt>
      <trkpt lat="37.23005" lon="-122.11227">
        <ele>864.0</ele>
      </trkpt>
      <trkpt lat="37.23011" lon="-122.11237">
        <ele>861.0</ele>
      </trkpt>
      <trkpt lat="37.23005" lon="-122.11273">
        <ele>856.0</ele>
      </trkpt>
      <trkpt lat="37.23009" lon="-122.11282">
        <ele>856.0</ele>
      </trkpt>
      <trkpt lat="37.2300907915463" lon="-122.1128358309262">
        <ele>856.0</ele>
      </trkpt>
      <trkpt lat="37.23009079154635" lon="-122.1128358309262">
        <ele>856.0</ele>
      </trkpt>
      <trkpt lat="37.2301" lon="-122.11302">
        <ele>852.0</ele>
      </trkpt>
      <trkpt lat="37.23014624935638" lon="-122.1131323198655">
        <ele>854.0</ele>
      </trkpt>
      <trkpt lat="37.23014624935638" lon="-122.1131323198655">
        <ele>854.0</ele>
      </trkpt>
      <trkpt lat="37.23017" lon="-122.11319">
        <ele>854.0</ele>
      </trkpt>
      <trkpt lat="37.23016" lon="-122.11324">
        <ele>852.0</ele>
      </trkpt>
      <trkpt lat="37.23025" lon="-122.11336">
        <ele>852.0</ele>
      </trkpt>
      <trkpt lat="37.23028" lon="-122.11352">
        <ele>850.0</ele>
      </trkpt>
      <trkpt lat="37.23028" lon="-122.11352">
        <ele>850.0</ele>
      </trkpt>
      <trkpt lat="37.23033" lon="-122.11373">
        <ele>850.0</ele>
      </trkpt>
      <trkpt lat="37.23033" lon="-122.11373">
        <ele>850.0</ele>
      </trkpt>
      <trkpt lat="37.23038" lon="-122.11386">
        <ele>849.0</ele>
      </trkpt>
      <trkpt lat="37.23034" lon="-122.1143">
        <ele>850.0</ele>
      </trkpt>
      <trkpt lat="37.23037" lon="-122.11443">
        <ele>854.0</ele>
      </trkpt>
      <trkpt lat="37.23047" lon="-122.1145">
        <ele>854.0</ele>
      </trkpt>
      <trkpt lat="37.23063" lon="-122.11454">
        <ele>854.0</ele>
      </trkpt>
      <trkpt lat="37.23067" lon="-122.11458">
        <ele>854.0</ele>
      </trkpt>
      <trkpt lat="37.23077" lon="-122.11459">
        <ele>857.0</ele>
      </trkpt>
      <trkpt lat="37.23088" lon="-122.11469">
        <ele>857.0</ele>
      </trkpt>
      <trkpt lat="37.23095" lon="-122.11504">
        <ele>867.0</ele>
      </trkpt>
      <trkpt lat="37.23106" lon="-122.11509">
        <ele>862.0</ele>
      </trkpt>
      <trkpt lat="37.23112" lon="-122.11522">
        <ele>867.0</ele>
      </trkpt>
      <trkpt lat="37.23116" lon="-122.11553">
        <ele>868.0</ele>
      </trkpt>
      <trkpt lat="37.23124" lon="-122.11572">
        <ele>865.0</ele>
      </trkpt>
      <trkpt lat="37.23127" lon="-122.11584">
        <ele>849.0</ele>
      </trkpt>
      <trkpt lat="37.23135" lon="-122.11598">
        <ele>848.0</ele>
      </trkpt>
      <trkpt lat="37.23143" lon="-122.11621">
        <ele>848.0</ele>
      </trkpt>
      <trkpt lat="37.23154" lon="-122.11635">
        <ele>839.0</ele>
      </trkpt>
      <trkpt lat="37.23162" lon="-122.1164">
        <ele>839.0</ele>
      </trkpt>
      <trkpt lat="37.23171" lon="-122.11641">
        <ele>839.0</ele>
      </trkpt>
      <trkpt lat="37.23174281722899" lon="-122.1164537563053">
        <ele>839.0</ele>
      </trkpt>
      <trkpt lat="37.23174281723492" lon="-122.1164537563053">
        <ele>839.0</ele>
      </trkpt>
      <trkpt lat="37.23177" lon="-122.11649">
        <ele>839.0</ele>
      </trkpt>
      <trkpt lat="37.23181" lon="-122.1166">
        <ele>832.0</ele>
      </trkpt>
      <trkpt lat="37.23178" lon="-122.11675">
        <ele>836.0</ele>
      </trkpt>
      <trkpt lat="37.23183" lon="-122.11684">
        <ele>831.0</ele>
      </trkpt>
      <trkpt lat="37.23189" lon="-122.11711">
        <ele>831.0</ele>
      </trkpt>
      <trkpt lat="37.23194" lon="-122.11718">
        <ele>831.0</ele>
      </trkpt>
      <trkpt lat="37.23194" lon="-122.11754">
        <ele>831.0</ele>
      </trkpt>
      <trkpt lat="37.23191" lon="-122.11763">
        <ele>831.0</ele>
      </trkpt>
      <trkpt lat="37.23173" lon="-122.11778">
        <ele>828.0</ele>
      </trkpt>
      <trkpt lat="37.23157" lon="-122.11808">
        <ele>825.0</ele>
      </trkpt>
      <trkpt lat="37.23154" lon="-122.1182">
        <ele>822.0</ele>
      </trkpt>
      <trkpt lat="37.2316" lon="-122.11868">
        <ele>819.0</ele>
      </trkpt>
      <trkpt lat="37.23172" lon="-122.11878">
        <ele>816.0</ele>
      </trkpt>
      <trkpt lat="37.23174" lon="-122.11891">
        <ele>816.0</ele>
      </trkpt>
      <trkpt lat="37.23181" lon="-122.11907">
        <ele>813.0</ele>
      </trkpt>
      <trkpt lat="37.23201" lon="-122.11917">
        <ele>813.0</ele>
      </trkpt>
      <trkpt lat="37.23219" lon="-122.11917">
        <ele>811.0</ele>
      </trkpt>
      <trkpt lat="37.23233" lon="-122.11939">
        <ele>809.0</ele>
      </trkpt>
      <trkpt lat="37.23239" lon="-122.1194">
        <ele>808.0</ele>
      </trkpt>
      <trkpt lat="37.23246" lon="-122.11949">
        <ele>808.0</ele>
      </trkpt>
      <trkpt lat="37.23266" lon="-122.11961">
        <ele>810.0</ele>
      </trkpt>
      <trkpt lat="37.23276" lon="-122.11973">
        <ele>810.0</ele>
      </trkpt>
      <trkpt lat="37.23278" lon="-122.1199">
        <ele>808.0</ele>
      </trkpt>
      <trkpt lat="37.23285" lon="-122.12003">
        <ele>808.0</ele>
      </trkpt>
      <trkpt lat="37.23286" lon="-122.12023">
        <ele>804.0</ele>
      </trkpt>
      <trkpt lat="37.23284" lon="-122.12029">
        <ele>804.0</ele>
      </trkpt>
      <trkpt lat="37.23297" lon="-122.12062">
        <ele>795.0</ele>
      </trkpt>
      <trkpt lat="37.23299" lon="-122.1207">
        <ele>792.0</ele>
      </trkpt>
      <trkpt lat="37.23296" lon="-122.12081">
        <ele>792.0</ele>
      </trkpt>
      <trkpt lat="37.23302" lon="-122.12093">
        <ele>792.0</ele>
      </trkpt>
      <trkpt lat="37.23296" lon="-122.12104">
        <ele>789.0</ele>
      </trkpt>
      <trkpt lat="37.2329" lon="-122.12108">
        <ele>785.0</ele>
      </trkpt>
      <trkpt lat="37.2329" lon="-122.12124">
        <ele>785.0</ele>
      </trkpt>
      <trkpt lat="37.23304" lon="-122.12126">
        <ele>782.0</ele>
      </trkpt>
      <trkpt lat="37.23313" lon="-122.12172">
        <ele>766.0</ele>
      </trkpt>
      <trkpt lat="37.23316105994294" lon="-122.1217945438631">
        <ele>766.0</ele>
      </trkpt>
      <trkpt lat="37.23316105994687" lon="-122.1217945438631">
        <ele>766.0</ele>
      </trkpt>
      <trkpt lat="37.23318" lon="-122.12184">
        <ele>745.0</ele>
      </trkpt>
      <trkpt lat="37.23321" lon="-122.12179">
        <ele>765.0</ele>
      </trkpt>
      <trkpt lat="37.23322" lon="-122.12158">
        <ele>765.0</ele>
      </trkpt>
      <trkpt lat="37.23327" lon="-122.12149">
        <ele>776.0</ele>
      </trkpt>
      <trkpt lat="37.23338" lon="-122.1215">
        <ele>776.0</ele>
      </trkpt>
      <trkpt lat="37.23347" lon="-122.12134">
        <ele>776.0</ele>
      </trkpt>
      <trkpt lat="37.23364" lon="-122.12111">
        <ele>772.0</ele>
      </trkpt>
      <trkpt lat="37.23369" lon="-122.12081">
        <ele>775.0</ele>
      </trkpt>
      <trkpt lat="37.23369" lon="-122.12064">
        <ele>777.0</ele>
      </trkpt>
      <trkpt lat="37.23388" lon="-122.12042">
        <ele>769.0</ele>
      </trkpt>
      <trkpt lat="37.23421" lon="-122.11991">
        <ele>766.0</ele>
      </trkpt>
      <trkpt lat="37.2342" lon="-122.11976">
        <ele>769.0</ele>
      </trkpt>
      <trkpt lat="37.23422" lon="-122.11965">
        <ele>769.0</ele>
      </trkpt>
      <trkpt lat="37.23427" lon="-122.11961">
        <ele>769.0</ele>
      </trkpt>
      <trkpt lat="37.2344" lon="-122.11968">
        <ele>757.0</ele>
      </trkpt>
      <trkpt lat="37.23457" lon="-122.11964">
        <ele>757.0</ele>
      </trkpt>
      <trkpt lat="37.2346" lon="-122.11948">
        <ele>745.0</ele>
      </trkpt>
      <trkpt lat="37.23469" lon="-122.1193">
        <ele>745.0</ele>
      </trkpt>
      <trkpt lat="37.23469" lon="-122.1193">
        <ele>745.0</ele>
      </trkpt>
      <trkpt lat="37.23477" lon="-122.11959">
        <ele>745.0</ele>
      </trkpt>
      <trkpt lat="37.23478" lon="-122.11983">
        <ele>745.0</ele>
      </trkpt>
      <trkpt lat="37.23467" lon="-122.12">
        <ele>744.0</ele>
      </trkpt>
      <trkpt lat="37.23455" lon="-122.12011">
        <ele>754.0</ele>
      </trkpt>
      <trkpt lat="37.23448" lon="-122.12011">
        <ele>754.0</ele>
      </trkpt>
      <trkpt lat="37.23444" lon="-122.12016">
        <ele>752.0</ele>
      </trkpt>
      <trkpt lat="37.23445" lon="-122.12023">
        <ele>752.0</ele>
      </trkpt>
      <trkpt lat="37.23445386584329" lon="-122.1202370873794">
        <ele>752.0</ele>
      </trkpt>
      <trkpt lat="37.23445386584474" lon="-122.1202370873794">
        <ele>752.0</ele>
      </trkpt>
      <trkpt lat="37.23451" lon="-122.12034">
        <ele>752.0</ele>
      </trkpt>
      <trkpt lat="37.23453" lon="-122.12048">
        <ele>750.0</ele>
      </trkpt>
      <trkpt lat="37.23443" lon="-122.12075">
        <ele>748.0</ele>
      </trkpt>
      <trkpt lat="37.23446" lon="-122.12087">
        <ele>748.0</ele>
      </trkpt>
      <trkpt lat="37.23428" lon="-122.12181">
        <ele>749.0</ele>
      </trkpt>
      <trkpt lat="37.23428" lon="-122.12205">
        <ele>749.0</ele>
      </trkpt>
      <trkpt lat="37.23433" lon="-122.12223">
        <ele>737.0</ele>
      </trkpt>
      <trkpt lat="37.23433" lon="-122.12249">
        <ele>735.0</ele>
      </trkpt>
      <trkpt lat="37.23419" lon="-122.1227">
        <ele>726.0</ele>
      </trkpt>
      <trkpt lat="37.23411" lon="-122.12261">
        <ele>734.0</ele>
      </trkpt>
      <trkpt lat="37.23399" lon="-122.12257">
        <ele>730.0</ele>
      </trkpt>
      <trkpt lat="37.23393" lon="-122.12259">
        <ele>730.0</ele>
      </trkpt>
      <trkpt lat="37.23383277984706" lon="-122.1225275013302">
        <ele>730.0</ele>
      </trkpt>
      <trkpt lat="37.23383277987464" lon="-122.1225275013303">
        <ele>730.0</ele>
      </trkpt>
      <trkpt lat="37.23379" lon="-122.1225">
        <ele>730.0</ele>
      </trkpt>
      <trkpt lat="37.23361" lon="-122.12247">
        <ele>731.0</ele>
      </trkpt>
      <trkpt lat="37.23333" lon="-122.12231">
        <ele>736.0</ele>
      </trkpt>
      <trkpt lat="37.23329" lon="-122.1223">
        <ele>736.0</ele>
      </trkpt>
      <trkpt lat="37.2332" lon="-122.12236">
        <ele>736.0</ele>
      </trkpt>
      <trkpt lat="37.23314" lon="-122.12234">
        <ele>728.0</ele>
      </trkpt>
      <trkpt lat="37.23305" lon="-122.12218">
        <ele>728.0</ele>
      </trkpt>
      <trkpt lat="37.23279" lon="-122.12199">
        <ele>734.0</ele>
      </trkpt>
      <trkpt lat="37.23274" lon="-122.12189">
        <ele>734.0</ele>
      </trkpt>
      <trkpt lat="37.23262" lon="-122.12186">
        <ele>712.0</ele>
      </trkpt>
      <trkpt lat="37.23258" lon="-122.12175">
        <ele>730.0</ele>
      </trkpt>
      <trkpt lat="37.23242" lon="-122.12154">
        <ele>730.0</ele>
      </trkpt>
      <trkpt lat="37.23235" lon="-122.12151">
        <ele>729.0</ele>
      </trkpt>
      <trkpt lat="37.2322" lon="-122.12135">
        <ele>729.0</ele>
      </trkpt>
      <trkpt lat="37.23202" lon="-122.12126">
        <ele>711.0</ele>
      </trkpt>
      <trkpt lat="37.23197" lon="-122.12107">
        <ele>725.0</ele>
      </trkpt>
      <trkpt lat="37.23189" lon="-122.12094">
        <ele>735.0</ele>
      </trkpt>
      <trkpt lat="37.23173" lon="-122.12083">
        <ele>722.0</ele>
      </trkpt>
      <trkpt lat="37.23169" lon="-122.12073">
        <ele>722.0</ele>
      </trkpt>
      <trkpt lat="37.23165" lon="-122.12054">
        <ele>735.0</ele>
      </trkpt>
      <trkpt lat="37.23162" lon="-122.12046">
        <ele>735.0</ele>
      </trkpt>
      <trkpt lat="37.23155" lon="-122.12039">
        <ele>749.0</ele>
      </trkpt>
      <trkpt lat="37.23153" lon="-122.12027">
        <ele>749.0</ele>
      </trkpt>
      <trkpt lat="37.2315" lon="-122.12023">
        <ele>731.0</ele>
      </trkpt>
      <trkpt lat="37.23145" lon="-122.12023">
        <ele>731.0</ele>
      </trkpt>
      <trkpt lat="37.2314" lon="-122.12018">
        <ele>731.0</ele>
      </trkpt>
      <trkpt lat="37.23132" lon="-122.12005">
        <ele>741.0</ele>
      </trkpt>
      <trkpt lat="37.23135" lon="-122.11991">
        <ele>741.0</ele>
      </trkpt>
      <trkpt lat="37.23134" lon="-122.11983">
        <ele>754.0</ele>
      </trkpt>
      <trkpt lat="37.23129" lon="-122.11978">
        <ele>754.0</ele>
      </trkpt>
      <trkpt lat="37.23105" lon="-122.11969">
        <ele>729.0</ele>
      </trkpt>
      <trkpt lat="37.23102" lon="-122.11963">
        <ele>729.0</ele>
      </trkpt>
      <trkpt lat="37.23101" lon="-122.11955">
        <ele>749.0</ele>
      </trkpt>
      <trkpt lat="37.23095" lon="-122.11934">
        <ele>728.0</ele>
      </trkpt>
      <trkpt lat="37.23086" lon="-122.11917">
        <ele>742.0</ele>
      </trkpt>
      <trkpt lat="37.23082" lon="-122.11912">
        <ele>742.0</ele>
      </trkpt>
      <trkpt lat="37.23077" lon="-122.11892">
        <ele>749.0</ele>
      </trkpt>
      <trkpt lat="37.23069" lon="-122.11876">
        <ele>735.0</ele>
      </trkpt>
      <trkpt lat="37.23072" lon="-122.11865">
        <ele>761.0</ele>
      </trkpt>
      <trkpt lat="37.23073" lon="-122.11851">
        <ele>761.0</ele>
      </trkpt>
      <trkpt lat="37.23068" lon="-122.11827">
        <ele>755.0</ele>
      </trkpt>
      <trkpt lat="37.23064" lon="-122.11817">
        <ele>763.0</ele>
      </trkpt>
      <trkpt lat="37.23063" lon="-122.11784">
        <ele>774.0</ele>
      </trkpt>
      <trkpt lat="37.23058" lon="-122.1177">
        <ele>774.0</ele>
      </trkpt>
      <trkpt lat="37.23056" lon="-122.11755">
        <ele>784.0</ele>
      </trkpt>
      <trkpt lat="37.23033" lon="-122.11726">
        <ele>787.0</ele>
      </trkpt>
      <trkpt lat="37.23033" lon="-122.11726">
        <ele>787.0</ele>
      </trkpt>
      <trkpt lat="37.23008" lon="-122.11708">
        <ele>796.0</ele>
      </trkpt>
      <trkpt lat="37.2298" lon="-122.11694">
        <ele>792.0</ele>
      </trkpt>
      <trkpt lat="37.22944" lon="-122.11687">
        <ele>786.0</ele>
      </trkpt>
      <trkpt lat="37.2293" lon="-122.11682">
        <ele>780.0</ele>
      </trkpt>
      <trkpt lat="37.22919" lon="-122.11671">
        <ele>792.0</ele>
      </trkpt>
      <trkpt lat="37.22912" lon="-122.1165">
        <ele>804.0</ele>
      </trkpt>
      <trkpt lat="37.22901" lon="-122.11637">
        <ele>800.0</ele>
      </trkpt>
      <trkpt lat="37.22887" lon="-122.11631">
        <ele>800.0</ele>
      </trkpt>
      <trkpt lat="37.22874" lon="-122.11635">
        <ele>800.0</ele>
      </trkpt>
      <trkpt lat="37.22860549895735" lon="-122.1162225779596">
        <ele>808.0</ele>
      </trkpt>
      <trkpt lat="37.22860549900685" lon="-122.1162225779596">
        <ele>808.0</ele>
      </trkpt>
      <trkpt lat="37.22855" lon="-122.11617">
        <ele>808.0</ele>
      </trkpt>
      <trkpt lat="37.22845" lon="-122.11618">
        <ele>809.0</ele>
      </trkpt>
      <trkpt lat="37.22822" lon="-122.11612">
        <ele>809.0</ele>
      </trkpt>
      <trkpt lat="37.22819" lon="-122.11607">
        <ele>810.0</ele>
      </trkpt>
      <trkpt lat="37.2282" lon="-122.11598">
        <ele>809.0</ele>
      </trkpt>
      <trkpt lat="37.22841" lon="-122.11557">
        <ele>810.0</ele>
      </trkpt>
      <trkpt lat="37.22862" lon="-122.11524">
        <ele>814.0</ele>
      </trkpt>
      <trkpt lat="37.22879" lon="-122.11509">
        <ele>829.0</ele>
      </trkpt>
      <trkpt lat="37.2288" lon="-122.11492">
        <ele>829.0</ele>
      </trkpt>
      <trkpt lat="37.22872" lon="-122.11484">
        <ele>814.0</ele>
      </trkpt>
      <trkpt lat="37.2286" lon="-122.11479">
        <ele>814.0</ele>
      </trkpt>
      <trkpt lat="37.22853" lon="-122.1147">
        <ele>814.0</ele>
      </trkpt>
      <trkpt lat="37.22853661282142" lon="-122.1144354871433">
        <ele>816.0</ele>
      </trkpt>
      <trkpt lat="37.22853699697659" lon="-122.1144201209365">
        <ele>816.0</ele>
      </trkpt>
      <trkpt lat="37.22853735498972" lon="-122.1144058004112">
        <ele>816.0</ele>
      </trkpt>
      <trkpt lat="37.22853793124254" lon="-122.1143827502984">
        <ele>816.0</ele>
      </trkpt>
      <trkpt lat="37.22854" lon="-122.1143">
        <ele>818.0</ele>
      </trkpt>
      <trkpt lat="37.22861" lon="-122.11416">
        <ele>818.0</ele>
      </trkpt>
      <trkpt lat="37.22877" lon="-122.11396">
        <ele>825.0</ele>
      </trkpt>
      <trkpt lat="37.22897" lon="-122.11391">
        <ele>825.0</ele>
      </trkpt>
      <trkpt lat="37.22899" lon="-122.11386">
        <ele>825.0</ele>
      </trkpt>
      <trkpt lat="37.22897" lon="-122.11381">
        <ele>825.0</ele>
      </trkpt>
      <trkpt lat="37.22882" lon="-122.11373">
        <ele>830.0</ele>
      </trkpt>
      <trkpt lat="37.22861" lon="-122.11371">
        <ele>824.0</ele>
      </trkpt>
      <trkpt lat="37.22841" lon="-122.11378">
        <ele>811.0</ele>
      </trkpt>
      <trkpt lat="37.22828" lon="-122.11377">
        <ele>811.0</ele>
      </trkpt>
      <trkpt lat="37.22819" lon="-122.1137">
        <ele>807.0</ele>
      </trkpt>
      <trkpt lat="37.22811" lon="-122.1136">
        <ele>807.0</ele>
      </trkpt>
      <trkpt lat="37.22804" lon="-122.11344">
        <ele>809.0</ele>
      </trkpt>
      <trkpt lat="37.22802" lon="-122.11331">
        <ele>809.0</ele>
      </trkpt>
      <trkpt lat="37.22806" lon="-122.11317">
        <ele>805.0</ele>
      </trkpt>
      <trkpt lat="37.22815" lon="-122.11308">
        <ele>805.0</ele>
      </trkpt>
      <trkpt lat="37.2282" lon="-122.113">
        <ele>822.0</ele>
      </trkpt>
      <trkpt lat="37.22821" lon="-122.11292">
        <ele>822.0</ele>
      </trkpt>
      <trkpt lat="37.22818" lon="-122.11274">
        <ele>801.0</ele>
      </trkpt>
      <trkpt lat="37.22821" lon="-122.11251">
        <ele>814.0</ele>
      </trkpt>
      <trkpt lat="37.22826" lon="-122.1124">
        <ele>814.0</ele>
      </trkpt>
      <trkpt lat="37.22835" lon="-122.1123">
        <ele>813.0</ele>
      </trkpt>
      <trkpt lat="37.22839" lon="-122.11216">
        <ele>813.0</ele>
      </trkpt>
      <trkpt lat="37.22848" lon="-122.11202">
        <ele>828.0</ele>
      </trkpt>
      <trkpt lat="37.22849" lon="-122.11168">
        <ele>824.0</ele>
      </trkpt>
      <trkpt lat="37.22863" lon="-122.11145">
        <ele>822.0</ele>
      </trkpt>
      <trkpt lat="37.22864" lon="-122.11122">
        <ele>823.0</ele>
      </trkpt>
      <trkpt lat="37.22874" lon="-122.11098">
        <ele>823.0</ele>
      </trkpt>
      <trkpt lat="37.22878" lon="-122.11084">
        <ele>831.0</ele>
      </trkpt>
      <trkpt lat="37.22876" lon="-122.1107">
        <ele>831.0</ele>
      </trkpt>
      <trkpt lat="37.22876" lon="-122.1107">
        <ele>831.0</ele>
      </trkpt>
      <trkpt lat="37.22868" lon="-122.11067">
        <ele>833.0</ele>
      </trkpt>
      <trkpt lat="37.22868" lon="-122.11067">
        <ele>833.0</ele>
      </trkpt>
      <trkpt lat="37.22858" lon="-122.11071">
        <ele>826.0</ele>
      </trkpt>
      <trkpt lat="37.22818" lon="-122.11064">
        <ele>814.0</ele>
      </trkpt>
      <trkpt lat="37.22805" lon="-122.11035">
        <ele>829.0</ele>
      </trkpt>
      <trkpt lat="37.22789" lon="-122.11021">
        <ele>820.0</ele>
      </trkpt>
      <trkpt lat="37.22785" lon="-122.11013">
        <ele>840.0</ele>
      </trkpt>
      <trkpt lat="37.22758" lon="-122.11014">
        <ele>806.0</ele>
      </trkpt>
      <trkpt lat="37.22737009783245" lon="-122.1100535696957">
        <ele>835.0</ele>
      </trkpt>
      <trkpt lat="37.22737009801351" lon="-122.1100535696957">
        <ele>835.0</ele>
      </trkpt>
      <trkpt lat="37.22724" lon="-122.11">
        <ele>820.0</ele>
      </trkpt>
      <trkpt lat="37.22694" lon="-122.10992">
        <ele>813.0</ele>
      </trkpt>
      <trkpt lat="37.22661" lon="-122.10974">
        <ele>818.0</ele>
      </trkpt>
      <trkpt lat="37.22649" lon="-122.10962">
        <ele>804.0</ele>
      </trkpt>
      <trkpt lat="37.22642" lon="-122.10951">
        <ele>812.0</ele>
      </trkpt>
      <trkpt lat="37.22641" lon="-122.10919">
        <ele>817.0</ele>
      </trkpt>
      <trkpt lat="37.22634" lon="-122.10901">
        <ele>817.0</ele>
      </trkpt>
      <trkpt lat="37.22623" lon="-122.10883">
        <ele>803.0</ele>
      </trkpt>
      <trkpt lat="37.22614" lon="-122.10854">
        <ele>804.0</ele>
      </trkpt>
      <trkpt lat="37.22618" lon="-122.10824">
        <ele>802.0</ele>
      </trkpt>
      <trkpt lat="37.22621" lon="-122.10815">
        <ele>798.0</ele>
      </trkpt>
      <trkpt lat="37.22632" lon="-122.10814">
        <ele>811.0</ele>
      </trkpt>
      <trkpt lat="37.22636" lon="-122.10811">
        <ele>811.0</ele>
      </trkpt>
      <trkpt lat="37.22648" lon="-122.10793">
        <ele>811.0</ele>
      </trkpt>
      <trkpt lat="37.22665" lon="-122.10792">
        <ele>822.0</ele>
      </trkpt>
      <trkpt lat="37.22673" lon="-122.10775">
        <ele>817.0</ele>
      </trkpt>
      <trkpt lat="37.22681" lon="-122.1077">
        <ele>824.0</ele>
      </trkpt>
      <trkpt lat="37.22695" lon="-122.10775">
        <ele>824.0</ele>
      </trkpt>
      <trkpt lat="37.22706" lon="-122.10762">
        <ele>818.0</ele>
      </trkpt>
      <trkpt lat="37.22717" lon="-122.10758">
        <ele>826.0</ele>
      </trkpt>
      <trkpt lat="37.22725" lon="-122.10746">
        <ele>826.0</ele>
      </trkpt>
      <trkpt lat="37.22726" lon="-122.10726">
        <ele>824.0</ele>
      </trkpt>
      <trkpt lat="37.22722" lon="-122.10709">
        <ele>824.0</ele>
      </trkpt>
      <trkpt lat="37.22703" lon="-122.1067">
        <ele>813.0</ele>
      </trkpt>
      <trkpt lat="37.22702" lon="-122.10651">
        <ele>820.0</ele>
      </trkpt>
      <trkpt lat="37.22705" lon="-122.10632">
        <ele>820.0</ele>
      </trkpt>
      <trkpt lat="37.22715" lon="-122.10615">
        <ele>845.0</ele>
      </trkpt>
      <trkpt lat="37.22716" lon="-122.10594">
        <ele>854.0</ele>
      </trkpt>
      <trkpt lat="37.22709" lon="-122.10577">
        <ele>854.0</ele>
      </trkpt>
      <trkpt lat="37.22696" lon="-122.10571">
        <ele>838.0</ele>
      </trkpt>
      <trkpt lat="37.22684" lon="-122.10541">
        <ele>853.0</ele>
      </trkpt>
      <trkpt lat="37.22681" lon="-122.10525">
        <ele>853.0</ele>
      </trkpt>
      <trkpt lat="37.22652" lon="-122.10505">
        <ele>846.0</ele>
      </trkpt>
      <trkpt lat="37.22652" lon="-122.10505">
        <ele>846.0</ele>
      </trkpt>
      <trkpt lat="37.22652" lon="-122.10505">
        <ele>846.0</ele>
      </trkpt>
      <trkpt lat="37.22648027245064" lon="-122.1050764850365">
        <ele>846.0</ele>
      </trkpt>
      <trkpt lat="37.22652" lon="-122.10505">
        <ele>846.0</ele>
      </trkpt>
      <trkpt lat="37.22652" lon="-122.10505">
        <ele>846.0</ele>
      </trkpt>
      <trkpt lat="37.22654" lon="-122.10493">
        <ele>844.0</ele>
      </trkpt>
      <trkpt lat="37.22677" lon="-122.1044">
        <ele>854.0</ele>
      </trkpt>
      <trkpt lat="37.22678" lon="-122.10428">
        <ele>856.0</ele>
      </trkpt>
      <trkpt lat="37.22676" lon="-122.10413">
        <ele>856.0</ele>
      </trkpt>
      <trkpt lat="37.2269" lon="-122.10394">
        <ele>861.0</ele>
      </trkpt>
      <trkpt lat="37.22717" lon="-122.10373">
        <ele>869.0</ele>
      </trkpt>
      <trkpt lat="37.22727" lon="-122.10348">
        <ele>869.0</ele>
      </trkpt>
      <trkpt lat="37.22731567586069" lon="-122.1034270160016">
        <ele>874.0</ele>
      </trkpt>
      <trkpt lat="37.22731567591908" lon="-122.1034270160016">
        <ele>874.0</ele>
      </trkpt>
      <trkpt lat="37.22750848199043" lon="-122.1032033608911">
        <ele>876.0</ele>
      </trkpt>
      <trkpt lat="37.22752" lon="-122.10319">
        <ele>882.0</ele>
      </trkpt>
      <trkpt lat="37.22752" lon="-122.10316">
        <ele>882.0</ele>
      </trkpt>
      <trkpt lat="37.22752" lon="-122.10314">
        <ele>882.0</ele>
      </trkpt>
      <trkpt lat="37.2278" lon="-122.10286">
        <ele>889.0</ele>
      </trkpt>
      <trkpt lat="37.22805" lon="-122.10252">
        <ele>896.0</ele>
      </trkpt>
      <trkpt lat="37.22846" lon="-122.10205">
        <ele>906.0</ele>
      </trkpt>
      <trkpt lat="37.22846" lon="-122.10205">
        <ele>906.0</ele>
      </trkpt>
      <trkpt lat="37.22869" lon="-122.10177">
        <ele>904.0</ele>
      </trkpt>
      <trkpt lat="37.22869" lon="-122.10159">
        <ele>904.0</ele>
      </trkpt>
      <trkpt lat="37.22871000000571" lon="-122.1015499999886">
        <ele>904.0</ele>
      </trkpt>
      <trkpt lat="37.22871000000571" lon="-122.1015499999886">
        <ele>904.0</ele>
      </trkpt>
      <trkpt lat="37.22877" lon="-122.10143">
        <ele>906.0</ele>
      </trkpt>
      <trkpt lat="37.22881" lon="-122.1012">
        <ele>909.0</ele>
      </trkpt>
      <trkpt lat="37.22910784828898" lon="-122.1004313592542">
        <ele>920.0</ele>
      </trkpt>
      <trkpt lat="37.22910784831297" lon="-122.1004313592542">
        <ele>920.0</ele>
      </trkpt>
      <trkpt lat="37.22912" lon="-122.1004">
        <ele>925.0</ele>
      </trkpt>
      <trkpt lat="37.22908" lon="-122.10021">
        <ele>925.0</ele>
      </trkpt>
      <trkpt lat="37.2292" lon="-122.10003">
        <ele>928.0</ele>
      </trkpt>
      <trkpt lat="37.2292" lon="-122.09991">
        <ele>928.0</ele>
      </trkpt>
      <trkpt lat="37.22938" lon="-122.09949">
        <ele>929.0</ele>
      </trkpt>
      <trkpt lat="37.22938" lon="-122.09929">
        <ele>931.0</ele>
      </trkpt>
      <trkpt lat="37.22932" lon="-122.09918">
        <ele>931.0</ele>
      </trkpt>
      <trkpt lat="37.22942" lon="-122.09899">
        <ele>931.0</ele>
      </trkpt>
      <trkpt lat="37.22942" lon="-122.09857">
        <ele>930.0</ele>
      </trkpt>
      <trkpt lat="37.22963" lon="-122.09827">
        <ele>926.0</ele>
      </trkpt>
      <trkpt lat="37.22948" lon="-122.09801">
        <ele>933.0</ele>
      </trkpt>
      <trkpt lat="37.22948" lon="-122.09793">
        <ele>933.0</ele>
      </trkpt>
      <trkpt lat="37.22948" lon="-122.09793">
        <ele>933.0</ele>
      </trkpt>
      <trkpt lat="37.22948" lon="-122.09793">
        <ele>933.0</ele>
      </trkpt>
      <trkpt lat="37.22959" lon="-122.09762">
        <ele>938.0</ele>
      </trkpt>
      <trkpt lat="37.22959" lon="-122.09762">
        <ele>938.0</ele>
      </trkpt>
      <trkpt lat="37.22967" lon="-122.09762">
        <ele>938.0</ele>
      </trkpt>
      <trkpt lat="37.22967" lon="-122.09762">
        <ele>938.0</ele>
      </trkpt>
      <trkpt lat="37.23004" lon="-122.09715">
        <ele>944.0</ele>
      </trkpt>
      <trkpt lat="37.23004" lon="-122.09715">
        <ele>944.0</ele>
      </trkpt>
      <trkpt lat="37.23006" lon="-122.09705">
        <ele>945.0</ele>
      </trkpt>
      <trkpt lat="37.23006" lon="-122.09705">
        <ele>945.0</ele>
      </trkpt>
      <trkpt lat="37.23012" lon="-122.09693">
        <ele>945.0</ele>
      </trkpt>
      <trkpt lat="37.23014" lon="-122.09669">
        <ele>941.0</ele>
      </trkpt>
      <trkpt lat="37.23019" lon="-122.09651">
        <ele>944.0</ele>
      </trkpt>
      <trkpt lat="37.23026" lon="-122.09635">
        <ele>944.0</ele>
      </trkpt>
      <trkpt lat="37.23033" lon="-122.09629">
        <ele>944.0</ele>
      </trkpt>
      <trkpt lat="37.23033" lon="-122.09629">
        <ele>944.0</ele>
      </trkpt>
      <trkpt lat="37.23038" lon="-122.09624">
        <ele>947.0</ele>
      </trkpt>
      <trkpt lat="37.23044" lon="-122.09614">
        <ele>940.0</ele>
      </trkpt>
      <trkpt lat="37.2305210898838" lon="-122.0959507902711">
        <ele>938.0</ele>
      </trkpt>
      <trkpt lat="37.23055048978421" lon="-122.09592461586">
        <ele>938.0</ele>
      </trkpt>
    </trkseg>
  </trk>
</gpx>
