<?xml version="1.0" encoding="UTF-8"?>
<gpx xmlns:xsi="http://www.w3.org/2001/XMLSchema-instance" version="1.1" creator="The Outbound Collective, Inc. 1.1.1 -- https://www.theoutbound.com" xsi:schemaLocation="http://www.topografix.com/GPX/1/1 http://www.topografix.com/GPX/1/1/gpx.xsd">
  <metadata>
    <name/>
    <time>2026-02-19T21:49:23+00:00</time>
    <bound minlat="37.06195" minlon="-121.90604" maxlat="37.09092" maxlon="-121.83024"/>
  </metadata>
  <trk>
    <name/>
    <trkseg>
      <trkpt lat="37.08223741731722" lon="-121.8524551391602">
        <ele>533.0</ele>
      </trkpt>
      <trkpt lat="37.08222517800041" lon="-121.8524622462534">
        <ele>533.0</ele>
      </trkpt>
      <trkpt lat="37.08235" lon="-121.8528">
        <ele>535.0</ele>
      </trkpt>
      <trkpt lat="37.08243" lon="-121.85315">
        <ele>531.0</ele>
      </trkpt>
      <trkpt lat="37.08266" lon="-121.85359">
        <ele>533.0</ele>
      </trkpt>
      <trkpt lat="37.08274" lon="-121.85383">
        <ele>534.0</ele>
      </trkpt>
      <trkpt lat="37.08312" lon="-121.85453">
        <ele>537.0</ele>
      </trkpt>
      <trkpt lat="37.08337" lon="-121.85541">
        <ele>542.0</ele>
      </trkpt>
      <trkpt lat="37.08342" lon="-121.85574">
        <ele>550.0</ele>
      </trkpt>
      <trkpt lat="37.08339" lon="-121.85639">
        <ele>553.0</ele>
      </trkpt>
      <trkpt lat="37.0834" lon="-121.85651">
        <ele>553.0</ele>
      </trkpt>
      <trkpt lat="37.08351" lon="-121.85667">
        <ele>537.0</ele>
      </trkpt>
      <trkpt lat="37.08355" lon="-121.85678">
        <ele>537.0</ele>
      </trkpt>
      <trkpt lat="37.08359" lon="-121.85698">
        <ele>541.0</ele>
      </trkpt>
      <trkpt lat="37.08358" lon="-121.85727">
        <ele>542.0</ele>
      </trkpt>
      <trkpt lat="37.08359" lon="-121.85743">
        <ele>544.0</ele>
      </trkpt>
      <trkpt lat="37.08365" lon="-121.85766">
        <ele>546.0</ele>
      </trkpt>
      <trkpt lat="37.08365" lon="-121.85782">
        <ele>546.0</ele>
      </trkpt>
      <trkpt lat="37.08372" lon="-121.85805">
        <ele>546.0</ele>
      </trkpt>
      <trkpt lat="37.0837" lon="-121.85826">
        <ele>548.0</ele>
      </trkpt>
      <trkpt lat="37.08365" lon="-121.85849">
        <ele>546.0</ele>
      </trkpt>
      <trkpt lat="37.08376" lon="-121.85881">
        <ele>540.0</ele>
      </trkpt>
      <trkpt lat="37.08383" lon="-121.85916">
        <ele>539.0</ele>
      </trkpt>
      <trkpt lat="37.08382" lon="-121.85988">
        <ele>547.0</ele>
      </trkpt>
      <trkpt lat="37.08389" lon="-121.86035">
        <ele>549.0</ele>
      </trkpt>
      <trkpt lat="37.08389" lon="-121.86035">
        <ele>549.0</ele>
      </trkpt>
      <trkpt lat="37.08393" lon="-121.86049">
        <ele>550.0</ele>
      </trkpt>
      <trkpt lat="37.08411" lon="-121.86069">
        <ele>548.0</ele>
      </trkpt>
      <trkpt lat="37.08424" lon="-121.861">
        <ele>557.0</ele>
      </trkpt>
      <trkpt lat="37.08424" lon="-121.861">
        <ele>557.0</ele>
      </trkpt>
      <trkpt lat="37.08424" lon="-121.861">
        <ele>557.0</ele>
      </trkpt>
      <trkpt lat="37.08443" lon="-121.86203">
        <ele>551.0</ele>
      </trkpt>
      <trkpt lat="37.08441880064814" lon="-121.8622166558644">
        <ele>551.0</ele>
      </trkpt>
      <trkpt lat="37.08441880064952" lon="-121.8622166558644">
        <ele>551.0</ele>
      </trkpt>
      <trkpt lat="37.0844" lon="-121.86253">
        <ele>551.0</ele>
      </trkpt>
      <trkpt lat="37.08443" lon="-121.86267">
        <ele>550.0</ele>
      </trkpt>
      <trkpt lat="37.08456" lon="-121.86297">
        <ele>552.0</ele>
      </trkpt>
      <trkpt lat="37.08461" lon="-121.86319">
        <ele>551.0</ele>
      </trkpt>
      <trkpt lat="37.08462" lon="-121.86366">
        <ele>554.0</ele>
      </trkpt>
      <trkpt lat="37.08466" lon="-121.8638">
        <ele>555.0</ele>
      </trkpt>
      <trkpt lat="37.08491" lon="-121.86421">
        <ele>548.0</ele>
      </trkpt>
      <trkpt lat="37.08496" lon="-121.86437">
        <ele>544.0</ele>
      </trkpt>
      <trkpt lat="37.08499" lon="-121.86492">
        <ele>546.0</ele>
      </trkpt>
      <trkpt lat="37.08502" lon="-121.86503">
        <ele>546.0</ele>
      </trkpt>
      <trkpt lat="37.08527" lon="-121.86549">
        <ele>540.0</ele>
      </trkpt>
      <trkpt lat="37.08532" lon="-121.86566">
        <ele>540.0</ele>
      </trkpt>
      <trkpt lat="37.08547" lon="-121.86621">
        <ele>533.0</ele>
      </trkpt>
      <trkpt lat="37.08556" lon="-121.86692">
        <ele>530.0</ele>
      </trkpt>
      <trkpt lat="37.08584" lon="-121.86753">
        <ele>525.0</ele>
      </trkpt>
      <trkpt lat="37.08591" lon="-121.86779">
        <ele>526.0</ele>
      </trkpt>
      <trkpt lat="37.08595" lon="-121.8681">
        <ele>525.0</ele>
      </trkpt>
      <trkpt lat="37.08597" lon="-121.86869">
        <ele>521.0</ele>
      </trkpt>
      <trkpt lat="37.08591" lon="-121.86956">
        <ele>517.0</ele>
      </trkpt>
      <trkpt lat="37.08597" lon="-121.86995">
        <ele>520.0</ele>
      </trkpt>
      <trkpt lat="37.08605" lon="-121.87012">
        <ele>514.0</ele>
      </trkpt>
      <trkpt lat="37.08641" lon="-121.87065">
        <ele>512.0</ele>
      </trkpt>
      <trkpt lat="37.08657" lon="-121.87096">
        <ele>504.0</ele>
      </trkpt>
      <trkpt lat="37.08661" lon="-121.87106">
        <ele>502.0</ele>
      </trkpt>
      <trkpt lat="37.08667" lon="-121.87159">
        <ele>506.0</ele>
      </trkpt>
      <trkpt lat="37.08674" lon="-121.87189">
        <ele>508.0</ele>
      </trkpt>
      <trkpt lat="37.08708" lon="-121.87257">
        <ele>507.0</ele>
      </trkpt>
      <trkpt lat="37.0874" lon="-121.8736">
        <ele>499.0</ele>
      </trkpt>
      <trkpt lat="37.08787" lon="-121.87478">
        <ele>498.0</ele>
      </trkpt>
      <trkpt lat="37.08809" lon="-121.87525">
        <ele>491.0</ele>
      </trkpt>
      <trkpt lat="37.08811" lon="-121.87539">
        <ele>491.0</ele>
      </trkpt>
      <trkpt lat="37.0881" lon="-121.8758">
        <ele>496.0</ele>
      </trkpt>
      <trkpt lat="37.08797" lon="-121.87697">
        <ele>490.0</ele>
      </trkpt>
      <trkpt lat="37.08807" lon="-121.87749">
        <ele>482.0</ele>
      </trkpt>
      <trkpt lat="37.08808" lon="-121.87768">
        <ele>480.0</ele>
      </trkpt>
      <trkpt lat="37.08797" lon="-121.87833">
        <ele>478.0</ele>
      </trkpt>
      <trkpt lat="37.08798" lon="-121.8788">
        <ele>472.0</ele>
      </trkpt>
      <trkpt lat="37.08801" lon="-121.87897">
        <ele>472.0</ele>
      </trkpt>
      <trkpt lat="37.08812" lon="-121.87913">
        <ele>473.0</ele>
      </trkpt>
      <trkpt lat="37.08831" lon="-121.87933">
        <ele>462.0</ele>
      </trkpt>
      <trkpt lat="37.08836" lon="-121.87943">
        <ele>462.0</ele>
      </trkpt>
      <trkpt lat="37.08863" lon="-121.88027">
        <ele>465.0</ele>
      </trkpt>
      <trkpt lat="37.08904" lon="-121.88109">
        <ele>463.0</ele>
      </trkpt>
      <trkpt lat="37.08923" lon="-121.88169">
        <ele>466.0</ele>
      </trkpt>
      <trkpt lat="37.08953" lon="-121.88232">
        <ele>451.0</ele>
      </trkpt>
      <trkpt lat="37.08953" lon="-121.88232">
        <ele>451.0</ele>
      </trkpt>
      <trkpt lat="37.08963" lon="-121.88263">
        <ele>446.0</ele>
      </trkpt>
      <trkpt lat="37.08966" lon="-121.8828">
        <ele>445.0</ele>
      </trkpt>
      <trkpt lat="37.08963" lon="-121.88304">
        <ele>445.0</ele>
      </trkpt>
      <trkpt lat="37.0895" lon="-121.88323">
        <ele>443.0</ele>
      </trkpt>
      <trkpt lat="37.08909" lon="-121.88349">
        <ele>447.0</ele>
      </trkpt>
      <trkpt lat="37.08904" lon="-121.88363">
        <ele>447.0</ele>
      </trkpt>
      <trkpt lat="37.08908" lon="-121.88408">
        <ele>446.0</ele>
      </trkpt>
      <trkpt lat="37.08928" lon="-121.88508">
        <ele>443.0</ele>
      </trkpt>
      <trkpt lat="37.08922" lon="-121.88563">
        <ele>444.0</ele>
      </trkpt>
      <trkpt lat="37.08931" lon="-121.88588">
        <ele>438.0</ele>
      </trkpt>
      <trkpt lat="37.08965" lon="-121.88632">
        <ele>437.0</ele>
      </trkpt>
      <trkpt lat="37.08975" lon="-121.88648">
        <ele>437.0</ele>
      </trkpt>
      <trkpt lat="37.08981" lon="-121.88678">
        <ele>435.0</ele>
      </trkpt>
      <trkpt lat="37.0898" lon="-121.88718">
        <ele>433.0</ele>
      </trkpt>
      <trkpt lat="37.08985" lon="-121.8875">
        <ele>434.0</ele>
      </trkpt>
      <trkpt lat="37.08994" lon="-121.88769">
        <ele>436.0</ele>
      </trkpt>
      <trkpt lat="37.09004" lon="-121.88778">
        <ele>436.0</ele>
      </trkpt>
      <trkpt lat="37.09024" lon="-121.88779">
        <ele>432.0</ele>
      </trkpt>
      <trkpt lat="37.09024" lon="-121.88779">
        <ele>432.0</ele>
      </trkpt>
      <trkpt lat="37.09035" lon="-121.88778">
        <ele>432.0</ele>
      </trkpt>
      <trkpt lat="37.09049" lon="-121.88784">
        <ele>431.0</ele>
      </trkpt>
      <trkpt lat="37.09079" lon="-121.88811">
        <ele>435.0</ele>
      </trkpt>
      <trkpt lat="37.09088" lon="-121.88824">
        <ele>437.0</ele>
      </trkpt>
      <trkpt lat="37.09092" lon="-121.88836">
        <ele>437.0</ele>
      </trkpt>
      <trkpt lat="37.09092" lon="-121.88853">
        <ele>439.0</ele>
      </trkpt>
      <trkpt lat="37.09088" lon="-121.88868">
        <ele>439.0</ele>
      </trkpt>
      <trkpt lat="37.09079" lon="-121.88882">
        <ele>435.0</ele>
      </trkpt>
      <trkpt lat="37.09051" lon="-121.88909">
        <ele>431.0</ele>
      </trkpt>
      <trkpt lat="37.0903" lon="-121.88923">
        <ele>433.0</ele>
      </trkpt>
      <trkpt lat="37.09026" lon="-121.88928">
        <ele>433.0</ele>
      </trkpt>
      <trkpt lat="37.09026" lon="-121.88928">
        <ele>433.0</ele>
      </trkpt>
      <trkpt lat="37.09027" lon="-121.88947">
        <ele>434.0</ele>
      </trkpt>
      <trkpt lat="37.09032" lon="-121.88957">
        <ele>434.0</ele>
      </trkpt>
      <trkpt lat="37.09055" lon="-121.88985">
        <ele>431.0</ele>
      </trkpt>
      <trkpt lat="37.09063" lon="-121.89003">
        <ele>430.0</ele>
      </trkpt>
      <trkpt lat="37.09071" lon="-121.89028">
        <ele>427.0</ele>
      </trkpt>
      <trkpt lat="37.09074" lon="-121.89103">
        <ele>416.0</ele>
      </trkpt>
      <trkpt lat="37.09073" lon="-121.89123">
        <ele>416.0</ele>
      </trkpt>
      <trkpt lat="37.09068" lon="-121.89137">
        <ele>413.0</ele>
      </trkpt>
      <trkpt lat="37.0906" lon="-121.89149">
        <ele>413.0</ele>
      </trkpt>
      <trkpt lat="37.09041" lon="-121.89162">
        <ele>410.0</ele>
      </trkpt>
      <trkpt lat="37.09024" lon="-121.89168">
        <ele>410.0</ele>
      </trkpt>
      <trkpt lat="37.09024" lon="-121.89168">
        <ele>410.0</ele>
      </trkpt>
      <trkpt lat="37.09002" lon="-121.89179">
        <ele>416.0</ele>
      </trkpt>
      <trkpt lat="37.08982" lon="-121.89206">
        <ele>412.0</ele>
      </trkpt>
      <trkpt lat="37.08976" lon="-121.89221">
        <ele>405.0</ele>
      </trkpt>
      <trkpt lat="37.08967" lon="-121.89269">
        <ele>393.0</ele>
      </trkpt>
      <trkpt lat="37.08962" lon="-121.89282">
        <ele>393.0</ele>
      </trkpt>
      <trkpt lat="37.08954" lon="-121.89289">
        <ele>394.0</ele>
      </trkpt>
      <trkpt lat="37.08947" lon="-121.8929">
        <ele>394.0</ele>
      </trkpt>
      <trkpt lat="37.08888" lon="-121.89282">
        <ele>384.0</ele>
      </trkpt>
      <trkpt lat="37.08862" lon="-121.89264">
        <ele>382.0</ele>
      </trkpt>
      <trkpt lat="37.08811" lon="-121.89217">
        <ele>395.0</ele>
      </trkpt>
      <trkpt lat="37.08798" lon="-121.89212">
        <ele>395.0</ele>
      </trkpt>
      <trkpt lat="37.08787" lon="-121.89212">
        <ele>401.0</ele>
      </trkpt>
      <trkpt lat="37.08776" lon="-121.89218">
        <ele>401.0</ele>
      </trkpt>
      <trkpt lat="37.08766" lon="-121.89235">
        <ele>401.0</ele>
      </trkpt>
      <trkpt lat="37.08764" lon="-121.89243">
        <ele>396.0</ele>
      </trkpt>
      <trkpt lat="37.08764" lon="-121.8927">
        <ele>393.0</ele>
      </trkpt>
      <trkpt lat="37.08769" lon="-121.89288">
        <ele>393.0</ele>
      </trkpt>
      <trkpt lat="37.08791" lon="-121.89332">
        <ele>391.0</ele>
      </trkpt>
      <trkpt lat="37.088" lon="-121.89377">
        <ele>390.0</ele>
      </trkpt>
      <trkpt lat="37.088" lon="-121.89388">
        <ele>390.0</ele>
      </trkpt>
      <trkpt lat="37.08796" lon="-121.89401">
        <ele>390.0</ele>
      </trkpt>
      <trkpt lat="37.08779" lon="-121.89433">
        <ele>385.0</ele>
      </trkpt>
      <trkpt lat="37.08775" lon="-121.89447">
        <ele>385.0</ele>
      </trkpt>
      <trkpt lat="37.08776" lon="-121.89456">
        <ele>385.0</ele>
      </trkpt>
      <trkpt lat="37.08781" lon="-121.89472">
        <ele>387.0</ele>
      </trkpt>
      <trkpt lat="37.08789245600344" lon="-121.8948720855175">
        <ele>389.0</ele>
      </trkpt>
      <trkpt lat="37.08789245620336" lon="-121.8948720855174">
        <ele>389.0</ele>
      </trkpt>
      <trkpt lat="37.08826" lon="-121.89555">
        <ele>372.0</ele>
      </trkpt>
      <trkpt lat="37.08835" lon="-121.89579">
        <ele>375.0</ele>
      </trkpt>
      <trkpt lat="37.08838" lon="-121.89593">
        <ele>375.0</ele>
      </trkpt>
      <trkpt lat="37.08837" lon="-121.89612">
        <ele>375.0</ele>
      </trkpt>
      <trkpt lat="37.0883" lon="-121.89647">
        <ele>372.0</ele>
      </trkpt>
      <trkpt lat="37.08824" lon="-121.89663">
        <ele>364.0</ele>
      </trkpt>
      <trkpt lat="37.08816" lon="-121.89671">
        <ele>368.0</ele>
      </trkpt>
      <trkpt lat="37.08772" lon="-121.89685">
        <ele>362.0</ele>
      </trkpt>
      <trkpt lat="37.0875" lon="-121.89696">
        <ele>365.0</ele>
      </trkpt>
      <trkpt lat="37.08743" lon="-121.89703">
        <ele>365.0</ele>
      </trkpt>
      <trkpt lat="37.08725" lon="-121.89735">
        <ele>361.0</ele>
      </trkpt>
      <trkpt lat="37.08701" lon="-121.89748">
        <ele>357.0</ele>
      </trkpt>
      <trkpt lat="37.08696000000384" lon="-121.8975299999962">
        <ele>357.0</ele>
      </trkpt>
      <trkpt lat="37.08696000000384" lon="-121.8975299999962">
        <ele>357.0</ele>
      </trkpt>
      <trkpt lat="37.08693" lon="-121.89756">
        <ele>357.0</ele>
      </trkpt>
      <trkpt lat="37.08679" lon="-121.89805">
        <ele>349.0</ele>
      </trkpt>
      <trkpt lat="37.08673" lon="-121.8984">
        <ele>342.0</ele>
      </trkpt>
      <trkpt lat="37.08661" lon="-121.89856">
        <ele>334.0</ele>
      </trkpt>
      <trkpt lat="37.08645" lon="-121.89866">
        <ele>337.0</ele>
      </trkpt>
      <trkpt lat="37.08622" lon="-121.89887">
        <ele>330.0</ele>
      </trkpt>
      <trkpt lat="37.08592" lon="-121.89904">
        <ele>324.0</ele>
      </trkpt>
      <trkpt lat="37.08586" lon="-121.8992">
        <ele>324.0</ele>
      </trkpt>
      <trkpt lat="37.08576" lon="-121.89959">
        <ele>311.0</ele>
      </trkpt>
      <trkpt lat="37.08566" lon="-121.89978">
        <ele>315.0</ele>
      </trkpt>
      <trkpt lat="37.08512" lon="-121.90015">
        <ele>301.0</ele>
      </trkpt>
      <trkpt lat="37.08495" lon="-121.9002">
        <ele>301.0</ele>
      </trkpt>
      <trkpt lat="37.08483" lon="-121.90016">
        <ele>303.0</ele>
      </trkpt>
      <trkpt lat="37.08451" lon="-121.89994">
        <ele>306.0</ele>
      </trkpt>
      <trkpt lat="37.08431" lon="-121.89987">
        <ele>306.0</ele>
      </trkpt>
      <trkpt lat="37.08403" lon="-121.8999">
        <ele>306.0</ele>
      </trkpt>
      <trkpt lat="37.08359" lon="-121.89978">
        <ele>317.0</ele>
      </trkpt>
      <trkpt lat="37.08348" lon="-121.89982">
        <ele>317.0</ele>
      </trkpt>
      <trkpt lat="37.08343" lon="-121.89991">
        <ele>318.0</ele>
      </trkpt>
      <trkpt lat="37.08346312329235" lon="-121.9000330293716">
        <ele>318.0</ele>
      </trkpt>
      <trkpt lat="37.08346312333098" lon="-121.9000330293716">
        <ele>318.0</ele>
      </trkpt>
      <trkpt lat="37.08364" lon="-121.90069">
        <ele>306.0</ele>
      </trkpt>
      <trkpt lat="37.08378" lon="-121.90095">
        <ele>304.0</ele>
      </trkpt>
      <trkpt lat="37.084" lon="-121.90119">
        <ele>305.0</ele>
      </trkpt>
      <trkpt lat="37.08411" lon="-121.90138">
        <ele>302.0</ele>
      </trkpt>
      <trkpt lat="37.08411" lon="-121.90138">
        <ele>302.0</ele>
      </trkpt>
      <trkpt lat="37.08411" lon="-121.90138">
        <ele>302.0</ele>
      </trkpt>
      <trkpt lat="37.08431" lon="-121.90165">
        <ele>295.0</ele>
      </trkpt>
      <trkpt lat="37.08444" lon="-121.9019">
        <ele>295.0</ele>
      </trkpt>
      <trkpt lat="37.08469" lon="-121.90209">
        <ele>290.0</ele>
      </trkpt>
      <trkpt lat="37.08484" lon="-121.9023">
        <ele>290.0</ele>
      </trkpt>
      <trkpt lat="37.08493" lon="-121.90257">
        <ele>285.0</ele>
      </trkpt>
      <trkpt lat="37.08506" lon="-121.9033">
        <ele>280.0</ele>
      </trkpt>
      <trkpt lat="37.08506" lon="-121.9042165123935">
        <ele>280.0</ele>
      </trkpt>
      <trkpt lat="37.08506" lon="-121.904231872202">
        <ele>280.0</ele>
      </trkpt>
      <trkpt lat="37.08506" lon="-121.9042445773979">
        <ele>280.0</ele>
      </trkpt>
      <trkpt lat="37.08506" lon="-121.9042785333964">
        <ele>280.0</ele>
      </trkpt>
      <trkpt lat="37.08506" lon="-121.9043">
        <ele>280.0</ele>
      </trkpt>
      <trkpt lat="37.08506" lon="-121.9043">
        <ele>280.0</ele>
      </trkpt>
      <trkpt lat="37.08509487837462" lon="-121.9045635254972">
        <ele>277.0</ele>
      </trkpt>
      <trkpt lat="37.0850948783873" lon="-121.9045635254972">
        <ele>277.0</ele>
      </trkpt>
      <trkpt lat="37.08506" lon="-121.9043">
        <ele>280.0</ele>
      </trkpt>
      <trkpt lat="37.08506" lon="-121.9043">
        <ele>280.0</ele>
      </trkpt>
      <trkpt lat="37.08506" lon="-121.9042785333964">
        <ele>280.0</ele>
      </trkpt>
      <trkpt lat="37.08503548333454" lon="-121.9042561333237">
        <ele>280.0</ele>
      </trkpt>
      <trkpt lat="37.08503" lon="-121.9043">
        <ele>280.0</ele>
      </trkpt>
      <trkpt lat="37.08503" lon="-121.9043">
        <ele>280.0</ele>
      </trkpt>
      <trkpt lat="37.085" lon="-121.90476">
        <ele>269.0</ele>
      </trkpt>
      <trkpt lat="37.08498" lon="-121.90488">
        <ele>264.0</ele>
      </trkpt>
      <trkpt lat="37.08493" lon="-121.90494">
        <ele>264.0</ele>
      </trkpt>
      <trkpt lat="37.08464" lon="-121.90491">
        <ele>265.0</ele>
      </trkpt>
      <trkpt lat="37.08443" lon="-121.905">
        <ele>269.0</ele>
      </trkpt>
      <trkpt lat="37.08437" lon="-121.905">
        <ele>269.0</ele>
      </trkpt>
      <trkpt lat="37.0841" lon="-121.9049">
        <ele>277.0</ele>
      </trkpt>
      <trkpt lat="37.08403" lon="-121.90491">
        <ele>277.0</ele>
      </trkpt>
      <trkpt lat="37.08366" lon="-121.90531">
        <ele>285.0</ele>
      </trkpt>
      <trkpt lat="37.08339" lon="-121.9054">
        <ele>293.0</ele>
      </trkpt>
      <trkpt lat="37.08326" lon="-121.90549">
        <ele>291.0</ele>
      </trkpt>
      <trkpt lat="37.08324" lon="-121.90588">
        <ele>290.0</ele>
      </trkpt>
      <trkpt lat="37.08319" lon="-121.90599">
        <ele>289.0</ele>
      </trkpt>
      <trkpt lat="37.08313" lon="-121.90604">
        <ele>289.0</ele>
      </trkpt>
      <trkpt lat="37.08307" lon="-121.90599">
        <ele>289.0</ele>
      </trkpt>
      <trkpt lat="37.08305" lon="-121.90591">
        <ele>294.0</ele>
      </trkpt>
      <trkpt lat="37.08304" lon="-121.90539">
        <ele>301.0</ele>
      </trkpt>
      <trkpt lat="37.08309" lon="-121.90526">
        <ele>301.0</ele>
      </trkpt>
      <trkpt lat="37.08319" lon="-121.90511">
        <ele>306.0</ele>
      </trkpt>
      <trkpt lat="37.08341" lon="-121.90485">
        <ele>302.0</ele>
      </trkpt>
      <trkpt lat="37.08343" lon="-121.90477">
        <ele>302.0</ele>
      </trkpt>
      <trkpt lat="37.0834" lon="-121.90469">
        <ele>302.0</ele>
      </trkpt>
      <trkpt lat="37.0834" lon="-121.90453">
        <ele>306.0</ele>
      </trkpt>
      <trkpt lat="37.08337" lon="-121.90448">
        <ele>306.0</ele>
      </trkpt>
      <trkpt lat="37.0833" lon="-121.90451">
        <ele>306.0</ele>
      </trkpt>
      <trkpt lat="37.08325" lon="-121.90449">
        <ele>306.0</ele>
      </trkpt>
      <trkpt lat="37.08326" lon="-121.90438">
        <ele>306.0</ele>
      </trkpt>
      <trkpt lat="37.08331" lon="-121.9043">
        <ele>308.0</ele>
      </trkpt>
      <trkpt lat="37.08331" lon="-121.9043">
        <ele>308.0</ele>
      </trkpt>
      <trkpt lat="37.08339" lon="-121.90407">
        <ele>308.0</ele>
      </trkpt>
      <trkpt lat="37.08338" lon="-121.90387">
        <ele>311.0</ele>
      </trkpt>
      <trkpt lat="37.08333" lon="-121.90384">
        <ele>311.0</ele>
      </trkpt>
      <trkpt lat="37.08326" lon="-121.90385">
        <ele>311.0</ele>
      </trkpt>
      <trkpt lat="37.08318" lon="-121.90392">
        <ele>317.0</ele>
      </trkpt>
      <trkpt lat="37.08299" lon="-121.90424">
        <ele>315.0</ele>
      </trkpt>
      <trkpt lat="37.08293" lon="-121.9043">
        <ele>315.0</ele>
      </trkpt>
      <trkpt lat="37.08293" lon="-121.9043">
        <ele>315.0</ele>
      </trkpt>
      <trkpt lat="37.08287" lon="-121.90432">
        <ele>323.0</ele>
      </trkpt>
      <trkpt lat="37.08286" lon="-121.9043">
        <ele>324.0</ele>
      </trkpt>
      <trkpt lat="37.08286" lon="-121.9043">
        <ele>324.0</ele>
      </trkpt>
      <trkpt lat="37.08286" lon="-121.90421">
        <ele>324.0</ele>
      </trkpt>
      <trkpt lat="37.08292" lon="-121.90407">
        <ele>315.0</ele>
      </trkpt>
      <trkpt lat="37.08292" lon="-121.90379">
        <ele>317.0</ele>
      </trkpt>
      <trkpt lat="37.08295" lon="-121.90356">
        <ele>317.0</ele>
      </trkpt>
      <trkpt lat="37.08292" lon="-121.90346">
        <ele>317.0</ele>
      </trkpt>
      <trkpt lat="37.08288" lon="-121.90345">
        <ele>330.0</ele>
      </trkpt>
      <trkpt lat="37.08275" lon="-121.90352">
        <ele>329.0</ele>
      </trkpt>
      <trkpt lat="37.08264" lon="-121.9037">
        <ele>329.0</ele>
      </trkpt>
      <trkpt lat="37.08256" lon="-121.90394">
        <ele>335.0</ele>
      </trkpt>
      <trkpt lat="37.08251" lon="-121.9043">
        <ele>332.0</ele>
      </trkpt>
      <trkpt lat="37.08251" lon="-121.9043">
        <ele>332.0</ele>
      </trkpt>
      <trkpt lat="37.08249" lon="-121.90433">
        <ele>328.0</ele>
      </trkpt>
      <trkpt lat="37.08246" lon="-121.9043">
        <ele>332.0</ele>
      </trkpt>
      <trkpt lat="37.08246" lon="-121.9043">
        <ele>332.0</ele>
      </trkpt>
      <trkpt lat="37.0824" lon="-121.90421">
        <ele>332.0</ele>
      </trkpt>
      <trkpt lat="37.08235" lon="-121.90403">
        <ele>338.0</ele>
      </trkpt>
      <trkpt lat="37.08231" lon="-121.90334">
        <ele>343.0</ele>
      </trkpt>
      <trkpt lat="37.08220215698198" lon="-121.9027401232123">
        <ele>340.0</ele>
      </trkpt>
      <trkpt lat="37.08220215701909" lon="-121.9027401232123">
        <ele>340.0</ele>
      </trkpt>
      <trkpt lat="37.08215" lon="-121.90245">
        <ele>339.0</ele>
      </trkpt>
      <trkpt lat="37.08193" lon="-121.90171">
        <ele>347.0</ele>
      </trkpt>
      <trkpt lat="37.08195" lon="-121.90129">
        <ele>349.0</ele>
      </trkpt>
      <trkpt lat="37.08192" lon="-121.90116">
        <ele>350.0</ele>
      </trkpt>
      <trkpt lat="37.08177" lon="-121.90082">
        <ele>355.0</ele>
      </trkpt>
      <trkpt lat="37.08177" lon="-121.90082">
        <ele>355.0</ele>
      </trkpt>
      <trkpt lat="37.08174" lon="-121.90067">
        <ele>358.0</ele>
      </trkpt>
      <trkpt lat="37.08175" lon="-121.90055">
        <ele>358.0</ele>
      </trkpt>
      <trkpt lat="37.08195" lon="-121.90017">
        <ele>354.0</ele>
      </trkpt>
      <trkpt lat="37.08195" lon="-121.89977">
        <ele>362.0</ele>
      </trkpt>
      <trkpt lat="37.08204" lon="-121.89947">
        <ele>368.0</ele>
      </trkpt>
      <trkpt lat="37.08205" lon="-121.89909">
        <ele>370.0</ele>
      </trkpt>
      <trkpt lat="37.08203" lon="-121.89877">
        <ele>371.0</ele>
      </trkpt>
      <trkpt lat="37.08216" lon="-121.8983">
        <ele>368.0</ele>
      </trkpt>
      <trkpt lat="37.08226" lon="-121.89809">
        <ele>371.0</ele>
      </trkpt>
      <trkpt lat="37.08224" lon="-121.89804">
        <ele>371.0</ele>
      </trkpt>
      <trkpt lat="37.08219" lon="-121.89803">
        <ele>371.0</ele>
      </trkpt>
      <trkpt lat="37.08199" lon="-121.89827">
        <ele>377.0</ele>
      </trkpt>
      <trkpt lat="37.08194" lon="-121.89827">
        <ele>377.0</ele>
      </trkpt>
      <trkpt lat="37.08193" lon="-121.89811">
        <ele>381.0</ele>
      </trkpt>
      <trkpt lat="37.08204" lon="-121.89785">
        <ele>384.0</ele>
      </trkpt>
      <trkpt lat="37.08205743409903" lon="-121.8977541124554">
        <ele>384.0</ele>
      </trkpt>
      <trkpt lat="37.0820574340993" lon="-121.8977541124553">
        <ele>384.0</ele>
      </trkpt>
      <trkpt lat="37.08206" lon="-121.89774">
        <ele>384.0</ele>
      </trkpt>
      <trkpt lat="37.08182" lon="-121.89739">
        <ele>386.0</ele>
      </trkpt>
      <trkpt lat="37.08174" lon="-121.89713">
        <ele>396.0</ele>
      </trkpt>
      <trkpt lat="37.08172" lon="-121.89686">
        <ele>395.0</ele>
      </trkpt>
      <trkpt lat="37.08163" lon="-121.89664">
        <ele>400.0</ele>
      </trkpt>
      <trkpt lat="37.08145" lon="-121.8965">
        <ele>403.0</ele>
      </trkpt>
      <trkpt lat="37.08129" lon="-121.89625">
        <ele>405.0</ele>
      </trkpt>
      <trkpt lat="37.08119" lon="-121.89617">
        <ele>408.0</ele>
      </trkpt>
      <trkpt lat="37.08116" lon="-121.89618">
        <ele>408.0</ele>
      </trkpt>
      <trkpt lat="37.08114" lon="-121.89623">
        <ele>408.0</ele>
      </trkpt>
      <trkpt lat="37.08116" lon="-121.89637">
        <ele>409.0</ele>
      </trkpt>
      <trkpt lat="37.08135" lon="-121.89672">
        <ele>404.0</ele>
      </trkpt>
      <trkpt lat="37.08144" lon="-121.89697">
        <ele>405.0</ele>
      </trkpt>
      <trkpt lat="37.0814" lon="-121.89715">
        <ele>405.0</ele>
      </trkpt>
      <trkpt lat="37.08124" lon="-121.89755">
        <ele>415.0</ele>
      </trkpt>
      <trkpt lat="37.08124" lon="-121.89755">
        <ele>415.0</ele>
      </trkpt>
      <trkpt lat="37.08109" lon="-121.89788">
        <ele>413.0</ele>
      </trkpt>
      <trkpt lat="37.08101" lon="-121.89818">
        <ele>412.0</ele>
      </trkpt>
      <trkpt lat="37.08087" lon="-121.8984">
        <ele>413.0</ele>
      </trkpt>
      <trkpt lat="37.08061" lon="-121.89897">
        <ele>410.0</ele>
      </trkpt>
      <trkpt lat="37.08048" lon="-121.8991">
        <ele>404.0</ele>
      </trkpt>
      <trkpt lat="37.08018" lon="-121.89923">
        <ele>410.0</ele>
      </trkpt>
      <trkpt lat="37.08012" lon="-121.89919">
        <ele>415.0</ele>
      </trkpt>
      <trkpt lat="37.08013" lon="-121.89912">
        <ele>415.0</ele>
      </trkpt>
      <trkpt lat="37.08028" lon="-121.89897">
        <ele>419.0</ele>
      </trkpt>
      <trkpt lat="37.08030787358472" lon="-121.8989163969525">
        <ele>419.0</ele>
      </trkpt>
      <trkpt lat="37.08030787360349" lon="-121.8989163969525">
        <ele>419.0</ele>
      </trkpt>
      <trkpt lat="37.08041" lon="-121.89872">
        <ele>423.0</ele>
      </trkpt>
      <trkpt lat="37.08045" lon="-121.8986">
        <ele>416.0</ele>
      </trkpt>
      <trkpt lat="37.08041" lon="-121.89853">
        <ele>423.0</ele>
      </trkpt>
      <trkpt lat="37.08025" lon="-121.89847">
        <ele>426.0</ele>
      </trkpt>
      <trkpt lat="37.08032" lon="-121.89834">
        <ele>426.0</ele>
      </trkpt>
      <trkpt lat="37.08032" lon="-121.89831">
        <ele>426.0</ele>
      </trkpt>
      <trkpt lat="37.08026" lon="-121.89828">
        <ele>426.0</ele>
      </trkpt>
      <trkpt lat="37.08012" lon="-121.8983">
        <ele>430.0</ele>
      </trkpt>
      <trkpt lat="37.07992" lon="-121.89847">
        <ele>430.0</ele>
      </trkpt>
      <trkpt lat="37.07983" lon="-121.89849">
        <ele>428.0</ele>
      </trkpt>
      <trkpt lat="37.08001" lon="-121.89802">
        <ele>434.0</ele>
      </trkpt>
      <trkpt lat="37.08005" lon="-121.89771">
        <ele>441.0</ele>
      </trkpt>
      <trkpt lat="37.08005" lon="-121.89771">
        <ele>441.0</ele>
      </trkpt>
      <trkpt lat="37.0801" lon="-121.89759">
        <ele>445.0</ele>
      </trkpt>
      <trkpt lat="37.08024" lon="-121.89742">
        <ele>440.0</ele>
      </trkpt>
      <trkpt lat="37.08029" lon="-121.89713">
        <ele>443.0</ele>
      </trkpt>
      <trkpt lat="37.0804" lon="-121.89683">
        <ele>442.0</ele>
      </trkpt>
      <trkpt lat="37.08041" lon="-121.89667">
        <ele>441.0</ele>
      </trkpt>
      <trkpt lat="37.08037" lon="-121.89656">
        <ele>441.0</ele>
      </trkpt>
      <trkpt lat="37.08015" lon="-121.89637">
        <ele>440.0</ele>
      </trkpt>
      <trkpt lat="37.08003" lon="-121.89616">
        <ele>445.0</ele>
      </trkpt>
      <trkpt lat="37.07997" lon="-121.89592">
        <ele>442.0</ele>
      </trkpt>
      <trkpt lat="37.07998" lon="-121.89566">
        <ele>440.0</ele>
      </trkpt>
      <trkpt lat="37.07996" lon="-121.89561">
        <ele>440.0</ele>
      </trkpt>
      <trkpt lat="37.0799" lon="-121.89562">
        <ele>440.0</ele>
      </trkpt>
      <trkpt lat="37.07984" lon="-121.89572">
        <ele>450.0</ele>
      </trkpt>
      <trkpt lat="37.07981" lon="-121.89572">
        <ele>450.0</ele>
      </trkpt>
      <trkpt lat="37.07975" lon="-121.8956">
        <ele>450.0</ele>
      </trkpt>
      <trkpt lat="37.07973" lon="-121.89549">
        <ele>450.0</ele>
      </trkpt>
      <trkpt lat="37.07975" lon="-121.89543">
        <ele>450.0</ele>
      </trkpt>
      <trkpt lat="37.07987" lon="-121.89528">
        <ele>441.0</ele>
      </trkpt>
      <trkpt lat="37.07987" lon="-121.89518">
        <ele>441.0</ele>
      </trkpt>
      <trkpt lat="37.07985680294034" lon="-121.8950876205783">
        <ele>455.0</ele>
      </trkpt>
      <trkpt lat="37.07985" lon="-121.89504">
        <ele>455.0</ele>
      </trkpt>
      <trkpt lat="37.07986" lon="-121.89484">
        <ele>459.0</ele>
      </trkpt>
      <trkpt lat="37.07984" lon="-121.89477">
        <ele>459.0</ele>
      </trkpt>
      <trkpt lat="37.07973" lon="-121.89463">
        <ele>459.0</ele>
      </trkpt>
      <trkpt lat="37.07972" lon="-121.89458">
        <ele>463.0</ele>
      </trkpt>
      <trkpt lat="37.07985" lon="-121.89439">
        <ele>463.0</ele>
      </trkpt>
      <trkpt lat="37.07986" lon="-121.8942">
        <ele>463.0</ele>
      </trkpt>
      <trkpt lat="37.07961" lon="-121.89386">
        <ele>462.0</ele>
      </trkpt>
      <trkpt lat="37.07955" lon="-121.89392">
        <ele>467.0</ele>
      </trkpt>
      <trkpt lat="37.07949" lon="-121.89417">
        <ele>468.0</ele>
      </trkpt>
      <trkpt lat="37.07947" lon="-121.89419">
        <ele>468.0</ele>
      </trkpt>
      <trkpt lat="37.07943" lon="-121.89414">
        <ele>468.0</ele>
      </trkpt>
      <trkpt lat="37.07938" lon="-121.89391">
        <ele>467.0</ele>
      </trkpt>
      <trkpt lat="37.0794" lon="-121.89349">
        <ele>469.0</ele>
      </trkpt>
      <trkpt lat="37.0794" lon="-121.89339">
        <ele>471.0</ele>
      </trkpt>
      <trkpt lat="37.07937" lon="-121.89334">
        <ele>471.0</ele>
      </trkpt>
      <trkpt lat="37.07932" lon="-121.89335">
        <ele>471.0</ele>
      </trkpt>
      <trkpt lat="37.07925" lon="-121.89344">
        <ele>478.0</ele>
      </trkpt>
      <trkpt lat="37.07913" lon="-121.89378">
        <ele>477.0</ele>
      </trkpt>
      <trkpt lat="37.07908" lon="-121.89382">
        <ele>477.0</ele>
      </trkpt>
      <trkpt lat="37.07906" lon="-121.89379">
        <ele>477.0</ele>
      </trkpt>
      <trkpt lat="37.07906" lon="-121.8934">
        <ele>478.0</ele>
      </trkpt>
      <trkpt lat="37.07911" lon="-121.89309">
        <ele>477.0</ele>
      </trkpt>
      <trkpt lat="37.07906" lon="-121.89298">
        <ele>477.0</ele>
      </trkpt>
      <trkpt lat="37.07898" lon="-121.89305">
        <ele>486.0</ele>
      </trkpt>
      <trkpt lat="37.07886" lon="-121.89351">
        <ele>486.0</ele>
      </trkpt>
      <trkpt lat="37.0788" lon="-121.89362">
        <ele>486.0</ele>
      </trkpt>
      <trkpt lat="37.07873" lon="-121.89367">
        <ele>493.0</ele>
      </trkpt>
      <trkpt lat="37.07873" lon="-121.89367">
        <ele>493.0</ele>
      </trkpt>
      <trkpt lat="37.07869" lon="-121.89356">
        <ele>493.0</ele>
      </trkpt>
      <trkpt lat="37.07867" lon="-121.89334">
        <ele>493.0</ele>
      </trkpt>
      <trkpt lat="37.07869" lon="-121.89315">
        <ele>494.0</ele>
      </trkpt>
      <trkpt lat="37.07877" lon="-121.89287">
        <ele>488.0</ele>
      </trkpt>
      <trkpt lat="37.07877" lon="-121.8925">
        <ele>491.0</ele>
      </trkpt>
      <trkpt lat="37.07873" lon="-121.89227">
        <ele>499.0</ele>
      </trkpt>
      <trkpt lat="37.07865" lon="-121.89211">
        <ele>499.0</ele>
      </trkpt>
      <trkpt lat="37.07862364395406" lon="-121.8920956239749">
        <ele>499.0</ele>
      </trkpt>
      <trkpt lat="37.0786236439686" lon="-121.8920956239749">
        <ele>499.0</ele>
      </trkpt>
      <trkpt lat="37.07854" lon="-121.89205">
        <ele>499.0</ele>
      </trkpt>
      <trkpt lat="37.07839" lon="-121.89219">
        <ele>511.0</ele>
      </trkpt>
      <trkpt lat="37.07836" lon="-121.8922">
        <ele>511.0</ele>
      </trkpt>
      <trkpt lat="37.07826" lon="-121.89211">
        <ele>511.0</ele>
      </trkpt>
      <trkpt lat="37.07819" lon="-121.89212">
        <ele>517.0</ele>
      </trkpt>
      <trkpt lat="37.07811" lon="-121.89224">
        <ele>517.0</ele>
      </trkpt>
      <trkpt lat="37.07803" lon="-121.89253">
        <ele>515.0</ele>
      </trkpt>
      <trkpt lat="37.07799" lon="-121.89246">
        <ele>515.0</ele>
      </trkpt>
      <trkpt lat="37.07793" lon="-121.89213">
        <ele>517.0</ele>
      </trkpt>
      <trkpt lat="37.07787" lon="-121.89235">
        <ele>524.0</ele>
      </trkpt>
      <trkpt lat="37.07776" lon="-121.89244">
        <ele>521.0</ele>
      </trkpt>
      <trkpt lat="37.07772" lon="-121.89235">
        <ele>524.0</ele>
      </trkpt>
      <trkpt lat="37.07766" lon="-121.89245">
        <ele>521.0</ele>
      </trkpt>
      <trkpt lat="37.07766" lon="-121.89245">
        <ele>521.0</ele>
      </trkpt>
      <trkpt lat="37.07737" lon="-121.89296">
        <ele>526.0</ele>
      </trkpt>
      <trkpt lat="37.07731" lon="-121.89342">
        <ele>538.0</ele>
      </trkpt>
      <trkpt lat="37.0772" lon="-121.89367">
        <ele>539.0</ele>
      </trkpt>
      <trkpt lat="37.07719" lon="-121.89378">
        <ele>538.0</ele>
      </trkpt>
      <trkpt lat="37.07727" lon="-121.89407">
        <ele>536.0</ele>
      </trkpt>
      <trkpt lat="37.07726" lon="-121.89419">
        <ele>536.0</ele>
      </trkpt>
      <trkpt lat="37.0772" lon="-121.89452">
        <ele>534.0</ele>
      </trkpt>
      <trkpt lat="37.07711" lon="-121.89471">
        <ele>532.0</ele>
      </trkpt>
      <trkpt lat="37.07711" lon="-121.89471">
        <ele>532.0</ele>
      </trkpt>
      <trkpt lat="37.07711" lon="-121.89471">
        <ele>532.0</ele>
      </trkpt>
      <trkpt lat="37.07708" lon="-121.89465">
        <ele>537.0</ele>
      </trkpt>
      <trkpt lat="37.07707" lon="-121.89449">
        <ele>542.0</ele>
      </trkpt>
      <trkpt lat="37.07708" lon="-121.89414">
        <ele>548.0</ele>
      </trkpt>
      <trkpt lat="37.07695" lon="-121.89348">
        <ele>548.0</ele>
      </trkpt>
      <trkpt lat="37.07698" lon="-121.8931">
        <ele>548.0</ele>
      </trkpt>
      <trkpt lat="37.07694" lon="-121.89286">
        <ele>553.0</ele>
      </trkpt>
      <trkpt lat="37.07696" lon="-121.89264">
        <ele>553.0</ele>
      </trkpt>
      <trkpt lat="37.07714" lon="-121.89223">
        <ele>551.0</ele>
      </trkpt>
      <trkpt lat="37.07718" lon="-121.89168">
        <ele>554.0</ele>
      </trkpt>
      <trkpt lat="37.07717" lon="-121.89156">
        <ele>554.0</ele>
      </trkpt>
      <trkpt lat="37.07711" lon="-121.89146">
        <ele>550.0</ele>
      </trkpt>
      <trkpt lat="37.07706" lon="-121.89149">
        <ele>557.0</ele>
      </trkpt>
      <trkpt lat="37.07700325657778" lon="-121.8916224013185">
        <ele>561.0</ele>
      </trkpt>
      <trkpt lat="37.077003256579" lon="-121.8916224013185">
        <ele>561.0</ele>
      </trkpt>
      <trkpt lat="37.077" lon="-121.89163">
        <ele>561.0</ele>
      </trkpt>
      <trkpt lat="37.07687" lon="-121.89216">
        <ele>560.0</ele>
      </trkpt>
      <trkpt lat="37.07681" lon="-121.89231">
        <ele>560.0</ele>
      </trkpt>
      <trkpt lat="37.07674" lon="-121.89241">
        <ele>564.0</ele>
      </trkpt>
      <trkpt lat="37.07633" lon="-121.89285">
        <ele>570.0</ele>
      </trkpt>
      <trkpt lat="37.07629" lon="-121.89292">
        <ele>567.0</ele>
      </trkpt>
      <trkpt lat="37.07629" lon="-121.8931">
        <ele>567.0</ele>
      </trkpt>
      <trkpt lat="37.07632" lon="-121.89336">
        <ele>568.0</ele>
      </trkpt>
      <trkpt lat="37.0763" lon="-121.89343">
        <ele>568.0</ele>
      </trkpt>
      <trkpt lat="37.07612" lon="-121.89352">
        <ele>574.0</ele>
      </trkpt>
      <trkpt lat="37.07581" lon="-121.89361">
        <ele>581.0</ele>
      </trkpt>
      <trkpt lat="37.07568" lon="-121.89373">
        <ele>590.0</ele>
      </trkpt>
      <trkpt lat="37.07558" lon="-121.89387">
        <ele>589.0</ele>
      </trkpt>
      <trkpt lat="37.07553" lon="-121.89388">
        <ele>589.0</ele>
      </trkpt>
      <trkpt lat="37.07556" lon="-121.89376">
        <ele>589.0</ele>
      </trkpt>
      <trkpt lat="37.07556" lon="-121.89341">
        <ele>594.0</ele>
      </trkpt>
      <trkpt lat="37.07562" lon="-121.89324">
        <ele>594.0</ele>
      </trkpt>
      <trkpt lat="37.07588" lon="-121.89307">
        <ele>591.0</ele>
      </trkpt>
      <trkpt lat="37.07594" lon="-121.89292">
        <ele>591.0</ele>
      </trkpt>
      <trkpt lat="37.07587" lon="-121.89246">
        <ele>599.0</ele>
      </trkpt>
      <trkpt lat="37.07592" lon="-121.89216">
        <ele>599.0</ele>
      </trkpt>
      <trkpt lat="37.07571" lon="-121.89169">
        <ele>594.0</ele>
      </trkpt>
      <trkpt lat="37.07554" lon="-121.89109">
        <ele>602.0</ele>
      </trkpt>
      <trkpt lat="37.07548" lon="-121.89108">
        <ele>602.0</ele>
      </trkpt>
      <trkpt lat="37.07545" lon="-121.89115">
        <ele>602.0</ele>
      </trkpt>
      <trkpt lat="37.0754" lon="-121.89118">
        <ele>611.0</ele>
      </trkpt>
      <trkpt lat="37.07534" lon="-121.89109">
        <ele>611.0</ele>
      </trkpt>
      <trkpt lat="37.07533" lon="-121.89098">
        <ele>611.0</ele>
      </trkpt>
      <trkpt lat="37.07545" lon="-121.8906">
        <ele>608.0</ele>
      </trkpt>
      <trkpt lat="37.07542" lon="-121.89056">
        <ele>608.0</ele>
      </trkpt>
      <trkpt lat="37.07535" lon="-121.89055">
        <ele>617.0</ele>
      </trkpt>
      <trkpt lat="37.07529" lon="-121.89051">
        <ele>617.0</ele>
      </trkpt>
      <trkpt lat="37.07527" lon="-121.89045">
        <ele>617.0</ele>
      </trkpt>
      <trkpt lat="37.07534" lon="-121.89026">
        <ele>618.0</ele>
      </trkpt>
      <trkpt lat="37.07532" lon="-121.89007">
        <ele>619.0</ele>
      </trkpt>
      <trkpt lat="37.07524" lon="-121.89005">
        <ele>619.0</ele>
      </trkpt>
      <trkpt lat="37.07514" lon="-121.89015">
        <ele>618.0</ele>
      </trkpt>
      <trkpt lat="37.075" lon="-121.89046">
        <ele>623.0</ele>
      </trkpt>
      <trkpt lat="37.07493" lon="-121.89073">
        <ele>621.0</ele>
      </trkpt>
      <trkpt lat="37.07483" lon="-121.89089">
        <ele>625.0</ele>
      </trkpt>
      <trkpt lat="37.07477" lon="-121.89095">
        <ele>625.0</ele>
      </trkpt>
      <trkpt lat="37.07469" lon="-121.89098">
        <ele>623.0</ele>
      </trkpt>
      <trkpt lat="37.07439" lon="-121.89088">
        <ele>630.0</ele>
      </trkpt>
      <trkpt lat="37.07421" lon="-121.89095">
        <ele>632.0</ele>
      </trkpt>
      <trkpt lat="37.07413" lon="-121.89093">
        <ele>632.0</ele>
      </trkpt>
      <trkpt lat="37.07397" lon="-121.89085">
        <ele>633.0</ele>
      </trkpt>
      <trkpt lat="37.07391" lon="-121.89075">
        <ele>633.0</ele>
      </trkpt>
      <trkpt lat="37.07388" lon="-121.89061">
        <ele>633.0</ele>
      </trkpt>
      <trkpt lat="37.07398" lon="-121.89039">
        <ele>634.0</ele>
      </trkpt>
      <trkpt lat="37.07406" lon="-121.89011">
        <ele>634.0</ele>
      </trkpt>
      <trkpt lat="37.0741" lon="-121.88982">
        <ele>636.0</ele>
      </trkpt>
      <trkpt lat="37.07407" lon="-121.88965">
        <ele>636.0</ele>
      </trkpt>
      <trkpt lat="37.07396" lon="-121.8895">
        <ele>640.0</ele>
      </trkpt>
      <trkpt lat="37.07386" lon="-121.8895">
        <ele>640.0</ele>
      </trkpt>
      <trkpt lat="37.07384" lon="-121.88959">
        <ele>639.0</ele>
      </trkpt>
      <trkpt lat="37.0739" lon="-121.88967">
        <ele>639.0</ele>
      </trkpt>
      <trkpt lat="37.0739" lon="-121.88975">
        <ele>639.0</ele>
      </trkpt>
      <trkpt lat="37.07385" lon="-121.88983">
        <ele>639.0</ele>
      </trkpt>
      <trkpt lat="37.0738" lon="-121.88988">
        <ele>637.0</ele>
      </trkpt>
      <trkpt lat="37.0737" lon="-121.88989">
        <ele>638.0</ele>
      </trkpt>
      <trkpt lat="37.07348" lon="-121.88986">
        <ele>641.0</ele>
      </trkpt>
      <trkpt lat="37.07348" lon="-121.88986">
        <ele>641.0</ele>
      </trkpt>
      <trkpt lat="37.07352" lon="-121.88927">
        <ele>636.0</ele>
      </trkpt>
      <trkpt lat="37.07358" lon="-121.88877">
        <ele>636.0</ele>
      </trkpt>
      <trkpt lat="37.07373" lon="-121.88834">
        <ele>645.0</ele>
      </trkpt>
      <trkpt lat="37.07373" lon="-121.88834">
        <ele>645.0</ele>
      </trkpt>
      <trkpt lat="37.07373" lon="-121.88834">
        <ele>645.0</ele>
      </trkpt>
      <trkpt lat="37.07363" lon="-121.8881">
        <ele>649.0</ele>
      </trkpt>
      <trkpt lat="37.07345" lon="-121.88793">
        <ele>641.0</ele>
      </trkpt>
      <trkpt lat="37.07341" lon="-121.88772">
        <ele>644.0</ele>
      </trkpt>
      <trkpt lat="37.07343" lon="-121.88759">
        <ele>645.0</ele>
      </trkpt>
      <trkpt lat="37.07361" lon="-121.88713">
        <ele>649.0</ele>
      </trkpt>
      <trkpt lat="37.0737" lon="-121.88698">
        <ele>644.0</ele>
      </trkpt>
      <trkpt lat="37.07393" lon="-121.88672">
        <ele>645.0</ele>
      </trkpt>
      <trkpt lat="37.07397" lon="-121.88663">
        <ele>645.0</ele>
      </trkpt>
      <trkpt lat="37.07407" lon="-121.88612">
        <ele>655.0</ele>
      </trkpt>
      <trkpt lat="37.07429" lon="-121.88582">
        <ele>656.0</ele>
      </trkpt>
      <trkpt lat="37.07435" lon="-121.88549">
        <ele>655.0</ele>
      </trkpt>
      <trkpt lat="37.07446" lon="-121.88526">
        <ele>658.0</ele>
      </trkpt>
      <trkpt lat="37.0747" lon="-121.88514">
        <ele>658.0</ele>
      </trkpt>
      <trkpt lat="37.07496" lon="-121.88509">
        <ele>659.0</ele>
      </trkpt>
      <trkpt lat="37.07518" lon="-121.88512">
        <ele>659.0</ele>
      </trkpt>
      <trkpt lat="37.07529" lon="-121.88509">
        <ele>659.0</ele>
      </trkpt>
      <trkpt lat="37.07544" lon="-121.88487">
        <ele>663.0</ele>
      </trkpt>
      <trkpt lat="37.07566" lon="-121.88483">
        <ele>664.0</ele>
      </trkpt>
      <trkpt lat="37.07596318180145" lon="-121.8846413535458">
        <ele>669.0</ele>
      </trkpt>
      <trkpt lat="37.07596318209497" lon="-121.8846413535458">
        <ele>669.0</ele>
      </trkpt>
      <trkpt lat="37.07611" lon="-121.88455">
        <ele>674.0</ele>
      </trkpt>
      <trkpt lat="37.07618" lon="-121.88449">
        <ele>674.0</ele>
      </trkpt>
      <trkpt lat="37.07629" lon="-121.8843">
        <ele>674.0</ele>
      </trkpt>
      <trkpt lat="37.07637" lon="-121.88424">
        <ele>674.0</ele>
      </trkpt>
      <trkpt lat="37.07684" lon="-121.88425">
        <ele>675.0</ele>
      </trkpt>
      <trkpt lat="37.07704" lon="-121.88421">
        <ele>675.0</ele>
      </trkpt>
      <trkpt lat="37.0772" lon="-121.88414">
        <ele>672.0</ele>
      </trkpt>
      <trkpt lat="37.07732" lon="-121.88405">
        <ele>672.0</ele>
      </trkpt>
      <trkpt lat="37.07732" lon="-121.88405">
        <ele>672.0</ele>
      </trkpt>
      <trkpt lat="37.07738" lon="-121.88385">
        <ele>671.0</ele>
      </trkpt>
      <trkpt lat="37.07738" lon="-121.88385">
        <ele>671.0</ele>
      </trkpt>
      <trkpt lat="37.07738" lon="-121.88385">
        <ele>671.0</ele>
      </trkpt>
      <trkpt lat="37.07738" lon="-121.88378">
        <ele>671.0</ele>
      </trkpt>
      <trkpt lat="37.07726" lon="-121.88351">
        <ele>671.0</ele>
      </trkpt>
      <trkpt lat="37.07734" lon="-121.88342">
        <ele>666.0</ele>
      </trkpt>
      <trkpt lat="37.07763" lon="-121.8833">
        <ele>674.0</ele>
      </trkpt>
      <trkpt lat="37.07763" lon="-121.8833">
        <ele>674.0</ele>
      </trkpt>
      <trkpt lat="37.07763" lon="-121.8833">
        <ele>674.0</ele>
      </trkpt>
      <trkpt lat="37.07757" lon="-121.88317">
        <ele>672.0</ele>
      </trkpt>
      <trkpt lat="37.07757" lon="-121.88317">
        <ele>672.0</ele>
      </trkpt>
      <trkpt lat="37.07757" lon="-121.88317">
        <ele>672.0</ele>
      </trkpt>
      <trkpt lat="37.07755" lon="-121.88306">
        <ele>672.0</ele>
      </trkpt>
      <trkpt lat="37.07759" lon="-121.88294">
        <ele>672.0</ele>
      </trkpt>
      <trkpt lat="37.07798" lon="-121.88275">
        <ele>687.0</ele>
      </trkpt>
      <trkpt lat="37.07811" lon="-121.88258">
        <ele>686.0</ele>
      </trkpt>
      <trkpt lat="37.0782" lon="-121.88251">
        <ele>698.0</ele>
      </trkpt>
      <trkpt lat="37.07854" lon="-121.88232">
        <ele>707.0</ele>
      </trkpt>
      <trkpt lat="37.07854" lon="-121.88232">
        <ele>707.0</ele>
      </trkpt>
      <trkpt lat="37.07864" lon="-121.88228">
        <ele>707.0</ele>
      </trkpt>
      <trkpt lat="37.07878" lon="-121.88203">
        <ele>708.0</ele>
      </trkpt>
      <trkpt lat="37.07894" lon="-121.88185">
        <ele>708.0</ele>
      </trkpt>
      <trkpt lat="37.07909" lon="-121.88162">
        <ele>709.0</ele>
      </trkpt>
      <trkpt lat="37.07931" lon="-121.8814">
        <ele>715.0</ele>
      </trkpt>
      <trkpt lat="37.07942" lon="-121.88135">
        <ele>715.0</ele>
      </trkpt>
      <trkpt lat="37.07951" lon="-121.88134">
        <ele>715.0</ele>
      </trkpt>
      <trkpt lat="37.07982" lon="-121.88143">
        <ele>719.0</ele>
      </trkpt>
      <trkpt lat="37.07998" lon="-121.8814">
        <ele>725.0</ele>
      </trkpt>
      <trkpt lat="37.08011" lon="-121.88131">
        <ele>725.0</ele>
      </trkpt>
      <trkpt lat="37.08034" lon="-121.88104">
        <ele>733.0</ele>
      </trkpt>
      <trkpt lat="37.08056" lon="-121.88088">
        <ele>741.0</ele>
      </trkpt>
      <trkpt lat="37.08059" lon="-121.88077">
        <ele>741.0</ele>
      </trkpt>
      <trkpt lat="37.08054" lon="-121.8803">
        <ele>749.0</ele>
      </trkpt>
      <trkpt lat="37.08036" lon="-121.87994">
        <ele>750.0</ele>
      </trkpt>
      <trkpt lat="37.08038" lon="-121.87974">
        <ele>755.0</ele>
      </trkpt>
      <trkpt lat="37.0805" lon="-121.87957">
        <ele>761.0</ele>
      </trkpt>
      <trkpt lat="37.08046" lon="-121.87939">
        <ele>761.0</ele>
      </trkpt>
      <trkpt lat="37.08032" lon="-121.87912">
        <ele>764.0</ele>
      </trkpt>
      <trkpt lat="37.08032" lon="-121.87866">
        <ele>762.0</ele>
      </trkpt>
      <trkpt lat="37.08025" lon="-121.87842">
        <ele>758.0</ele>
      </trkpt>
      <trkpt lat="37.08026" lon="-121.87835">
        <ele>758.0</ele>
      </trkpt>
      <trkpt lat="37.08031" lon="-121.87822">
        <ele>758.0</ele>
      </trkpt>
      <trkpt lat="37.08038" lon="-121.8782">
        <ele>758.0</ele>
      </trkpt>
      <trkpt lat="37.08042" lon="-121.87815">
        <ele>753.0</ele>
      </trkpt>
      <trkpt lat="37.08038" lon="-121.87809">
        <ele>753.0</ele>
      </trkpt>
      <trkpt lat="37.08022" lon="-121.87799">
        <ele>753.0</ele>
      </trkpt>
      <trkpt lat="37.08" lon="-121.87789">
        <ele>745.0</ele>
      </trkpt>
      <trkpt lat="37.07949" lon="-121.87786">
        <ele>744.0</ele>
      </trkpt>
      <trkpt lat="37.0793" lon="-121.87777">
        <ele>747.0</ele>
      </trkpt>
      <trkpt lat="37.07915" lon="-121.87761">
        <ele>748.0</ele>
      </trkpt>
      <trkpt lat="37.07908" lon="-121.87747">
        <ele>748.0</ele>
      </trkpt>
      <trkpt lat="37.07904" lon="-121.8773">
        <ele>750.0</ele>
      </trkpt>
      <trkpt lat="37.07905" lon="-121.8771">
        <ele>750.0</ele>
      </trkpt>
      <trkpt lat="37.07898" lon="-121.87631">
        <ele>746.0</ele>
      </trkpt>
      <trkpt lat="37.0787" lon="-121.87499">
        <ele>739.0</ele>
      </trkpt>
      <trkpt lat="37.07874" lon="-121.87478">
        <ele>740.0</ele>
      </trkpt>
      <trkpt lat="37.0786" lon="-121.87453">
        <ele>739.0</ele>
      </trkpt>
      <trkpt lat="37.07861" lon="-121.87426">
        <ele>737.0</ele>
      </trkpt>
      <trkpt lat="37.07883" lon="-121.87406">
        <ele>739.0</ele>
      </trkpt>
      <trkpt lat="37.07911" lon="-121.87356">
        <ele>738.0</ele>
      </trkpt>
      <trkpt lat="37.07925" lon="-121.87349">
        <ele>738.0</ele>
      </trkpt>
      <trkpt lat="37.07948" lon="-121.8731">
        <ele>741.0</ele>
      </trkpt>
      <trkpt lat="37.07958" lon="-121.87297">
        <ele>741.0</ele>
      </trkpt>
      <trkpt lat="37.0796" lon="-121.87291">
        <ele>753.0</ele>
      </trkpt>
      <trkpt lat="37.07956" lon="-121.87267">
        <ele>743.0</ele>
      </trkpt>
      <trkpt lat="37.07956" lon="-121.87238">
        <ele>745.0</ele>
      </trkpt>
      <trkpt lat="37.07956" lon="-121.87238">
        <ele>745.0</ele>
      </trkpt>
      <trkpt lat="37.07956" lon="-121.87238">
        <ele>745.0</ele>
      </trkpt>
      <trkpt lat="37.07946" lon="-121.87224">
        <ele>748.0</ele>
      </trkpt>
      <trkpt lat="37.07939" lon="-121.872">
        <ele>749.0</ele>
      </trkpt>
      <trkpt lat="37.0794" lon="-121.8719">
        <ele>749.0</ele>
      </trkpt>
      <trkpt lat="37.07954" lon="-121.87176">
        <ele>752.0</ele>
      </trkpt>
      <trkpt lat="37.07986" lon="-121.87152">
        <ele>760.0</ele>
      </trkpt>
      <trkpt lat="37.07993" lon="-121.87143">
        <ele>763.0</ele>
      </trkpt>
      <trkpt lat="37.07997" lon="-121.87129">
        <ele>763.0</ele>
      </trkpt>
      <trkpt lat="37.07996" lon="-121.87086">
        <ele>771.0</ele>
      </trkpt>
      <trkpt lat="37.08002" lon="-121.87054">
        <ele>772.0</ele>
      </trkpt>
      <trkpt lat="37.08011" lon="-121.87019">
        <ele>771.0</ele>
      </trkpt>
      <trkpt lat="37.08009" lon="-121.86982">
        <ele>772.0</ele>
      </trkpt>
      <trkpt lat="37.08017" lon="-121.86935">
        <ele>769.0</ele>
      </trkpt>
      <trkpt lat="37.08017" lon="-121.86917">
        <ele>771.0</ele>
      </trkpt>
      <trkpt lat="37.08007" lon="-121.86885">
        <ele>775.0</ele>
      </trkpt>
      <trkpt lat="37.08" lon="-121.86874">
        <ele>774.0</ele>
      </trkpt>
      <trkpt lat="37.07967" lon="-121.86842">
        <ele>775.0</ele>
      </trkpt>
      <trkpt lat="37.0796" lon="-121.86831">
        <ele>775.0</ele>
      </trkpt>
      <trkpt lat="37.07961" lon="-121.868">
        <ele>774.0</ele>
      </trkpt>
      <trkpt lat="37.07957" lon="-121.86787">
        <ele>775.0</ele>
      </trkpt>
      <trkpt lat="37.07918" lon="-121.86716">
        <ele>782.0</ele>
      </trkpt>
      <trkpt lat="37.07887" lon="-121.86609">
        <ele>789.0</ele>
      </trkpt>
      <trkpt lat="37.07881" lon="-121.86598">
        <ele>789.0</ele>
      </trkpt>
      <trkpt lat="37.0787" lon="-121.8659">
        <ele>790.0</ele>
      </trkpt>
      <trkpt lat="37.07828" lon="-121.86576">
        <ele>795.0</ele>
      </trkpt>
      <trkpt lat="37.07811" lon="-121.86562">
        <ele>796.0</ele>
      </trkpt>
      <trkpt lat="37.07791" lon="-121.86539">
        <ele>795.0</ele>
      </trkpt>
      <trkpt lat="37.07778656328004" lon="-121.865233957354">
        <ele>795.0</ele>
      </trkpt>
      <trkpt lat="37.07778656361101" lon="-121.865233957354">
        <ele>795.0</ele>
      </trkpt>
      <trkpt lat="37.07738" lon="-121.86472">
        <ele>793.0</ele>
      </trkpt>
      <trkpt lat="37.07727" lon="-121.86465">
        <ele>792.0</ele>
      </trkpt>
      <trkpt lat="37.07703" lon="-121.8644">
        <ele>790.0</ele>
      </trkpt>
      <trkpt lat="37.07694" lon="-121.86437">
        <ele>790.0</ele>
      </trkpt>
      <trkpt lat="37.07684" lon="-121.86438">
        <ele>790.0</ele>
      </trkpt>
      <trkpt lat="37.07673" lon="-121.86446">
        <ele>788.0</ele>
      </trkpt>
      <trkpt lat="37.07673" lon="-121.86446">
        <ele>788.0</ele>
      </trkpt>
      <trkpt lat="37.07661" lon="-121.86415">
        <ele>791.0</ele>
      </trkpt>
      <trkpt lat="37.07642" lon="-121.86386">
        <ele>788.0</ele>
      </trkpt>
      <trkpt lat="37.0764" lon="-121.86368">
        <ele>788.0</ele>
      </trkpt>
      <trkpt lat="37.07641" lon="-121.8635">
        <ele>788.0</ele>
      </trkpt>
      <trkpt lat="37.07649" lon="-121.86297">
        <ele>786.0</ele>
      </trkpt>
      <trkpt lat="37.07646" lon="-121.86276">
        <ele>786.0</ele>
      </trkpt>
      <trkpt lat="37.07637" lon="-121.86248">
        <ele>786.0</ele>
      </trkpt>
      <trkpt lat="37.07621" lon="-121.86224">
        <ele>780.0</ele>
      </trkpt>
      <trkpt lat="37.07617" lon="-121.86213">
        <ele>780.0</ele>
      </trkpt>
      <trkpt lat="37.07618" lon="-121.86205">
        <ele>774.0</ele>
      </trkpt>
      <trkpt lat="37.07633" lon="-121.86181">
        <ele>781.0</ele>
      </trkpt>
      <trkpt lat="37.07637" lon="-121.86169">
        <ele>779.0</ele>
      </trkpt>
      <trkpt lat="37.07642" lon="-121.8614">
        <ele>778.0</ele>
      </trkpt>
      <trkpt lat="37.07643" lon="-121.86119">
        <ele>777.0</ele>
      </trkpt>
      <trkpt lat="37.07639" lon="-121.86102">
        <ele>777.0</ele>
      </trkpt>
      <trkpt lat="37.07615" lon="-121.86035">
        <ele>780.0</ele>
      </trkpt>
      <trkpt lat="37.07615" lon="-121.86035">
        <ele>780.0</ele>
      </trkpt>
      <trkpt lat="37.076" lon="-121.85987">
        <ele>783.0</ele>
      </trkpt>
      <trkpt lat="37.07591" lon="-121.85965">
        <ele>786.0</ele>
      </trkpt>
      <trkpt lat="37.07584" lon="-121.85957">
        <ele>791.0</ele>
      </trkpt>
      <trkpt lat="37.07576" lon="-121.85951">
        <ele>791.0</ele>
      </trkpt>
      <trkpt lat="37.07563" lon="-121.85947">
        <ele>791.0</ele>
      </trkpt>
      <trkpt lat="37.07532" lon="-121.85941">
        <ele>791.0</ele>
      </trkpt>
      <trkpt lat="37.07512" lon="-121.8593">
        <ele>796.0</ele>
      </trkpt>
      <trkpt lat="37.07478" lon="-121.85918">
        <ele>798.0</ele>
      </trkpt>
      <trkpt lat="37.07454" lon="-121.85903">
        <ele>803.0</ele>
      </trkpt>
      <trkpt lat="37.07417" lon="-121.85875">
        <ele>803.0</ele>
      </trkpt>
      <trkpt lat="37.07375" lon="-121.85834">
        <ele>806.0</ele>
      </trkpt>
      <trkpt lat="37.07363" lon="-121.85819">
        <ele>810.0</ele>
      </trkpt>
      <trkpt lat="37.07338" lon="-121.8577">
        <ele>807.0</ele>
      </trkpt>
      <trkpt lat="37.07333707282773" lon="-121.8576504723252">
        <ele>807.0</ele>
      </trkpt>
      <trkpt lat="37.07333707282773" lon="-121.8576504723252">
        <ele>807.0</ele>
      </trkpt>
      <trkpt lat="37.07325" lon="-121.85755">
        <ele>810.0</ele>
      </trkpt>
      <trkpt lat="37.07271" lon="-121.85706">
        <ele>806.0</ele>
      </trkpt>
      <trkpt lat="37.07271" lon="-121.85706">
        <ele>806.0</ele>
      </trkpt>
      <trkpt lat="37.07253921998367" lon="-121.856902882385">
        <ele>803.0</ele>
      </trkpt>
      <trkpt lat="37.07253922007288" lon="-121.856902882385">
        <ele>803.0</ele>
      </trkpt>
      <trkpt lat="37.07246" lon="-121.85683">
        <ele>803.0</ele>
      </trkpt>
      <trkpt lat="37.07233" lon="-121.85678">
        <ele>808.0</ele>
      </trkpt>
      <trkpt lat="37.07153" lon="-121.85665">
        <ele>806.0</ele>
      </trkpt>
      <trkpt lat="37.0711" lon="-121.85635">
        <ele>800.0</ele>
      </trkpt>
      <trkpt lat="37.07096" lon="-121.85613">
        <ele>794.0</ele>
      </trkpt>
      <trkpt lat="37.07092937435291" lon="-121.8559768717645">
        <ele>794.0</ele>
      </trkpt>
      <trkpt lat="37.07092937435291" lon="-121.8559768717645">
        <ele>794.0</ele>
      </trkpt>
      <trkpt lat="37.07088" lon="-121.85573">
        <ele>793.0</ele>
      </trkpt>
      <trkpt lat="37.07092" lon="-121.85553">
        <ele>793.0</ele>
      </trkpt>
      <trkpt lat="37.07103" lon="-121.85539">
        <ele>798.0</ele>
      </trkpt>
      <trkpt lat="37.07138" lon="-121.8551">
        <ele>792.0</ele>
      </trkpt>
      <trkpt lat="37.07149" lon="-121.85499">
        <ele>792.0</ele>
      </trkpt>
      <trkpt lat="37.07153" lon="-121.85492">
        <ele>792.0</ele>
      </trkpt>
      <trkpt lat="37.07154" lon="-121.85483">
        <ele>784.0</ele>
      </trkpt>
      <trkpt lat="37.07154" lon="-121.85483">
        <ele>784.0</ele>
      </trkpt>
      <trkpt lat="37.07154" lon="-121.85483">
        <ele>784.0</ele>
      </trkpt>
      <trkpt lat="37.07152" lon="-121.85475">
        <ele>785.0</ele>
      </trkpt>
      <trkpt lat="37.07129" lon="-121.85443">
        <ele>780.0</ele>
      </trkpt>
      <trkpt lat="37.07125" lon="-121.85427">
        <ele>774.0</ele>
      </trkpt>
      <trkpt lat="37.07123" lon="-121.85402">
        <ele>772.0</ele>
      </trkpt>
      <trkpt lat="37.07124" lon="-121.85385">
        <ele>772.0</ele>
      </trkpt>
      <trkpt lat="37.0713" lon="-121.85364">
        <ele>775.0</ele>
      </trkpt>
      <trkpt lat="37.07145" lon="-121.85327">
        <ele>773.0</ele>
      </trkpt>
      <trkpt lat="37.07145736496693" lon="-121.8531447955622">
        <ele>773.0</ele>
      </trkpt>
      <trkpt lat="37.07145813935352" lon="-121.8531316309901">
        <ele>773.0</ele>
      </trkpt>
      <trkpt lat="37.07146" lon="-121.8531">
        <ele>773.0</ele>
      </trkpt>
      <trkpt lat="37.0714" lon="-121.85294">
        <ele>773.0</ele>
      </trkpt>
      <trkpt lat="37.07129" lon="-121.85281">
        <ele>773.0</ele>
      </trkpt>
      <trkpt lat="37.07091" lon="-121.85244">
        <ele>766.0</ele>
      </trkpt>
      <trkpt lat="37.07076" lon="-121.85235">
        <ele>766.0</ele>
      </trkpt>
      <trkpt lat="37.07039" lon="-121.85226">
        <ele>760.0</ele>
      </trkpt>
      <trkpt lat="37.07033" lon="-121.85219">
        <ele>760.0</ele>
      </trkpt>
      <trkpt lat="37.07031" lon="-121.85212">
        <ele>760.0</ele>
      </trkpt>
      <trkpt lat="37.07036" lon="-121.85156">
        <ele>756.0</ele>
      </trkpt>
      <trkpt lat="37.07042" lon="-121.85142">
        <ele>756.0</ele>
      </trkpt>
      <trkpt lat="37.07059" lon="-121.85115">
        <ele>753.0</ele>
      </trkpt>
      <trkpt lat="37.07066" lon="-121.85087">
        <ele>751.0</ele>
      </trkpt>
      <trkpt lat="37.07069" lon="-121.85017">
        <ele>753.0</ele>
      </trkpt>
      <trkpt lat="37.07066" lon="-121.85">
        <ele>754.0</ele>
      </trkpt>
      <trkpt lat="37.07059" lon="-121.8499">
        <ele>754.0</ele>
      </trkpt>
      <trkpt lat="37.0704" lon="-121.84977">
        <ele>753.0</ele>
      </trkpt>
      <trkpt lat="37.07013167927384" lon="-121.8497346946413">
        <ele>755.0</ele>
      </trkpt>
      <trkpt lat="37.07013" lon="-121.84975">
        <ele>755.0</ele>
      </trkpt>
      <trkpt lat="37.06997" lon="-121.85048">
        <ele>747.0</ele>
      </trkpt>
      <trkpt lat="37.06988" lon="-121.85073">
        <ele>745.0</ele>
      </trkpt>
      <trkpt lat="37.06979" lon="-121.85085">
        <ele>749.0</ele>
      </trkpt>
      <trkpt lat="37.0693" lon="-121.85132">
        <ele>753.0</ele>
      </trkpt>
      <trkpt lat="37.06883" lon="-121.85148">
        <ele>752.0</ele>
      </trkpt>
      <trkpt lat="37.06842" lon="-121.85147">
        <ele>742.0</ele>
      </trkpt>
      <trkpt lat="37.06807" lon="-121.85152">
        <ele>739.0</ele>
      </trkpt>
      <trkpt lat="37.06758" lon="-121.85171">
        <ele>722.0</ele>
      </trkpt>
      <trkpt lat="37.06743" lon="-121.85169">
        <ele>722.0</ele>
      </trkpt>
      <trkpt lat="37.06728" lon="-121.85157">
        <ele>722.0</ele>
      </trkpt>
      <trkpt lat="37.06673" lon="-121.85101">
        <ele>738.0</ele>
      </trkpt>
      <trkpt lat="37.06658" lon="-121.85073">
        <ele>742.0</ele>
      </trkpt>
      <trkpt lat="37.0665" lon="-121.85068">
        <ele>743.0</ele>
      </trkpt>
      <trkpt lat="37.06608" lon="-121.85058">
        <ele>745.0</ele>
      </trkpt>
      <trkpt lat="37.06575" lon="-121.85045">
        <ele>745.0</ele>
      </trkpt>
      <trkpt lat="37.06541" lon="-121.85041">
        <ele>736.0</ele>
      </trkpt>
      <trkpt lat="37.06511" lon="-121.85024">
        <ele>731.0</ele>
      </trkpt>
      <trkpt lat="37.065" lon="-121.85015">
        <ele>731.0</ele>
      </trkpt>
      <trkpt lat="37.06484" lon="-121.84982">
        <ele>728.0</ele>
      </trkpt>
      <trkpt lat="37.06478" lon="-121.84952">
        <ele>730.0</ele>
      </trkpt>
      <trkpt lat="37.06478" lon="-121.8493">
        <ele>734.0</ele>
      </trkpt>
      <trkpt lat="37.06485" lon="-121.84901">
        <ele>738.0</ele>
      </trkpt>
      <trkpt lat="37.06489" lon="-121.84879">
        <ele>737.0</ele>
      </trkpt>
      <trkpt lat="37.06514" lon="-121.84805">
        <ele>738.0</ele>
      </trkpt>
      <trkpt lat="37.06522" lon="-121.84767">
        <ele>738.0</ele>
      </trkpt>
      <trkpt lat="37.0653" lon="-121.84749">
        <ele>737.0</ele>
      </trkpt>
      <trkpt lat="37.06532" lon="-121.84732">
        <ele>735.0</ele>
      </trkpt>
      <trkpt lat="37.06527" lon="-121.84715">
        <ele>735.0</ele>
      </trkpt>
      <trkpt lat="37.06484" lon="-121.84628">
        <ele>744.0</ele>
      </trkpt>
      <trkpt lat="37.06468" lon="-121.84583">
        <ele>741.0</ele>
      </trkpt>
      <trkpt lat="37.06443" lon="-121.84528">
        <ele>737.0</ele>
      </trkpt>
      <trkpt lat="37.0644" lon="-121.84502">
        <ele>738.0</ele>
      </trkpt>
      <trkpt lat="37.06439" lon="-121.84418">
        <ele>750.0</ele>
      </trkpt>
      <trkpt lat="37.06434" lon="-121.84396">
        <ele>752.0</ele>
      </trkpt>
      <trkpt lat="37.06432" lon="-121.84371">
        <ele>750.0</ele>
      </trkpt>
      <trkpt lat="37.06429" lon="-121.84359">
        <ele>745.0</ele>
      </trkpt>
      <trkpt lat="37.06422724189957" lon="-121.8434779319635">
        <ele>745.0</ele>
      </trkpt>
      <trkpt lat="37.06422724193155" lon="-121.8434779319635">
        <ele>745.0</ele>
      </trkpt>
      <trkpt lat="37.06415" lon="-121.84334">
        <ele>746.0</ele>
      </trkpt>
      <trkpt lat="37.06396" lon="-121.84318">
        <ele>742.0</ele>
      </trkpt>
      <trkpt lat="37.06372" lon="-121.84292">
        <ele>735.0</ele>
      </trkpt>
      <trkpt lat="37.06337" lon="-121.84263">
        <ele>728.0</ele>
      </trkpt>
      <trkpt lat="37.06309" lon="-121.84233">
        <ele>721.0</ele>
      </trkpt>
      <trkpt lat="37.06263" lon="-121.84124">
        <ele>712.0</ele>
      </trkpt>
      <trkpt lat="37.06216" lon="-121.84075">
        <ele>706.0</ele>
      </trkpt>
      <trkpt lat="37.06197" lon="-121.84052">
        <ele>706.0</ele>
      </trkpt>
      <trkpt lat="37.06195" lon="-121.84042">
        <ele>706.0</ele>
      </trkpt>
      <trkpt lat="37.06195126956527" lon="-121.8404156347826">
        <ele>709.0</ele>
      </trkpt>
      <trkpt lat="37.062" lon="-121.84044">
        <ele>706.0</ele>
      </trkpt>
      <trkpt lat="37.06213" lon="-121.84047">
        <ele>707.0</ele>
      </trkpt>
      <trkpt lat="37.06257" lon="-121.84048">
        <ele>707.0</ele>
      </trkpt>
      <trkpt lat="37.06311" lon="-121.84028">
        <ele>706.0</ele>
      </trkpt>
      <trkpt lat="37.06334" lon="-121.84028">
        <ele>706.0</ele>
      </trkpt>
      <trkpt lat="37.06361" lon="-121.8404">
        <ele>706.0</ele>
      </trkpt>
      <trkpt lat="37.06372" lon="-121.84053">
        <ele>712.0</ele>
      </trkpt>
      <trkpt lat="37.06389" lon="-121.84084">
        <ele>714.0</ele>
      </trkpt>
      <trkpt lat="37.06399" lon="-121.84112">
        <ele>717.0</ele>
      </trkpt>
      <trkpt lat="37.06401" lon="-121.84128">
        <ele>718.0</ele>
      </trkpt>
      <trkpt lat="37.06407" lon="-121.8414">
        <ele>719.0</ele>
      </trkpt>
      <trkpt lat="37.06415" lon="-121.84144">
        <ele>719.0</ele>
      </trkpt>
      <trkpt lat="37.06423" lon="-121.84142">
        <ele>719.0</ele>
      </trkpt>
      <trkpt lat="37.06469" lon="-121.84114">
        <ele>708.0</ele>
      </trkpt>
      <trkpt lat="37.06503" lon="-121.84103">
        <ele>708.0</ele>
      </trkpt>
      <trkpt lat="37.06503" lon="-121.84103">
        <ele>708.0</ele>
      </trkpt>
      <trkpt lat="37.06525" lon="-121.84095">
        <ele>702.0</ele>
      </trkpt>
      <trkpt lat="37.06549" lon="-121.84095">
        <ele>701.0</ele>
      </trkpt>
      <trkpt lat="37.06592" lon="-121.84081">
        <ele>699.0</ele>
      </trkpt>
      <trkpt lat="37.06626" lon="-121.84083">
        <ele>701.0</ele>
      </trkpt>
      <trkpt lat="37.06651" lon="-121.84091">
        <ele>701.0</ele>
      </trkpt>
      <trkpt lat="37.06665" lon="-121.84101">
        <ele>700.0</ele>
      </trkpt>
      <trkpt lat="37.06693" lon="-121.84149">
        <ele>700.0</ele>
      </trkpt>
      <trkpt lat="37.06717" lon="-121.84168">
        <ele>702.0</ele>
      </trkpt>
      <trkpt lat="37.06736" lon="-121.84193">
        <ele>708.0</ele>
      </trkpt>
      <trkpt lat="37.06748" lon="-121.84202">
        <ele>706.0</ele>
      </trkpt>
      <trkpt lat="37.06755" lon="-121.842">
        <ele>706.0</ele>
      </trkpt>
      <trkpt lat="37.06767" lon="-121.84188">
        <ele>702.0</ele>
      </trkpt>
      <trkpt lat="37.06791" lon="-121.84135">
        <ele>687.0</ele>
      </trkpt>
      <trkpt lat="37.068" lon="-121.84129">
        <ele>687.0</ele>
      </trkpt>
      <trkpt lat="37.06814" lon="-121.84126">
        <ele>687.0</ele>
      </trkpt>
      <trkpt lat="37.06859" lon="-121.84126">
        <ele>687.0</ele>
      </trkpt>
      <trkpt lat="37.06937" lon="-121.84139">
        <ele>684.0</ele>
      </trkpt>
      <trkpt lat="37.06991" lon="-121.84164">
        <ele>670.0</ele>
      </trkpt>
      <trkpt lat="37.07034" lon="-121.84161">
        <ele>662.0</ele>
      </trkpt>
      <trkpt lat="37.07057" lon="-121.84165">
        <ele>654.0</ele>
      </trkpt>
      <trkpt lat="37.07062" lon="-121.84163">
        <ele>654.0</ele>
      </trkpt>
      <trkpt lat="37.07062" lon="-121.84163">
        <ele>654.0</ele>
      </trkpt>
      <trkpt lat="37.07062" lon="-121.84163">
        <ele>654.0</ele>
      </trkpt>
      <trkpt lat="37.07065" lon="-121.84153">
        <ele>654.0</ele>
      </trkpt>
      <trkpt lat="37.07063" lon="-121.84144">
        <ele>651.0</ele>
      </trkpt>
      <trkpt lat="37.06987" lon="-121.84036">
        <ele>644.0</ele>
      </trkpt>
      <trkpt lat="37.06967" lon="-121.83996">
        <ele>638.0</ele>
      </trkpt>
      <trkpt lat="37.06958" lon="-121.83967">
        <ele>638.0</ele>
      </trkpt>
      <trkpt lat="37.06947" lon="-121.83885">
        <ele>641.0</ele>
      </trkpt>
      <trkpt lat="37.06932" lon="-121.83838">
        <ele>637.0</ele>
      </trkpt>
      <trkpt lat="37.06932" lon="-121.83838">
        <ele>637.0</ele>
      </trkpt>
      <trkpt lat="37.06921" lon="-121.83803">
        <ele>638.0</ele>
      </trkpt>
      <trkpt lat="37.06904" lon="-121.83762">
        <ele>629.0</ele>
      </trkpt>
      <trkpt lat="37.06895" lon="-121.83749">
        <ele>625.0</ele>
      </trkpt>
      <trkpt lat="37.06868" lon="-121.83722">
        <ele>615.0</ele>
      </trkpt>
      <trkpt lat="37.06838" lon="-121.83678">
        <ele>609.0</ele>
      </trkpt>
      <trkpt lat="37.068095507412" lon="-121.8365028020937">
        <ele>609.0</ele>
      </trkpt>
      <trkpt lat="37.06809550760987" lon="-121.8365028020937">
        <ele>609.0</ele>
      </trkpt>
      <trkpt lat="37.06799" lon="-121.8364">
        <ele>609.0</ele>
      </trkpt>
      <trkpt lat="37.06747" lon="-121.83581">
        <ele>608.0</ele>
      </trkpt>
      <trkpt lat="37.06698" lon="-121.83494">
        <ele>600.0</ele>
      </trkpt>
      <trkpt lat="37.06698" lon="-121.83494">
        <ele>600.0</ele>
      </trkpt>
      <trkpt lat="37.06731" lon="-121.83448">
        <ele>596.0</ele>
      </trkpt>
      <trkpt lat="37.06742" lon="-121.83425">
        <ele>591.0</ele>
      </trkpt>
      <trkpt lat="37.06742" lon="-121.83409">
        <ele>591.0</ele>
      </trkpt>
      <trkpt lat="37.06723" lon="-121.83375">
        <ele>590.0</ele>
      </trkpt>
      <trkpt lat="37.06717" lon="-121.83355">
        <ele>590.0</ele>
      </trkpt>
      <trkpt lat="37.06721" lon="-121.83336">
        <ele>595.0</ele>
      </trkpt>
      <trkpt lat="37.06747" lon="-121.83295">
        <ele>599.0</ele>
      </trkpt>
      <trkpt lat="37.0676" lon="-121.83278">
        <ele>603.0</ele>
      </trkpt>
      <trkpt lat="37.06771" lon="-121.8327">
        <ele>601.0</ele>
      </trkpt>
      <trkpt lat="37.06777" lon="-121.83269">
        <ele>601.0</ele>
      </trkpt>
      <trkpt lat="37.06828" lon="-121.83294">
        <ele>596.0</ele>
      </trkpt>
      <trkpt lat="37.06842" lon="-121.83297">
        <ele>596.0</ele>
      </trkpt>
      <trkpt lat="37.06853" lon="-121.83293">
        <ele>591.0</ele>
      </trkpt>
      <trkpt lat="37.06872" lon="-121.8327">
        <ele>594.0</ele>
      </trkpt>
      <trkpt lat="37.06883" lon="-121.83247">
        <ele>589.0</ele>
      </trkpt>
      <trkpt lat="37.06904" lon="-121.83187">
        <ele>583.0</ele>
      </trkpt>
      <trkpt lat="37.06907" lon="-121.83167">
        <ele>589.0</ele>
      </trkpt>
      <trkpt lat="37.06905" lon="-121.83151">
        <ele>595.0</ele>
      </trkpt>
      <trkpt lat="37.06881" lon="-121.83085">
        <ele>607.0</ele>
      </trkpt>
      <trkpt lat="37.0688" lon="-121.83068">
        <ele>605.0</ele>
      </trkpt>
      <trkpt lat="37.06888" lon="-121.83027">
        <ele>603.0</ele>
      </trkpt>
      <trkpt lat="37.06897" lon="-121.83024">
        <ele>603.0</ele>
      </trkpt>
      <trkpt lat="37.06897" lon="-121.83024">
        <ele>603.0</ele>
      </trkpt>
      <trkpt lat="37.06897" lon="-121.83024">
        <ele>603.0</ele>
      </trkpt>
      <trkpt lat="37.06904" lon="-121.83036">
        <ele>593.0</ele>
      </trkpt>
      <trkpt lat="37.06915" lon="-121.83093">
        <ele>599.0</ele>
      </trkpt>
      <trkpt lat="37.06937" lon="-121.83131">
        <ele>590.0</ele>
      </trkpt>
      <trkpt lat="37.06973" lon="-121.83244">
        <ele>572.0</ele>
      </trkpt>
      <trkpt lat="37.06986" lon="-121.83264">
        <ele>576.0</ele>
      </trkpt>
      <trkpt lat="37.07004" lon="-121.83282">
        <ele>576.0</ele>
      </trkpt>
      <trkpt lat="37.07022" lon="-121.83311">
        <ele>575.0</ele>
      </trkpt>
      <trkpt lat="37.07031" lon="-121.8333">
        <ele>576.0</ele>
      </trkpt>
      <trkpt lat="37.07037" lon="-121.83351">
        <ele>578.0</ele>
      </trkpt>
      <trkpt lat="37.07053" lon="-121.83375">
        <ele>575.0</ele>
      </trkpt>
      <trkpt lat="37.0707" lon="-121.83418">
        <ele>572.0</ele>
      </trkpt>
      <trkpt lat="37.07076077220423" lon="-121.8343120223747">
        <ele>572.0</ele>
      </trkpt>
      <trkpt lat="37.07076077229607" lon="-121.8343120223747">
        <ele>572.0</ele>
      </trkpt>
      <trkpt lat="37.07099" lon="-121.83481">
        <ele>569.0</ele>
      </trkpt>
      <trkpt lat="37.07126" lon="-121.83549">
        <ele>565.0</ele>
      </trkpt>
      <trkpt lat="37.07214" lon="-121.83706">
        <ele>566.0</ele>
      </trkpt>
      <trkpt lat="37.07271" lon="-121.83753">
        <ele>563.0</ele>
      </trkpt>
      <trkpt lat="37.07271" lon="-121.83753">
        <ele>563.0</ele>
      </trkpt>
      <trkpt lat="37.07309" lon="-121.83776">
        <ele>564.0</ele>
      </trkpt>
      <trkpt lat="37.07368" lon="-121.83789">
        <ele>560.0</ele>
      </trkpt>
      <trkpt lat="37.07377" lon="-121.83794">
        <ele>561.0</ele>
      </trkpt>
      <trkpt lat="37.07386" lon="-121.83803">
        <ele>561.0</ele>
      </trkpt>
      <trkpt lat="37.07401" lon="-121.83838">
        <ele>564.0</ele>
      </trkpt>
      <trkpt lat="37.07401" lon="-121.83838">
        <ele>564.0</ele>
      </trkpt>
      <trkpt lat="37.07433" lon="-121.8395">
        <ele>553.0</ele>
      </trkpt>
      <trkpt lat="37.07465" lon="-121.84013">
        <ele>551.0</ele>
      </trkpt>
      <trkpt lat="37.07486" lon="-121.84044">
        <ele>555.0</ele>
      </trkpt>
      <trkpt lat="37.07544" lon="-121.84092">
        <ele>548.0</ele>
      </trkpt>
      <trkpt lat="37.07623" lon="-121.84131">
        <ele>540.0</ele>
      </trkpt>
      <trkpt lat="37.07668" lon="-121.84161">
        <ele>535.0</ele>
      </trkpt>
      <trkpt lat="37.07704" lon="-121.84192">
        <ele>538.0</ele>
      </trkpt>
      <trkpt lat="37.07731" lon="-121.84228">
        <ele>535.0</ele>
      </trkpt>
      <trkpt lat="37.07756" lon="-121.84272">
        <ele>530.0</ele>
      </trkpt>
      <trkpt lat="37.07783" lon="-121.84349">
        <ele>534.0</ele>
      </trkpt>
      <trkpt lat="37.07817" lon="-121.84421">
        <ele>531.0</ele>
      </trkpt>
      <trkpt lat="37.07825" lon="-121.84456">
        <ele>532.0</ele>
      </trkpt>
      <trkpt lat="37.07832" lon="-121.84501">
        <ele>535.0</ele>
      </trkpt>
      <trkpt lat="37.07836" lon="-121.84513">
        <ele>535.0</ele>
      </trkpt>
      <trkpt lat="37.07850663731789" lon="-121.8453646197086">
        <ele>532.0</ele>
      </trkpt>
      <trkpt lat="37.0785066373695" lon="-121.8453646197086">
        <ele>532.0</ele>
      </trkpt>
      <trkpt lat="37.07856" lon="-121.84545">
        <ele>528.0</ele>
      </trkpt>
      <trkpt lat="37.07894" lon="-121.84593">
        <ele>527.0</ele>
      </trkpt>
      <trkpt lat="37.07912" lon="-121.84622">
        <ele>528.0</ele>
      </trkpt>
      <trkpt lat="37.07919" lon="-121.84642">
        <ele>529.0</ele>
      </trkpt>
      <trkpt lat="37.07922" lon="-121.84659">
        <ele>531.0</ele>
      </trkpt>
      <trkpt lat="37.07922" lon="-121.8473">
        <ele>531.0</ele>
      </trkpt>
      <trkpt lat="37.07932" lon="-121.84753">
        <ele>529.0</ele>
      </trkpt>
      <trkpt lat="37.07953" lon="-121.84776">
        <ele>528.0</ele>
      </trkpt>
      <trkpt lat="37.07995" lon="-121.84813">
        <ele>526.0</ele>
      </trkpt>
      <trkpt lat="37.08076" lon="-121.849">
        <ele>531.0</ele>
      </trkpt>
      <trkpt lat="37.08099146362839" lon="-121.849197313257">
        <ele>527.0</ele>
      </trkpt>
      <trkpt lat="37.08099146362839" lon="-121.849197313257">
        <ele>527.0</ele>
      </trkpt>
      <trkpt lat="37.08137" lon="-121.84952">
        <ele>526.0</ele>
      </trkpt>
      <trkpt lat="37.08149" lon="-121.8497">
        <ele>528.0</ele>
      </trkpt>
      <trkpt lat="37.08161" lon="-121.85005">
        <ele>527.0</ele>
      </trkpt>
      <trkpt lat="37.08194" lon="-121.85058">
        <ele>529.0</ele>
      </trkpt>
      <trkpt lat="37.08194" lon="-121.85058">
        <ele>529.0</ele>
      </trkpt>
      <trkpt lat="37.08194" lon="-121.85058">
        <ele>529.0</ele>
      </trkpt>
      <trkpt lat="37.0818" lon="-121.85068">
        <ele>528.0</ele>
      </trkpt>
      <trkpt lat="37.0818" lon="-121.85068">
        <ele>528.0</ele>
      </trkpt>
      <trkpt lat="37.08162" lon="-121.85085">
        <ele>529.0</ele>
      </trkpt>
      <trkpt lat="37.08162" lon="-121.85085">
        <ele>529.0</ele>
      </trkpt>
      <trkpt lat="37.08159" lon="-121.85102">
        <ele>532.0</ele>
      </trkpt>
      <trkpt lat="37.08164" lon="-121.85138">
        <ele>537.0</ele>
      </trkpt>
      <trkpt lat="37.08191" lon="-121.85178">
        <ele>531.0</ele>
      </trkpt>
      <trkpt lat="37.08218" lon="-121.85234">
        <ele>532.0</ele>
      </trkpt>
      <trkpt lat="37.08221108778851" lon="-121.8524241198983">
        <ele>533.0</ele>
      </trkpt>
      <trkpt lat="37.08219462153945" lon="-121.8524336814881">
        <ele>533.0</ele>
      </trkpt>
    </trkseg>
  </trk>
</gpx>
