<?xml version="1.0" encoding="UTF-8"?>
<gpx xmlns:xsi="http://www.w3.org/2001/XMLSchema-instance" version="1.1" creator="The Outbound Collective, Inc. 1.1.1 -- https://www.theoutbound.com" xsi:schemaLocation="http://www.topografix.com/GPX/1/1 http://www.topografix.com/GPX/1/1/gpx.xsd">
  <metadata>
    <name/>
    <time>2026-02-19T21:50:27+00:00</time>
    <bound minlat="36.6502527963839" minlon="-121.8277335468064" maxlat="36.66017426247004" maxlon="-121.81659"/>
  </metadata>
  <trk>
    <name/>
    <trkseg>
      <trkpt lat="36.66017426247004" lon="-121.8211913108826">
        <ele>26.0</ele>
      </trkpt>
      <trkpt lat="36.66015161233735" lon="-121.8212202233733">
        <ele>26.0</ele>
      </trkpt>
      <trkpt lat="36.66002" lon="-121.82106">
        <ele>23.0</ele>
      </trkpt>
      <trkpt lat="36.66002" lon="-121.82106">
        <ele>23.0</ele>
      </trkpt>
      <trkpt lat="36.66002" lon="-121.82106">
        <ele>23.0</ele>
      </trkpt>
      <trkpt lat="36.65971" lon="-121.82111">
        <ele>19.0</ele>
      </trkpt>
      <trkpt lat="36.65958" lon="-121.82105">
        <ele>19.0</ele>
      </trkpt>
      <trkpt lat="36.65947" lon="-121.82095">
        <ele>22.0</ele>
      </trkpt>
      <trkpt lat="36.659289143367" lon="-121.8206808940461">
        <ele>26.0</ele>
      </trkpt>
      <trkpt lat="36.65929" lon="-121.82068">
        <ele>26.0</ele>
      </trkpt>
      <trkpt lat="36.65903" lon="-121.82058">
        <ele>26.0</ele>
      </trkpt>
      <trkpt lat="36.65893" lon="-121.82061">
        <ele>29.0</ele>
      </trkpt>
      <trkpt lat="36.65887" lon="-121.82069">
        <ele>29.0</ele>
      </trkpt>
      <trkpt lat="36.65887" lon="-121.82075">
        <ele>25.0</ele>
      </trkpt>
      <trkpt lat="36.65892" lon="-121.82089">
        <ele>25.0</ele>
      </trkpt>
      <trkpt lat="36.65902" lon="-121.82102">
        <ele>23.0</ele>
      </trkpt>
      <trkpt lat="36.6592" lon="-121.82112">
        <ele>19.0</ele>
      </trkpt>
      <trkpt lat="36.65932" lon="-121.82128">
        <ele>18.0</ele>
      </trkpt>
      <trkpt lat="36.65941" lon="-121.82147">
        <ele>18.0</ele>
      </trkpt>
      <trkpt lat="36.65945" lon="-121.82162">
        <ele>19.0</ele>
      </trkpt>
      <trkpt lat="36.65941" lon="-121.82191">
        <ele>18.0</ele>
      </trkpt>
      <trkpt lat="36.65945" lon="-121.82224">
        <ele>17.0</ele>
      </trkpt>
      <trkpt lat="36.65944" lon="-121.82235">
        <ele>17.0</ele>
      </trkpt>
      <trkpt lat="36.65927" lon="-121.82264">
        <ele>17.0</ele>
      </trkpt>
      <trkpt lat="36.65919" lon="-121.82286">
        <ele>17.0</ele>
      </trkpt>
      <trkpt lat="36.65919" lon="-121.823058128357">
        <ele>16.0</ele>
      </trkpt>
      <trkpt lat="36.65918999999999" lon="-121.8230581283569">
        <ele>16.0</ele>
      </trkpt>
      <trkpt lat="36.65919" lon="-121.82286">
        <ele>17.0</ele>
      </trkpt>
      <trkpt lat="36.65927" lon="-121.82264">
        <ele>17.0</ele>
      </trkpt>
      <trkpt lat="36.65944" lon="-121.82235">
        <ele>17.0</ele>
      </trkpt>
      <trkpt lat="36.65945" lon="-121.82224">
        <ele>17.0</ele>
      </trkpt>
      <trkpt lat="36.65941" lon="-121.82191">
        <ele>18.0</ele>
      </trkpt>
      <trkpt lat="36.65945" lon="-121.82162">
        <ele>19.0</ele>
      </trkpt>
      <trkpt lat="36.65941" lon="-121.82147">
        <ele>18.0</ele>
      </trkpt>
      <trkpt lat="36.65932" lon="-121.82128">
        <ele>18.0</ele>
      </trkpt>
      <trkpt lat="36.6592" lon="-121.82112">
        <ele>19.0</ele>
      </trkpt>
      <trkpt lat="36.65902" lon="-121.82102">
        <ele>23.0</ele>
      </trkpt>
      <trkpt lat="36.65892" lon="-121.82089">
        <ele>25.0</ele>
      </trkpt>
      <trkpt lat="36.65887" lon="-121.82075">
        <ele>25.0</ele>
      </trkpt>
      <trkpt lat="36.65887" lon="-121.82069">
        <ele>29.0</ele>
      </trkpt>
      <trkpt lat="36.65893" lon="-121.82061">
        <ele>29.0</ele>
      </trkpt>
      <trkpt lat="36.65903" lon="-121.82058">
        <ele>26.0</ele>
      </trkpt>
      <trkpt lat="36.65929" lon="-121.82068">
        <ele>26.0</ele>
      </trkpt>
      <trkpt lat="36.659289143367" lon="-121.8206808940461">
        <ele>26.0</ele>
      </trkpt>
      <trkpt lat="36.65781" lon="-121.81848">
        <ele>27.0</ele>
      </trkpt>
      <trkpt lat="36.6576" lon="-121.81802">
        <ele>27.0</ele>
      </trkpt>
      <trkpt lat="36.65749" lon="-121.81764">
        <ele>27.0</ele>
      </trkpt>
      <trkpt lat="36.65748913548348" lon="-121.8176287406688">
        <ele>31.0</ele>
      </trkpt>
      <trkpt lat="36.65705606398575" lon="-121.8176841105406">
        <ele>28.0</ele>
      </trkpt>
      <trkpt lat="36.6570560641153" lon="-121.8176841105406">
        <ele>28.0</ele>
      </trkpt>
      <trkpt lat="36.65701" lon="-121.81769">
        <ele>28.0</ele>
      </trkpt>
      <trkpt lat="36.65591" lon="-121.81765">
        <ele>32.0</ele>
      </trkpt>
      <trkpt lat="36.65504" lon="-121.81749">
        <ele>37.0</ele>
      </trkpt>
      <trkpt lat="36.65417" lon="-121.81721">
        <ele>39.0</ele>
      </trkpt>
      <trkpt lat="36.65287" lon="-121.81663">
        <ele>35.0</ele>
      </trkpt>
      <trkpt lat="36.65272" lon="-121.81659">
        <ele>35.0</ele>
      </trkpt>
      <trkpt lat="36.65244" lon="-121.81661">
        <ele>34.0</ele>
      </trkpt>
      <trkpt lat="36.65227" lon="-121.81667">
        <ele>36.0</ele>
      </trkpt>
      <trkpt lat="36.65220178997075" lon="-121.8167141359013">
        <ele>36.0</ele>
      </trkpt>
      <trkpt lat="36.65220178997075" lon="-121.8167141359013">
        <ele>36.0</ele>
      </trkpt>
      <trkpt lat="36.65216038802546" lon="-121.8167409253953">
        <ele>36.0</ele>
      </trkpt>
      <trkpt lat="36.65216" lon="-121.81674">
        <ele>36.0</ele>
      </trkpt>
      <trkpt lat="36.65216" lon="-121.81743">
        <ele>39.0</ele>
      </trkpt>
      <trkpt lat="36.65226" lon="-121.81884">
        <ele>29.0</ele>
      </trkpt>
      <trkpt lat="36.65229" lon="-121.82045">
        <ele>39.0</ele>
      </trkpt>
      <trkpt lat="36.65223" lon="-121.82277">
        <ele>32.0</ele>
      </trkpt>
      <trkpt lat="36.6522" lon="-121.8232">
        <ele>30.0</ele>
      </trkpt>
      <trkpt lat="36.65207" lon="-121.82389">
        <ele>34.0</ele>
      </trkpt>
      <trkpt lat="36.65207" lon="-121.82389">
        <ele>34.0</ele>
      </trkpt>
      <trkpt lat="36.65185" lon="-121.82403">
        <ele>33.0</ele>
      </trkpt>
      <trkpt lat="36.6519" lon="-121.82417">
        <ele>33.0</ele>
      </trkpt>
      <trkpt lat="36.65196" lon="-121.82423">
        <ele>33.0</ele>
      </trkpt>
      <trkpt lat="36.65197" lon="-121.82436">
        <ele>31.0</ele>
      </trkpt>
      <trkpt lat="36.65206" lon="-121.82461">
        <ele>28.0</ele>
      </trkpt>
      <trkpt lat="36.65209" lon="-121.82485">
        <ele>26.0</ele>
      </trkpt>
      <trkpt lat="36.65206" lon="-121.825">
        <ele>26.0</ele>
      </trkpt>
      <trkpt lat="36.65209" lon="-121.82519">
        <ele>27.0</ele>
      </trkpt>
      <trkpt lat="36.65186" lon="-121.82531">
        <ele>24.0</ele>
      </trkpt>
      <trkpt lat="36.65166" lon="-121.82536">
        <ele>20.0</ele>
      </trkpt>
      <trkpt lat="36.6514" lon="-121.82562">
        <ele>20.0</ele>
      </trkpt>
      <trkpt lat="36.65145" lon="-121.82593">
        <ele>20.0</ele>
      </trkpt>
      <trkpt lat="36.65137" lon="-121.82618">
        <ele>18.0</ele>
      </trkpt>
      <trkpt lat="36.6513" lon="-121.82627">
        <ele>14.0</ele>
      </trkpt>
      <trkpt lat="36.65093" lon="-121.82662">
        <ele>15.0</ele>
      </trkpt>
      <trkpt lat="36.65079" lon="-121.82692">
        <ele>14.0</ele>
      </trkpt>
      <trkpt lat="36.65079" lon="-121.82692">
        <ele>14.0</ele>
      </trkpt>
      <trkpt lat="36.65051" lon="-121.82714">
        <ele>14.0</ele>
      </trkpt>
      <trkpt lat="36.6502527963839" lon="-121.8277335468064">
        <ele>16.0</ele>
      </trkpt>
      <trkpt lat="36.65025279638854" lon="-121.8277335468064">
        <ele>16.0</ele>
      </trkpt>
      <trkpt lat="36.65051" lon="-121.82714">
        <ele>14.0</ele>
      </trkpt>
      <trkpt lat="36.65079" lon="-121.82692">
        <ele>14.0</ele>
      </trkpt>
      <trkpt lat="36.65079" lon="-121.82692">
        <ele>14.0</ele>
      </trkpt>
      <trkpt lat="36.65093" lon="-121.82662">
        <ele>15.0</ele>
      </trkpt>
      <trkpt lat="36.6513" lon="-121.82627">
        <ele>14.0</ele>
      </trkpt>
      <trkpt lat="36.65137" lon="-121.82618">
        <ele>18.0</ele>
      </trkpt>
      <trkpt lat="36.65145" lon="-121.82593">
        <ele>20.0</ele>
      </trkpt>
      <trkpt lat="36.6514" lon="-121.82562">
        <ele>20.0</ele>
      </trkpt>
      <trkpt lat="36.65166" lon="-121.82536">
        <ele>20.0</ele>
      </trkpt>
      <trkpt lat="36.65186" lon="-121.82531">
        <ele>24.0</ele>
      </trkpt>
      <trkpt lat="36.65209" lon="-121.82519">
        <ele>27.0</ele>
      </trkpt>
      <trkpt lat="36.65206" lon="-121.825">
        <ele>26.0</ele>
      </trkpt>
      <trkpt lat="36.65209" lon="-121.82485">
        <ele>26.0</ele>
      </trkpt>
      <trkpt lat="36.65206" lon="-121.82461">
        <ele>28.0</ele>
      </trkpt>
      <trkpt lat="36.65197" lon="-121.82436">
        <ele>31.0</ele>
      </trkpt>
      <trkpt lat="36.65196" lon="-121.82423">
        <ele>33.0</ele>
      </trkpt>
      <trkpt lat="36.6519" lon="-121.82417">
        <ele>33.0</ele>
      </trkpt>
      <trkpt lat="36.65185" lon="-121.82403">
        <ele>33.0</ele>
      </trkpt>
      <trkpt lat="36.65207" lon="-121.82389">
        <ele>34.0</ele>
      </trkpt>
      <trkpt lat="36.65207" lon="-121.82389">
        <ele>34.0</ele>
      </trkpt>
      <trkpt lat="36.6522" lon="-121.8232">
        <ele>30.0</ele>
      </trkpt>
      <trkpt lat="36.65223" lon="-121.82277">
        <ele>32.0</ele>
      </trkpt>
      <trkpt lat="36.65229" lon="-121.82045">
        <ele>39.0</ele>
      </trkpt>
      <trkpt lat="36.65226" lon="-121.81884">
        <ele>29.0</ele>
      </trkpt>
      <trkpt lat="36.65216" lon="-121.81743">
        <ele>39.0</ele>
      </trkpt>
      <trkpt lat="36.65216" lon="-121.81674">
        <ele>36.0</ele>
      </trkpt>
      <trkpt lat="36.65216038802546" lon="-121.8167409253953">
        <ele>36.0</ele>
      </trkpt>
      <trkpt lat="36.65220178997075" lon="-121.8167141359013">
        <ele>36.0</ele>
      </trkpt>
      <trkpt lat="36.65220178997075" lon="-121.8167141359013">
        <ele>36.0</ele>
      </trkpt>
      <trkpt lat="36.65227" lon="-121.81667">
        <ele>36.0</ele>
      </trkpt>
      <trkpt lat="36.65244" lon="-121.81661">
        <ele>34.0</ele>
      </trkpt>
      <trkpt lat="36.65272" lon="-121.81659">
        <ele>35.0</ele>
      </trkpt>
      <trkpt lat="36.65287" lon="-121.81663">
        <ele>35.0</ele>
      </trkpt>
      <trkpt lat="36.65417" lon="-121.81721">
        <ele>39.0</ele>
      </trkpt>
      <trkpt lat="36.65504" lon="-121.81749">
        <ele>37.0</ele>
      </trkpt>
      <trkpt lat="36.65591" lon="-121.81765">
        <ele>32.0</ele>
      </trkpt>
      <trkpt lat="36.65701" lon="-121.81769">
        <ele>28.0</ele>
      </trkpt>
      <trkpt lat="36.65748913548348" lon="-121.8176287406688">
        <ele>31.0</ele>
      </trkpt>
      <trkpt lat="36.65749" lon="-121.81764">
        <ele>27.0</ele>
      </trkpt>
      <trkpt lat="36.6576" lon="-121.81802">
        <ele>27.0</ele>
      </trkpt>
      <trkpt lat="36.65770744922783" lon="-121.8182553649752">
        <ele>28.0</ele>
      </trkpt>
      <trkpt lat="36.6577074492994" lon="-121.8182553649752">
        <ele>28.0</ele>
      </trkpt>
      <trkpt lat="36.65781" lon="-121.81848">
        <ele>27.0</ele>
      </trkpt>
      <trkpt lat="36.659289143367" lon="-121.8206808940461">
        <ele>26.0</ele>
      </trkpt>
      <trkpt lat="36.659289143367" lon="-121.8206808940461">
        <ele>26.0</ele>
      </trkpt>
      <trkpt lat="36.65947" lon="-121.82095">
        <ele>22.0</ele>
      </trkpt>
      <trkpt lat="36.65958" lon="-121.82105">
        <ele>19.0</ele>
      </trkpt>
      <trkpt lat="36.65971" lon="-121.82111">
        <ele>19.0</ele>
      </trkpt>
      <trkpt lat="36.66002" lon="-121.82106">
        <ele>23.0</ele>
      </trkpt>
      <trkpt lat="36.66002" lon="-121.82106">
        <ele>23.0</ele>
      </trkpt>
      <trkpt lat="36.66002" lon="-121.82106">
        <ele>23.0</ele>
      </trkpt>
      <trkpt lat="36.66016882035518" lon="-121.8212411726063">
        <ele>26.0</ele>
      </trkpt>
      <trkpt lat="36.66017426247004" lon="-121.8212342262268">
        <ele>26.0</ele>
      </trkpt>
    </trkseg>
  </trk>
</gpx>
