<?xml version="1.0" encoding="UTF-8"?>
<gpx xmlns:xsi="http://www.w3.org/2001/XMLSchema-instance" version="1.1" creator="The Outbound Collective, Inc. 1.1.1 -- https://www.theoutbound.com" xsi:schemaLocation="http://www.topografix.com/GPX/1/1 http://www.topografix.com/GPX/1/1/gpx.xsd">
  <metadata>
    <name/>
    <time>2026-02-19T21:50:44+00:00</time>
    <bound minlat="38.3441" minlon="-122.65172" maxlat="38.35071" maxlon="-122.64394"/>
  </metadata>
  <trk>
    <name/>
    <trkseg>
      <trkpt lat="38.34441622753053" lon="-122.6445436477661">
        <ele>102.0</ele>
      </trkpt>
      <trkpt lat="38.34436544930085" lon="-122.6445318548979">
        <ele>102.0</ele>
      </trkpt>
      <trkpt lat="38.34438" lon="-122.64443">
        <ele>102.0</ele>
      </trkpt>
      <trkpt lat="38.34471" lon="-122.64426">
        <ele>106.0</ele>
      </trkpt>
      <trkpt lat="38.34499" lon="-122.644">
        <ele>107.0</ele>
      </trkpt>
      <trkpt lat="38.34511" lon="-122.64395">
        <ele>107.0</ele>
      </trkpt>
      <trkpt lat="38.34532" lon="-122.64394">
        <ele>108.0</ele>
      </trkpt>
      <trkpt lat="38.34554" lon="-122.64409">
        <ele>104.0</ele>
      </trkpt>
      <trkpt lat="38.3457655479735" lon="-122.6444847089536">
        <ele>97.0</ele>
      </trkpt>
      <trkpt lat="38.34576" lon="-122.64449">
        <ele>97.0</ele>
      </trkpt>
      <trkpt lat="38.3459" lon="-122.64443">
        <ele>97.0</ele>
      </trkpt>
      <trkpt lat="38.34614" lon="-122.64418">
        <ele>100.0</ele>
      </trkpt>
      <trkpt lat="38.34622" lon="-122.64415">
        <ele>100.0</ele>
      </trkpt>
      <trkpt lat="38.34657" lon="-122.6441">
        <ele>98.0</ele>
      </trkpt>
      <trkpt lat="38.34718" lon="-122.64411">
        <ele>104.0</ele>
      </trkpt>
      <trkpt lat="38.34732" lon="-122.64407">
        <ele>104.0</ele>
      </trkpt>
      <trkpt lat="38.34739" lon="-122.64402">
        <ele>106.0</ele>
      </trkpt>
      <trkpt lat="38.34739" lon="-122.64402">
        <ele>106.0</ele>
      </trkpt>
      <trkpt lat="38.34746" lon="-122.64415">
        <ele>104.0</ele>
      </trkpt>
      <trkpt lat="38.34748924244098" lon="-122.6442377273229">
        <ele>104.0</ele>
      </trkpt>
      <trkpt lat="38.34748924245526" lon="-122.6442377273229">
        <ele>104.0</ele>
      </trkpt>
      <trkpt lat="38.34756" lon="-122.64445">
        <ele>103.0</ele>
      </trkpt>
      <trkpt lat="38.34757" lon="-122.64458">
        <ele>103.0</ele>
      </trkpt>
      <trkpt lat="38.34755" lon="-122.645">
        <ele>105.0</ele>
      </trkpt>
      <trkpt lat="38.3476" lon="-122.64509">
        <ele>105.0</ele>
      </trkpt>
      <trkpt lat="38.34788" lon="-122.64529">
        <ele>105.0</ele>
      </trkpt>
      <trkpt lat="38.34802" lon="-122.64543">
        <ele>98.0</ele>
      </trkpt>
      <trkpt lat="38.34806" lon="-122.64551">
        <ele>98.0</ele>
      </trkpt>
      <trkpt lat="38.34819" lon="-122.64635">
        <ele>102.0</ele>
      </trkpt>
      <trkpt lat="38.34819" lon="-122.64635">
        <ele>102.0</ele>
      </trkpt>
      <trkpt lat="38.34819" lon="-122.64635">
        <ele>102.0</ele>
      </trkpt>
      <trkpt lat="38.34825" lon="-122.64651">
        <ele>102.0</ele>
      </trkpt>
      <trkpt lat="38.34838" lon="-122.64671">
        <ele>101.0</ele>
      </trkpt>
      <trkpt lat="38.34853" lon="-122.64688">
        <ele>98.0</ele>
      </trkpt>
      <trkpt lat="38.34883" lon="-122.64699">
        <ele>98.0</ele>
      </trkpt>
      <trkpt lat="38.34896" lon="-122.6471">
        <ele>96.0</ele>
      </trkpt>
      <trkpt lat="38.34922" lon="-122.64742">
        <ele>95.0</ele>
      </trkpt>
      <trkpt lat="38.34947" lon="-122.64788">
        <ele>92.0</ele>
      </trkpt>
      <trkpt lat="38.34954" lon="-122.64842">
        <ele>88.0</ele>
      </trkpt>
      <trkpt lat="38.34958" lon="-122.64861">
        <ele>86.0</ele>
      </trkpt>
      <trkpt lat="38.34964" lon="-122.64874">
        <ele>84.0</ele>
      </trkpt>
      <trkpt lat="38.34974" lon="-122.64888">
        <ele>83.0</ele>
      </trkpt>
      <trkpt lat="38.34974" lon="-122.64888">
        <ele>83.0</ele>
      </trkpt>
      <trkpt lat="38.34974" lon="-122.64888">
        <ele>83.0</ele>
      </trkpt>
      <trkpt lat="38.34991" lon="-122.64902">
        <ele>85.0</ele>
      </trkpt>
      <trkpt lat="38.35007" lon="-122.64921">
        <ele>80.0</ele>
      </trkpt>
      <trkpt lat="38.35025" lon="-122.64954">
        <ele>77.0</ele>
      </trkpt>
      <trkpt lat="38.35036441804358" lon="-122.6498480485789">
        <ele>75.0</ele>
      </trkpt>
      <trkpt lat="38.3503644180559" lon="-122.6498480485789">
        <ele>75.0</ele>
      </trkpt>
      <trkpt lat="38.35038" lon="-122.64989">
        <ele>77.0</ele>
      </trkpt>
      <trkpt lat="38.35058" lon="-122.65016">
        <ele>78.0</ele>
      </trkpt>
      <trkpt lat="38.35059833252911" lon="-122.6502333292433">
        <ele>78.0</ele>
      </trkpt>
      <trkpt lat="38.35059833252911" lon="-122.6502333292433">
        <ele>78.0</ele>
      </trkpt>
      <trkpt lat="38.35069" lon="-122.6506">
        <ele>81.0</ele>
      </trkpt>
      <trkpt lat="38.35071" lon="-122.65093">
        <ele>81.0</ele>
      </trkpt>
      <trkpt lat="38.35069" lon="-122.65137">
        <ele>87.0</ele>
      </trkpt>
      <trkpt lat="38.35069" lon="-122.65137">
        <ele>87.0</ele>
      </trkpt>
      <trkpt lat="38.35067" lon="-122.6516">
        <ele>86.0</ele>
      </trkpt>
      <trkpt lat="38.35063" lon="-122.65167">
        <ele>86.0</ele>
      </trkpt>
      <trkpt lat="38.35061621399582" lon="-122.6516814883368">
        <ele>86.0</ele>
      </trkpt>
      <trkpt lat="38.35061621400021" lon="-122.6516814883368">
        <ele>86.0</ele>
      </trkpt>
      <trkpt lat="38.35057" lon="-122.65172">
        <ele>86.0</ele>
      </trkpt>
      <trkpt lat="38.35045" lon="-122.65169">
        <ele>86.0</ele>
      </trkpt>
      <trkpt lat="38.35003" lon="-122.65137">
        <ele>82.0</ele>
      </trkpt>
      <trkpt lat="38.35003" lon="-122.65137">
        <ele>82.0</ele>
      </trkpt>
      <trkpt lat="38.34996" lon="-122.65128">
        <ele>82.0</ele>
      </trkpt>
      <trkpt lat="38.34973" lon="-122.65077">
        <ele>81.0</ele>
      </trkpt>
      <trkpt lat="38.34963" lon="-122.65065">
        <ele>82.0</ele>
      </trkpt>
      <trkpt lat="38.34963" lon="-122.65065">
        <ele>82.0</ele>
      </trkpt>
      <trkpt lat="38.34963" lon="-122.65065">
        <ele>82.0</ele>
      </trkpt>
      <trkpt lat="38.34928" lon="-122.65035">
        <ele>89.0</ele>
      </trkpt>
      <trkpt lat="38.34901" lon="-122.65006">
        <ele>86.0</ele>
      </trkpt>
      <trkpt lat="38.34858" lon="-122.64991">
        <ele>83.0</ele>
      </trkpt>
      <trkpt lat="38.34824" lon="-122.64956">
        <ele>84.0</ele>
      </trkpt>
      <trkpt lat="38.34824" lon="-122.64956">
        <ele>84.0</ele>
      </trkpt>
      <trkpt lat="38.34824" lon="-122.64956">
        <ele>84.0</ele>
      </trkpt>
      <trkpt lat="38.3478484431137" lon="-122.6494722372496">
        <ele>87.0</ele>
      </trkpt>
      <trkpt lat="38.3478484431137" lon="-122.6494722372496">
        <ele>87.0</ele>
      </trkpt>
      <trkpt lat="38.34766" lon="-122.64943">
        <ele>87.0</ele>
      </trkpt>
      <trkpt lat="38.34753" lon="-122.64938">
        <ele>85.0</ele>
      </trkpt>
      <trkpt lat="38.34739" lon="-122.64926">
        <ele>84.0</ele>
      </trkpt>
      <trkpt lat="38.34698" lon="-122.64871">
        <ele>84.0</ele>
      </trkpt>
      <trkpt lat="38.34667" lon="-122.64821">
        <ele>86.0</ele>
      </trkpt>
      <trkpt lat="38.34655" lon="-122.64792">
        <ele>89.0</ele>
      </trkpt>
      <trkpt lat="38.34638" lon="-122.64727">
        <ele>93.0</ele>
      </trkpt>
      <trkpt lat="38.34627" lon="-122.64699">
        <ele>96.0</ele>
      </trkpt>
      <trkpt lat="38.34619" lon="-122.64687">
        <ele>98.0</ele>
      </trkpt>
      <trkpt lat="38.34593" lon="-122.64661">
        <ele>102.0</ele>
      </trkpt>
      <trkpt lat="38.34587523434016" lon="-122.6465743386401">
        <ele>102.0</ele>
      </trkpt>
      <trkpt lat="38.34587523448205" lon="-122.6465743386401">
        <ele>102.0</ele>
      </trkpt>
      <trkpt lat="38.3455" lon="-122.64633">
        <ele>96.0</ele>
      </trkpt>
      <trkpt lat="38.34514" lon="-122.64616">
        <ele>99.0</ele>
      </trkpt>
      <trkpt lat="38.34482" lon="-122.64609">
        <ele>99.0</ele>
      </trkpt>
      <trkpt lat="38.34459" lon="-122.64597">
        <ele>100.0</ele>
      </trkpt>
      <trkpt lat="38.34418" lon="-122.64569">
        <ele>96.0</ele>
      </trkpt>
      <trkpt lat="38.34411" lon="-122.64558">
        <ele>96.0</ele>
      </trkpt>
      <trkpt lat="38.3441" lon="-122.64541">
        <ele>97.0</ele>
      </trkpt>
      <trkpt lat="38.34421" lon="-122.64504">
        <ele>98.0</ele>
      </trkpt>
      <trkpt lat="38.34427" lon="-122.64463">
        <ele>100.0</ele>
      </trkpt>
      <trkpt lat="38.34427" lon="-122.64463">
        <ele>100.0</ele>
      </trkpt>
      <trkpt lat="38.34434595764175" lon="-122.6445793615722">
        <ele>102.0</ele>
      </trkpt>
      <trkpt lat="38.3443489108614" lon="-122.6445865631104">
        <ele>103.0</ele>
      </trkpt>
    </trkseg>
  </trk>
</gpx>
