<?xml version="1.0" encoding="UTF-8"?>
<gpx xmlns:xsi="http://www.w3.org/2001/XMLSchema-instance" version="1.1" creator="The Outbound Collective, Inc. 1.1.1 -- https://www.theoutbound.com" xsi:schemaLocation="http://www.topografix.com/GPX/1/1 http://www.topografix.com/GPX/1/1/gpx.xsd">
  <metadata>
    <name/>
    <time>2026-02-19T21:50:17+00:00</time>
    <bound minlat="38.0896862551725" minlon="-122.7447724342346" maxlat="38.09228672937857" maxlon="-122.7399639996718"/>
  </metadata>
  <trk>
    <name/>
    <trkseg>
      <trkpt lat="38.09224009898499" lon="-122.7447187900543">
        <ele>45.0</ele>
      </trkpt>
      <trkpt lat="38.0922385988617" lon="-122.7447296886236">
        <ele>45.0</ele>
      </trkpt>
      <trkpt lat="38.09215" lon="-122.74471">
        <ele>45.0</ele>
      </trkpt>
      <trkpt lat="38.09197" lon="-122.74462">
        <ele>44.0</ele>
      </trkpt>
      <trkpt lat="38.09183" lon="-122.74441">
        <ele>45.0</ele>
      </trkpt>
      <trkpt lat="38.0916" lon="-122.74385">
        <ele>49.0</ele>
      </trkpt>
      <trkpt lat="38.09147" lon="-122.74343">
        <ele>46.0</ele>
      </trkpt>
      <trkpt lat="38.09118" lon="-122.74307">
        <ele>46.0</ele>
      </trkpt>
      <trkpt lat="38.09088" lon="-122.74291">
        <ele>45.0</ele>
      </trkpt>
      <trkpt lat="38.09072" lon="-122.7427">
        <ele>45.0</ele>
      </trkpt>
      <trkpt lat="38.09066" lon="-122.74255">
        <ele>44.0</ele>
      </trkpt>
      <trkpt lat="38.09063" lon="-122.74234">
        <ele>44.0</ele>
      </trkpt>
      <trkpt lat="38.09066" lon="-122.74193">
        <ele>45.0</ele>
      </trkpt>
      <trkpt lat="38.09055" lon="-122.74149">
        <ele>45.0</ele>
      </trkpt>
      <trkpt lat="38.09031" lon="-122.74119">
        <ele>45.0</ele>
      </trkpt>
      <trkpt lat="38.09005" lon="-122.74098">
        <ele>45.0</ele>
      </trkpt>
      <trkpt lat="38.08989" lon="-122.74042">
        <ele>47.0</ele>
      </trkpt>
      <trkpt lat="38.0896862551725" lon="-122.7399639996718">
        <ele>46.0</ele>
      </trkpt>
      <trkpt lat="38.0896862551812" lon="-122.7399639996718">
        <ele>46.0</ele>
      </trkpt>
      <trkpt lat="38.08989" lon="-122.74042">
        <ele>47.0</ele>
      </trkpt>
      <trkpt lat="38.09005" lon="-122.74098">
        <ele>45.0</ele>
      </trkpt>
      <trkpt lat="38.09031" lon="-122.74119">
        <ele>45.0</ele>
      </trkpt>
      <trkpt lat="38.09055" lon="-122.74149">
        <ele>45.0</ele>
      </trkpt>
      <trkpt lat="38.09066" lon="-122.74193">
        <ele>45.0</ele>
      </trkpt>
      <trkpt lat="38.09063" lon="-122.74234">
        <ele>44.0</ele>
      </trkpt>
      <trkpt lat="38.09066" lon="-122.74255">
        <ele>44.0</ele>
      </trkpt>
      <trkpt lat="38.09072" lon="-122.7427">
        <ele>45.0</ele>
      </trkpt>
      <trkpt lat="38.09088" lon="-122.74291">
        <ele>45.0</ele>
      </trkpt>
      <trkpt lat="38.09118" lon="-122.74307">
        <ele>46.0</ele>
      </trkpt>
      <trkpt lat="38.09147" lon="-122.74343">
        <ele>46.0</ele>
      </trkpt>
      <trkpt lat="38.0916" lon="-122.74385">
        <ele>49.0</ele>
      </trkpt>
      <trkpt lat="38.09183" lon="-122.74441">
        <ele>45.0</ele>
      </trkpt>
      <trkpt lat="38.09197" lon="-122.74462">
        <ele>44.0</ele>
      </trkpt>
      <trkpt lat="38.09215" lon="-122.74471">
        <ele>45.0</ele>
      </trkpt>
      <trkpt lat="38.09228672937857" lon="-122.7447403843063">
        <ele>45.0</ele>
      </trkpt>
      <trkpt lat="38.09228231793961" lon="-122.7447724342346">
        <ele>45.0</ele>
      </trkpt>
    </trkseg>
  </trk>
</gpx>
