<?xml version="1.0" encoding="UTF-8"?>
<gpx xmlns:xsi="http://www.w3.org/2001/XMLSchema-instance" version="1.1" creator="The Outbound Collective, Inc. 1.1.1 -- https://www.theoutbound.com" xsi:schemaLocation="http://www.topografix.com/GPX/1/1 http://www.topografix.com/GPX/1/1/gpx.xsd">
  <metadata>
    <name/>
    <time>2026-02-19T21:49:10+00:00</time>
    <bound minlat="37.826688006" minlon="-122.4921" maxlat="37.832408545" maxlon="-122.48213388"/>
  </metadata>
  <trk>
    <name/>
    <trkseg>
      <trkpt lat="37.832408545" lon="-122.48213388">
        <ele>68.0</ele>
      </trkpt>
      <trkpt lat="37.832276672" lon="-122.482256591">
        <ele>67.0</ele>
      </trkpt>
      <trkpt lat="37.83208" lon="-122.48272">
        <ele>79.0</ele>
      </trkpt>
      <trkpt lat="37.83188" lon="-122.48293">
        <ele>85.0</ele>
      </trkpt>
      <trkpt lat="37.83168" lon="-122.48322">
        <ele>89.0</ele>
      </trkpt>
      <trkpt lat="37.83138" lon="-122.48335">
        <ele>89.0</ele>
      </trkpt>
      <trkpt lat="37.83112" lon="-122.48351">
        <ele>99.0</ele>
      </trkpt>
      <trkpt lat="37.83185" lon="-122.48357">
        <ele>97.0</ele>
      </trkpt>
      <trkpt lat="37.83208" lon="-122.48351">
        <ele>97.0</ele>
      </trkpt>
      <trkpt lat="37.832113108" lon="-122.48352987">
        <ele>99.0</ele>
      </trkpt>
      <trkpt lat="37.83164" lon="-122.48381">
        <ele>110.0</ele>
      </trkpt>
      <trkpt lat="37.83106" lon="-122.48399">
        <ele>109.0</ele>
      </trkpt>
      <trkpt lat="37.83056" lon="-122.48401">
        <ele>118.0</ele>
      </trkpt>
      <trkpt lat="37.83037" lon="-122.48391">
        <ele>126.0</ele>
      </trkpt>
      <trkpt lat="37.83004" lon="-122.48344">
        <ele>113.0</ele>
      </trkpt>
      <trkpt lat="37.82983" lon="-122.48326">
        <ele>119.0</ele>
      </trkpt>
      <trkpt lat="37.829743045" lon="-122.483225218">
        <ele>119.0</ele>
      </trkpt>
      <trkpt lat="37.829537478" lon="-122.483629882">
        <ele>128.0</ele>
      </trkpt>
      <trkpt lat="37.829501383" lon="-122.483810881">
        <ele>129.0</ele>
      </trkpt>
      <trkpt lat="37.82942" lon="-122.48385">
        <ele>129.0</ele>
      </trkpt>
      <trkpt lat="37.82932" lon="-122.48478">
        <ele>132.0</ele>
      </trkpt>
      <trkpt lat="37.82926" lon="-122.48501">
        <ele>124.0</ele>
      </trkpt>
      <trkpt lat="37.82921" lon="-122.48509">
        <ele>124.0</ele>
      </trkpt>
      <trkpt lat="37.82904" lon="-122.48521">
        <ele>135.0</ele>
      </trkpt>
      <trkpt lat="37.82812" lon="-122.48569">
        <ele>90.0</ele>
      </trkpt>
      <trkpt lat="37.82794" lon="-122.48587">
        <ele>99.0</ele>
      </trkpt>
      <trkpt lat="37.82787" lon="-122.48605">
        <ele>99.0</ele>
      </trkpt>
      <trkpt lat="37.82792" lon="-122.48636">
        <ele>104.0</ele>
      </trkpt>
      <trkpt lat="37.82805" lon="-122.48662">
        <ele>101.0</ele>
      </trkpt>
      <trkpt lat="37.82836" lon="-122.48686">
        <ele>103.0</ele>
      </trkpt>
      <trkpt lat="37.82844" lon="-122.48698">
        <ele>103.0</ele>
      </trkpt>
      <trkpt lat="37.82864" lon="-122.48788">
        <ele>97.0</ele>
      </trkpt>
      <trkpt lat="37.8288" lon="-122.48806">
        <ele>96.0</ele>
      </trkpt>
      <trkpt lat="37.82919" lon="-122.48829">
        <ele>88.0</ele>
      </trkpt>
      <trkpt lat="37.82934" lon="-122.48833">
        <ele>84.0</ele>
      </trkpt>
      <trkpt lat="37.82946" lon="-122.48831">
        <ele>84.0</ele>
      </trkpt>
      <trkpt lat="37.82969" lon="-122.4882">
        <ele>85.0</ele>
      </trkpt>
      <trkpt lat="37.83022" lon="-122.48814">
        <ele>101.0</ele>
      </trkpt>
      <trkpt lat="37.83029" lon="-122.48816">
        <ele>101.0</ele>
      </trkpt>
      <trkpt lat="37.83034" lon="-122.48823">
        <ele>87.0</ele>
      </trkpt>
      <trkpt lat="37.83035" lon="-122.48865">
        <ele>77.0</ele>
      </trkpt>
      <trkpt lat="37.83041" lon="-122.48883">
        <ele>70.0</ele>
      </trkpt>
      <trkpt lat="37.8306" lon="-122.48897">
        <ele>74.0</ele>
      </trkpt>
      <trkpt lat="37.83089" lon="-122.48897">
        <ele>75.0</ele>
      </trkpt>
      <trkpt lat="37.83106" lon="-122.48913">
        <ele>74.0</ele>
      </trkpt>
      <trkpt lat="37.83116" lon="-122.48931">
        <ele>69.0</ele>
      </trkpt>
      <trkpt lat="37.83117" lon="-122.4894">
        <ele>69.0</ele>
      </trkpt>
      <trkpt lat="37.83102" lon="-122.48973">
        <ele>67.0</ele>
      </trkpt>
      <trkpt lat="37.83106" lon="-122.49006">
        <ele>64.0</ele>
      </trkpt>
      <trkpt lat="37.83096" lon="-122.49014">
        <ele>60.0</ele>
      </trkpt>
      <trkpt lat="37.83006" lon="-122.4902">
        <ele>45.0</ele>
      </trkpt>
      <trkpt lat="37.8297" lon="-122.49037">
        <ele>47.0</ele>
      </trkpt>
      <trkpt lat="37.82961" lon="-122.49059">
        <ele>55.0</ele>
      </trkpt>
      <trkpt lat="37.82961" lon="-122.49102">
        <ele>65.0</ele>
      </trkpt>
      <trkpt lat="37.82953" lon="-122.4915">
        <ele>65.0</ele>
      </trkpt>
      <trkpt lat="37.82953" lon="-122.49177">
        <ele>65.0</ele>
      </trkpt>
      <trkpt lat="37.82947" lon="-122.49189">
        <ele>70.0</ele>
      </trkpt>
      <trkpt lat="37.8289" lon="-122.4921">
        <ele>55.0</ele>
      </trkpt>
      <trkpt lat="37.82861" lon="-122.49206">
        <ele>37.0</ele>
      </trkpt>
      <trkpt lat="37.82843" lon="-122.49189">
        <ele>29.0</ele>
      </trkpt>
      <trkpt lat="37.82835" lon="-122.49165">
        <ele>25.0</ele>
      </trkpt>
      <trkpt lat="37.82827" lon="-122.49156">
        <ele>25.0</ele>
      </trkpt>
      <trkpt lat="37.82817" lon="-122.49152">
        <ele>20.0</ele>
      </trkpt>
      <trkpt lat="37.82781" lon="-122.49148">
        <ele>21.0</ele>
      </trkpt>
      <trkpt lat="37.82762" lon="-122.49138">
        <ele>22.0</ele>
      </trkpt>
      <trkpt lat="37.82757" lon="-122.49132">
        <ele>22.0</ele>
      </trkpt>
      <trkpt lat="37.82729" lon="-122.49132">
        <ele>20.0</ele>
      </trkpt>
      <trkpt lat="37.82722" lon="-122.49118">
        <ele>16.0</ele>
      </trkpt>
      <trkpt lat="37.82714" lon="-122.49117">
        <ele>16.0</ele>
      </trkpt>
      <trkpt lat="37.82695" lon="-122.491">
        <ele>0.0</ele>
      </trkpt>
      <trkpt lat="37.826761466" lon="-122.490991466">
        <ele>0.0</ele>
      </trkpt>
      <trkpt lat="37.826688006" lon="-122.490818202">
        <ele>0.0</ele>
      </trkpt>
      <trkpt lat="37.826874442" lon="-122.489911616">
        <ele>0.0</ele>
      </trkpt>
      <trkpt lat="37.826895595" lon="-122.488664389">
        <ele>0.0</ele>
      </trkpt>
      <trkpt lat="37.826870172" lon="-122.489908934">
        <ele>0.0</ele>
      </trkpt>
      <trkpt lat="37.82669221" lon="-122.490826249">
        <ele>0.0</ele>
      </trkpt>
      <trkpt lat="37.826760592" lon="-122.490991876">
        <ele>0.0</ele>
      </trkpt>
      <trkpt lat="37.82695" lon="-122.491">
        <ele>0.0</ele>
      </trkpt>
      <trkpt lat="37.82714" lon="-122.49117">
        <ele>16.0</ele>
      </trkpt>
      <trkpt lat="37.82722" lon="-122.49118">
        <ele>16.0</ele>
      </trkpt>
      <trkpt lat="37.82729" lon="-122.49132">
        <ele>20.0</ele>
      </trkpt>
      <trkpt lat="37.82757" lon="-122.49132">
        <ele>22.0</ele>
      </trkpt>
      <trkpt lat="37.82762" lon="-122.49138">
        <ele>22.0</ele>
      </trkpt>
      <trkpt lat="37.82781" lon="-122.49148">
        <ele>21.0</ele>
      </trkpt>
      <trkpt lat="37.82817" lon="-122.49152">
        <ele>20.0</ele>
      </trkpt>
      <trkpt lat="37.82827" lon="-122.49156">
        <ele>25.0</ele>
      </trkpt>
      <trkpt lat="37.82835" lon="-122.49165">
        <ele>25.0</ele>
      </trkpt>
      <trkpt lat="37.82843" lon="-122.49189">
        <ele>29.0</ele>
      </trkpt>
      <trkpt lat="37.82861" lon="-122.49206">
        <ele>37.0</ele>
      </trkpt>
      <trkpt lat="37.8289" lon="-122.4921">
        <ele>55.0</ele>
      </trkpt>
      <trkpt lat="37.82947" lon="-122.49189">
        <ele>70.0</ele>
      </trkpt>
      <trkpt lat="37.82953" lon="-122.49177">
        <ele>65.0</ele>
      </trkpt>
      <trkpt lat="37.82953" lon="-122.4915">
        <ele>65.0</ele>
      </trkpt>
      <trkpt lat="37.82961" lon="-122.49102">
        <ele>65.0</ele>
      </trkpt>
      <trkpt lat="37.82961" lon="-122.49059">
        <ele>55.0</ele>
      </trkpt>
      <trkpt lat="37.8297" lon="-122.49037">
        <ele>47.0</ele>
      </trkpt>
      <trkpt lat="37.83006" lon="-122.4902">
        <ele>45.0</ele>
      </trkpt>
      <trkpt lat="37.83096" lon="-122.49014">
        <ele>60.0</ele>
      </trkpt>
      <trkpt lat="37.83106" lon="-122.49006">
        <ele>64.0</ele>
      </trkpt>
      <trkpt lat="37.83102" lon="-122.48973">
        <ele>67.0</ele>
      </trkpt>
      <trkpt lat="37.83117" lon="-122.4894">
        <ele>69.0</ele>
      </trkpt>
      <trkpt lat="37.83116" lon="-122.48931">
        <ele>69.0</ele>
      </trkpt>
      <trkpt lat="37.83106" lon="-122.48913">
        <ele>74.0</ele>
      </trkpt>
      <trkpt lat="37.83089" lon="-122.48897">
        <ele>75.0</ele>
      </trkpt>
      <trkpt lat="37.8306" lon="-122.48897">
        <ele>74.0</ele>
      </trkpt>
      <trkpt lat="37.83041" lon="-122.48883">
        <ele>70.0</ele>
      </trkpt>
      <trkpt lat="37.83035" lon="-122.48865">
        <ele>77.0</ele>
      </trkpt>
      <trkpt lat="37.83034" lon="-122.48823">
        <ele>87.0</ele>
      </trkpt>
      <trkpt lat="37.83029" lon="-122.48816">
        <ele>101.0</ele>
      </trkpt>
      <trkpt lat="37.83022" lon="-122.48814">
        <ele>101.0</ele>
      </trkpt>
      <trkpt lat="37.82969" lon="-122.4882">
        <ele>85.0</ele>
      </trkpt>
      <trkpt lat="37.82946" lon="-122.48831">
        <ele>84.0</ele>
      </trkpt>
      <trkpt lat="37.82934" lon="-122.48833">
        <ele>84.0</ele>
      </trkpt>
      <trkpt lat="37.82919" lon="-122.48829">
        <ele>88.0</ele>
      </trkpt>
      <trkpt lat="37.8288" lon="-122.48806">
        <ele>96.0</ele>
      </trkpt>
      <trkpt lat="37.82864" lon="-122.48788">
        <ele>97.0</ele>
      </trkpt>
      <trkpt lat="37.82844" lon="-122.48698">
        <ele>103.0</ele>
      </trkpt>
      <trkpt lat="37.82836" lon="-122.48686">
        <ele>103.0</ele>
      </trkpt>
      <trkpt lat="37.82805" lon="-122.48662">
        <ele>101.0</ele>
      </trkpt>
      <trkpt lat="37.82792" lon="-122.48636">
        <ele>104.0</ele>
      </trkpt>
      <trkpt lat="37.82787" lon="-122.48605">
        <ele>99.0</ele>
      </trkpt>
      <trkpt lat="37.82794" lon="-122.48587">
        <ele>99.0</ele>
      </trkpt>
      <trkpt lat="37.82812" lon="-122.48569">
        <ele>90.0</ele>
      </trkpt>
      <trkpt lat="37.82904" lon="-122.48521">
        <ele>135.0</ele>
      </trkpt>
      <trkpt lat="37.82921" lon="-122.48509">
        <ele>124.0</ele>
      </trkpt>
      <trkpt lat="37.82926" lon="-122.48501">
        <ele>124.0</ele>
      </trkpt>
      <trkpt lat="37.82932" lon="-122.48478">
        <ele>132.0</ele>
      </trkpt>
      <trkpt lat="37.82942" lon="-122.48385">
        <ele>129.0</ele>
      </trkpt>
      <trkpt lat="37.829501383" lon="-122.483810881">
        <ele>129.0</ele>
      </trkpt>
      <trkpt lat="37.829539041" lon="-122.483628493">
        <ele>128.0</ele>
      </trkpt>
      <trkpt lat="37.829743511" lon="-122.483224198">
        <ele>119.0</ele>
      </trkpt>
      <trkpt lat="37.82994" lon="-122.48334">
        <ele>113.0</ele>
      </trkpt>
      <trkpt lat="37.83004" lon="-122.48344">
        <ele>113.0</ele>
      </trkpt>
      <trkpt lat="37.83037" lon="-122.48391">
        <ele>126.0</ele>
      </trkpt>
      <trkpt lat="37.83056" lon="-122.48401">
        <ele>118.0</ele>
      </trkpt>
      <trkpt lat="37.83106" lon="-122.48399">
        <ele>109.0</ele>
      </trkpt>
      <trkpt lat="37.83164" lon="-122.48381">
        <ele>110.0</ele>
      </trkpt>
      <trkpt lat="37.832113108" lon="-122.48352987">
        <ele>99.0</ele>
      </trkpt>
      <trkpt lat="37.83208" lon="-122.48351">
        <ele>97.0</ele>
      </trkpt>
      <trkpt lat="37.83185" lon="-122.48357">
        <ele>97.0</ele>
      </trkpt>
      <trkpt lat="37.83112" lon="-122.48351">
        <ele>99.0</ele>
      </trkpt>
      <trkpt lat="37.83138" lon="-122.48335">
        <ele>89.0</ele>
      </trkpt>
      <trkpt lat="37.83168" lon="-122.48322">
        <ele>89.0</ele>
      </trkpt>
      <trkpt lat="37.83188" lon="-122.48293">
        <ele>85.0</ele>
      </trkpt>
      <trkpt lat="37.83208" lon="-122.48272">
        <ele>79.0</ele>
      </trkpt>
      <trkpt lat="37.832277795" lon="-122.482256014">
        <ele>67.0</ele>
      </trkpt>
      <trkpt lat="37.832408545" lon="-122.48213388">
        <ele>68.0</ele>
      </trkpt>
    </trkseg>
  </trk>
</gpx>
