<?xml version="1.0" encoding="UTF-8"?>
<gpx xmlns:xsi="http://www.w3.org/2001/XMLSchema-instance" version="1.1" creator="The Outbound Collective, Inc. 1.1.1 -- https://www.theoutbound.com" xsi:schemaLocation="http://www.topografix.com/GPX/1/1 http://www.topografix.com/GPX/1/1/gpx.xsd">
  <metadata>
    <name/>
    <time>2026-02-19T21:49:43+00:00</time>
    <bound minlat="37.86325223426487" minlon="-122.5961774216165" maxlat="37.87363623693749" maxlon="-122.5857925415039"/>
  </metadata>
  <trk>
    <name/>
    <trkseg>
      <trkpt lat="37.86326710189874" lon="-122.5857925415039">
        <ele>146.0</ele>
      </trkpt>
      <trkpt lat="37.86325223426487" lon="-122.5858044685251">
        <ele>146.0</ele>
      </trkpt>
      <trkpt lat="37.86328" lon="-122.58586">
        <ele>146.0</ele>
      </trkpt>
      <trkpt lat="37.86334" lon="-122.58586">
        <ele>146.0</ele>
      </trkpt>
      <trkpt lat="37.86342" lon="-122.58593">
        <ele>146.0</ele>
      </trkpt>
      <trkpt lat="37.86348" lon="-122.58602">
        <ele>144.0</ele>
      </trkpt>
      <trkpt lat="37.86348" lon="-122.58602">
        <ele>144.0</ele>
      </trkpt>
      <trkpt lat="37.86373" lon="-122.58635">
        <ele>141.0</ele>
      </trkpt>
      <trkpt lat="37.86391" lon="-122.58649">
        <ele>144.0</ele>
      </trkpt>
      <trkpt lat="37.86398" lon="-122.5866">
        <ele>141.0</ele>
      </trkpt>
      <trkpt lat="37.86404" lon="-122.58659">
        <ele>141.0</ele>
      </trkpt>
      <trkpt lat="37.86413" lon="-122.58667">
        <ele>141.0</ele>
      </trkpt>
      <trkpt lat="37.86436" lon="-122.58693">
        <ele>138.0</ele>
      </trkpt>
      <trkpt lat="37.86436" lon="-122.58693">
        <ele>138.0</ele>
      </trkpt>
      <trkpt lat="37.86473" lon="-122.58693">
        <ele>137.0</ele>
      </trkpt>
      <trkpt lat="37.86483" lon="-122.5869">
        <ele>137.0</ele>
      </trkpt>
      <trkpt lat="37.86483" lon="-122.5869">
        <ele>137.0</ele>
      </trkpt>
      <trkpt lat="37.86483" lon="-122.5869">
        <ele>137.0</ele>
      </trkpt>
      <trkpt lat="37.86503" lon="-122.58702">
        <ele>136.0</ele>
      </trkpt>
      <trkpt lat="37.8653" lon="-122.58708">
        <ele>140.0</ele>
      </trkpt>
      <trkpt lat="37.86536" lon="-122.58718">
        <ele>130.0</ele>
      </trkpt>
      <trkpt lat="37.86554" lon="-122.58731">
        <ele>131.0</ele>
      </trkpt>
      <trkpt lat="37.86573" lon="-122.5874">
        <ele>127.0</ele>
      </trkpt>
      <trkpt lat="37.8658" lon="-122.58755">
        <ele>127.0</ele>
      </trkpt>
      <trkpt lat="37.86594" lon="-122.58803">
        <ele>119.0</ele>
      </trkpt>
      <trkpt lat="37.86594" lon="-122.58803">
        <ele>119.0</ele>
      </trkpt>
      <trkpt lat="37.866" lon="-122.58809">
        <ele>125.0</ele>
      </trkpt>
      <trkpt lat="37.8662" lon="-122.58817">
        <ele>125.0</ele>
      </trkpt>
      <trkpt lat="37.86621" lon="-122.58823">
        <ele>119.0</ele>
      </trkpt>
      <trkpt lat="37.86627" lon="-122.58828">
        <ele>123.0</ele>
      </trkpt>
      <trkpt lat="37.86635" lon="-122.58826">
        <ele>123.0</ele>
      </trkpt>
      <trkpt lat="37.86663" lon="-122.58827">
        <ele>128.0</ele>
      </trkpt>
      <trkpt lat="37.86686" lon="-122.58834">
        <ele>134.0</ele>
      </trkpt>
      <trkpt lat="37.86724" lon="-122.58837">
        <ele>134.0</ele>
      </trkpt>
      <trkpt lat="37.86743" lon="-122.5885">
        <ele>130.0</ele>
      </trkpt>
      <trkpt lat="37.86756" lon="-122.58864">
        <ele>130.0</ele>
      </trkpt>
      <trkpt lat="37.86766" lon="-122.5887">
        <ele>130.0</ele>
      </trkpt>
      <trkpt lat="37.86776" lon="-122.58886">
        <ele>123.0</ele>
      </trkpt>
      <trkpt lat="37.8679" lon="-122.58897">
        <ele>123.0</ele>
      </trkpt>
      <trkpt lat="37.86798" lon="-122.58899">
        <ele>124.0</ele>
      </trkpt>
      <trkpt lat="37.86803" lon="-122.58907">
        <ele>120.0</ele>
      </trkpt>
      <trkpt lat="37.8681" lon="-122.58913">
        <ele>120.0</ele>
      </trkpt>
      <trkpt lat="37.86819" lon="-122.58935">
        <ele>117.0</ele>
      </trkpt>
      <trkpt lat="37.86827" lon="-122.58943">
        <ele>123.0</ele>
      </trkpt>
      <trkpt lat="37.86836" lon="-122.58962">
        <ele>115.0</ele>
      </trkpt>
      <trkpt lat="37.86839" lon="-122.59001">
        <ele>103.0</ele>
      </trkpt>
      <trkpt lat="37.86845" lon="-122.59016">
        <ele>93.0</ele>
      </trkpt>
      <trkpt lat="37.86858" lon="-122.59033">
        <ele>109.0</ele>
      </trkpt>
      <trkpt lat="37.86859" lon="-122.5904">
        <ele>109.0</ele>
      </trkpt>
      <trkpt lat="37.86866" lon="-122.59053">
        <ele>100.0</ele>
      </trkpt>
      <trkpt lat="37.86902" lon="-122.59096">
        <ele>105.0</ele>
      </trkpt>
      <trkpt lat="37.86921" lon="-122.59104">
        <ele>104.0</ele>
      </trkpt>
      <trkpt lat="37.8693" lon="-122.59121">
        <ele>104.0</ele>
      </trkpt>
      <trkpt lat="37.86942" lon="-122.5913">
        <ele>102.0</ele>
      </trkpt>
      <trkpt lat="37.86946390509679" lon="-122.5913815380369">
        <ele>102.0</ele>
      </trkpt>
      <trkpt lat="37.86946390512543" lon="-122.5913815380369">
        <ele>102.0</ele>
      </trkpt>
      <trkpt lat="37.86956" lon="-122.59156">
        <ele>94.0</ele>
      </trkpt>
      <trkpt lat="37.86963" lon="-122.59166">
        <ele>100.0</ele>
      </trkpt>
      <trkpt lat="37.86963" lon="-122.59166">
        <ele>100.0</ele>
      </trkpt>
      <trkpt lat="37.86963" lon="-122.59166">
        <ele>100.0</ele>
      </trkpt>
      <trkpt lat="37.86988" lon="-122.59182">
        <ele>96.0</ele>
      </trkpt>
      <trkpt lat="37.87024" lon="-122.59228">
        <ele>90.0</ele>
      </trkpt>
      <trkpt lat="37.8703" lon="-122.59233">
        <ele>90.0</ele>
      </trkpt>
      <trkpt lat="37.87043" lon="-122.59235">
        <ele>94.0</ele>
      </trkpt>
      <trkpt lat="37.87072" lon="-122.59265">
        <ele>80.0</ele>
      </trkpt>
      <trkpt lat="37.87092" lon="-122.59277">
        <ele>80.0</ele>
      </trkpt>
      <trkpt lat="37.87121" lon="-122.59324">
        <ele>77.0</ele>
      </trkpt>
      <trkpt lat="37.87137" lon="-122.59337">
        <ele>83.0</ele>
      </trkpt>
      <trkpt lat="37.87146" lon="-122.59356">
        <ele>77.0</ele>
      </trkpt>
      <trkpt lat="37.87153" lon="-122.59363">
        <ele>81.0</ele>
      </trkpt>
      <trkpt lat="37.87164" lon="-122.59388">
        <ele>74.0</ele>
      </trkpt>
      <trkpt lat="37.87181" lon="-122.59402">
        <ele>75.0</ele>
      </trkpt>
      <trkpt lat="37.87197" lon="-122.59402">
        <ele>75.0</ele>
      </trkpt>
      <trkpt lat="37.8721" lon="-122.59417">
        <ele>75.0</ele>
      </trkpt>
      <trkpt lat="37.87228" lon="-122.59416">
        <ele>75.0</ele>
      </trkpt>
      <trkpt lat="37.8724" lon="-122.5942">
        <ele>79.0</ele>
      </trkpt>
      <trkpt lat="37.87268" lon="-122.5944">
        <ele>78.0</ele>
      </trkpt>
      <trkpt lat="37.87289" lon="-122.59439">
        <ele>78.0</ele>
      </trkpt>
      <trkpt lat="37.87304" lon="-122.59445">
        <ele>81.0</ele>
      </trkpt>
      <trkpt lat="37.87313" lon="-122.59446">
        <ele>81.0</ele>
      </trkpt>
      <trkpt lat="37.87339" lon="-122.59436">
        <ele>84.0</ele>
      </trkpt>
      <trkpt lat="37.87349" lon="-122.59443">
        <ele>88.0</ele>
      </trkpt>
      <trkpt lat="37.87352" lon="-122.59454">
        <ele>88.0</ele>
      </trkpt>
      <trkpt lat="37.87326" lon="-122.59494">
        <ele>72.0</ele>
      </trkpt>
      <trkpt lat="37.87327" lon="-122.59511">
        <ele>72.0</ele>
      </trkpt>
      <trkpt lat="37.87346" lon="-122.59567">
        <ele>57.0</ele>
      </trkpt>
      <trkpt lat="37.87358" lon="-122.59584">
        <ele>56.0</ele>
      </trkpt>
      <trkpt lat="37.87363623693608" lon="-122.5961774216165">
        <ele>55.0</ele>
      </trkpt>
      <trkpt lat="37.87363623693749" lon="-122.5961774216165">
        <ele>55.0</ele>
      </trkpt>
      <trkpt lat="37.87358" lon="-122.59584">
        <ele>56.0</ele>
      </trkpt>
      <trkpt lat="37.87346" lon="-122.59567">
        <ele>57.0</ele>
      </trkpt>
      <trkpt lat="37.87327" lon="-122.59511">
        <ele>72.0</ele>
      </trkpt>
      <trkpt lat="37.87326" lon="-122.59494">
        <ele>72.0</ele>
      </trkpt>
      <trkpt lat="37.87352" lon="-122.59454">
        <ele>88.0</ele>
      </trkpt>
      <trkpt lat="37.87349" lon="-122.59443">
        <ele>88.0</ele>
      </trkpt>
      <trkpt lat="37.87339" lon="-122.59436">
        <ele>84.0</ele>
      </trkpt>
      <trkpt lat="37.87313" lon="-122.59446">
        <ele>81.0</ele>
      </trkpt>
      <trkpt lat="37.87304" lon="-122.59445">
        <ele>81.0</ele>
      </trkpt>
      <trkpt lat="37.87289" lon="-122.59439">
        <ele>78.0</ele>
      </trkpt>
      <trkpt lat="37.87268" lon="-122.5944">
        <ele>78.0</ele>
      </trkpt>
      <trkpt lat="37.8724" lon="-122.5942">
        <ele>79.0</ele>
      </trkpt>
      <trkpt lat="37.87228" lon="-122.59416">
        <ele>75.0</ele>
      </trkpt>
      <trkpt lat="37.8721" lon="-122.59417">
        <ele>75.0</ele>
      </trkpt>
      <trkpt lat="37.87197" lon="-122.59402">
        <ele>75.0</ele>
      </trkpt>
      <trkpt lat="37.87181" lon="-122.59402">
        <ele>75.0</ele>
      </trkpt>
      <trkpt lat="37.87164" lon="-122.59388">
        <ele>74.0</ele>
      </trkpt>
      <trkpt lat="37.87153" lon="-122.59363">
        <ele>81.0</ele>
      </trkpt>
      <trkpt lat="37.87146" lon="-122.59356">
        <ele>77.0</ele>
      </trkpt>
      <trkpt lat="37.87137" lon="-122.59337">
        <ele>83.0</ele>
      </trkpt>
      <trkpt lat="37.87121" lon="-122.59324">
        <ele>77.0</ele>
      </trkpt>
      <trkpt lat="37.87092" lon="-122.59277">
        <ele>80.0</ele>
      </trkpt>
      <trkpt lat="37.87072" lon="-122.59265">
        <ele>80.0</ele>
      </trkpt>
      <trkpt lat="37.87044728339146" lon="-122.5923678793705">
        <ele>85.0</ele>
      </trkpt>
      <trkpt lat="37.87044728342345" lon="-122.5923678793705">
        <ele>85.0</ele>
      </trkpt>
      <trkpt lat="37.87043" lon="-122.59235">
        <ele>94.0</ele>
      </trkpt>
      <trkpt lat="37.8703" lon="-122.59233">
        <ele>90.0</ele>
      </trkpt>
      <trkpt lat="37.87024" lon="-122.59228">
        <ele>90.0</ele>
      </trkpt>
      <trkpt lat="37.86988" lon="-122.59182">
        <ele>96.0</ele>
      </trkpt>
      <trkpt lat="37.86963" lon="-122.59166">
        <ele>100.0</ele>
      </trkpt>
      <trkpt lat="37.86963" lon="-122.59166">
        <ele>100.0</ele>
      </trkpt>
      <trkpt lat="37.86963" lon="-122.59166">
        <ele>100.0</ele>
      </trkpt>
      <trkpt lat="37.86956" lon="-122.59156">
        <ele>94.0</ele>
      </trkpt>
      <trkpt lat="37.86942" lon="-122.5913">
        <ele>102.0</ele>
      </trkpt>
      <trkpt lat="37.8693" lon="-122.59121">
        <ele>104.0</ele>
      </trkpt>
      <trkpt lat="37.86921" lon="-122.59104">
        <ele>104.0</ele>
      </trkpt>
      <trkpt lat="37.86902" lon="-122.59096">
        <ele>105.0</ele>
      </trkpt>
      <trkpt lat="37.86866" lon="-122.59053">
        <ele>100.0</ele>
      </trkpt>
      <trkpt lat="37.86859" lon="-122.5904">
        <ele>109.0</ele>
      </trkpt>
      <trkpt lat="37.86858" lon="-122.59033">
        <ele>109.0</ele>
      </trkpt>
      <trkpt lat="37.86845" lon="-122.59016">
        <ele>93.0</ele>
      </trkpt>
      <trkpt lat="37.86839" lon="-122.59001">
        <ele>103.0</ele>
      </trkpt>
      <trkpt lat="37.86836" lon="-122.58962">
        <ele>115.0</ele>
      </trkpt>
      <trkpt lat="37.86827" lon="-122.58943">
        <ele>123.0</ele>
      </trkpt>
      <trkpt lat="37.86819" lon="-122.58935">
        <ele>117.0</ele>
      </trkpt>
      <trkpt lat="37.8681" lon="-122.58913">
        <ele>120.0</ele>
      </trkpt>
      <trkpt lat="37.86803" lon="-122.58907">
        <ele>120.0</ele>
      </trkpt>
      <trkpt lat="37.86798" lon="-122.58899">
        <ele>124.0</ele>
      </trkpt>
      <trkpt lat="37.8679" lon="-122.58897">
        <ele>123.0</ele>
      </trkpt>
      <trkpt lat="37.86776" lon="-122.58886">
        <ele>123.0</ele>
      </trkpt>
      <trkpt lat="37.86766" lon="-122.5887">
        <ele>130.0</ele>
      </trkpt>
      <trkpt lat="37.86756" lon="-122.58864">
        <ele>130.0</ele>
      </trkpt>
      <trkpt lat="37.86743" lon="-122.5885">
        <ele>130.0</ele>
      </trkpt>
      <trkpt lat="37.86724" lon="-122.58837">
        <ele>134.0</ele>
      </trkpt>
      <trkpt lat="37.86686" lon="-122.58834">
        <ele>134.0</ele>
      </trkpt>
      <trkpt lat="37.86663" lon="-122.58827">
        <ele>128.0</ele>
      </trkpt>
      <trkpt lat="37.86635" lon="-122.58826">
        <ele>123.0</ele>
      </trkpt>
      <trkpt lat="37.86627" lon="-122.58828">
        <ele>123.0</ele>
      </trkpt>
      <trkpt lat="37.86621" lon="-122.58823">
        <ele>119.0</ele>
      </trkpt>
      <trkpt lat="37.8662" lon="-122.58817">
        <ele>125.0</ele>
      </trkpt>
      <trkpt lat="37.866" lon="-122.58809">
        <ele>125.0</ele>
      </trkpt>
      <trkpt lat="37.86594" lon="-122.58803">
        <ele>119.0</ele>
      </trkpt>
      <trkpt lat="37.86594" lon="-122.58803">
        <ele>119.0</ele>
      </trkpt>
      <trkpt lat="37.8658" lon="-122.58755">
        <ele>127.0</ele>
      </trkpt>
      <trkpt lat="37.86573" lon="-122.5874">
        <ele>127.0</ele>
      </trkpt>
      <trkpt lat="37.86554" lon="-122.58731">
        <ele>131.0</ele>
      </trkpt>
      <trkpt lat="37.86536" lon="-122.58718">
        <ele>130.0</ele>
      </trkpt>
      <trkpt lat="37.8653" lon="-122.58708">
        <ele>140.0</ele>
      </trkpt>
      <trkpt lat="37.86503" lon="-122.58702">
        <ele>136.0</ele>
      </trkpt>
      <trkpt lat="37.86483" lon="-122.5869">
        <ele>137.0</ele>
      </trkpt>
      <trkpt lat="37.86483" lon="-122.5869">
        <ele>137.0</ele>
      </trkpt>
      <trkpt lat="37.86483" lon="-122.5869">
        <ele>137.0</ele>
      </trkpt>
      <trkpt lat="37.86473" lon="-122.58693">
        <ele>137.0</ele>
      </trkpt>
      <trkpt lat="37.86436" lon="-122.58693">
        <ele>138.0</ele>
      </trkpt>
      <trkpt lat="37.86436" lon="-122.58693">
        <ele>138.0</ele>
      </trkpt>
      <trkpt lat="37.86413" lon="-122.58667">
        <ele>141.0</ele>
      </trkpt>
      <trkpt lat="37.86404" lon="-122.58659">
        <ele>141.0</ele>
      </trkpt>
      <trkpt lat="37.86398" lon="-122.5866">
        <ele>141.0</ele>
      </trkpt>
      <trkpt lat="37.86391" lon="-122.58649">
        <ele>144.0</ele>
      </trkpt>
      <trkpt lat="37.86373" lon="-122.58635">
        <ele>141.0</ele>
      </trkpt>
      <trkpt lat="37.86348" lon="-122.58602">
        <ele>144.0</ele>
      </trkpt>
      <trkpt lat="37.86348" lon="-122.58602">
        <ele>144.0</ele>
      </trkpt>
      <trkpt lat="37.86342" lon="-122.58593">
        <ele>146.0</ele>
      </trkpt>
      <trkpt lat="37.86334" lon="-122.58586">
        <ele>146.0</ele>
      </trkpt>
      <trkpt lat="37.86328" lon="-122.58586">
        <ele>146.0</ele>
      </trkpt>
      <trkpt lat="37.86325555248195" lon="-122.5858111049639">
        <ele>146.0</ele>
      </trkpt>
      <trkpt lat="37.86325863172095" lon="-122.585808634758">
        <ele>146.0</ele>
      </trkpt>
    </trkseg>
  </trk>
</gpx>
