<?xml version="1.0" encoding="UTF-8"?>
<gpx xmlns:xsi="http://www.w3.org/2001/XMLSchema-instance" version="1.1" creator="The Outbound Collective, Inc. 1.1.1 -- https://www.theoutbound.com" xsi:schemaLocation="http://www.topografix.com/GPX/1/1 http://www.topografix.com/GPX/1/1/gpx.xsd">
  <metadata>
    <name/>
    <time>2026-02-19T21:49:16+00:00</time>
    <bound minlat="37.83025" minlon="-122.53513" maxlat="37.86511" maxlon="-122.49452505179"/>
  </metadata>
  <trk>
    <name/>
    <trkseg>
      <trkpt lat="37.83385701588293" lon="-122.4945384263992">
        <ele>176.0</ele>
      </trkpt>
      <trkpt lat="37.83386257769073" lon="-122.49452505179">
        <ele>176.0</ele>
      </trkpt>
      <trkpt lat="37.8339" lon="-122.49455">
        <ele>176.0</ele>
      </trkpt>
      <trkpt lat="37.8339" lon="-122.49455">
        <ele>176.0</ele>
      </trkpt>
      <trkpt lat="37.83386" lon="-122.49462">
        <ele>173.0</ele>
      </trkpt>
      <trkpt lat="37.83384" lon="-122.49471">
        <ele>173.0</ele>
      </trkpt>
      <trkpt lat="37.83384" lon="-122.49471">
        <ele>173.0</ele>
      </trkpt>
      <trkpt lat="37.83390944852849" lon="-122.4950502977896">
        <ele>176.0</ele>
      </trkpt>
      <trkpt lat="37.83390944854286" lon="-122.4950502977896">
        <ele>176.0</ele>
      </trkpt>
      <trkpt lat="37.83394" lon="-122.4952">
        <ele>179.0</ele>
      </trkpt>
      <trkpt lat="37.8341" lon="-122.49556">
        <ele>167.0</ele>
      </trkpt>
      <trkpt lat="37.83416" lon="-122.49602">
        <ele>175.0</ele>
      </trkpt>
      <trkpt lat="37.83427" lon="-122.49632">
        <ele>178.0</ele>
      </trkpt>
      <trkpt lat="37.83436" lon="-122.4967">
        <ele>159.0</ele>
      </trkpt>
      <trkpt lat="37.83467" lon="-122.49756">
        <ele>151.0</ele>
      </trkpt>
      <trkpt lat="37.83467" lon="-122.49756">
        <ele>151.0</ele>
      </trkpt>
      <trkpt lat="37.8347" lon="-122.49766">
        <ele>151.0</ele>
      </trkpt>
      <trkpt lat="37.83468" lon="-122.49783">
        <ele>151.0</ele>
      </trkpt>
      <trkpt lat="37.83452" lon="-122.49828">
        <ele>154.0</ele>
      </trkpt>
      <trkpt lat="37.83422" lon="-122.49829">
        <ele>156.0</ele>
      </trkpt>
      <trkpt lat="37.83407" lon="-122.49824">
        <ele>156.0</ele>
      </trkpt>
      <trkpt lat="37.83374" lon="-122.49825">
        <ele>161.0</ele>
      </trkpt>
      <trkpt lat="37.83366" lon="-122.49829">
        <ele>161.0</ele>
      </trkpt>
      <trkpt lat="37.83341" lon="-122.49864">
        <ele>163.0</ele>
      </trkpt>
      <trkpt lat="37.83284" lon="-122.49914">
        <ele>170.0</ele>
      </trkpt>
      <trkpt lat="37.83278" lon="-122.4992">
        <ele>170.0</ele>
      </trkpt>
      <trkpt lat="37.83275" lon="-122.49928">
        <ele>170.0</ele>
      </trkpt>
      <trkpt lat="37.83277" lon="-122.49945">
        <ele>166.0</ele>
      </trkpt>
      <trkpt lat="37.83282" lon="-122.49957">
        <ele>166.0</ele>
      </trkpt>
      <trkpt lat="37.8333" lon="-122.50012">
        <ele>148.0</ele>
      </trkpt>
      <trkpt lat="37.83338" lon="-122.50025">
        <ele>155.0</ele>
      </trkpt>
      <trkpt lat="37.834" lon="-122.50071">
        <ele>146.0</ele>
      </trkpt>
      <trkpt lat="37.83417" lon="-122.50098">
        <ele>138.0</ele>
      </trkpt>
      <trkpt lat="37.83436" lon="-122.5012">
        <ele>122.0</ele>
      </trkpt>
      <trkpt lat="37.83448" lon="-122.50139">
        <ele>126.0</ele>
      </trkpt>
      <trkpt lat="37.8345" lon="-122.50156">
        <ele>128.0</ele>
      </trkpt>
      <trkpt lat="37.83444" lon="-122.50178">
        <ele>128.0</ele>
      </trkpt>
      <trkpt lat="37.8342" lon="-122.50206">
        <ele>132.0</ele>
      </trkpt>
      <trkpt lat="37.83405" lon="-122.50209">
        <ele>130.0</ele>
      </trkpt>
      <trkpt lat="37.8336" lon="-122.50192">
        <ele>129.0</ele>
      </trkpt>
      <trkpt lat="37.83336" lon="-122.50191">
        <ele>128.0</ele>
      </trkpt>
      <trkpt lat="37.83322340942958" lon="-122.5019742779155">
        <ele>128.0</ele>
      </trkpt>
      <trkpt lat="37.83322340946047" lon="-122.5019742779155">
        <ele>128.0</ele>
      </trkpt>
      <trkpt lat="37.83319" lon="-122.50199">
        <ele>143.0</ele>
      </trkpt>
      <trkpt lat="37.83284" lon="-122.50236">
        <ele>155.0</ele>
      </trkpt>
      <trkpt lat="37.8327" lon="-122.50268">
        <ele>126.0</ele>
      </trkpt>
      <trkpt lat="37.83268" lon="-122.50279">
        <ele>126.0</ele>
      </trkpt>
      <trkpt lat="37.83265" lon="-122.50364">
        <ele>111.0</ele>
      </trkpt>
      <trkpt lat="37.83271" lon="-122.50396">
        <ele>110.0</ele>
      </trkpt>
      <trkpt lat="37.83269" lon="-122.50406">
        <ele>108.0</ele>
      </trkpt>
      <trkpt lat="37.83266" lon="-122.5042">
        <ele>108.0</ele>
      </trkpt>
      <trkpt lat="37.83244" lon="-122.50474">
        <ele>111.0</ele>
      </trkpt>
      <trkpt lat="37.83236" lon="-122.505">
        <ele>114.0</ele>
      </trkpt>
      <trkpt lat="37.83227" lon="-122.50516">
        <ele>111.0</ele>
      </trkpt>
      <trkpt lat="37.83221" lon="-122.50521">
        <ele>111.0</ele>
      </trkpt>
      <trkpt lat="37.8321" lon="-122.50524">
        <ele>111.0</ele>
      </trkpt>
      <trkpt lat="37.83202" lon="-122.50517">
        <ele>103.0</ele>
      </trkpt>
      <trkpt lat="37.83194" lon="-122.505">
        <ele>106.0</ele>
      </trkpt>
      <trkpt lat="37.83183" lon="-122.50486">
        <ele>113.0</ele>
      </trkpt>
      <trkpt lat="37.83119" lon="-122.50431">
        <ele>90.0</ele>
      </trkpt>
      <trkpt lat="37.83102" lon="-122.50406">
        <ele>100.0</ele>
      </trkpt>
      <trkpt lat="37.83064" lon="-122.50363">
        <ele>84.0</ele>
      </trkpt>
      <trkpt lat="37.83039" lon="-122.50317">
        <ele>100.0</ele>
      </trkpt>
      <trkpt lat="37.8303" lon="-122.50317">
        <ele>100.0</ele>
      </trkpt>
      <trkpt lat="37.83026" lon="-122.50325">
        <ele>88.0</ele>
      </trkpt>
      <trkpt lat="37.83027" lon="-122.50367">
        <ele>85.0</ele>
      </trkpt>
      <trkpt lat="37.83025" lon="-122.50408">
        <ele>79.0</ele>
      </trkpt>
      <trkpt lat="37.83031" lon="-122.5047">
        <ele>75.0</ele>
      </trkpt>
      <trkpt lat="37.8303" lon="-122.5052">
        <ele>73.0</ele>
      </trkpt>
      <trkpt lat="37.83026" lon="-122.5056">
        <ele>74.0</ele>
      </trkpt>
      <trkpt lat="37.83026" lon="-122.50567">
        <ele>74.0</ele>
      </trkpt>
      <trkpt lat="37.83042" lon="-122.50581">
        <ele>63.0</ele>
      </trkpt>
      <trkpt lat="37.83031" lon="-122.50626">
        <ele>73.0</ele>
      </trkpt>
      <trkpt lat="37.83032389122238" lon="-122.5062988954227">
        <ele>73.0</ele>
      </trkpt>
      <trkpt lat="37.83032389122579" lon="-122.5062988954227">
        <ele>73.0</ele>
      </trkpt>
      <trkpt lat="37.83036" lon="-122.5064">
        <ele>73.0</ele>
      </trkpt>
      <trkpt lat="37.83041" lon="-122.50689">
        <ele>65.0</ele>
      </trkpt>
      <trkpt lat="37.83041" lon="-122.50689">
        <ele>65.0</ele>
      </trkpt>
      <trkpt lat="37.83041" lon="-122.50689">
        <ele>65.0</ele>
      </trkpt>
      <trkpt lat="37.8306" lon="-122.50783">
        <ele>54.0</ele>
      </trkpt>
      <trkpt lat="37.83086600718813" lon="-122.5089415300361">
        <ele>46.0</ele>
      </trkpt>
      <trkpt lat="37.83086600718813" lon="-122.5089415300361">
        <ele>46.0</ele>
      </trkpt>
      <trkpt lat="37.83096761660746" lon="-122.5093661122526">
        <ele>43.0</ele>
      </trkpt>
      <trkpt lat="37.83096761668247" lon="-122.5093661122526">
        <ele>43.0</ele>
      </trkpt>
      <trkpt lat="37.83107655041121" lon="-122.5098212999326">
        <ele>37.0</ele>
      </trkpt>
      <trkpt lat="37.83107655041121" lon="-122.5098212999326">
        <ele>37.0</ele>
      </trkpt>
      <trkpt lat="37.83116" lon="-122.51017">
        <ele>41.0</ele>
      </trkpt>
      <trkpt lat="37.83125" lon="-122.51046">
        <ele>44.0</ele>
      </trkpt>
      <trkpt lat="37.8314" lon="-122.5108">
        <ele>39.0</ele>
      </trkpt>
      <trkpt lat="37.83147" lon="-122.51106">
        <ele>38.0</ele>
      </trkpt>
      <trkpt lat="37.83165959625795" lon="-122.5120553803543">
        <ele>36.0</ele>
      </trkpt>
      <trkpt lat="37.83165959627132" lon="-122.5120553803543">
        <ele>36.0</ele>
      </trkpt>
      <trkpt lat="37.83167" lon="-122.51211">
        <ele>39.0</ele>
      </trkpt>
      <trkpt lat="37.83175" lon="-122.51222">
        <ele>39.0</ele>
      </trkpt>
      <trkpt lat="37.83175" lon="-122.51222">
        <ele>39.0</ele>
      </trkpt>
      <trkpt lat="37.83164" lon="-122.51284">
        <ele>37.0</ele>
      </trkpt>
      <trkpt lat="37.83161" lon="-122.51336">
        <ele>31.0</ele>
      </trkpt>
      <trkpt lat="37.8316786112001" lon="-122.5140883316675">
        <ele>25.0</ele>
      </trkpt>
      <trkpt lat="37.8316786112001" lon="-122.5140883316675">
        <ele>25.0</ele>
      </trkpt>
      <trkpt lat="37.83168190686855" lon="-122.5141233165958">
        <ele>25.0</ele>
      </trkpt>
      <trkpt lat="37.83168352796718" lon="-122.5141405252502">
        <ele>25.0</ele>
      </trkpt>
      <trkpt lat="37.83168507966008" lon="-122.5141569971332">
        <ele>25.0</ele>
      </trkpt>
      <trkpt lat="37.83168507966008" lon="-122.5141569971332">
        <ele>25.0</ele>
      </trkpt>
      <trkpt lat="37.83174" lon="-122.51474">
        <ele>22.0</ele>
      </trkpt>
      <trkpt lat="37.83174" lon="-122.51474">
        <ele>22.0</ele>
      </trkpt>
      <trkpt lat="37.83178" lon="-122.51474">
        <ele>22.0</ele>
      </trkpt>
      <trkpt lat="37.8318" lon="-122.51481">
        <ele>22.0</ele>
      </trkpt>
      <trkpt lat="37.83204" lon="-122.51492">
        <ele>21.0</ele>
      </trkpt>
      <trkpt lat="37.83213884165833" lon="-122.5150888544997">
        <ele>18.0</ele>
      </trkpt>
      <trkpt lat="37.8321388417529" lon="-122.5150888544997">
        <ele>18.0</ele>
      </trkpt>
      <trkpt lat="37.83228" lon="-122.51533">
        <ele>19.0</ele>
      </trkpt>
      <trkpt lat="37.83228" lon="-122.51533">
        <ele>19.0</ele>
      </trkpt>
      <trkpt lat="37.83242" lon="-122.51513">
        <ele>18.0</ele>
      </trkpt>
      <trkpt lat="37.83242" lon="-122.51513">
        <ele>18.0</ele>
      </trkpt>
      <trkpt lat="37.83254" lon="-122.51497">
        <ele>18.0</ele>
      </trkpt>
      <trkpt lat="37.83254" lon="-122.51497">
        <ele>18.0</ele>
      </trkpt>
      <trkpt lat="37.83264" lon="-122.51488">
        <ele>18.0</ele>
      </trkpt>
      <trkpt lat="37.83269" lon="-122.51486">
        <ele>18.0</ele>
      </trkpt>
      <trkpt lat="37.83297" lon="-122.51484">
        <ele>17.0</ele>
      </trkpt>
      <trkpt lat="37.83309024174782" lon="-122.5148111419805">
        <ele>17.0</ele>
      </trkpt>
      <trkpt lat="37.83309024185357" lon="-122.5148111419805">
        <ele>17.0</ele>
      </trkpt>
      <trkpt lat="37.83322" lon="-122.51478">
        <ele>18.0</ele>
      </trkpt>
      <trkpt lat="37.83322" lon="-122.51478">
        <ele>18.0</ele>
      </trkpt>
      <trkpt lat="37.83329" lon="-122.51509">
        <ele>17.0</ele>
      </trkpt>
      <trkpt lat="37.83351" lon="-122.51544">
        <ele>17.0</ele>
      </trkpt>
      <trkpt lat="37.83376" lon="-122.51575">
        <ele>17.0</ele>
      </trkpt>
      <trkpt lat="37.83387" lon="-122.51601">
        <ele>17.0</ele>
      </trkpt>
      <trkpt lat="37.83395" lon="-122.51633">
        <ele>17.0</ele>
      </trkpt>
      <trkpt lat="37.83406" lon="-122.51658">
        <ele>19.0</ele>
      </trkpt>
      <trkpt lat="37.83419" lon="-122.51679">
        <ele>19.0</ele>
      </trkpt>
      <trkpt lat="37.83429" lon="-122.51701">
        <ele>17.0</ele>
      </trkpt>
      <trkpt lat="37.83446" lon="-122.51767">
        <ele>15.0</ele>
      </trkpt>
      <trkpt lat="37.83463" lon="-122.51785">
        <ele>19.0</ele>
      </trkpt>
      <trkpt lat="37.835" lon="-122.51793">
        <ele>18.0</ele>
      </trkpt>
      <trkpt lat="37.835" lon="-122.51793">
        <ele>18.0</ele>
      </trkpt>
      <trkpt lat="37.83506646161712" lon="-122.5179666684784">
        <ele>18.0</ele>
      </trkpt>
      <trkpt lat="37.83506646171784" lon="-122.5179666684784">
        <ele>18.0</ele>
      </trkpt>
      <trkpt lat="37.83529" lon="-122.51809">
        <ele>18.0</ele>
      </trkpt>
      <trkpt lat="37.83529" lon="-122.51809">
        <ele>18.0</ele>
      </trkpt>
      <trkpt lat="37.83527" lon="-122.5184">
        <ele>18.0</ele>
      </trkpt>
      <trkpt lat="37.83531326936311" lon="-122.5186423084334">
        <ele>19.0</ele>
      </trkpt>
      <trkpt lat="37.83531326936509" lon="-122.5186423084334">
        <ele>19.0</ele>
      </trkpt>
      <trkpt lat="37.83532" lon="-122.51868">
        <ele>19.0</ele>
      </trkpt>
      <trkpt lat="37.83539" lon="-122.51897">
        <ele>19.0</ele>
      </trkpt>
      <trkpt lat="37.83539" lon="-122.51897">
        <ele>19.0</ele>
      </trkpt>
      <trkpt lat="37.83622" lon="-122.51858">
        <ele>21.0</ele>
      </trkpt>
      <trkpt lat="37.83667" lon="-122.51829">
        <ele>20.0</ele>
      </trkpt>
      <trkpt lat="37.83691" lon="-122.5182">
        <ele>19.0</ele>
      </trkpt>
      <trkpt lat="37.83709" lon="-122.51823">
        <ele>20.0</ele>
      </trkpt>
      <trkpt lat="37.83724" lon="-122.51839">
        <ele>20.0</ele>
      </trkpt>
      <trkpt lat="37.83743" lon="-122.51887">
        <ele>23.0</ele>
      </trkpt>
      <trkpt lat="37.83763" lon="-122.51923">
        <ele>26.0</ele>
      </trkpt>
      <trkpt lat="37.83776" lon="-122.51935">
        <ele>30.0</ele>
      </trkpt>
      <trkpt lat="37.83801" lon="-122.51936">
        <ele>31.0</ele>
      </trkpt>
      <trkpt lat="37.83833" lon="-122.5192">
        <ele>31.0</ele>
      </trkpt>
      <trkpt lat="37.83852" lon="-122.51881">
        <ele>37.0</ele>
      </trkpt>
      <trkpt lat="37.83879120393934" lon="-122.5184981154698">
        <ele>49.0</ele>
      </trkpt>
      <trkpt lat="37.83879120417613" lon="-122.5184981154698">
        <ele>49.0</ele>
      </trkpt>
      <trkpt lat="37.83892" lon="-122.51835">
        <ele>43.0</ele>
      </trkpt>
      <trkpt lat="37.83905" lon="-122.51809">
        <ele>42.0</ele>
      </trkpt>
      <trkpt lat="37.83921" lon="-122.51798">
        <ele>42.0</ele>
      </trkpt>
      <trkpt lat="37.83943" lon="-122.51792">
        <ele>46.0</ele>
      </trkpt>
      <trkpt lat="37.83988" lon="-122.51808">
        <ele>51.0</ele>
      </trkpt>
      <trkpt lat="37.84016" lon="-122.51824">
        <ele>63.0</ele>
      </trkpt>
      <trkpt lat="37.84016" lon="-122.51824">
        <ele>63.0</ele>
      </trkpt>
      <trkpt lat="37.84035" lon="-122.51836">
        <ele>63.0</ele>
      </trkpt>
      <trkpt lat="37.84064" lon="-122.519">
        <ele>78.0</ele>
      </trkpt>
      <trkpt lat="37.84098" lon="-122.51938">
        <ele>79.0</ele>
      </trkpt>
      <trkpt lat="37.84112" lon="-122.51943">
        <ele>79.0</ele>
      </trkpt>
      <trkpt lat="37.84151" lon="-122.51941">
        <ele>82.0</ele>
      </trkpt>
      <trkpt lat="37.84172" lon="-122.51953">
        <ele>78.0</ele>
      </trkpt>
      <trkpt lat="37.84172" lon="-122.51953">
        <ele>78.0</ele>
      </trkpt>
      <trkpt lat="37.84178" lon="-122.51963">
        <ele>88.0</ele>
      </trkpt>
      <trkpt lat="37.84168" lon="-122.52016">
        <ele>106.0</ele>
      </trkpt>
      <trkpt lat="37.84169" lon="-122.52031">
        <ele>106.0</ele>
      </trkpt>
      <trkpt lat="37.84172" lon="-122.52036">
        <ele>106.0</ele>
      </trkpt>
      <trkpt lat="37.84207" lon="-122.52046">
        <ele>108.0</ele>
      </trkpt>
      <trkpt lat="37.84212" lon="-122.52051">
        <ele>97.0</ele>
      </trkpt>
      <trkpt lat="37.84222" lon="-122.52097">
        <ele>103.0</ele>
      </trkpt>
      <trkpt lat="37.84218" lon="-122.52111">
        <ele>108.0</ele>
      </trkpt>
      <trkpt lat="37.84193" lon="-122.52146">
        <ele>122.0</ele>
      </trkpt>
      <trkpt lat="37.8419" lon="-122.5216">
        <ele>125.0</ele>
      </trkpt>
      <trkpt lat="37.84188" lon="-122.52179">
        <ele>125.0</ele>
      </trkpt>
      <trkpt lat="37.84189" lon="-122.52192">
        <ele>129.0</ele>
      </trkpt>
      <trkpt lat="37.84193" lon="-122.522">
        <ele>129.0</ele>
      </trkpt>
      <trkpt lat="37.84214" lon="-122.52208">
        <ele>121.0</ele>
      </trkpt>
      <trkpt lat="37.84222" lon="-122.52214">
        <ele>129.0</ele>
      </trkpt>
      <trkpt lat="37.84228" lon="-122.52225">
        <ele>129.0</ele>
      </trkpt>
      <trkpt lat="37.84237" lon="-122.52257">
        <ele>129.0</ele>
      </trkpt>
      <trkpt lat="37.84273" lon="-122.52271">
        <ele>130.0</ele>
      </trkpt>
      <trkpt lat="37.84283" lon="-122.52277">
        <ele>130.0</ele>
      </trkpt>
      <trkpt lat="37.843" lon="-122.52348">
        <ele>145.0</ele>
      </trkpt>
      <trkpt lat="37.84308" lon="-122.52358">
        <ele>145.0</ele>
      </trkpt>
      <trkpt lat="37.84331" lon="-122.52364">
        <ele>139.0</ele>
      </trkpt>
      <trkpt lat="37.84351" lon="-122.52378">
        <ele>145.0</ele>
      </trkpt>
      <trkpt lat="37.84376" lon="-122.5242">
        <ele>146.0</ele>
      </trkpt>
      <trkpt lat="37.84383" lon="-122.52424">
        <ele>146.0</ele>
      </trkpt>
      <trkpt lat="37.84431" lon="-122.52428">
        <ele>141.0</ele>
      </trkpt>
      <trkpt lat="37.84476" lon="-122.52475">
        <ele>160.0</ele>
      </trkpt>
      <trkpt lat="37.84482" lon="-122.52489">
        <ele>169.0</ele>
      </trkpt>
      <trkpt lat="37.84483" lon="-122.52506">
        <ele>169.0</ele>
      </trkpt>
      <trkpt lat="37.84479" lon="-122.52531">
        <ele>177.0</ele>
      </trkpt>
      <trkpt lat="37.84485" lon="-122.5255">
        <ele>184.0</ele>
      </trkpt>
      <trkpt lat="37.84485" lon="-122.5255">
        <ele>184.0</ele>
      </trkpt>
      <trkpt lat="37.84485" lon="-122.5255">
        <ele>184.0</ele>
      </trkpt>
      <trkpt lat="37.84511" lon="-122.52568">
        <ele>177.0</ele>
      </trkpt>
      <trkpt lat="37.84527" lon="-122.52597">
        <ele>176.0</ele>
      </trkpt>
      <trkpt lat="37.84544" lon="-122.52611">
        <ele>174.0</ele>
      </trkpt>
      <trkpt lat="37.84573" lon="-122.52624">
        <ele>179.0</ele>
      </trkpt>
      <trkpt lat="37.84583988470149" lon="-122.5262360755464">
        <ele>179.0</ele>
      </trkpt>
      <trkpt lat="37.84583988470149" lon="-122.5262360755464">
        <ele>179.0</ele>
      </trkpt>
      <trkpt lat="37.84601" lon="-122.52623">
        <ele>184.0</ele>
      </trkpt>
      <trkpt lat="37.84613" lon="-122.52614">
        <ele>184.0</ele>
      </trkpt>
      <trkpt lat="37.84613" lon="-122.52614">
        <ele>184.0</ele>
      </trkpt>
      <trkpt lat="37.84613" lon="-122.52614">
        <ele>184.0</ele>
      </trkpt>
      <trkpt lat="37.84665" lon="-122.52552">
        <ele>199.0</ele>
      </trkpt>
      <trkpt lat="37.84707" lon="-122.52536">
        <ele>199.0</ele>
      </trkpt>
      <trkpt lat="37.84769985593348" lon="-122.5254220984723">
        <ele>200.0</ele>
      </trkpt>
      <trkpt lat="37.84769985593348" lon="-122.5254220984723">
        <ele>200.0</ele>
      </trkpt>
      <trkpt lat="37.84778" lon="-122.52543">
        <ele>200.0</ele>
      </trkpt>
      <trkpt lat="37.84810038787693" lon="-122.5255756308532">
        <ele>196.0</ele>
      </trkpt>
      <trkpt lat="37.84810038789781" lon="-122.5255756308532">
        <ele>196.0</ele>
      </trkpt>
      <trkpt lat="37.84811" lon="-122.52558">
        <ele>196.0</ele>
      </trkpt>
      <trkpt lat="37.84853" lon="-122.52552">
        <ele>194.0</ele>
      </trkpt>
      <trkpt lat="37.84884" lon="-122.52554">
        <ele>195.0</ele>
      </trkpt>
      <trkpt lat="37.84891" lon="-122.52556">
        <ele>195.0</ele>
      </trkpt>
      <trkpt lat="37.84943" lon="-122.52588">
        <ele>193.0</ele>
      </trkpt>
      <trkpt lat="37.84977" lon="-122.52596">
        <ele>201.0</ele>
      </trkpt>
      <trkpt lat="37.84997" lon="-122.52593">
        <ele>204.0</ele>
      </trkpt>
      <trkpt lat="37.84997" lon="-122.52593">
        <ele>204.0</ele>
      </trkpt>
      <trkpt lat="37.85007" lon="-122.52631">
        <ele>198.0</ele>
      </trkpt>
      <trkpt lat="37.85019" lon="-122.52647">
        <ele>200.0</ele>
      </trkpt>
      <trkpt lat="37.8502" lon="-122.52662">
        <ele>199.0</ele>
      </trkpt>
      <trkpt lat="37.85009" lon="-122.52681">
        <ele>194.0</ele>
      </trkpt>
      <trkpt lat="37.85009" lon="-122.527">
        <ele>194.0</ele>
      </trkpt>
      <trkpt lat="37.85041" lon="-122.52786">
        <ele>184.0</ele>
      </trkpt>
      <trkpt lat="37.85056" lon="-122.52809">
        <ele>184.0</ele>
      </trkpt>
      <trkpt lat="37.8510546833823" lon="-122.5282598166835">
        <ele>192.0</ele>
      </trkpt>
      <trkpt lat="37.85105468397043" lon="-122.5282598166835">
        <ele>192.0</ele>
      </trkpt>
      <trkpt lat="37.85123" lon="-122.52832">
        <ele>192.0</ele>
      </trkpt>
      <trkpt lat="37.85133" lon="-122.52847">
        <ele>197.0</ele>
      </trkpt>
      <trkpt lat="37.85176" lon="-122.52947">
        <ele>185.0</ele>
      </trkpt>
      <trkpt lat="37.8519" lon="-122.52992">
        <ele>183.0</ele>
      </trkpt>
      <trkpt lat="37.85207" lon="-122.53015">
        <ele>176.0</ele>
      </trkpt>
      <trkpt lat="37.85217" lon="-122.53025">
        <ele>187.0</ele>
      </trkpt>
      <trkpt lat="37.85246" lon="-122.53043">
        <ele>190.0</ele>
      </trkpt>
      <trkpt lat="37.85254" lon="-122.53054">
        <ele>190.0</ele>
      </trkpt>
      <trkpt lat="37.85256" lon="-122.53061">
        <ele>190.0</ele>
      </trkpt>
      <trkpt lat="37.85251" lon="-122.53112">
        <ele>183.0</ele>
      </trkpt>
      <trkpt lat="37.85249" lon="-122.53159">
        <ele>180.0</ele>
      </trkpt>
      <trkpt lat="37.85252" lon="-122.53166">
        <ele>180.0</ele>
      </trkpt>
      <trkpt lat="37.85261" lon="-122.53177">
        <ele>180.0</ele>
      </trkpt>
      <trkpt lat="37.85261" lon="-122.53191">
        <ele>179.0</ele>
      </trkpt>
      <trkpt lat="37.85318" lon="-122.53227">
        <ele>181.0</ele>
      </trkpt>
      <trkpt lat="37.85322" lon="-122.53242">
        <ele>179.0</ele>
      </trkpt>
      <trkpt lat="37.8532" lon="-122.53261">
        <ele>179.0</ele>
      </trkpt>
      <trkpt lat="37.85325" lon="-122.53276">
        <ele>175.0</ele>
      </trkpt>
      <trkpt lat="37.85344" lon="-122.53289">
        <ele>175.0</ele>
      </trkpt>
      <trkpt lat="37.85359" lon="-122.53313">
        <ele>176.0</ele>
      </trkpt>
      <trkpt lat="37.85372" lon="-122.53325">
        <ele>168.0</ele>
      </trkpt>
      <trkpt lat="37.85384" lon="-122.53324">
        <ele>164.0</ele>
      </trkpt>
      <trkpt lat="37.8540446647615" lon="-122.5331183876055">
        <ele>167.0</ele>
      </trkpt>
      <trkpt lat="37.85404466543516" lon="-122.5331183876055">
        <ele>167.0</ele>
      </trkpt>
      <trkpt lat="37.85453" lon="-122.53283">
        <ele>165.0</ele>
      </trkpt>
      <trkpt lat="37.85467" lon="-122.53282">
        <ele>156.0</ele>
      </trkpt>
      <trkpt lat="37.85498" lon="-122.53287">
        <ele>150.0</ele>
      </trkpt>
      <trkpt lat="37.85511" lon="-122.53283">
        <ele>150.0</ele>
      </trkpt>
      <trkpt lat="37.85524" lon="-122.53271">
        <ele>146.0</ele>
      </trkpt>
      <trkpt lat="37.85535" lon="-122.53265">
        <ele>146.0</ele>
      </trkpt>
      <trkpt lat="37.85547" lon="-122.53265">
        <ele>144.0</ele>
      </trkpt>
      <trkpt lat="37.85559" lon="-122.53283">
        <ele>144.0</ele>
      </trkpt>
      <trkpt lat="37.85583" lon="-122.53305">
        <ele>139.0</ele>
      </trkpt>
      <trkpt lat="37.856" lon="-122.53344">
        <ele>138.0</ele>
      </trkpt>
      <trkpt lat="37.85622" lon="-122.53428">
        <ele>132.0</ele>
      </trkpt>
      <trkpt lat="37.85635" lon="-122.53456">
        <ele>128.0</ele>
      </trkpt>
      <trkpt lat="37.85688" lon="-122.53513">
        <ele>114.0</ele>
      </trkpt>
      <trkpt lat="37.85699" lon="-122.53513">
        <ele>114.0</ele>
      </trkpt>
      <trkpt lat="37.85709" lon="-122.53506">
        <ele>109.0</ele>
      </trkpt>
      <trkpt lat="37.85714" lon="-122.53494">
        <ele>109.0</ele>
      </trkpt>
      <trkpt lat="37.85714" lon="-122.53481">
        <ele>110.0</ele>
      </trkpt>
      <trkpt lat="37.85705" lon="-122.53446">
        <ele>116.0</ele>
      </trkpt>
      <trkpt lat="37.85715" lon="-122.53414">
        <ele>110.0</ele>
      </trkpt>
      <trkpt lat="37.85735" lon="-122.5337">
        <ele>121.0</ele>
      </trkpt>
      <trkpt lat="37.85751" lon="-122.53357">
        <ele>115.0</ele>
      </trkpt>
      <trkpt lat="37.85751" lon="-122.53357">
        <ele>115.0</ele>
      </trkpt>
      <trkpt lat="37.85774" lon="-122.53343">
        <ele>112.0</ele>
      </trkpt>
      <trkpt lat="37.85815" lon="-122.53347">
        <ele>108.0</ele>
      </trkpt>
      <trkpt lat="37.85835" lon="-122.53342">
        <ele>103.0</ele>
      </trkpt>
      <trkpt lat="37.85848" lon="-122.53334">
        <ele>97.0</ele>
      </trkpt>
      <trkpt lat="37.85864" lon="-122.53318">
        <ele>103.0</ele>
      </trkpt>
      <trkpt lat="37.85887" lon="-122.53304">
        <ele>93.0</ele>
      </trkpt>
      <trkpt lat="37.85891" lon="-122.5331">
        <ele>93.0</ele>
      </trkpt>
      <trkpt lat="37.85888" lon="-122.53322">
        <ele>88.0</ele>
      </trkpt>
      <trkpt lat="37.85828" lon="-122.53413">
        <ele>81.0</ele>
      </trkpt>
      <trkpt lat="37.85847" lon="-122.53408">
        <ele>81.0</ele>
      </trkpt>
      <trkpt lat="37.85864" lon="-122.53407">
        <ele>74.0</ele>
      </trkpt>
      <trkpt lat="37.85911" lon="-122.53414">
        <ele>70.0</ele>
      </trkpt>
      <trkpt lat="37.85921" lon="-122.5341">
        <ele>70.0</ele>
      </trkpt>
      <trkpt lat="37.85926" lon="-122.53402">
        <ele>72.0</ele>
      </trkpt>
      <trkpt lat="37.85936" lon="-122.53399">
        <ele>73.0</ele>
      </trkpt>
      <trkpt lat="37.85963" lon="-122.53394">
        <ele>72.0</ele>
      </trkpt>
      <trkpt lat="37.85963" lon="-122.53394">
        <ele>72.0</ele>
      </trkpt>
      <trkpt lat="37.8598118243203" lon="-122.5342180842546">
        <ele>68.0</ele>
      </trkpt>
      <trkpt lat="37.8598118243203" lon="-122.5342180842546">
        <ele>68.0</ele>
      </trkpt>
      <trkpt lat="37.85997" lon="-122.53446">
        <ele>66.0</ele>
      </trkpt>
      <trkpt lat="37.85997" lon="-122.53446">
        <ele>66.0</ele>
      </trkpt>
      <trkpt lat="37.86005" lon="-122.53457">
        <ele>66.0</ele>
      </trkpt>
      <trkpt lat="37.86047" lon="-122.53486">
        <ele>70.0</ele>
      </trkpt>
      <trkpt lat="37.8606" lon="-122.53503">
        <ele>65.0</ele>
      </trkpt>
      <trkpt lat="37.8606" lon="-122.53503">
        <ele>65.0</ele>
      </trkpt>
      <trkpt lat="37.86096995328148" lon="-122.5347412559754">
        <ele>79.0</ele>
      </trkpt>
      <trkpt lat="37.86096995338198" lon="-122.5347412559754">
        <ele>79.0</ele>
      </trkpt>
      <trkpt lat="37.86101" lon="-122.53471">
        <ele>86.0</ele>
      </trkpt>
      <trkpt lat="37.86131" lon="-122.53457">
        <ele>96.0</ele>
      </trkpt>
      <trkpt lat="37.86131" lon="-122.53457">
        <ele>96.0</ele>
      </trkpt>
      <trkpt lat="37.86162" lon="-122.53416">
        <ele>90.0</ele>
      </trkpt>
      <trkpt lat="37.86187" lon="-122.53358">
        <ele>100.0</ele>
      </trkpt>
      <trkpt lat="37.86224" lon="-122.53288">
        <ele>107.0</ele>
      </trkpt>
      <trkpt lat="37.86234" lon="-122.53274">
        <ele>107.0</ele>
      </trkpt>
      <trkpt lat="37.86292" lon="-122.53211">
        <ele>105.0</ele>
      </trkpt>
      <trkpt lat="37.86314" lon="-122.53198">
        <ele>107.0</ele>
      </trkpt>
      <trkpt lat="37.86329" lon="-122.53182">
        <ele>112.0</ele>
      </trkpt>
      <trkpt lat="37.86353" lon="-122.53163">
        <ele>125.0</ele>
      </trkpt>
      <trkpt lat="37.86379" lon="-122.53133">
        <ele>128.0</ele>
      </trkpt>
      <trkpt lat="37.86413" lon="-122.53116">
        <ele>136.0</ele>
      </trkpt>
      <trkpt lat="37.86423" lon="-122.53107">
        <ele>136.0</ele>
      </trkpt>
      <trkpt lat="37.86453" lon="-122.53062">
        <ele>137.0</ele>
      </trkpt>
      <trkpt lat="37.86483" lon="-122.52992">
        <ele>145.0</ele>
      </trkpt>
      <trkpt lat="37.86511" lon="-122.52884">
        <ele>153.0</ele>
      </trkpt>
      <trkpt lat="37.86509" lon="-122.52844">
        <ele>155.0</ele>
      </trkpt>
      <trkpt lat="37.86499" lon="-122.52801">
        <ele>156.0</ele>
      </trkpt>
      <trkpt lat="37.86501" lon="-122.52766">
        <ele>158.0</ele>
      </trkpt>
      <trkpt lat="37.86498" lon="-122.52758">
        <ele>159.0</ele>
      </trkpt>
      <trkpt lat="37.86468" lon="-122.52706">
        <ele>162.0</ele>
      </trkpt>
      <trkpt lat="37.86428" lon="-122.52667">
        <ele>173.0</ele>
      </trkpt>
      <trkpt lat="37.86299" lon="-122.52575">
        <ele>189.0</ele>
      </trkpt>
      <trkpt lat="37.86291" lon="-122.52564">
        <ele>192.0</ele>
      </trkpt>
      <trkpt lat="37.86256" lon="-122.52526">
        <ele>197.0</ele>
      </trkpt>
      <trkpt lat="37.86241" lon="-122.52499">
        <ele>198.0</ele>
      </trkpt>
      <trkpt lat="37.86237506411221" lon="-122.5249505072573">
        <ele>198.0</ele>
      </trkpt>
      <trkpt lat="37.86237506421294" lon="-122.5249505072573">
        <ele>198.0</ele>
      </trkpt>
      <trkpt lat="37.86195" lon="-122.52447">
        <ele>206.0</ele>
      </trkpt>
      <trkpt lat="37.86188" lon="-122.52437">
        <ele>206.0</ele>
      </trkpt>
      <trkpt lat="37.86177" lon="-122.52409">
        <ele>208.0</ele>
      </trkpt>
      <trkpt lat="37.86177" lon="-122.52409">
        <ele>208.0</ele>
      </trkpt>
      <trkpt lat="37.86147" lon="-122.52321">
        <ele>214.0</ele>
      </trkpt>
      <trkpt lat="37.86106" lon="-122.52213">
        <ele>210.0</ele>
      </trkpt>
      <trkpt lat="37.86077" lon="-122.52161">
        <ele>218.0</ele>
      </trkpt>
      <trkpt lat="37.86061" lon="-122.52144">
        <ele>225.0</ele>
      </trkpt>
      <trkpt lat="37.86043" lon="-122.52133">
        <ele>225.0</ele>
      </trkpt>
      <trkpt lat="37.85986" lon="-122.52111">
        <ele>230.0</ele>
      </trkpt>
      <trkpt lat="37.85938" lon="-122.52115">
        <ele>237.0</ele>
      </trkpt>
      <trkpt lat="37.85877" lon="-122.52131">
        <ele>242.0</ele>
      </trkpt>
      <trkpt lat="37.85864" lon="-122.52132">
        <ele>247.0</ele>
      </trkpt>
      <trkpt lat="37.85829" lon="-122.52122">
        <ele>246.0</ele>
      </trkpt>
      <trkpt lat="37.85804" lon="-122.52108">
        <ele>253.0</ele>
      </trkpt>
      <trkpt lat="37.85783" lon="-122.52084">
        <ele>259.0</ele>
      </trkpt>
      <trkpt lat="37.8577" lon="-122.52063">
        <ele>259.0</ele>
      </trkpt>
      <trkpt lat="37.85751" lon="-122.52021">
        <ele>268.0</ele>
      </trkpt>
      <trkpt lat="37.85751" lon="-122.52021">
        <ele>268.0</ele>
      </trkpt>
      <trkpt lat="37.85735" lon="-122.51987">
        <ele>272.0</ele>
      </trkpt>
      <trkpt lat="37.85732091008682" lon="-122.5197601047724">
        <ele>268.0</ele>
      </trkpt>
      <trkpt lat="37.85732091009883" lon="-122.5197601047724">
        <ele>268.0</ele>
      </trkpt>
      <trkpt lat="37.85726" lon="-122.51953">
        <ele>269.0</ele>
      </trkpt>
      <trkpt lat="37.85726" lon="-122.51953">
        <ele>269.0</ele>
      </trkpt>
      <trkpt lat="37.85714" lon="-122.519">
        <ele>267.0</ele>
      </trkpt>
      <trkpt lat="37.85689" lon="-122.51834">
        <ele>278.0</ele>
      </trkpt>
      <trkpt lat="37.85684" lon="-122.51773">
        <ele>273.0</ele>
      </trkpt>
      <trkpt lat="37.85689" lon="-122.51716">
        <ele>275.0</ele>
      </trkpt>
      <trkpt lat="37.8569" lon="-122.51703">
        <ele>274.0</ele>
      </trkpt>
      <trkpt lat="37.85685" lon="-122.51682">
        <ele>274.0</ele>
      </trkpt>
      <trkpt lat="37.85685" lon="-122.51682">
        <ele>274.0</ele>
      </trkpt>
      <trkpt lat="37.85679" lon="-122.51636">
        <ele>261.0</ele>
      </trkpt>
      <trkpt lat="37.8567059555072" lon="-122.5160820066777">
        <ele>258.0</ele>
      </trkpt>
      <trkpt lat="37.8567059555072" lon="-122.5160820066777">
        <ele>258.0</ele>
      </trkpt>
      <trkpt lat="37.85666" lon="-122.51593">
        <ele>259.0</ele>
      </trkpt>
      <trkpt lat="37.85640106389292" lon="-122.5154261243322">
        <ele>256.0</ele>
      </trkpt>
      <trkpt lat="37.85640106408798" lon="-122.5154261243322">
        <ele>256.0</ele>
      </trkpt>
      <trkpt lat="37.85629" lon="-122.51521">
        <ele>260.0</ele>
      </trkpt>
      <trkpt lat="37.8558" lon="-122.51329">
        <ele>248.0</ele>
      </trkpt>
      <trkpt lat="37.85567" lon="-122.51302">
        <ele>242.0</ele>
      </trkpt>
      <trkpt lat="37.85528723348052" lon="-122.5124228842296">
        <ele>237.0</ele>
      </trkpt>
      <trkpt lat="37.85528723348052" lon="-122.5124228842296">
        <ele>237.0</ele>
      </trkpt>
      <trkpt lat="37.85517" lon="-122.51224">
        <ele>238.0</ele>
      </trkpt>
      <trkpt lat="37.85501" lon="-122.51194">
        <ele>231.0</ele>
      </trkpt>
      <trkpt lat="37.85491621890812" lon="-122.5115179850865">
        <ele>227.0</ele>
      </trkpt>
      <trkpt lat="37.85491621890812" lon="-122.5115179850865">
        <ele>227.0</ele>
      </trkpt>
      <trkpt lat="37.85489" lon="-122.5114">
        <ele>227.0</ele>
      </trkpt>
      <trkpt lat="37.85491" lon="-122.51123">
        <ele>221.0</ele>
      </trkpt>
      <trkpt lat="37.855" lon="-122.51109">
        <ele>221.0</ele>
      </trkpt>
      <trkpt lat="37.85525" lon="-122.51097">
        <ele>222.0</ele>
      </trkpt>
      <trkpt lat="37.85535780514103" lon="-122.5108915962611">
        <ele>222.0</ele>
      </trkpt>
      <trkpt lat="37.85535780514261" lon="-122.5108915962611">
        <ele>222.0</ele>
      </trkpt>
      <trkpt lat="37.85536" lon="-122.51089">
        <ele>222.0</ele>
      </trkpt>
      <trkpt lat="37.85574" lon="-122.50953">
        <ele>222.0</ele>
      </trkpt>
      <trkpt lat="37.85581" lon="-122.50913">
        <ele>219.0</ele>
      </trkpt>
      <trkpt lat="37.85585" lon="-122.5086">
        <ele>216.0</ele>
      </trkpt>
      <trkpt lat="37.85583" lon="-122.50808">
        <ele>217.0</ele>
      </trkpt>
      <trkpt lat="37.85571" lon="-122.50741">
        <ele>215.0</ele>
      </trkpt>
      <trkpt lat="37.85563" lon="-122.50708">
        <ele>220.0</ele>
      </trkpt>
      <trkpt lat="37.85496" lon="-122.50515">
        <ele>228.0</ele>
      </trkpt>
      <trkpt lat="37.85473" lon="-122.50477">
        <ele>219.0</ele>
      </trkpt>
      <trkpt lat="37.85469560025631" lon="-122.504639280974">
        <ele>219.0</ele>
      </trkpt>
      <trkpt lat="37.85469560025995" lon="-122.504639280974">
        <ele>219.0</ele>
      </trkpt>
      <trkpt lat="37.85468" lon="-122.50458">
        <ele>225.0</ele>
      </trkpt>
      <trkpt lat="37.85468" lon="-122.50458">
        <ele>225.0</ele>
      </trkpt>
      <trkpt lat="37.85493" lon="-122.50461">
        <ele>227.0</ele>
      </trkpt>
      <trkpt lat="37.85493" lon="-122.50461">
        <ele>227.0</ele>
      </trkpt>
      <trkpt lat="37.85474" lon="-122.50409">
        <ele>225.0</ele>
      </trkpt>
      <trkpt lat="37.85432" lon="-122.50277">
        <ele>239.0</ele>
      </trkpt>
      <trkpt lat="37.8543" lon="-122.50263">
        <ele>241.0</ele>
      </trkpt>
      <trkpt lat="37.85431" lon="-122.50229">
        <ele>243.0</ele>
      </trkpt>
      <trkpt lat="37.85426" lon="-122.50207">
        <ele>244.0</ele>
      </trkpt>
      <trkpt lat="37.85420010669941" lon="-122.5019635230212">
        <ele>244.0</ele>
      </trkpt>
      <trkpt lat="37.85420010671163" lon="-122.5019635230212">
        <ele>244.0</ele>
      </trkpt>
      <trkpt lat="37.85417" lon="-122.50191">
        <ele>244.0</ele>
      </trkpt>
      <trkpt lat="37.85383" lon="-122.50151">
        <ele>244.0</ele>
      </trkpt>
      <trkpt lat="37.85379" lon="-122.50143">
        <ele>244.0</ele>
      </trkpt>
      <trkpt lat="37.85376" lon="-122.50123">
        <ele>243.0</ele>
      </trkpt>
      <trkpt lat="37.85378" lon="-122.50097">
        <ele>241.0</ele>
      </trkpt>
      <trkpt lat="37.85376" lon="-122.50084">
        <ele>241.0</ele>
      </trkpt>
      <trkpt lat="37.85371" lon="-122.50078">
        <ele>253.0</ele>
      </trkpt>
      <trkpt lat="37.85348" lon="-122.50067">
        <ele>251.0</ele>
      </trkpt>
      <trkpt lat="37.85343" lon="-122.50058">
        <ele>260.0</ele>
      </trkpt>
      <trkpt lat="37.85335" lon="-122.50024">
        <ele>258.0</ele>
      </trkpt>
      <trkpt lat="37.85321" lon="-122.49994">
        <ele>258.0</ele>
      </trkpt>
      <trkpt lat="37.85306" lon="-122.49972">
        <ele>268.0</ele>
      </trkpt>
      <trkpt lat="37.85302" lon="-122.49959">
        <ele>268.0</ele>
      </trkpt>
      <trkpt lat="37.85302" lon="-122.49945">
        <ele>270.0</ele>
      </trkpt>
      <trkpt lat="37.85311" lon="-122.49895">
        <ele>271.0</ele>
      </trkpt>
      <trkpt lat="37.8531" lon="-122.49885">
        <ele>271.0</ele>
      </trkpt>
      <trkpt lat="37.85305" lon="-122.49871">
        <ele>274.0</ele>
      </trkpt>
      <trkpt lat="37.85296" lon="-122.49858">
        <ele>274.0</ele>
      </trkpt>
      <trkpt lat="37.8527" lon="-122.49832">
        <ele>278.0</ele>
      </trkpt>
      <trkpt lat="37.85263" lon="-122.49816">
        <ele>289.0</ele>
      </trkpt>
      <trkpt lat="37.85262" lon="-122.498">
        <ele>289.0</ele>
      </trkpt>
      <trkpt lat="37.85266" lon="-122.49787">
        <ele>276.0</ele>
      </trkpt>
      <trkpt lat="37.85279" lon="-122.49764">
        <ele>276.0</ele>
      </trkpt>
      <trkpt lat="37.8528" lon="-122.49756">
        <ele>277.0</ele>
      </trkpt>
      <trkpt lat="37.8528" lon="-122.49756">
        <ele>277.0</ele>
      </trkpt>
      <trkpt lat="37.85281" lon="-122.49747">
        <ele>277.0</ele>
      </trkpt>
      <trkpt lat="37.85277" lon="-122.4968">
        <ele>288.0</ele>
      </trkpt>
      <trkpt lat="37.85277" lon="-122.4968">
        <ele>288.0</ele>
      </trkpt>
      <trkpt lat="37.85277" lon="-122.4968">
        <ele>288.0</ele>
      </trkpt>
      <trkpt lat="37.85272" lon="-122.49668">
        <ele>288.0</ele>
      </trkpt>
      <trkpt lat="37.85265" lon="-122.4966">
        <ele>288.0</ele>
      </trkpt>
      <trkpt lat="37.85265" lon="-122.4966">
        <ele>288.0</ele>
      </trkpt>
      <trkpt lat="37.85265" lon="-122.4966">
        <ele>288.0</ele>
      </trkpt>
      <trkpt lat="37.85253" lon="-122.49654">
        <ele>288.0</ele>
      </trkpt>
      <trkpt lat="37.85237" lon="-122.49653">
        <ele>288.0</ele>
      </trkpt>
      <trkpt lat="37.85212" lon="-122.49658">
        <ele>290.0</ele>
      </trkpt>
      <trkpt lat="37.85204" lon="-122.49657">
        <ele>292.0</ele>
      </trkpt>
      <trkpt lat="37.85185" lon="-122.49643">
        <ele>289.0</ele>
      </trkpt>
      <trkpt lat="37.85154" lon="-122.49611">
        <ele>287.0</ele>
      </trkpt>
      <trkpt lat="37.85104" lon="-122.49598">
        <ele>278.0</ele>
      </trkpt>
      <trkpt lat="37.85089811511835" lon="-122.4957813611657">
        <ele>273.0</ele>
      </trkpt>
      <trkpt lat="37.8508981152705" lon="-122.4957813611657">
        <ele>273.0</ele>
      </trkpt>
      <trkpt lat="37.85074" lon="-122.49556">
        <ele>272.0</ele>
      </trkpt>
      <trkpt lat="37.85074" lon="-122.49556">
        <ele>272.0</ele>
      </trkpt>
      <trkpt lat="37.85065" lon="-122.4954">
        <ele>279.0</ele>
      </trkpt>
      <trkpt lat="37.85065" lon="-122.4954">
        <ele>279.0</ele>
      </trkpt>
      <trkpt lat="37.85057" lon="-122.49541">
        <ele>279.0</ele>
      </trkpt>
      <trkpt lat="37.85052" lon="-122.49537">
        <ele>279.0</ele>
      </trkpt>
      <trkpt lat="37.8505" lon="-122.49535">
        <ele>279.0</ele>
      </trkpt>
      <trkpt lat="37.85026" lon="-122.4954">
        <ele>278.0</ele>
      </trkpt>
      <trkpt lat="37.85026" lon="-122.4954">
        <ele>278.0</ele>
      </trkpt>
      <trkpt lat="37.85005572785376" lon="-122.4955386132421">
        <ele>269.0</ele>
      </trkpt>
      <trkpt lat="37.85005572795866" lon="-122.4955386132421">
        <ele>269.0</ele>
      </trkpt>
      <trkpt lat="37.84998" lon="-122.49559">
        <ele>269.0</ele>
      </trkpt>
      <trkpt lat="37.84964" lon="-122.49574">
        <ele>263.0</ele>
      </trkpt>
      <trkpt lat="37.8496" lon="-122.49579">
        <ele>263.0</ele>
      </trkpt>
      <trkpt lat="37.84955" lon="-122.49601">
        <ele>255.0</ele>
      </trkpt>
      <trkpt lat="37.84945" lon="-122.49628">
        <ele>258.0</ele>
      </trkpt>
      <trkpt lat="37.84941" lon="-122.49637">
        <ele>258.0</ele>
      </trkpt>
      <trkpt lat="37.84936" lon="-122.4964">
        <ele>258.0</ele>
      </trkpt>
      <trkpt lat="37.84903" lon="-122.49653">
        <ele>255.0</ele>
      </trkpt>
      <trkpt lat="37.84887" lon="-122.49643">
        <ele>238.0</ele>
      </trkpt>
      <trkpt lat="37.84852" lon="-122.49657">
        <ele>237.0</ele>
      </trkpt>
      <trkpt lat="37.84834" lon="-122.49651">
        <ele>225.0</ele>
      </trkpt>
      <trkpt lat="37.84824" lon="-122.4965">
        <ele>225.0</ele>
      </trkpt>
      <trkpt lat="37.84823247015719" lon="-122.4965033465968">
        <ele>225.0</ele>
      </trkpt>
      <trkpt lat="37.84823247016602" lon="-122.4965033465968">
        <ele>225.0</ele>
      </trkpt>
      <trkpt lat="37.84806" lon="-122.49658">
        <ele>225.0</ele>
      </trkpt>
      <trkpt lat="37.84788" lon="-122.49679">
        <ele>215.0</ele>
      </trkpt>
      <trkpt lat="37.84778" lon="-122.49718">
        <ele>225.0</ele>
      </trkpt>
      <trkpt lat="37.84755" lon="-122.49735">
        <ele>211.0</ele>
      </trkpt>
      <trkpt lat="37.8475" lon="-122.49747">
        <ele>217.0</ele>
      </trkpt>
      <trkpt lat="37.8475" lon="-122.49756">
        <ele>217.0</ele>
      </trkpt>
      <trkpt lat="37.8475" lon="-122.49756">
        <ele>217.0</ele>
      </trkpt>
      <trkpt lat="37.8475" lon="-122.49773">
        <ele>221.0</ele>
      </trkpt>
      <trkpt lat="37.84745" lon="-122.49778">
        <ele>221.0</ele>
      </trkpt>
      <trkpt lat="37.84726" lon="-122.49789">
        <ele>208.0</ele>
      </trkpt>
      <trkpt lat="37.84705" lon="-122.49795">
        <ele>198.0</ele>
      </trkpt>
      <trkpt lat="37.84692" lon="-122.49806">
        <ele>198.0</ele>
      </trkpt>
      <trkpt lat="37.84691" lon="-122.49821">
        <ele>200.0</ele>
      </trkpt>
      <trkpt lat="37.84696" lon="-122.49846">
        <ele>200.0</ele>
      </trkpt>
      <trkpt lat="37.84693" lon="-122.49853">
        <ele>203.0</ele>
      </trkpt>
      <trkpt lat="37.84681" lon="-122.49872">
        <ele>203.0</ele>
      </trkpt>
      <trkpt lat="37.84656" lon="-122.49884">
        <ele>200.0</ele>
      </trkpt>
      <trkpt lat="37.84646" lon="-122.49887">
        <ele>195.0</ele>
      </trkpt>
      <trkpt lat="37.84588" lon="-122.49884">
        <ele>183.0</ele>
      </trkpt>
      <trkpt lat="37.84527" lon="-122.49875">
        <ele>176.0</ele>
      </trkpt>
      <trkpt lat="37.8448" lon="-122.49875">
        <ele>165.0</ele>
      </trkpt>
      <trkpt lat="37.84437" lon="-122.49868">
        <ele>162.0</ele>
      </trkpt>
      <trkpt lat="37.8436" lon="-122.49876">
        <ele>159.0</ele>
      </trkpt>
      <trkpt lat="37.84304" lon="-122.49861">
        <ele>143.0</ele>
      </trkpt>
      <trkpt lat="37.84293" lon="-122.49863">
        <ele>143.0</ele>
      </trkpt>
      <trkpt lat="37.84262" lon="-122.49882">
        <ele>140.0</ele>
      </trkpt>
      <trkpt lat="37.84241" lon="-122.499">
        <ele>140.0</ele>
      </trkpt>
      <trkpt lat="37.8423" lon="-122.49914">
        <ele>131.0</ele>
      </trkpt>
      <trkpt lat="37.84227" lon="-122.49921">
        <ele>131.0</ele>
      </trkpt>
      <trkpt lat="37.84218" lon="-122.49977">
        <ele>136.0</ele>
      </trkpt>
      <trkpt lat="37.84216" lon="-122.50014">
        <ele>132.0</ele>
      </trkpt>
      <trkpt lat="37.84226" lon="-122.50062">
        <ele>131.0</ele>
      </trkpt>
      <trkpt lat="37.84231" lon="-122.50073">
        <ele>120.0</ele>
      </trkpt>
      <trkpt lat="37.84267" lon="-122.5008">
        <ele>127.0</ele>
      </trkpt>
      <trkpt lat="37.84289" lon="-122.50088">
        <ele>127.0</ele>
      </trkpt>
      <trkpt lat="37.84293" lon="-122.50096">
        <ele>132.0</ele>
      </trkpt>
      <trkpt lat="37.84291" lon="-122.50121">
        <ele>121.0</ele>
      </trkpt>
      <trkpt lat="37.84284" lon="-122.50163">
        <ele>112.0</ele>
      </trkpt>
      <trkpt lat="37.84272" lon="-122.50201">
        <ele>112.0</ele>
      </trkpt>
      <trkpt lat="37.84273" lon="-122.50248">
        <ele>106.0</ele>
      </trkpt>
      <trkpt lat="37.84272" lon="-122.50261">
        <ele>106.0</ele>
      </trkpt>
      <trkpt lat="37.84269" lon="-122.5027">
        <ele>102.0</ele>
      </trkpt>
      <trkpt lat="37.84263" lon="-122.50276">
        <ele>99.0</ele>
      </trkpt>
      <trkpt lat="37.84246" lon="-122.50286">
        <ele>99.0</ele>
      </trkpt>
      <trkpt lat="37.84214" lon="-122.50298">
        <ele>94.0</ele>
      </trkpt>
      <trkpt lat="37.84187" lon="-122.50328">
        <ele>89.0</ele>
      </trkpt>
      <trkpt lat="37.84159" lon="-122.50345">
        <ele>85.0</ele>
      </trkpt>
      <trkpt lat="37.84138" lon="-122.50343">
        <ele>80.0</ele>
      </trkpt>
      <trkpt lat="37.84125" lon="-122.50336">
        <ele>80.0</ele>
      </trkpt>
      <trkpt lat="37.841" lon="-122.50312">
        <ele>78.0</ele>
      </trkpt>
      <trkpt lat="37.84088036935305" lon="-122.5030336000883">
        <ele>77.0</ele>
      </trkpt>
      <trkpt lat="37.84088036940202" lon="-122.5030336000883">
        <ele>77.0</ele>
      </trkpt>
      <trkpt lat="37.84082" lon="-122.50299">
        <ele>77.0</ele>
      </trkpt>
      <trkpt lat="37.84071" lon="-122.50297">
        <ele>77.0</ele>
      </trkpt>
      <trkpt lat="37.84039" lon="-122.50301">
        <ele>67.0</ele>
      </trkpt>
      <trkpt lat="37.84016" lon="-122.50294">
        <ele>67.0</ele>
      </trkpt>
      <trkpt lat="37.84016" lon="-122.50294">
        <ele>67.0</ele>
      </trkpt>
      <trkpt lat="37.83964" lon="-122.50281">
        <ele>60.0</ele>
      </trkpt>
      <trkpt lat="37.83951" lon="-122.5028">
        <ele>63.0</ele>
      </trkpt>
      <trkpt lat="37.8392" lon="-122.50289">
        <ele>62.0</ele>
      </trkpt>
      <trkpt lat="37.83811" lon="-122.5035">
        <ele>58.0</ele>
      </trkpt>
      <trkpt lat="37.83764" lon="-122.50387">
        <ele>55.0</ele>
      </trkpt>
      <trkpt lat="37.83764" lon="-122.50387">
        <ele>55.0</ele>
      </trkpt>
      <trkpt lat="37.83602" lon="-122.50537">
        <ele>48.0</ele>
      </trkpt>
      <trkpt lat="37.83591" lon="-122.50552">
        <ele>48.0</ele>
      </trkpt>
      <trkpt lat="37.83576" lon="-122.50578">
        <ele>48.0</ele>
      </trkpt>
      <trkpt lat="37.83568" lon="-122.50596">
        <ele>47.0</ele>
      </trkpt>
      <trkpt lat="37.8356" lon="-122.50623">
        <ele>47.0</ele>
      </trkpt>
      <trkpt lat="37.83556" lon="-122.5067">
        <ele>47.0</ele>
      </trkpt>
      <trkpt lat="37.83554411954588" lon="-122.5067588164968">
        <ele>47.0</ele>
      </trkpt>
      <trkpt lat="37.83554411957321" lon="-122.5067588164968">
        <ele>47.0</ele>
      </trkpt>
      <trkpt lat="37.83529" lon="-122.5077">
        <ele>44.0</ele>
      </trkpt>
      <trkpt lat="37.83525" lon="-122.50779">
        <ele>44.0</ele>
      </trkpt>
      <trkpt lat="37.83465" lon="-122.50839">
        <ele>44.0</ele>
      </trkpt>
      <trkpt lat="37.83447" lon="-122.50862">
        <ele>39.0</ele>
      </trkpt>
      <trkpt lat="37.83433" lon="-122.50897">
        <ele>35.0</ele>
      </trkpt>
      <trkpt lat="37.83414" lon="-122.50967">
        <ele>34.0</ele>
      </trkpt>
      <trkpt lat="37.8339" lon="-122.51006">
        <ele>36.0</ele>
      </trkpt>
      <trkpt lat="37.83376" lon="-122.51038">
        <ele>35.0</ele>
      </trkpt>
      <trkpt lat="37.83358" lon="-122.51097">
        <ele>34.0</ele>
      </trkpt>
      <trkpt lat="37.83352" lon="-122.51133">
        <ele>34.0</ele>
      </trkpt>
      <trkpt lat="37.83351" lon="-122.51156">
        <ele>33.0</ele>
      </trkpt>
      <trkpt lat="37.8334" lon="-122.51204">
        <ele>33.0</ele>
      </trkpt>
      <trkpt lat="37.83333" lon="-122.51267">
        <ele>29.0</ele>
      </trkpt>
      <trkpt lat="37.83333" lon="-122.51267">
        <ele>29.0</ele>
      </trkpt>
      <trkpt lat="37.83324" lon="-122.51325">
        <ele>30.0</ele>
      </trkpt>
      <trkpt lat="37.83323993694887" lon="-122.513254823412">
        <ele>30.0</ele>
      </trkpt>
      <trkpt lat="37.83323993694886" lon="-122.513254823412">
        <ele>30.0</ele>
      </trkpt>
      <trkpt lat="37.83322" lon="-122.51478">
        <ele>18.0</ele>
      </trkpt>
      <trkpt lat="37.83322" lon="-122.51478">
        <ele>18.0</ele>
      </trkpt>
      <trkpt lat="37.83297" lon="-122.51484">
        <ele>17.0</ele>
      </trkpt>
      <trkpt lat="37.83269" lon="-122.51486">
        <ele>18.0</ele>
      </trkpt>
      <trkpt lat="37.83264" lon="-122.51488">
        <ele>18.0</ele>
      </trkpt>
      <trkpt lat="37.83254" lon="-122.51497">
        <ele>18.0</ele>
      </trkpt>
      <trkpt lat="37.83254" lon="-122.51497">
        <ele>18.0</ele>
      </trkpt>
      <trkpt lat="37.83243165792296" lon="-122.5151144561027">
        <ele>18.0</ele>
      </trkpt>
      <trkpt lat="37.83243165793154" lon="-122.5151144561027">
        <ele>18.0</ele>
      </trkpt>
      <trkpt lat="37.83242" lon="-122.51513">
        <ele>18.0</ele>
      </trkpt>
      <trkpt lat="37.83242" lon="-122.51513">
        <ele>18.0</ele>
      </trkpt>
      <trkpt lat="37.83228" lon="-122.51533">
        <ele>19.0</ele>
      </trkpt>
      <trkpt lat="37.83228" lon="-122.51533">
        <ele>19.0</ele>
      </trkpt>
      <trkpt lat="37.83204" lon="-122.51492">
        <ele>21.0</ele>
      </trkpt>
      <trkpt lat="37.8318" lon="-122.51481">
        <ele>22.0</ele>
      </trkpt>
      <trkpt lat="37.83178" lon="-122.51474">
        <ele>22.0</ele>
      </trkpt>
      <trkpt lat="37.83174" lon="-122.51474">
        <ele>22.0</ele>
      </trkpt>
      <trkpt lat="37.83174" lon="-122.51474">
        <ele>22.0</ele>
      </trkpt>
      <trkpt lat="37.83168507966008" lon="-122.5141569971332">
        <ele>25.0</ele>
      </trkpt>
      <trkpt lat="37.83168507966008" lon="-122.5141569971332">
        <ele>25.0</ele>
      </trkpt>
      <trkpt lat="37.83168352796718" lon="-122.5141405252502">
        <ele>25.0</ele>
      </trkpt>
      <trkpt lat="37.83168190686855" lon="-122.5141233165958">
        <ele>25.0</ele>
      </trkpt>
      <trkpt lat="37.8316786112001" lon="-122.5140883316675">
        <ele>25.0</ele>
      </trkpt>
      <trkpt lat="37.8316786112001" lon="-122.5140883316675">
        <ele>25.0</ele>
      </trkpt>
      <trkpt lat="37.83161" lon="-122.51336">
        <ele>31.0</ele>
      </trkpt>
      <trkpt lat="37.83164" lon="-122.51284">
        <ele>37.0</ele>
      </trkpt>
      <trkpt lat="37.83175" lon="-122.51222">
        <ele>39.0</ele>
      </trkpt>
      <trkpt lat="37.83175" lon="-122.51222">
        <ele>39.0</ele>
      </trkpt>
      <trkpt lat="37.83167" lon="-122.51211">
        <ele>39.0</ele>
      </trkpt>
      <trkpt lat="37.83147" lon="-122.51106">
        <ele>38.0</ele>
      </trkpt>
      <trkpt lat="37.8314" lon="-122.5108">
        <ele>39.0</ele>
      </trkpt>
      <trkpt lat="37.83129149156497" lon="-122.5105540475473">
        <ele>38.0</ele>
      </trkpt>
      <trkpt lat="37.83129149159547" lon="-122.5105540475473">
        <ele>38.0</ele>
      </trkpt>
      <trkpt lat="37.83125" lon="-122.51046">
        <ele>44.0</ele>
      </trkpt>
      <trkpt lat="37.83116" lon="-122.51017">
        <ele>41.0</ele>
      </trkpt>
      <trkpt lat="37.83107655041121" lon="-122.5098212999326">
        <ele>37.0</ele>
      </trkpt>
      <trkpt lat="37.83107655041121" lon="-122.5098212999326">
        <ele>37.0</ele>
      </trkpt>
      <trkpt lat="37.83086600718813" lon="-122.5089415300361">
        <ele>46.0</ele>
      </trkpt>
      <trkpt lat="37.83086600718813" lon="-122.5089415300361">
        <ele>46.0</ele>
      </trkpt>
      <trkpt lat="37.8306" lon="-122.50783">
        <ele>54.0</ele>
      </trkpt>
      <trkpt lat="37.83041" lon="-122.50689">
        <ele>65.0</ele>
      </trkpt>
      <trkpt lat="37.83041" lon="-122.50689">
        <ele>65.0</ele>
      </trkpt>
      <trkpt lat="37.83041" lon="-122.50689">
        <ele>65.0</ele>
      </trkpt>
      <trkpt lat="37.83036" lon="-122.5064">
        <ele>73.0</ele>
      </trkpt>
      <trkpt lat="37.83031" lon="-122.50626">
        <ele>73.0</ele>
      </trkpt>
      <trkpt lat="37.83042" lon="-122.50581">
        <ele>63.0</ele>
      </trkpt>
      <trkpt lat="37.83026" lon="-122.50567">
        <ele>74.0</ele>
      </trkpt>
      <trkpt lat="37.83026" lon="-122.5056">
        <ele>74.0</ele>
      </trkpt>
      <trkpt lat="37.8303" lon="-122.5052">
        <ele>73.0</ele>
      </trkpt>
      <trkpt lat="37.83031" lon="-122.5047">
        <ele>75.0</ele>
      </trkpt>
      <trkpt lat="37.83025" lon="-122.50408">
        <ele>79.0</ele>
      </trkpt>
      <trkpt lat="37.83027" lon="-122.50367">
        <ele>85.0</ele>
      </trkpt>
      <trkpt lat="37.83026" lon="-122.50325">
        <ele>88.0</ele>
      </trkpt>
      <trkpt lat="37.8303" lon="-122.50317">
        <ele>100.0</ele>
      </trkpt>
      <trkpt lat="37.83039" lon="-122.50317">
        <ele>100.0</ele>
      </trkpt>
      <trkpt lat="37.83064" lon="-122.50363">
        <ele>84.0</ele>
      </trkpt>
      <trkpt lat="37.83102" lon="-122.50406">
        <ele>100.0</ele>
      </trkpt>
      <trkpt lat="37.83119" lon="-122.50431">
        <ele>90.0</ele>
      </trkpt>
      <trkpt lat="37.83183" lon="-122.50486">
        <ele>113.0</ele>
      </trkpt>
      <trkpt lat="37.83194" lon="-122.505">
        <ele>106.0</ele>
      </trkpt>
      <trkpt lat="37.83202" lon="-122.50517">
        <ele>103.0</ele>
      </trkpt>
      <trkpt lat="37.8321" lon="-122.50524">
        <ele>111.0</ele>
      </trkpt>
      <trkpt lat="37.83221" lon="-122.50521">
        <ele>111.0</ele>
      </trkpt>
      <trkpt lat="37.83227" lon="-122.50516">
        <ele>111.0</ele>
      </trkpt>
      <trkpt lat="37.83236" lon="-122.505">
        <ele>114.0</ele>
      </trkpt>
      <trkpt lat="37.83244" lon="-122.50474">
        <ele>111.0</ele>
      </trkpt>
      <trkpt lat="37.83266" lon="-122.5042">
        <ele>108.0</ele>
      </trkpt>
      <trkpt lat="37.83269" lon="-122.50406">
        <ele>108.0</ele>
      </trkpt>
      <trkpt lat="37.83271" lon="-122.50396">
        <ele>110.0</ele>
      </trkpt>
      <trkpt lat="37.83265" lon="-122.50364">
        <ele>111.0</ele>
      </trkpt>
      <trkpt lat="37.83268" lon="-122.50279">
        <ele>126.0</ele>
      </trkpt>
      <trkpt lat="37.8327" lon="-122.50268">
        <ele>126.0</ele>
      </trkpt>
      <trkpt lat="37.83282976552603" lon="-122.5023833930833">
        <ele>142.0</ele>
      </trkpt>
      <trkpt lat="37.83282976553507" lon="-122.5023833930833">
        <ele>142.0</ele>
      </trkpt>
      <trkpt lat="37.83284" lon="-122.50236">
        <ele>155.0</ele>
      </trkpt>
      <trkpt lat="37.83319" lon="-122.50199">
        <ele>143.0</ele>
      </trkpt>
      <trkpt lat="37.83336" lon="-122.50191">
        <ele>128.0</ele>
      </trkpt>
      <trkpt lat="37.8336" lon="-122.50192">
        <ele>129.0</ele>
      </trkpt>
      <trkpt lat="37.83405" lon="-122.50209">
        <ele>130.0</ele>
      </trkpt>
      <trkpt lat="37.8342" lon="-122.50206">
        <ele>132.0</ele>
      </trkpt>
      <trkpt lat="37.83444" lon="-122.50178">
        <ele>128.0</ele>
      </trkpt>
      <trkpt lat="37.8345" lon="-122.50156">
        <ele>128.0</ele>
      </trkpt>
      <trkpt lat="37.83448" lon="-122.50139">
        <ele>126.0</ele>
      </trkpt>
      <trkpt lat="37.83436" lon="-122.5012">
        <ele>122.0</ele>
      </trkpt>
      <trkpt lat="37.83417" lon="-122.50098">
        <ele>138.0</ele>
      </trkpt>
      <trkpt lat="37.834" lon="-122.50071">
        <ele>146.0</ele>
      </trkpt>
      <trkpt lat="37.83338" lon="-122.50025">
        <ele>155.0</ele>
      </trkpt>
      <trkpt lat="37.8333" lon="-122.50012">
        <ele>148.0</ele>
      </trkpt>
      <trkpt lat="37.83282" lon="-122.49957">
        <ele>166.0</ele>
      </trkpt>
      <trkpt lat="37.83277" lon="-122.49945">
        <ele>166.0</ele>
      </trkpt>
      <trkpt lat="37.83275" lon="-122.49928">
        <ele>170.0</ele>
      </trkpt>
      <trkpt lat="37.83278" lon="-122.4992">
        <ele>170.0</ele>
      </trkpt>
      <trkpt lat="37.83284" lon="-122.49914">
        <ele>170.0</ele>
      </trkpt>
      <trkpt lat="37.83341" lon="-122.49864">
        <ele>163.0</ele>
      </trkpt>
      <trkpt lat="37.83366" lon="-122.49829">
        <ele>161.0</ele>
      </trkpt>
      <trkpt lat="37.83374" lon="-122.49825">
        <ele>161.0</ele>
      </trkpt>
      <trkpt lat="37.83407" lon="-122.49824">
        <ele>156.0</ele>
      </trkpt>
      <trkpt lat="37.83422" lon="-122.49829">
        <ele>156.0</ele>
      </trkpt>
      <trkpt lat="37.83452" lon="-122.49828">
        <ele>154.0</ele>
      </trkpt>
      <trkpt lat="37.83468" lon="-122.49783">
        <ele>151.0</ele>
      </trkpt>
      <trkpt lat="37.8347" lon="-122.49766">
        <ele>151.0</ele>
      </trkpt>
      <trkpt lat="37.83467" lon="-122.49756">
        <ele>151.0</ele>
      </trkpt>
      <trkpt lat="37.83467" lon="-122.49756">
        <ele>151.0</ele>
      </trkpt>
      <trkpt lat="37.83436" lon="-122.4967">
        <ele>159.0</ele>
      </trkpt>
      <trkpt lat="37.83427" lon="-122.49632">
        <ele>178.0</ele>
      </trkpt>
      <trkpt lat="37.83416" lon="-122.49602">
        <ele>175.0</ele>
      </trkpt>
      <trkpt lat="37.8341" lon="-122.49556">
        <ele>167.0</ele>
      </trkpt>
      <trkpt lat="37.83394" lon="-122.4952">
        <ele>179.0</ele>
      </trkpt>
      <trkpt lat="37.83384" lon="-122.49471">
        <ele>173.0</ele>
      </trkpt>
      <trkpt lat="37.83384" lon="-122.49471">
        <ele>173.0</ele>
      </trkpt>
      <trkpt lat="37.83386" lon="-122.49462">
        <ele>173.0</ele>
      </trkpt>
      <trkpt lat="37.8339" lon="-122.49455">
        <ele>176.0</ele>
      </trkpt>
      <trkpt lat="37.8339" lon="-122.49455">
        <ele>176.0</ele>
      </trkpt>
      <trkpt lat="37.8338910375021" lon="-122.4945440250014">
        <ele>176.0</ele>
      </trkpt>
      <trkpt lat="37.83388667332427" lon="-122.4945545196533">
        <ele>176.0</ele>
      </trkpt>
    </trkseg>
  </trk>
</gpx>
