<?xml version="1.0" encoding="UTF-8"?>
<gpx xmlns:xsi="http://www.w3.org/2001/XMLSchema-instance" version="1.1" creator="The Outbound Collective, Inc. 1.1.1 -- https://www.theoutbound.com" xsi:schemaLocation="http://www.topografix.com/GPX/1/1 http://www.topografix.com/GPX/1/1/gpx.xsd">
  <metadata>
    <name/>
    <time>2026-02-19T21:57:31+00:00</time>
    <bound minlat="41.05243" minlon="-124.1525" maxlat="41.056969506" maxlon="-124.14839"/>
  </metadata>
  <trk>
    <name/>
    <trkseg>
      <trkpt lat="41.056969506" lon="-124.148983955">
        <ele>11.0</ele>
      </trkpt>
      <trkpt lat="41.056524546" lon="-124.148973227">
        <ele>19.0</ele>
      </trkpt>
      <trkpt lat="41.05648" lon="-124.14895">
        <ele>19.0</ele>
      </trkpt>
      <trkpt lat="41.0564" lon="-124.149">
        <ele>19.0</ele>
      </trkpt>
      <trkpt lat="41.05632" lon="-124.14885">
        <ele>19.0</ele>
      </trkpt>
      <trkpt lat="41.05639" lon="-124.14986">
        <ele>23.0</ele>
      </trkpt>
      <trkpt lat="41.05649" lon="-124.15028">
        <ele>27.0</ele>
      </trkpt>
      <trkpt lat="41.05648" lon="-124.15067">
        <ele>30.0</ele>
      </trkpt>
      <trkpt lat="41.05657" lon="-124.15138">
        <ele>27.0</ele>
      </trkpt>
      <trkpt lat="41.05653" lon="-124.15174">
        <ele>28.0</ele>
      </trkpt>
      <trkpt lat="41.05647" lon="-124.15189">
        <ele>39.0</ele>
      </trkpt>
      <trkpt lat="41.05624" lon="-124.15212">
        <ele>46.0</ele>
      </trkpt>
      <trkpt lat="41.05617" lon="-124.15223">
        <ele>46.0</ele>
      </trkpt>
      <trkpt lat="41.05581" lon="-124.15243">
        <ele>38.0</ele>
      </trkpt>
      <trkpt lat="41.05541" lon="-124.1525">
        <ele>45.0</ele>
      </trkpt>
      <trkpt lat="41.055184069" lon="-124.152454814">
        <ele>45.0</ele>
      </trkpt>
      <trkpt lat="41.05541" lon="-124.1525">
        <ele>45.0</ele>
      </trkpt>
      <trkpt lat="41.05581" lon="-124.15243">
        <ele>38.0</ele>
      </trkpt>
      <trkpt lat="41.05617" lon="-124.15223">
        <ele>46.0</ele>
      </trkpt>
      <trkpt lat="41.05624" lon="-124.15212">
        <ele>46.0</ele>
      </trkpt>
      <trkpt lat="41.05616" lon="-124.15213">
        <ele>46.0</ele>
      </trkpt>
      <trkpt lat="41.0559" lon="-124.152">
        <ele>56.0</ele>
      </trkpt>
      <trkpt lat="41.05576" lon="-124.15205">
        <ele>56.0</ele>
      </trkpt>
      <trkpt lat="41.05567" lon="-124.15212">
        <ele>58.0</ele>
      </trkpt>
      <trkpt lat="41.05577" lon="-124.15188">
        <ele>56.0</ele>
      </trkpt>
      <trkpt lat="41.0557" lon="-124.15189">
        <ele>56.0</ele>
      </trkpt>
      <trkpt lat="41.05549" lon="-124.15211">
        <ele>58.0</ele>
      </trkpt>
      <trkpt lat="41.0554" lon="-124.15212">
        <ele>65.0</ele>
      </trkpt>
      <trkpt lat="41.05515" lon="-124.15209">
        <ele>65.0</ele>
      </trkpt>
      <trkpt lat="41.05481" lon="-124.15198">
        <ele>78.0</ele>
      </trkpt>
      <trkpt lat="41.05466" lon="-124.152">
        <ele>78.0</ele>
      </trkpt>
      <trkpt lat="41.05455" lon="-124.15198">
        <ele>78.0</ele>
      </trkpt>
      <trkpt lat="41.05437" lon="-124.15186">
        <ele>78.0</ele>
      </trkpt>
      <trkpt lat="41.05404" lon="-124.15199">
        <ele>79.0</ele>
      </trkpt>
      <trkpt lat="41.05401" lon="-124.15205">
        <ele>82.0</ele>
      </trkpt>
      <trkpt lat="41.05405" lon="-124.15212">
        <ele>71.0</ele>
      </trkpt>
      <trkpt lat="41.05402" lon="-124.15232">
        <ele>74.0</ele>
      </trkpt>
      <trkpt lat="41.054121858" lon="-124.152336976">
        <ele>71.0</ele>
      </trkpt>
      <trkpt lat="41.05402" lon="-124.15232">
        <ele>74.0</ele>
      </trkpt>
      <trkpt lat="41.05405" lon="-124.15212">
        <ele>71.0</ele>
      </trkpt>
      <trkpt lat="41.05401" lon="-124.15205">
        <ele>82.0</ele>
      </trkpt>
      <trkpt lat="41.05387" lon="-124.15209">
        <ele>74.0</ele>
      </trkpt>
      <trkpt lat="41.05369" lon="-124.15223">
        <ele>68.0</ele>
      </trkpt>
      <trkpt lat="41.05362" lon="-124.15223">
        <ele>68.0</ele>
      </trkpt>
      <trkpt lat="41.05347" lon="-124.15203">
        <ele>75.0</ele>
      </trkpt>
      <trkpt lat="41.05318" lon="-124.15186">
        <ele>70.0</ele>
      </trkpt>
      <trkpt lat="41.05304" lon="-124.15183">
        <ele>70.0</ele>
      </trkpt>
      <trkpt lat="41.0532" lon="-124.15173">
        <ele>81.0</ele>
      </trkpt>
      <trkpt lat="41.05346" lon="-124.15178">
        <ele>81.0</ele>
      </trkpt>
      <trkpt lat="41.05328" lon="-124.15159">
        <ele>81.0</ele>
      </trkpt>
      <trkpt lat="41.05287" lon="-124.15075">
        <ele>81.0</ele>
      </trkpt>
      <trkpt lat="41.05259" lon="-124.15037">
        <ele>81.0</ele>
      </trkpt>
      <trkpt lat="41.05243" lon="-124.15025">
        <ele>81.0</ele>
      </trkpt>
      <trkpt lat="41.05244" lon="-124.1502">
        <ele>81.0</ele>
      </trkpt>
      <trkpt lat="41.05283" lon="-124.15021">
        <ele>80.0</ele>
      </trkpt>
      <trkpt lat="41.053085206" lon="-124.150337681">
        <ele>83.0</ele>
      </trkpt>
      <trkpt lat="41.05309" lon="-124.1504">
        <ele>83.0</ele>
      </trkpt>
      <trkpt lat="41.05314" lon="-124.15045">
        <ele>86.0</ele>
      </trkpt>
      <trkpt lat="41.05378" lon="-124.1504">
        <ele>94.0</ele>
      </trkpt>
      <trkpt lat="41.05397" lon="-124.15053">
        <ele>98.0</ele>
      </trkpt>
      <trkpt lat="41.05423" lon="-124.15062">
        <ele>101.0</ele>
      </trkpt>
      <trkpt lat="41.054266418" lon="-124.150685552">
        <ele>101.0</ele>
      </trkpt>
      <trkpt lat="41.05423" lon="-124.15062">
        <ele>101.0</ele>
      </trkpt>
      <trkpt lat="41.05397" lon="-124.15053">
        <ele>98.0</ele>
      </trkpt>
      <trkpt lat="41.05378" lon="-124.1504">
        <ele>94.0</ele>
      </trkpt>
      <trkpt lat="41.05314" lon="-124.15045">
        <ele>86.0</ele>
      </trkpt>
      <trkpt lat="41.05309" lon="-124.1504">
        <ele>83.0</ele>
      </trkpt>
      <trkpt lat="41.05308" lon="-124.15027">
        <ele>83.0</ele>
      </trkpt>
      <trkpt lat="41.05336" lon="-124.14997">
        <ele>78.0</ele>
      </trkpt>
      <trkpt lat="41.05351" lon="-124.14987">
        <ele>78.0</ele>
      </trkpt>
      <trkpt lat="41.05377" lon="-124.14977">
        <ele>78.0</ele>
      </trkpt>
      <trkpt lat="41.05418" lon="-124.14943">
        <ele>70.0</ele>
      </trkpt>
      <trkpt lat="41.05438" lon="-124.14937">
        <ele>76.0</ele>
      </trkpt>
      <trkpt lat="41.0546" lon="-124.14951">
        <ele>66.0</ele>
      </trkpt>
      <trkpt lat="41.05464" lon="-124.1494">
        <ele>66.0</ele>
      </trkpt>
      <trkpt lat="41.05461" lon="-124.14929">
        <ele>63.0</ele>
      </trkpt>
      <trkpt lat="41.05448" lon="-124.14907">
        <ele>64.0</ele>
      </trkpt>
      <trkpt lat="41.05438" lon="-124.14899">
        <ele>52.0</ele>
      </trkpt>
      <trkpt lat="41.05426" lon="-124.14895">
        <ele>54.0</ele>
      </trkpt>
      <trkpt lat="41.05401" lon="-124.14894">
        <ele>55.0</ele>
      </trkpt>
      <trkpt lat="41.05333" lon="-124.14895">
        <ele>54.0</ele>
      </trkpt>
      <trkpt lat="41.05324" lon="-124.14889">
        <ele>54.0</ele>
      </trkpt>
      <trkpt lat="41.053216551" lon="-124.148779451">
        <ele>54.0</ele>
      </trkpt>
      <trkpt lat="41.05371" lon="-124.14847">
        <ele>36.0</ele>
      </trkpt>
      <trkpt lat="41.05385" lon="-124.14841">
        <ele>38.0</ele>
      </trkpt>
      <trkpt lat="41.05402" lon="-124.14839">
        <ele>38.0</ele>
      </trkpt>
      <trkpt lat="41.05447" lon="-124.14847">
        <ele>31.0</ele>
      </trkpt>
      <trkpt lat="41.05488" lon="-124.14867">
        <ele>26.0</ele>
      </trkpt>
      <trkpt lat="41.05521" lon="-124.14892">
        <ele>32.0</ele>
      </trkpt>
      <trkpt lat="41.0559" lon="-124.14955">
        <ele>42.0</ele>
      </trkpt>
      <trkpt lat="41.05604" lon="-124.14974">
        <ele>37.0</ele>
      </trkpt>
      <trkpt lat="41.05622" lon="-124.15011">
        <ele>41.0</ele>
      </trkpt>
      <trkpt lat="41.05635" lon="-124.15062">
        <ele>30.0</ele>
      </trkpt>
      <trkpt lat="41.05641" lon="-124.15071">
        <ele>40.0</ele>
      </trkpt>
      <trkpt lat="41.05648" lon="-124.15067">
        <ele>30.0</ele>
      </trkpt>
      <trkpt lat="41.05649" lon="-124.15028">
        <ele>27.0</ele>
      </trkpt>
      <trkpt lat="41.05639" lon="-124.14986">
        <ele>23.0</ele>
      </trkpt>
      <trkpt lat="41.05632" lon="-124.14885">
        <ele>19.0</ele>
      </trkpt>
      <trkpt lat="41.0564" lon="-124.149">
        <ele>19.0</ele>
      </trkpt>
      <trkpt lat="41.05648" lon="-124.14895">
        <ele>19.0</ele>
      </trkpt>
      <trkpt lat="41.056937146" lon="-124.148962498">
        <ele>11.0</ele>
      </trkpt>
    </trkseg>
  </trk>
</gpx>
