<?xml version="1.0" encoding="UTF-8"?>
<gpx xmlns:xsi="http://www.w3.org/2001/XMLSchema-instance" version="1.1" creator="The Outbound Collective, Inc. 1.1.1 -- https://www.theoutbound.com" xsi:schemaLocation="http://www.topografix.com/GPX/1/1 http://www.topografix.com/GPX/1/1/gpx.xsd">
  <metadata>
    <name/>
    <time>2026-02-19T21:55:35+00:00</time>
    <bound minlat="36.76887" minlon="-118.71878" maxlat="36.79009251875461" maxlon="-118.6690440701662"/>
  </metadata>
  <trk>
    <name/>
    <trkseg>
      <trkpt lat="36.79009251875461" lon="-118.6690807342529">
        <ele>1416.0</ele>
      </trkpt>
      <trkpt lat="36.79002197661578" lon="-118.6690440701662">
        <ele>1416.0</ele>
      </trkpt>
      <trkpt lat="36.79001" lon="-118.66908">
        <ele>1416.0</ele>
      </trkpt>
      <trkpt lat="36.78996" lon="-118.66954">
        <ele>1415.0</ele>
      </trkpt>
      <trkpt lat="36.78996" lon="-118.66954">
        <ele>1415.0</ele>
      </trkpt>
      <trkpt lat="36.78992" lon="-118.67002">
        <ele>1415.0</ele>
      </trkpt>
      <trkpt lat="36.78992" lon="-118.67002">
        <ele>1415.0</ele>
      </trkpt>
      <trkpt lat="36.78985200076157" lon="-118.6711155465772">
        <ele>1424.0</ele>
      </trkpt>
      <trkpt lat="36.78985200076157" lon="-118.6711155465772">
        <ele>1424.0</ele>
      </trkpt>
      <trkpt lat="36.78973" lon="-118.67111">
        <ele>1424.0</ele>
      </trkpt>
      <trkpt lat="36.78953" lon="-118.67089">
        <ele>1432.0</ele>
      </trkpt>
      <trkpt lat="36.78943" lon="-118.67085">
        <ele>1432.0</ele>
      </trkpt>
      <trkpt lat="36.78930822013427" lon="-118.6704989874458">
        <ele>1430.0</ele>
      </trkpt>
      <trkpt lat="36.78930294990574" lon="-118.6704837967871">
        <ele>1434.0</ele>
      </trkpt>
      <trkpt lat="36.78929807559281" lon="-118.6704697472969">
        <ele>1434.0</ele>
      </trkpt>
      <trkpt lat="36.78927540999538" lon="-118.6704941685727">
        <ele>1434.0</ele>
      </trkpt>
      <trkpt lat="36.78915" lon="-118.67053">
        <ele>1434.0</ele>
      </trkpt>
      <trkpt lat="36.78884" lon="-118.6704">
        <ele>1430.0</ele>
      </trkpt>
      <trkpt lat="36.78869" lon="-118.67045">
        <ele>1434.0</ele>
      </trkpt>
      <trkpt lat="36.78869" lon="-118.67045">
        <ele>1434.0</ele>
      </trkpt>
      <trkpt lat="36.78857" lon="-118.67045">
        <ele>1434.0</ele>
      </trkpt>
      <trkpt lat="36.78844" lon="-118.6704">
        <ele>1438.0</ele>
      </trkpt>
      <trkpt lat="36.78791" lon="-118.66992">
        <ele>1452.0</ele>
      </trkpt>
      <trkpt lat="36.78772" lon="-118.66993">
        <ele>1452.0</ele>
      </trkpt>
      <trkpt lat="36.78759" lon="-118.66998">
        <ele>1464.0</ele>
      </trkpt>
      <trkpt lat="36.78749" lon="-118.67009">
        <ele>1464.0</ele>
      </trkpt>
      <trkpt lat="36.78737" lon="-118.67032">
        <ele>1462.0</ele>
      </trkpt>
      <trkpt lat="36.78726" lon="-118.67063">
        <ele>1473.0</ele>
      </trkpt>
      <trkpt lat="36.78727" lon="-118.67084">
        <ele>1476.0</ele>
      </trkpt>
      <trkpt lat="36.78742" lon="-118.67158">
        <ele>1480.0</ele>
      </trkpt>
      <trkpt lat="36.78741" lon="-118.67209">
        <ele>1483.0</ele>
      </trkpt>
      <trkpt lat="36.7875" lon="-118.6724">
        <ele>1485.0</ele>
      </trkpt>
      <trkpt lat="36.78733" lon="-118.67268">
        <ele>1495.0</ele>
      </trkpt>
      <trkpt lat="36.78729" lon="-118.67299">
        <ele>1498.0</ele>
      </trkpt>
      <trkpt lat="36.78724773986048" lon="-118.6730303376629">
        <ele>1498.0</ele>
      </trkpt>
      <trkpt lat="36.78724773986048" lon="-118.6730303376629">
        <ele>1498.0</ele>
      </trkpt>
      <trkpt lat="36.78707" lon="-118.6732">
        <ele>1511.0</ele>
      </trkpt>
      <trkpt lat="36.78679" lon="-118.67334">
        <ele>1519.0</ele>
      </trkpt>
      <trkpt lat="36.78669" lon="-118.67344">
        <ele>1519.0</ele>
      </trkpt>
      <trkpt lat="36.78659" lon="-118.67387">
        <ele>1519.0</ele>
      </trkpt>
      <trkpt lat="36.78649996157711" lon="-118.6740106850358">
        <ele>1526.0</ele>
      </trkpt>
      <trkpt lat="36.78649996161819" lon="-118.6740106850358">
        <ele>1526.0</ele>
      </trkpt>
      <trkpt lat="36.78643" lon="-118.67412">
        <ele>1524.0</ele>
      </trkpt>
      <trkpt lat="36.78613" lon="-118.67432">
        <ele>1534.0</ele>
      </trkpt>
      <trkpt lat="36.78613" lon="-118.67432">
        <ele>1534.0</ele>
      </trkpt>
      <trkpt lat="36.78602" lon="-118.67438">
        <ele>1534.0</ele>
      </trkpt>
      <trkpt lat="36.78597" lon="-118.67449">
        <ele>1548.0</ele>
      </trkpt>
      <trkpt lat="36.78612" lon="-118.67467">
        <ele>1532.0</ele>
      </trkpt>
      <trkpt lat="36.78613" lon="-118.67477">
        <ele>1532.0</ele>
      </trkpt>
      <trkpt lat="36.78582" lon="-118.67558">
        <ele>1547.0</ele>
      </trkpt>
      <trkpt lat="36.78565" lon="-118.67577">
        <ele>1562.0</ele>
      </trkpt>
      <trkpt lat="36.78552" lon="-118.67587">
        <ele>1562.0</ele>
      </trkpt>
      <trkpt lat="36.78527" lon="-118.67597">
        <ele>1569.0</ele>
      </trkpt>
      <trkpt lat="36.78503" lon="-118.67626">
        <ele>1562.0</ele>
      </trkpt>
      <trkpt lat="36.78491" lon="-118.67628">
        <ele>1562.0</ele>
      </trkpt>
      <trkpt lat="36.78481" lon="-118.67635">
        <ele>1570.0</ele>
      </trkpt>
      <trkpt lat="36.78469" lon="-118.67651">
        <ele>1570.0</ele>
      </trkpt>
      <trkpt lat="36.78459" lon="-118.67681">
        <ele>1558.0</ele>
      </trkpt>
      <trkpt lat="36.78441" lon="-118.67714">
        <ele>1568.0</ele>
      </trkpt>
      <trkpt lat="36.78435" lon="-118.67742">
        <ele>1566.0</ele>
      </trkpt>
      <trkpt lat="36.78428" lon="-118.67756">
        <ele>1580.0</ele>
      </trkpt>
      <trkpt lat="36.78408" lon="-118.67776">
        <ele>1577.0</ele>
      </trkpt>
      <trkpt lat="36.78409" lon="-118.67783">
        <ele>1577.0</ele>
      </trkpt>
      <trkpt lat="36.78412" lon="-118.6779">
        <ele>1577.0</ele>
      </trkpt>
      <trkpt lat="36.78412" lon="-118.67803">
        <ele>1574.0</ele>
      </trkpt>
      <trkpt lat="36.78399" lon="-118.67854">
        <ele>1590.0</ele>
      </trkpt>
      <trkpt lat="36.7839" lon="-118.67878">
        <ele>1586.0</ele>
      </trkpt>
      <trkpt lat="36.78388" lon="-118.67897">
        <ele>1586.0</ele>
      </trkpt>
      <trkpt lat="36.78372" lon="-118.6793">
        <ele>1595.0</ele>
      </trkpt>
      <trkpt lat="36.78315" lon="-118.67964">
        <ele>1603.0</ele>
      </trkpt>
      <trkpt lat="36.78287" lon="-118.67969">
        <ele>1611.0</ele>
      </trkpt>
      <trkpt lat="36.78271" lon="-118.6798">
        <ele>1611.0</ele>
      </trkpt>
      <trkpt lat="36.78269" lon="-118.67995">
        <ele>1612.0</ele>
      </trkpt>
      <trkpt lat="36.78273" lon="-118.67998">
        <ele>1612.0</ele>
      </trkpt>
      <trkpt lat="36.78298" lon="-118.67996">
        <ele>1607.0</ele>
      </trkpt>
      <trkpt lat="36.78318" lon="-118.68028">
        <ele>1615.0</ele>
      </trkpt>
      <trkpt lat="36.78336" lon="-118.6803">
        <ele>1611.0</ele>
      </trkpt>
      <trkpt lat="36.78345" lon="-118.68038">
        <ele>1611.0</ele>
      </trkpt>
      <trkpt lat="36.78361" lon="-118.68066">
        <ele>1614.0</ele>
      </trkpt>
      <trkpt lat="36.78367" lon="-118.68083">
        <ele>1622.0</ele>
      </trkpt>
      <trkpt lat="36.78369" lon="-118.68094">
        <ele>1622.0</ele>
      </trkpt>
      <trkpt lat="36.78365" lon="-118.68098">
        <ele>1624.0</ele>
      </trkpt>
      <trkpt lat="36.78358" lon="-118.68091">
        <ele>1622.0</ele>
      </trkpt>
      <trkpt lat="36.78357" lon="-118.68081">
        <ele>1622.0</ele>
      </trkpt>
      <trkpt lat="36.78352" lon="-118.68076">
        <ele>1622.0</ele>
      </trkpt>
      <trkpt lat="36.78299" lon="-118.68059">
        <ele>1626.0</ele>
      </trkpt>
      <trkpt lat="36.78286" lon="-118.68058">
        <ele>1633.0</ele>
      </trkpt>
      <trkpt lat="36.78285" lon="-118.6806">
        <ele>1633.0</ele>
      </trkpt>
      <trkpt lat="36.78309" lon="-118.68087">
        <ele>1638.0</ele>
      </trkpt>
      <trkpt lat="36.78319" lon="-118.68093">
        <ele>1638.0</ele>
      </trkpt>
      <trkpt lat="36.78324" lon="-118.68102">
        <ele>1638.0</ele>
      </trkpt>
      <trkpt lat="36.78327" lon="-118.68123">
        <ele>1638.0</ele>
      </trkpt>
      <trkpt lat="36.78335" lon="-118.68151">
        <ele>1643.0</ele>
      </trkpt>
      <trkpt lat="36.78334" lon="-118.68156">
        <ele>1648.0</ele>
      </trkpt>
      <trkpt lat="36.7833" lon="-118.68155">
        <ele>1648.0</ele>
      </trkpt>
      <trkpt lat="36.78325" lon="-118.68148">
        <ele>1643.0</ele>
      </trkpt>
      <trkpt lat="36.78306" lon="-118.68131">
        <ele>1655.0</ele>
      </trkpt>
      <trkpt lat="36.78276" lon="-118.68118">
        <ele>1656.0</ele>
      </trkpt>
      <trkpt lat="36.78229" lon="-118.68114">
        <ele>1664.0</ele>
      </trkpt>
      <trkpt lat="36.78201" lon="-118.68118">
        <ele>1663.0</ele>
      </trkpt>
      <trkpt lat="36.78181" lon="-118.68119">
        <ele>1663.0</ele>
      </trkpt>
      <trkpt lat="36.78171" lon="-118.68121">
        <ele>1664.0</ele>
      </trkpt>
      <trkpt lat="36.78153" lon="-118.68139">
        <ele>1678.0</ele>
      </trkpt>
      <trkpt lat="36.78133" lon="-118.68151">
        <ele>1676.0</ele>
      </trkpt>
      <trkpt lat="36.78102" lon="-118.68186">
        <ele>1693.0</ele>
      </trkpt>
      <trkpt lat="36.78078" lon="-118.68192">
        <ele>1696.0</ele>
      </trkpt>
      <trkpt lat="36.78068" lon="-118.6821">
        <ele>1705.0</ele>
      </trkpt>
      <trkpt lat="36.78046" lon="-118.68236">
        <ele>1705.0</ele>
      </trkpt>
      <trkpt lat="36.78039" lon="-118.68236">
        <ele>1707.0</ele>
      </trkpt>
      <trkpt lat="36.78036" lon="-118.68232">
        <ele>1707.0</ele>
      </trkpt>
      <trkpt lat="36.78036" lon="-118.6822">
        <ele>1707.0</ele>
      </trkpt>
      <trkpt lat="36.78033" lon="-118.68214">
        <ele>1707.0</ele>
      </trkpt>
      <trkpt lat="36.78022" lon="-118.68209">
        <ele>1707.0</ele>
      </trkpt>
      <trkpt lat="36.77993591641624" lon="-118.6822929168455">
        <ele>1710.0</ele>
      </trkpt>
      <trkpt lat="36.77993591653841" lon="-118.6822929168455">
        <ele>1710.0</ele>
      </trkpt>
      <trkpt lat="36.77987" lon="-118.68234">
        <ele>1710.0</ele>
      </trkpt>
      <trkpt lat="36.77975" lon="-118.68238">
        <ele>1723.0</ele>
      </trkpt>
      <trkpt lat="36.77964" lon="-118.68247">
        <ele>1723.0</ele>
      </trkpt>
      <trkpt lat="36.77954" lon="-118.68245">
        <ele>1727.0</ele>
      </trkpt>
      <trkpt lat="36.77946" lon="-118.68239">
        <ele>1727.0</ele>
      </trkpt>
      <trkpt lat="36.77933" lon="-118.68235">
        <ele>1713.0</ele>
      </trkpt>
      <trkpt lat="36.77916" lon="-118.68234">
        <ele>1715.0</ele>
      </trkpt>
      <trkpt lat="36.77909" lon="-118.68238">
        <ele>1727.0</ele>
      </trkpt>
      <trkpt lat="36.77911" lon="-118.68245">
        <ele>1727.0</ele>
      </trkpt>
      <trkpt lat="36.77918" lon="-118.68246">
        <ele>1727.0</ele>
      </trkpt>
      <trkpt lat="36.77934" lon="-118.68266">
        <ele>1738.0</ele>
      </trkpt>
      <trkpt lat="36.77944" lon="-118.68271">
        <ele>1738.0</ele>
      </trkpt>
      <trkpt lat="36.77951" lon="-118.68283">
        <ele>1738.0</ele>
      </trkpt>
      <trkpt lat="36.77958" lon="-118.68289">
        <ele>1738.0</ele>
      </trkpt>
      <trkpt lat="36.77982" lon="-118.68296">
        <ele>1746.0</ele>
      </trkpt>
      <trkpt lat="36.77992" lon="-118.68305">
        <ele>1739.0</ele>
      </trkpt>
      <trkpt lat="36.77991" lon="-118.68312">
        <ele>1739.0</ele>
      </trkpt>
      <trkpt lat="36.77988" lon="-118.68315">
        <ele>1739.0</ele>
      </trkpt>
      <trkpt lat="36.7798" lon="-118.68311">
        <ele>1746.0</ele>
      </trkpt>
      <trkpt lat="36.7796" lon="-118.68312">
        <ele>1746.0</ele>
      </trkpt>
      <trkpt lat="36.77948" lon="-118.68318">
        <ele>1751.0</ele>
      </trkpt>
      <trkpt lat="36.77941" lon="-118.68318">
        <ele>1751.0</ele>
      </trkpt>
      <trkpt lat="36.77929" lon="-118.68312">
        <ele>1753.0</ele>
      </trkpt>
      <trkpt lat="36.77877" lon="-118.68312">
        <ele>1756.0</ele>
      </trkpt>
      <trkpt lat="36.7786" lon="-118.6832">
        <ele>1769.0</ele>
      </trkpt>
      <trkpt lat="36.77823" lon="-118.68327">
        <ele>1769.0</ele>
      </trkpt>
      <trkpt lat="36.77798" lon="-118.68351">
        <ele>1779.0</ele>
      </trkpt>
      <trkpt lat="36.77788" lon="-118.68356">
        <ele>1779.0</ele>
      </trkpt>
      <trkpt lat="36.77774" lon="-118.68372">
        <ele>1779.0</ele>
      </trkpt>
      <trkpt lat="36.77752" lon="-118.68389">
        <ele>1792.0</ele>
      </trkpt>
      <trkpt lat="36.77737" lon="-118.68405">
        <ele>1800.0</ele>
      </trkpt>
      <trkpt lat="36.77698" lon="-118.68436">
        <ele>1802.0</ele>
      </trkpt>
      <trkpt lat="36.77696" lon="-118.68442">
        <ele>1802.0</ele>
      </trkpt>
      <trkpt lat="36.77706" lon="-118.68444">
        <ele>1802.0</ele>
      </trkpt>
      <trkpt lat="36.77814" lon="-118.68436">
        <ele>1812.0</ele>
      </trkpt>
      <trkpt lat="36.77855" lon="-118.68457">
        <ele>1816.0</ele>
      </trkpt>
      <trkpt lat="36.77879" lon="-118.68487">
        <ele>1842.0</ele>
      </trkpt>
      <trkpt lat="36.77894" lon="-118.68519">
        <ele>1849.0</ele>
      </trkpt>
      <trkpt lat="36.77921" lon="-118.68603">
        <ele>1865.0</ele>
      </trkpt>
      <trkpt lat="36.77943" lon="-118.68625">
        <ele>1850.0</ele>
      </trkpt>
      <trkpt lat="36.77952" lon="-118.68641">
        <ele>1857.0</ele>
      </trkpt>
      <trkpt lat="36.77961" lon="-118.68662">
        <ele>1851.0</ele>
      </trkpt>
      <trkpt lat="36.77965" lon="-118.68675">
        <ele>1851.0</ele>
      </trkpt>
      <trkpt lat="36.77953" lon="-118.68717">
        <ele>1877.0</ele>
      </trkpt>
      <trkpt lat="36.77954" lon="-118.68728">
        <ele>1877.0</ele>
      </trkpt>
      <trkpt lat="36.77959" lon="-118.6873">
        <ele>1865.0</ele>
      </trkpt>
      <trkpt lat="36.77969" lon="-118.68722">
        <ele>1865.0</ele>
      </trkpt>
      <trkpt lat="36.77993" lon="-118.68723">
        <ele>1860.0</ele>
      </trkpt>
      <trkpt lat="36.7801" lon="-118.68731">
        <ele>1860.0</ele>
      </trkpt>
      <trkpt lat="36.78013" lon="-118.68738">
        <ele>1869.0</ele>
      </trkpt>
      <trkpt lat="36.78002" lon="-118.68756">
        <ele>1869.0</ele>
      </trkpt>
      <trkpt lat="36.77988" lon="-118.68769">
        <ele>1877.0</ele>
      </trkpt>
      <trkpt lat="36.77974" lon="-118.68799">
        <ele>1884.0</ele>
      </trkpt>
      <trkpt lat="36.77922" lon="-118.68849">
        <ele>1899.0</ele>
      </trkpt>
      <trkpt lat="36.77901" lon="-118.68852">
        <ele>1909.0</ele>
      </trkpt>
      <trkpt lat="36.77896" lon="-118.68856">
        <ele>1909.0</ele>
      </trkpt>
      <trkpt lat="36.77902" lon="-118.68867">
        <ele>1909.0</ele>
      </trkpt>
      <trkpt lat="36.77919" lon="-118.68881">
        <ele>1906.0</ele>
      </trkpt>
      <trkpt lat="36.77936" lon="-118.68886">
        <ele>1903.0</ele>
      </trkpt>
      <trkpt lat="36.77948" lon="-118.68898">
        <ele>1903.0</ele>
      </trkpt>
      <trkpt lat="36.77948" lon="-118.68908">
        <ele>1908.0</ele>
      </trkpt>
      <trkpt lat="36.7794" lon="-118.68919">
        <ele>1908.0</ele>
      </trkpt>
      <trkpt lat="36.77908" lon="-118.68948">
        <ele>1921.0</ele>
      </trkpt>
      <trkpt lat="36.77867" lon="-118.68961">
        <ele>1932.0</ele>
      </trkpt>
      <trkpt lat="36.77854" lon="-118.68975">
        <ele>1932.0</ele>
      </trkpt>
      <trkpt lat="36.77838" lon="-118.68974">
        <ele>1942.0</ele>
      </trkpt>
      <trkpt lat="36.77826" lon="-118.68982">
        <ele>1942.0</ele>
      </trkpt>
      <trkpt lat="36.77775" lon="-118.68985">
        <ele>1964.0</ele>
      </trkpt>
      <trkpt lat="36.77765" lon="-118.68988">
        <ele>1962.0</ele>
      </trkpt>
      <trkpt lat="36.77764" lon="-118.69005">
        <ele>1962.0</ele>
      </trkpt>
      <trkpt lat="36.7777" lon="-118.69027">
        <ele>1965.0</ele>
      </trkpt>
      <trkpt lat="36.77778" lon="-118.69038">
        <ele>1965.0</ele>
      </trkpt>
      <trkpt lat="36.77798" lon="-118.69046">
        <ele>1965.0</ele>
      </trkpt>
      <trkpt lat="36.77813" lon="-118.69057">
        <ele>1965.0</ele>
      </trkpt>
      <trkpt lat="36.77827" lon="-118.69075">
        <ele>1967.0</ele>
      </trkpt>
      <trkpt lat="36.77846" lon="-118.69091">
        <ele>1967.0</ele>
      </trkpt>
      <trkpt lat="36.77852" lon="-118.69107">
        <ele>1964.0</ele>
      </trkpt>
      <trkpt lat="36.77852" lon="-118.6914">
        <ele>1968.0</ele>
      </trkpt>
      <trkpt lat="36.77846" lon="-118.69161">
        <ele>1989.0</ele>
      </trkpt>
      <trkpt lat="36.77844" lon="-118.69181">
        <ele>1994.0</ele>
      </trkpt>
      <trkpt lat="36.77847" lon="-118.69207">
        <ele>1994.0</ele>
      </trkpt>
      <trkpt lat="36.77846" lon="-118.69233">
        <ele>1999.0</ele>
      </trkpt>
      <trkpt lat="36.77851" lon="-118.6928">
        <ele>1984.0</ele>
      </trkpt>
      <trkpt lat="36.77844" lon="-118.69324">
        <ele>2012.0</ele>
      </trkpt>
      <trkpt lat="36.77828" lon="-118.69362">
        <ele>2009.0</ele>
      </trkpt>
      <trkpt lat="36.778" lon="-118.69412">
        <ele>2031.0</ele>
      </trkpt>
      <trkpt lat="36.77788" lon="-118.69456">
        <ele>2044.0</ele>
      </trkpt>
      <trkpt lat="36.77771" lon="-118.69486">
        <ele>2040.0</ele>
      </trkpt>
      <trkpt lat="36.77746" lon="-118.69508">
        <ele>2051.0</ele>
      </trkpt>
      <trkpt lat="36.7775" lon="-118.69534">
        <ele>2048.0</ele>
      </trkpt>
      <trkpt lat="36.77726" lon="-118.69575">
        <ele>2062.0</ele>
      </trkpt>
      <trkpt lat="36.77716" lon="-118.69621">
        <ele>2061.0</ele>
      </trkpt>
      <trkpt lat="36.7771" lon="-118.69629">
        <ele>2062.0</ele>
      </trkpt>
      <trkpt lat="36.7771" lon="-118.69629">
        <ele>2062.0</ele>
      </trkpt>
      <trkpt lat="36.77705" lon="-118.69636">
        <ele>2077.0</ele>
      </trkpt>
      <trkpt lat="36.77715" lon="-118.69665">
        <ele>2058.0</ele>
      </trkpt>
      <trkpt lat="36.77718" lon="-118.69682">
        <ele>2059.0</ele>
      </trkpt>
      <trkpt lat="36.7771" lon="-118.69701">
        <ele>2059.0</ele>
      </trkpt>
      <trkpt lat="36.7768" lon="-118.69735">
        <ele>2090.0</ele>
      </trkpt>
      <trkpt lat="36.77661" lon="-118.69754">
        <ele>2088.0</ele>
      </trkpt>
      <trkpt lat="36.77647" lon="-118.69762">
        <ele>2093.0</ele>
      </trkpt>
      <trkpt lat="36.77639" lon="-118.69774">
        <ele>2092.0</ele>
      </trkpt>
      <trkpt lat="36.77638" lon="-118.69782">
        <ele>2092.0</ele>
      </trkpt>
      <trkpt lat="36.77641" lon="-118.69794">
        <ele>2094.0</ele>
      </trkpt>
      <trkpt lat="36.77656" lon="-118.69815">
        <ele>2088.0</ele>
      </trkpt>
      <trkpt lat="36.77705" lon="-118.69898">
        <ele>2100.0</ele>
      </trkpt>
      <trkpt lat="36.77706" lon="-118.69918">
        <ele>2110.0</ele>
      </trkpt>
      <trkpt lat="36.77698" lon="-118.69956">
        <ele>2121.0</ele>
      </trkpt>
      <trkpt lat="36.77705" lon="-118.70013">
        <ele>2129.0</ele>
      </trkpt>
      <trkpt lat="36.777" lon="-118.7005">
        <ele>2136.0</ele>
      </trkpt>
      <trkpt lat="36.77687" lon="-118.7009">
        <ele>2136.0</ele>
      </trkpt>
      <trkpt lat="36.77676" lon="-118.70146">
        <ele>2140.0</ele>
      </trkpt>
      <trkpt lat="36.77674" lon="-118.70175">
        <ele>2139.0</ele>
      </trkpt>
      <trkpt lat="36.77658" lon="-118.70208">
        <ele>2138.0</ele>
      </trkpt>
      <trkpt lat="36.77643" lon="-118.7022">
        <ele>2143.0</ele>
      </trkpt>
      <trkpt lat="36.77596" lon="-118.70248">
        <ele>2150.0</ele>
      </trkpt>
      <trkpt lat="36.77584" lon="-118.70259">
        <ele>2150.0</ele>
      </trkpt>
      <trkpt lat="36.77571" lon="-118.70279">
        <ele>2148.0</ele>
      </trkpt>
      <trkpt lat="36.77559" lon="-118.70314">
        <ele>2148.0</ele>
      </trkpt>
      <trkpt lat="36.77544" lon="-118.70335">
        <ele>2145.0</ele>
      </trkpt>
      <trkpt lat="36.7755" lon="-118.70365">
        <ele>2144.0</ele>
      </trkpt>
      <trkpt lat="36.77549" lon="-118.70379">
        <ele>2142.0</ele>
      </trkpt>
      <trkpt lat="36.77556" lon="-118.70395">
        <ele>2142.0</ele>
      </trkpt>
      <trkpt lat="36.77555" lon="-118.70416">
        <ele>2146.0</ele>
      </trkpt>
      <trkpt lat="36.7756" lon="-118.70446">
        <ele>2155.0</ele>
      </trkpt>
      <trkpt lat="36.77555" lon="-118.70458">
        <ele>2155.0</ele>
      </trkpt>
      <trkpt lat="36.77548" lon="-118.70463">
        <ele>2156.0</ele>
      </trkpt>
      <trkpt lat="36.77521" lon="-118.70464">
        <ele>2153.0</ele>
      </trkpt>
      <trkpt lat="36.77504" lon="-118.7048">
        <ele>2152.0</ele>
      </trkpt>
      <trkpt lat="36.77499" lon="-118.70495">
        <ele>2156.0</ele>
      </trkpt>
      <trkpt lat="36.77497" lon="-118.70513">
        <ele>2156.0</ele>
      </trkpt>
      <trkpt lat="36.77501" lon="-118.7055">
        <ele>2164.0</ele>
      </trkpt>
      <trkpt lat="36.77518" lon="-118.70604">
        <ele>2167.0</ele>
      </trkpt>
      <trkpt lat="36.77546" lon="-118.70629">
        <ele>2165.0</ele>
      </trkpt>
      <trkpt lat="36.77579" lon="-118.70663">
        <ele>2170.0</ele>
      </trkpt>
      <trkpt lat="36.77596" lon="-118.70671">
        <ele>2170.0</ele>
      </trkpt>
      <trkpt lat="36.77611" lon="-118.70673">
        <ele>2173.0</ele>
      </trkpt>
      <trkpt lat="36.7762" lon="-118.7067">
        <ele>2173.0</ele>
      </trkpt>
      <trkpt lat="36.77635" lon="-118.70643">
        <ele>2171.0</ele>
      </trkpt>
      <trkpt lat="36.77644" lon="-118.70632">
        <ele>2171.0</ele>
      </trkpt>
      <trkpt lat="36.77677" lon="-118.70634">
        <ele>2176.0</ele>
      </trkpt>
      <trkpt lat="36.77701" lon="-118.70621">
        <ele>2180.0</ele>
      </trkpt>
      <trkpt lat="36.77711" lon="-118.70604">
        <ele>2190.0</ele>
      </trkpt>
      <trkpt lat="36.77716" lon="-118.70583">
        <ele>2188.0</ele>
      </trkpt>
      <trkpt lat="36.77722" lon="-118.70564">
        <ele>2186.0</ele>
      </trkpt>
      <trkpt lat="36.77758" lon="-118.70526">
        <ele>2193.0</ele>
      </trkpt>
      <trkpt lat="36.7777" lon="-118.70501">
        <ele>2197.0</ele>
      </trkpt>
      <trkpt lat="36.77786" lon="-118.70494">
        <ele>2197.0</ele>
      </trkpt>
      <trkpt lat="36.77809" lon="-118.70476">
        <ele>2199.0</ele>
      </trkpt>
      <trkpt lat="36.77817" lon="-118.70474">
        <ele>2199.0</ele>
      </trkpt>
      <trkpt lat="36.77818" lon="-118.70483">
        <ele>2199.0</ele>
      </trkpt>
      <trkpt lat="36.7781" lon="-118.70535">
        <ele>2213.0</ele>
      </trkpt>
      <trkpt lat="36.77812" lon="-118.70557">
        <ele>2217.0</ele>
      </trkpt>
      <trkpt lat="36.77825" lon="-118.70606">
        <ele>2228.0</ele>
      </trkpt>
      <trkpt lat="36.77845" lon="-118.7066">
        <ele>2237.0</ele>
      </trkpt>
      <trkpt lat="36.77841" lon="-118.70674">
        <ele>2237.0</ele>
      </trkpt>
      <trkpt lat="36.77828" lon="-118.70702">
        <ele>2243.0</ele>
      </trkpt>
      <trkpt lat="36.77808" lon="-118.70721">
        <ele>2242.0</ele>
      </trkpt>
      <trkpt lat="36.77806" lon="-118.70763">
        <ele>2244.0</ele>
      </trkpt>
      <trkpt lat="36.77809" lon="-118.7078">
        <ele>2245.0</ele>
      </trkpt>
      <trkpt lat="36.77841" lon="-118.70829">
        <ele>2261.0</ele>
      </trkpt>
      <trkpt lat="36.77846" lon="-118.70848">
        <ele>2268.0</ele>
      </trkpt>
      <trkpt lat="36.77846" lon="-118.70857">
        <ele>2268.0</ele>
      </trkpt>
      <trkpt lat="36.77825" lon="-118.70886">
        <ele>2272.0</ele>
      </trkpt>
      <trkpt lat="36.77814" lon="-118.70904">
        <ele>2270.0</ele>
      </trkpt>
      <trkpt lat="36.77805" lon="-118.70941">
        <ele>2275.0</ele>
      </trkpt>
      <trkpt lat="36.77797" lon="-118.7095">
        <ele>2275.0</ele>
      </trkpt>
      <trkpt lat="36.77786" lon="-118.70954">
        <ele>2269.0</ele>
      </trkpt>
      <trkpt lat="36.77777" lon="-118.70962">
        <ele>2275.0</ele>
      </trkpt>
      <trkpt lat="36.7777" lon="-118.70971">
        <ele>2275.0</ele>
      </trkpt>
      <trkpt lat="36.7776" lon="-118.7099">
        <ele>2277.0</ele>
      </trkpt>
      <trkpt lat="36.77747" lon="-118.70987">
        <ele>2277.0</ele>
      </trkpt>
      <trkpt lat="36.77732" lon="-118.71009">
        <ele>2272.0</ele>
      </trkpt>
      <trkpt lat="36.7772" lon="-118.71022">
        <ele>2283.0</ele>
      </trkpt>
      <trkpt lat="36.77713" lon="-118.71036">
        <ele>2283.0</ele>
      </trkpt>
      <trkpt lat="36.77685" lon="-118.71059">
        <ele>2296.0</ele>
      </trkpt>
      <trkpt lat="36.77683" lon="-118.71064">
        <ele>2296.0</ele>
      </trkpt>
      <trkpt lat="36.77664" lon="-118.71057">
        <ele>2293.0</ele>
      </trkpt>
      <trkpt lat="36.77632" lon="-118.71052">
        <ele>2290.0</ele>
      </trkpt>
      <trkpt lat="36.77615" lon="-118.7106">
        <ele>2284.0</ele>
      </trkpt>
      <trkpt lat="36.77592" lon="-118.71084">
        <ele>2290.0</ele>
      </trkpt>
      <trkpt lat="36.77569" lon="-118.71126">
        <ele>2320.0</ele>
      </trkpt>
      <trkpt lat="36.77548" lon="-118.71139">
        <ele>2320.0</ele>
      </trkpt>
      <trkpt lat="36.77519" lon="-118.71149">
        <ele>2322.0</ele>
      </trkpt>
      <trkpt lat="36.77506" lon="-118.7115">
        <ele>2322.0</ele>
      </trkpt>
      <trkpt lat="36.77483" lon="-118.71144">
        <ele>2324.0</ele>
      </trkpt>
      <trkpt lat="36.77456918723404" lon="-118.7115746130405">
        <ele>2339.0</ele>
      </trkpt>
      <trkpt lat="36.77456918731767" lon="-118.7115746130405">
        <ele>2339.0</ele>
      </trkpt>
      <trkpt lat="36.77452" lon="-118.7116">
        <ele>2339.0</ele>
      </trkpt>
      <trkpt lat="36.77444" lon="-118.71169">
        <ele>2339.0</ele>
      </trkpt>
      <trkpt lat="36.77431" lon="-118.7117">
        <ele>2339.0</ele>
      </trkpt>
      <trkpt lat="36.77409" lon="-118.71186">
        <ele>2352.0</ele>
      </trkpt>
      <trkpt lat="36.77409" lon="-118.71186">
        <ele>2352.0</ele>
      </trkpt>
      <trkpt lat="36.774" lon="-118.71192">
        <ele>2353.0</ele>
      </trkpt>
      <trkpt lat="36.77371" lon="-118.71188">
        <ele>2348.0</ele>
      </trkpt>
      <trkpt lat="36.77365" lon="-118.7119">
        <ele>2348.0</ele>
      </trkpt>
      <trkpt lat="36.7736" lon="-118.712">
        <ele>2348.0</ele>
      </trkpt>
      <trkpt lat="36.77338" lon="-118.71203">
        <ele>2346.0</ele>
      </trkpt>
      <trkpt lat="36.77335" lon="-118.71206">
        <ele>2346.0</ele>
      </trkpt>
      <trkpt lat="36.77328" lon="-118.71221">
        <ele>2361.0</ele>
      </trkpt>
      <trkpt lat="36.77304" lon="-118.71232">
        <ele>2359.0</ele>
      </trkpt>
      <trkpt lat="36.77287" lon="-118.71251">
        <ele>2369.0</ele>
      </trkpt>
      <trkpt lat="36.77273" lon="-118.71258">
        <ele>2369.0</ele>
      </trkpt>
      <trkpt lat="36.77257" lon="-118.71279">
        <ele>2375.0</ele>
      </trkpt>
      <trkpt lat="36.77243" lon="-118.71289">
        <ele>2375.0</ele>
      </trkpt>
      <trkpt lat="36.77221" lon="-118.71293">
        <ele>2385.0</ele>
      </trkpt>
      <trkpt lat="36.7721" lon="-118.71301">
        <ele>2385.0</ele>
      </trkpt>
      <trkpt lat="36.77162" lon="-118.71336">
        <ele>2393.0</ele>
      </trkpt>
      <trkpt lat="36.77139" lon="-118.71357">
        <ele>2402.0</ele>
      </trkpt>
      <trkpt lat="36.77123" lon="-118.71363">
        <ele>2402.0</ele>
      </trkpt>
      <trkpt lat="36.77067" lon="-118.71374">
        <ele>2402.0</ele>
      </trkpt>
      <trkpt lat="36.7706" lon="-118.71381">
        <ele>2406.0</ele>
      </trkpt>
      <trkpt lat="36.77053" lon="-118.71389">
        <ele>2406.0</ele>
      </trkpt>
      <trkpt lat="36.77039" lon="-118.71419">
        <ele>2414.0</ele>
      </trkpt>
      <trkpt lat="36.7702" lon="-118.71437">
        <ele>2417.0</ele>
      </trkpt>
      <trkpt lat="36.77015" lon="-118.71463">
        <ele>2419.0</ele>
      </trkpt>
      <trkpt lat="36.77018" lon="-118.71472">
        <ele>2419.0</ele>
      </trkpt>
      <trkpt lat="36.77017" lon="-118.71482">
        <ele>2419.0</ele>
      </trkpt>
      <trkpt lat="36.77012" lon="-118.71501">
        <ele>2425.0</ele>
      </trkpt>
      <trkpt lat="36.76986" lon="-118.71502">
        <ele>2433.0</ele>
      </trkpt>
      <trkpt lat="36.76976" lon="-118.71508">
        <ele>2433.0</ele>
      </trkpt>
      <trkpt lat="36.76961" lon="-118.71528">
        <ele>2433.0</ele>
      </trkpt>
      <trkpt lat="36.76949" lon="-118.71562">
        <ele>2437.0</ele>
      </trkpt>
      <trkpt lat="36.76934" lon="-118.71582">
        <ele>2438.0</ele>
      </trkpt>
      <trkpt lat="36.76926" lon="-118.71598">
        <ele>2438.0</ele>
      </trkpt>
      <trkpt lat="36.76887" lon="-118.71638">
        <ele>2435.0</ele>
      </trkpt>
      <trkpt lat="36.76887" lon="-118.71638">
        <ele>2435.0</ele>
      </trkpt>
      <trkpt lat="36.76887" lon="-118.71638">
        <ele>2435.0</ele>
      </trkpt>
      <trkpt lat="36.76915" lon="-118.71653">
        <ele>2441.0</ele>
      </trkpt>
      <trkpt lat="36.7694" lon="-118.71671">
        <ele>2446.0</ele>
      </trkpt>
      <trkpt lat="36.76966" lon="-118.71681">
        <ele>2448.0</ele>
      </trkpt>
      <trkpt lat="36.76981" lon="-118.71681">
        <ele>2448.0</ele>
      </trkpt>
      <trkpt lat="36.76994" lon="-118.71673">
        <ele>2451.0</ele>
      </trkpt>
      <trkpt lat="36.77001" lon="-118.71695">
        <ele>2448.0</ele>
      </trkpt>
      <trkpt lat="36.77018" lon="-118.71703">
        <ele>2453.0</ele>
      </trkpt>
      <trkpt lat="36.7703" lon="-118.71698">
        <ele>2453.0</ele>
      </trkpt>
      <trkpt lat="36.77064" lon="-118.71715">
        <ele>2459.0</ele>
      </trkpt>
      <trkpt lat="36.77074" lon="-118.71734">
        <ele>2465.0</ele>
      </trkpt>
      <trkpt lat="36.77101" lon="-118.71736">
        <ele>2474.0</ele>
      </trkpt>
      <trkpt lat="36.77123" lon="-118.71732">
        <ele>2474.0</ele>
      </trkpt>
      <trkpt lat="36.77131" lon="-118.71742">
        <ele>2473.0</ele>
      </trkpt>
      <trkpt lat="36.77143" lon="-118.71774">
        <ele>2470.0</ele>
      </trkpt>
      <trkpt lat="36.77164" lon="-118.7179">
        <ele>2480.0</ele>
      </trkpt>
      <trkpt lat="36.77165" lon="-118.71802">
        <ele>2477.0</ele>
      </trkpt>
      <trkpt lat="36.77176" lon="-118.71826">
        <ele>2475.0</ele>
      </trkpt>
      <trkpt lat="36.77176" lon="-118.71826">
        <ele>2475.0</ele>
      </trkpt>
      <trkpt lat="36.7718" lon="-118.7184">
        <ele>2475.0</ele>
      </trkpt>
      <trkpt lat="36.77176" lon="-118.71863">
        <ele>2476.0</ele>
      </trkpt>
      <trkpt lat="36.77184" lon="-118.71865">
        <ele>2491.0</ele>
      </trkpt>
      <trkpt lat="36.77196" lon="-118.71862">
        <ele>2491.0</ele>
      </trkpt>
      <trkpt lat="36.772" lon="-118.71878">
        <ele>2490.0</ele>
      </trkpt>
      <trkpt lat="36.77204" lon="-118.71871">
        <ele>2491.0</ele>
      </trkpt>
      <trkpt lat="36.77208" lon="-118.71854">
        <ele>2491.0</ele>
      </trkpt>
      <trkpt lat="36.77215" lon="-118.71862">
        <ele>2501.0</ele>
      </trkpt>
      <trkpt lat="36.77226" lon="-118.71856">
        <ele>2501.0</ele>
      </trkpt>
      <trkpt lat="36.77219" lon="-118.71826">
        <ele>2505.0</ele>
      </trkpt>
      <trkpt lat="36.77219" lon="-118.71826">
        <ele>2505.0</ele>
      </trkpt>
      <trkpt lat="36.77221" lon="-118.7181">
        <ele>2509.0</ele>
      </trkpt>
      <trkpt lat="36.7722" lon="-118.71775">
        <ele>2511.0</ele>
      </trkpt>
      <trkpt lat="36.77227" lon="-118.7177">
        <ele>2511.0</ele>
      </trkpt>
      <trkpt lat="36.77235" lon="-118.7177">
        <ele>2511.0</ele>
      </trkpt>
      <trkpt lat="36.77239" lon="-118.71763">
        <ele>2530.0</ele>
      </trkpt>
      <trkpt lat="36.77235" lon="-118.71732">
        <ele>2521.0</ele>
      </trkpt>
      <trkpt lat="36.77241" lon="-118.71728">
        <ele>2535.0</ele>
      </trkpt>
      <trkpt lat="36.77249" lon="-118.71737">
        <ele>2530.0</ele>
      </trkpt>
      <trkpt lat="36.77265" lon="-118.71715">
        <ele>2548.0</ele>
      </trkpt>
      <trkpt lat="36.7726" lon="-118.71699">
        <ele>2544.0</ele>
      </trkpt>
      <trkpt lat="36.77272" lon="-118.71673">
        <ele>2567.0</ele>
      </trkpt>
      <trkpt lat="36.77287" lon="-118.71661">
        <ele>2567.0</ele>
      </trkpt>
      <trkpt lat="36.77281" lon="-118.71644">
        <ele>2568.0</ele>
      </trkpt>
      <trkpt lat="36.77283" lon="-118.71624">
        <ele>2563.0</ele>
      </trkpt>
      <trkpt lat="36.77299" lon="-118.7161">
        <ele>2576.0</ele>
      </trkpt>
      <trkpt lat="36.77307" lon="-118.71613">
        <ele>2576.0</ele>
      </trkpt>
      <trkpt lat="36.77317799352391" lon="-118.7160580043174">
        <ele>2576.0</ele>
      </trkpt>
      <trkpt lat="36.77317799353236" lon="-118.7160580043174">
        <ele>2576.0</ele>
      </trkpt>
      <trkpt lat="36.77307" lon="-118.71613">
        <ele>2576.0</ele>
      </trkpt>
      <trkpt lat="36.77299" lon="-118.7161">
        <ele>2576.0</ele>
      </trkpt>
      <trkpt lat="36.77283" lon="-118.71624">
        <ele>2563.0</ele>
      </trkpt>
      <trkpt lat="36.77281" lon="-118.71644">
        <ele>2568.0</ele>
      </trkpt>
      <trkpt lat="36.77287" lon="-118.71661">
        <ele>2567.0</ele>
      </trkpt>
      <trkpt lat="36.77272" lon="-118.71673">
        <ele>2567.0</ele>
      </trkpt>
      <trkpt lat="36.7726" lon="-118.71699">
        <ele>2544.0</ele>
      </trkpt>
      <trkpt lat="36.77265" lon="-118.71715">
        <ele>2548.0</ele>
      </trkpt>
      <trkpt lat="36.77249" lon="-118.71737">
        <ele>2530.0</ele>
      </trkpt>
      <trkpt lat="36.77241" lon="-118.71728">
        <ele>2535.0</ele>
      </trkpt>
      <trkpt lat="36.77235" lon="-118.71732">
        <ele>2521.0</ele>
      </trkpt>
      <trkpt lat="36.77239" lon="-118.71763">
        <ele>2530.0</ele>
      </trkpt>
      <trkpt lat="36.77235" lon="-118.7177">
        <ele>2511.0</ele>
      </trkpt>
      <trkpt lat="36.77227" lon="-118.7177">
        <ele>2511.0</ele>
      </trkpt>
      <trkpt lat="36.7722" lon="-118.71775">
        <ele>2511.0</ele>
      </trkpt>
      <trkpt lat="36.77221" lon="-118.7181">
        <ele>2509.0</ele>
      </trkpt>
      <trkpt lat="36.77219" lon="-118.71826">
        <ele>2505.0</ele>
      </trkpt>
      <trkpt lat="36.77219" lon="-118.71826">
        <ele>2505.0</ele>
      </trkpt>
      <trkpt lat="36.77226" lon="-118.71856">
        <ele>2501.0</ele>
      </trkpt>
      <trkpt lat="36.77215" lon="-118.71862">
        <ele>2501.0</ele>
      </trkpt>
      <trkpt lat="36.77208" lon="-118.71854">
        <ele>2491.0</ele>
      </trkpt>
      <trkpt lat="36.77204" lon="-118.71871">
        <ele>2491.0</ele>
      </trkpt>
      <trkpt lat="36.772" lon="-118.71878">
        <ele>2490.0</ele>
      </trkpt>
      <trkpt lat="36.77196" lon="-118.71862">
        <ele>2491.0</ele>
      </trkpt>
      <trkpt lat="36.77184" lon="-118.71865">
        <ele>2491.0</ele>
      </trkpt>
      <trkpt lat="36.77176" lon="-118.71863">
        <ele>2476.0</ele>
      </trkpt>
      <trkpt lat="36.7718" lon="-118.7184">
        <ele>2475.0</ele>
      </trkpt>
      <trkpt lat="36.77176" lon="-118.71826">
        <ele>2475.0</ele>
      </trkpt>
      <trkpt lat="36.77176" lon="-118.71826">
        <ele>2475.0</ele>
      </trkpt>
      <trkpt lat="36.77165" lon="-118.71802">
        <ele>2477.0</ele>
      </trkpt>
      <trkpt lat="36.77164" lon="-118.7179">
        <ele>2480.0</ele>
      </trkpt>
      <trkpt lat="36.77143" lon="-118.71774">
        <ele>2470.0</ele>
      </trkpt>
      <trkpt lat="36.77131" lon="-118.71742">
        <ele>2473.0</ele>
      </trkpt>
      <trkpt lat="36.77123" lon="-118.71732">
        <ele>2474.0</ele>
      </trkpt>
      <trkpt lat="36.77101" lon="-118.71736">
        <ele>2474.0</ele>
      </trkpt>
      <trkpt lat="36.77074" lon="-118.71734">
        <ele>2465.0</ele>
      </trkpt>
      <trkpt lat="36.77064" lon="-118.71715">
        <ele>2459.0</ele>
      </trkpt>
      <trkpt lat="36.7703" lon="-118.71698">
        <ele>2453.0</ele>
      </trkpt>
      <trkpt lat="36.77018" lon="-118.71703">
        <ele>2453.0</ele>
      </trkpt>
      <trkpt lat="36.77001" lon="-118.71695">
        <ele>2448.0</ele>
      </trkpt>
      <trkpt lat="36.76994" lon="-118.71673">
        <ele>2451.0</ele>
      </trkpt>
      <trkpt lat="36.76981" lon="-118.71681">
        <ele>2448.0</ele>
      </trkpt>
      <trkpt lat="36.76966" lon="-118.71681">
        <ele>2448.0</ele>
      </trkpt>
      <trkpt lat="36.7694" lon="-118.71671">
        <ele>2446.0</ele>
      </trkpt>
      <trkpt lat="36.76915" lon="-118.71653">
        <ele>2441.0</ele>
      </trkpt>
      <trkpt lat="36.76887" lon="-118.71638">
        <ele>2435.0</ele>
      </trkpt>
      <trkpt lat="36.76887" lon="-118.71638">
        <ele>2435.0</ele>
      </trkpt>
      <trkpt lat="36.76887" lon="-118.71638">
        <ele>2435.0</ele>
      </trkpt>
      <trkpt lat="36.76926" lon="-118.71598">
        <ele>2438.0</ele>
      </trkpt>
      <trkpt lat="36.76934" lon="-118.71582">
        <ele>2438.0</ele>
      </trkpt>
      <trkpt lat="36.76949" lon="-118.71562">
        <ele>2437.0</ele>
      </trkpt>
      <trkpt lat="36.76961" lon="-118.71528">
        <ele>2433.0</ele>
      </trkpt>
      <trkpt lat="36.76976" lon="-118.71508">
        <ele>2433.0</ele>
      </trkpt>
      <trkpt lat="36.76986" lon="-118.71502">
        <ele>2433.0</ele>
      </trkpt>
      <trkpt lat="36.77012" lon="-118.71501">
        <ele>2425.0</ele>
      </trkpt>
      <trkpt lat="36.77017" lon="-118.71482">
        <ele>2419.0</ele>
      </trkpt>
      <trkpt lat="36.77018" lon="-118.71472">
        <ele>2419.0</ele>
      </trkpt>
      <trkpt lat="36.77015" lon="-118.71463">
        <ele>2419.0</ele>
      </trkpt>
      <trkpt lat="36.7702" lon="-118.71437">
        <ele>2417.0</ele>
      </trkpt>
      <trkpt lat="36.77039" lon="-118.71419">
        <ele>2414.0</ele>
      </trkpt>
      <trkpt lat="36.77053" lon="-118.71389">
        <ele>2406.0</ele>
      </trkpt>
      <trkpt lat="36.7706" lon="-118.71381">
        <ele>2406.0</ele>
      </trkpt>
      <trkpt lat="36.77067" lon="-118.71374">
        <ele>2402.0</ele>
      </trkpt>
      <trkpt lat="36.77123" lon="-118.71363">
        <ele>2402.0</ele>
      </trkpt>
      <trkpt lat="36.77139" lon="-118.71357">
        <ele>2402.0</ele>
      </trkpt>
      <trkpt lat="36.77162" lon="-118.71336">
        <ele>2393.0</ele>
      </trkpt>
      <trkpt lat="36.7721" lon="-118.71301">
        <ele>2385.0</ele>
      </trkpt>
      <trkpt lat="36.77221" lon="-118.71293">
        <ele>2385.0</ele>
      </trkpt>
      <trkpt lat="36.77243" lon="-118.71289">
        <ele>2375.0</ele>
      </trkpt>
      <trkpt lat="36.77257" lon="-118.71279">
        <ele>2375.0</ele>
      </trkpt>
      <trkpt lat="36.77273" lon="-118.71258">
        <ele>2369.0</ele>
      </trkpt>
      <trkpt lat="36.77287" lon="-118.71251">
        <ele>2369.0</ele>
      </trkpt>
      <trkpt lat="36.77304" lon="-118.71232">
        <ele>2359.0</ele>
      </trkpt>
      <trkpt lat="36.77328" lon="-118.71221">
        <ele>2361.0</ele>
      </trkpt>
      <trkpt lat="36.77335" lon="-118.71206">
        <ele>2346.0</ele>
      </trkpt>
      <trkpt lat="36.77338" lon="-118.71203">
        <ele>2346.0</ele>
      </trkpt>
      <trkpt lat="36.7736" lon="-118.712">
        <ele>2348.0</ele>
      </trkpt>
      <trkpt lat="36.77365" lon="-118.7119">
        <ele>2348.0</ele>
      </trkpt>
      <trkpt lat="36.77371" lon="-118.71188">
        <ele>2348.0</ele>
      </trkpt>
      <trkpt lat="36.774" lon="-118.71192">
        <ele>2353.0</ele>
      </trkpt>
      <trkpt lat="36.77409" lon="-118.71186">
        <ele>2352.0</ele>
      </trkpt>
      <trkpt lat="36.77409" lon="-118.71186">
        <ele>2352.0</ele>
      </trkpt>
      <trkpt lat="36.77431" lon="-118.7117">
        <ele>2339.0</ele>
      </trkpt>
      <trkpt lat="36.77444" lon="-118.71169">
        <ele>2339.0</ele>
      </trkpt>
      <trkpt lat="36.77452" lon="-118.7116">
        <ele>2339.0</ele>
      </trkpt>
      <trkpt lat="36.77483" lon="-118.71144">
        <ele>2324.0</ele>
      </trkpt>
      <trkpt lat="36.77506" lon="-118.7115">
        <ele>2322.0</ele>
      </trkpt>
      <trkpt lat="36.77519" lon="-118.71149">
        <ele>2322.0</ele>
      </trkpt>
      <trkpt lat="36.77548" lon="-118.71139">
        <ele>2320.0</ele>
      </trkpt>
      <trkpt lat="36.77569" lon="-118.71126">
        <ele>2320.0</ele>
      </trkpt>
      <trkpt lat="36.77592" lon="-118.71084">
        <ele>2290.0</ele>
      </trkpt>
      <trkpt lat="36.77615" lon="-118.7106">
        <ele>2284.0</ele>
      </trkpt>
      <trkpt lat="36.77632" lon="-118.71052">
        <ele>2290.0</ele>
      </trkpt>
      <trkpt lat="36.77664" lon="-118.71057">
        <ele>2293.0</ele>
      </trkpt>
      <trkpt lat="36.77683" lon="-118.71064">
        <ele>2296.0</ele>
      </trkpt>
      <trkpt lat="36.77685" lon="-118.71059">
        <ele>2296.0</ele>
      </trkpt>
      <trkpt lat="36.77713" lon="-118.71036">
        <ele>2283.0</ele>
      </trkpt>
      <trkpt lat="36.7772" lon="-118.71022">
        <ele>2283.0</ele>
      </trkpt>
      <trkpt lat="36.77732" lon="-118.71009">
        <ele>2272.0</ele>
      </trkpt>
      <trkpt lat="36.77747" lon="-118.70987">
        <ele>2277.0</ele>
      </trkpt>
      <trkpt lat="36.7776" lon="-118.7099">
        <ele>2277.0</ele>
      </trkpt>
      <trkpt lat="36.7777" lon="-118.70971">
        <ele>2275.0</ele>
      </trkpt>
      <trkpt lat="36.77777" lon="-118.70962">
        <ele>2275.0</ele>
      </trkpt>
      <trkpt lat="36.77786" lon="-118.70954">
        <ele>2269.0</ele>
      </trkpt>
      <trkpt lat="36.77797" lon="-118.7095">
        <ele>2275.0</ele>
      </trkpt>
      <trkpt lat="36.77805" lon="-118.70941">
        <ele>2275.0</ele>
      </trkpt>
      <trkpt lat="36.77814" lon="-118.70904">
        <ele>2270.0</ele>
      </trkpt>
      <trkpt lat="36.77825" lon="-118.70886">
        <ele>2272.0</ele>
      </trkpt>
      <trkpt lat="36.77846" lon="-118.70857">
        <ele>2268.0</ele>
      </trkpt>
      <trkpt lat="36.77846" lon="-118.70848">
        <ele>2268.0</ele>
      </trkpt>
      <trkpt lat="36.77841" lon="-118.70829">
        <ele>2261.0</ele>
      </trkpt>
      <trkpt lat="36.77809" lon="-118.7078">
        <ele>2245.0</ele>
      </trkpt>
      <trkpt lat="36.77806" lon="-118.70763">
        <ele>2244.0</ele>
      </trkpt>
      <trkpt lat="36.77808" lon="-118.70721">
        <ele>2242.0</ele>
      </trkpt>
      <trkpt lat="36.77828" lon="-118.70702">
        <ele>2243.0</ele>
      </trkpt>
      <trkpt lat="36.77841" lon="-118.70674">
        <ele>2237.0</ele>
      </trkpt>
      <trkpt lat="36.77845" lon="-118.7066">
        <ele>2237.0</ele>
      </trkpt>
      <trkpt lat="36.77825" lon="-118.70606">
        <ele>2228.0</ele>
      </trkpt>
      <trkpt lat="36.77812" lon="-118.70557">
        <ele>2217.0</ele>
      </trkpt>
      <trkpt lat="36.7781" lon="-118.70535">
        <ele>2213.0</ele>
      </trkpt>
      <trkpt lat="36.77818" lon="-118.70483">
        <ele>2199.0</ele>
      </trkpt>
      <trkpt lat="36.77817" lon="-118.70474">
        <ele>2199.0</ele>
      </trkpt>
      <trkpt lat="36.77809" lon="-118.70476">
        <ele>2199.0</ele>
      </trkpt>
      <trkpt lat="36.77786" lon="-118.70494">
        <ele>2197.0</ele>
      </trkpt>
      <trkpt lat="36.7777" lon="-118.70501">
        <ele>2197.0</ele>
      </trkpt>
      <trkpt lat="36.77758" lon="-118.70526">
        <ele>2193.0</ele>
      </trkpt>
      <trkpt lat="36.77722" lon="-118.70564">
        <ele>2186.0</ele>
      </trkpt>
      <trkpt lat="36.77716" lon="-118.70583">
        <ele>2188.0</ele>
      </trkpt>
      <trkpt lat="36.77711" lon="-118.70604">
        <ele>2190.0</ele>
      </trkpt>
      <trkpt lat="36.77701" lon="-118.70621">
        <ele>2180.0</ele>
      </trkpt>
      <trkpt lat="36.77677" lon="-118.70634">
        <ele>2176.0</ele>
      </trkpt>
      <trkpt lat="36.77644" lon="-118.70632">
        <ele>2171.0</ele>
      </trkpt>
      <trkpt lat="36.77635" lon="-118.70643">
        <ele>2171.0</ele>
      </trkpt>
      <trkpt lat="36.7762" lon="-118.7067">
        <ele>2173.0</ele>
      </trkpt>
      <trkpt lat="36.77611" lon="-118.70673">
        <ele>2173.0</ele>
      </trkpt>
      <trkpt lat="36.77596" lon="-118.70671">
        <ele>2170.0</ele>
      </trkpt>
      <trkpt lat="36.77579" lon="-118.70663">
        <ele>2170.0</ele>
      </trkpt>
      <trkpt lat="36.77546" lon="-118.70629">
        <ele>2165.0</ele>
      </trkpt>
      <trkpt lat="36.77518" lon="-118.70604">
        <ele>2167.0</ele>
      </trkpt>
      <trkpt lat="36.77501" lon="-118.7055">
        <ele>2164.0</ele>
      </trkpt>
      <trkpt lat="36.77497" lon="-118.70513">
        <ele>2156.0</ele>
      </trkpt>
      <trkpt lat="36.77499" lon="-118.70495">
        <ele>2156.0</ele>
      </trkpt>
      <trkpt lat="36.77504" lon="-118.7048">
        <ele>2152.0</ele>
      </trkpt>
      <trkpt lat="36.77521" lon="-118.70464">
        <ele>2153.0</ele>
      </trkpt>
      <trkpt lat="36.77548" lon="-118.70463">
        <ele>2156.0</ele>
      </trkpt>
      <trkpt lat="36.77555" lon="-118.70458">
        <ele>2155.0</ele>
      </trkpt>
      <trkpt lat="36.7756" lon="-118.70446">
        <ele>2155.0</ele>
      </trkpt>
      <trkpt lat="36.77555" lon="-118.70416">
        <ele>2146.0</ele>
      </trkpt>
      <trkpt lat="36.77556" lon="-118.70395">
        <ele>2142.0</ele>
      </trkpt>
      <trkpt lat="36.77549" lon="-118.70379">
        <ele>2142.0</ele>
      </trkpt>
      <trkpt lat="36.7755" lon="-118.70365">
        <ele>2144.0</ele>
      </trkpt>
      <trkpt lat="36.77544" lon="-118.70335">
        <ele>2145.0</ele>
      </trkpt>
      <trkpt lat="36.77559" lon="-118.70314">
        <ele>2148.0</ele>
      </trkpt>
      <trkpt lat="36.77571" lon="-118.70279">
        <ele>2148.0</ele>
      </trkpt>
      <trkpt lat="36.77584" lon="-118.70259">
        <ele>2150.0</ele>
      </trkpt>
      <trkpt lat="36.77596" lon="-118.70248">
        <ele>2150.0</ele>
      </trkpt>
      <trkpt lat="36.77643" lon="-118.7022">
        <ele>2143.0</ele>
      </trkpt>
      <trkpt lat="36.77658" lon="-118.70208">
        <ele>2138.0</ele>
      </trkpt>
      <trkpt lat="36.77674" lon="-118.70175">
        <ele>2139.0</ele>
      </trkpt>
      <trkpt lat="36.77676" lon="-118.70146">
        <ele>2140.0</ele>
      </trkpt>
      <trkpt lat="36.77687" lon="-118.7009">
        <ele>2136.0</ele>
      </trkpt>
      <trkpt lat="36.777" lon="-118.7005">
        <ele>2136.0</ele>
      </trkpt>
      <trkpt lat="36.77705" lon="-118.70013">
        <ele>2129.0</ele>
      </trkpt>
      <trkpt lat="36.77698" lon="-118.69956">
        <ele>2121.0</ele>
      </trkpt>
      <trkpt lat="36.77706" lon="-118.69918">
        <ele>2110.0</ele>
      </trkpt>
      <trkpt lat="36.77705" lon="-118.69898">
        <ele>2100.0</ele>
      </trkpt>
      <trkpt lat="36.77695244724539" lon="-118.6988147575789">
        <ele>2100.0</ele>
      </trkpt>
      <trkpt lat="36.77695244749513" lon="-118.6988147575789">
        <ele>2100.0</ele>
      </trkpt>
      <trkpt lat="36.77656" lon="-118.69815">
        <ele>2088.0</ele>
      </trkpt>
      <trkpt lat="36.77641" lon="-118.69794">
        <ele>2094.0</ele>
      </trkpt>
      <trkpt lat="36.77638" lon="-118.69782">
        <ele>2092.0</ele>
      </trkpt>
      <trkpt lat="36.77639" lon="-118.69774">
        <ele>2092.0</ele>
      </trkpt>
      <trkpt lat="36.77647" lon="-118.69762">
        <ele>2093.0</ele>
      </trkpt>
      <trkpt lat="36.77661" lon="-118.69754">
        <ele>2088.0</ele>
      </trkpt>
      <trkpt lat="36.7768" lon="-118.69735">
        <ele>2090.0</ele>
      </trkpt>
      <trkpt lat="36.7771" lon="-118.69701">
        <ele>2059.0</ele>
      </trkpt>
      <trkpt lat="36.77718" lon="-118.69682">
        <ele>2059.0</ele>
      </trkpt>
      <trkpt lat="36.77715" lon="-118.69665">
        <ele>2058.0</ele>
      </trkpt>
      <trkpt lat="36.77705" lon="-118.69636">
        <ele>2077.0</ele>
      </trkpt>
      <trkpt lat="36.7771" lon="-118.69629">
        <ele>2062.0</ele>
      </trkpt>
      <trkpt lat="36.7771" lon="-118.69629">
        <ele>2062.0</ele>
      </trkpt>
      <trkpt lat="36.77716" lon="-118.69621">
        <ele>2061.0</ele>
      </trkpt>
      <trkpt lat="36.77726" lon="-118.69575">
        <ele>2062.0</ele>
      </trkpt>
      <trkpt lat="36.7775" lon="-118.69534">
        <ele>2048.0</ele>
      </trkpt>
      <trkpt lat="36.77746" lon="-118.69508">
        <ele>2051.0</ele>
      </trkpt>
      <trkpt lat="36.77771" lon="-118.69486">
        <ele>2040.0</ele>
      </trkpt>
      <trkpt lat="36.77788" lon="-118.69456">
        <ele>2044.0</ele>
      </trkpt>
      <trkpt lat="36.778" lon="-118.69412">
        <ele>2031.0</ele>
      </trkpt>
      <trkpt lat="36.77828" lon="-118.69362">
        <ele>2009.0</ele>
      </trkpt>
      <trkpt lat="36.77844" lon="-118.69324">
        <ele>2012.0</ele>
      </trkpt>
      <trkpt lat="36.77851" lon="-118.6928">
        <ele>1984.0</ele>
      </trkpt>
      <trkpt lat="36.77846" lon="-118.69233">
        <ele>1999.0</ele>
      </trkpt>
      <trkpt lat="36.77847" lon="-118.69207">
        <ele>1994.0</ele>
      </trkpt>
      <trkpt lat="36.77844" lon="-118.69181">
        <ele>1994.0</ele>
      </trkpt>
      <trkpt lat="36.77846" lon="-118.69161">
        <ele>1989.0</ele>
      </trkpt>
      <trkpt lat="36.77852" lon="-118.6914">
        <ele>1968.0</ele>
      </trkpt>
      <trkpt lat="36.77852" lon="-118.69107">
        <ele>1964.0</ele>
      </trkpt>
      <trkpt lat="36.77846" lon="-118.69091">
        <ele>1967.0</ele>
      </trkpt>
      <trkpt lat="36.77827" lon="-118.69075">
        <ele>1967.0</ele>
      </trkpt>
      <trkpt lat="36.77813" lon="-118.69057">
        <ele>1965.0</ele>
      </trkpt>
      <trkpt lat="36.77798" lon="-118.69046">
        <ele>1965.0</ele>
      </trkpt>
      <trkpt lat="36.77778" lon="-118.69038">
        <ele>1965.0</ele>
      </trkpt>
      <trkpt lat="36.7777" lon="-118.69027">
        <ele>1965.0</ele>
      </trkpt>
      <trkpt lat="36.77764" lon="-118.69005">
        <ele>1962.0</ele>
      </trkpt>
      <trkpt lat="36.77765" lon="-118.68988">
        <ele>1962.0</ele>
      </trkpt>
      <trkpt lat="36.77775" lon="-118.68985">
        <ele>1964.0</ele>
      </trkpt>
      <trkpt lat="36.77826" lon="-118.68982">
        <ele>1942.0</ele>
      </trkpt>
      <trkpt lat="36.77838" lon="-118.68974">
        <ele>1942.0</ele>
      </trkpt>
      <trkpt lat="36.77854" lon="-118.68975">
        <ele>1932.0</ele>
      </trkpt>
      <trkpt lat="36.77867" lon="-118.68961">
        <ele>1932.0</ele>
      </trkpt>
      <trkpt lat="36.77908" lon="-118.68948">
        <ele>1921.0</ele>
      </trkpt>
      <trkpt lat="36.7794" lon="-118.68919">
        <ele>1908.0</ele>
      </trkpt>
      <trkpt lat="36.77948" lon="-118.68908">
        <ele>1908.0</ele>
      </trkpt>
      <trkpt lat="36.77948" lon="-118.68898">
        <ele>1903.0</ele>
      </trkpt>
      <trkpt lat="36.77936" lon="-118.68886">
        <ele>1903.0</ele>
      </trkpt>
      <trkpt lat="36.77919" lon="-118.68881">
        <ele>1906.0</ele>
      </trkpt>
      <trkpt lat="36.77902" lon="-118.68867">
        <ele>1909.0</ele>
      </trkpt>
      <trkpt lat="36.77896" lon="-118.68856">
        <ele>1909.0</ele>
      </trkpt>
      <trkpt lat="36.77901" lon="-118.68852">
        <ele>1909.0</ele>
      </trkpt>
      <trkpt lat="36.77922" lon="-118.68849">
        <ele>1899.0</ele>
      </trkpt>
      <trkpt lat="36.77974" lon="-118.68799">
        <ele>1884.0</ele>
      </trkpt>
      <trkpt lat="36.77988" lon="-118.68769">
        <ele>1877.0</ele>
      </trkpt>
      <trkpt lat="36.78002" lon="-118.68756">
        <ele>1869.0</ele>
      </trkpt>
      <trkpt lat="36.78013" lon="-118.68738">
        <ele>1869.0</ele>
      </trkpt>
      <trkpt lat="36.7801" lon="-118.68731">
        <ele>1860.0</ele>
      </trkpt>
      <trkpt lat="36.77993" lon="-118.68723">
        <ele>1860.0</ele>
      </trkpt>
      <trkpt lat="36.77969" lon="-118.68722">
        <ele>1865.0</ele>
      </trkpt>
      <trkpt lat="36.77959" lon="-118.6873">
        <ele>1865.0</ele>
      </trkpt>
      <trkpt lat="36.77954" lon="-118.68728">
        <ele>1877.0</ele>
      </trkpt>
      <trkpt lat="36.77953" lon="-118.68717">
        <ele>1877.0</ele>
      </trkpt>
      <trkpt lat="36.77965" lon="-118.68675">
        <ele>1851.0</ele>
      </trkpt>
      <trkpt lat="36.77961" lon="-118.68662">
        <ele>1851.0</ele>
      </trkpt>
      <trkpt lat="36.77952" lon="-118.68641">
        <ele>1857.0</ele>
      </trkpt>
      <trkpt lat="36.77943" lon="-118.68625">
        <ele>1850.0</ele>
      </trkpt>
      <trkpt lat="36.77921" lon="-118.68603">
        <ele>1865.0</ele>
      </trkpt>
      <trkpt lat="36.77894" lon="-118.68519">
        <ele>1849.0</ele>
      </trkpt>
      <trkpt lat="36.77879" lon="-118.68487">
        <ele>1842.0</ele>
      </trkpt>
      <trkpt lat="36.77855" lon="-118.68457">
        <ele>1816.0</ele>
      </trkpt>
      <trkpt lat="36.77814" lon="-118.68436">
        <ele>1812.0</ele>
      </trkpt>
      <trkpt lat="36.77706" lon="-118.68444">
        <ele>1802.0</ele>
      </trkpt>
      <trkpt lat="36.77696" lon="-118.68442">
        <ele>1802.0</ele>
      </trkpt>
      <trkpt lat="36.77698" lon="-118.68436">
        <ele>1802.0</ele>
      </trkpt>
      <trkpt lat="36.77737" lon="-118.68405">
        <ele>1800.0</ele>
      </trkpt>
      <trkpt lat="36.77752" lon="-118.68389">
        <ele>1792.0</ele>
      </trkpt>
      <trkpt lat="36.77774" lon="-118.68372">
        <ele>1779.0</ele>
      </trkpt>
      <trkpt lat="36.77788" lon="-118.68356">
        <ele>1779.0</ele>
      </trkpt>
      <trkpt lat="36.77798" lon="-118.68351">
        <ele>1779.0</ele>
      </trkpt>
      <trkpt lat="36.77823" lon="-118.68327">
        <ele>1769.0</ele>
      </trkpt>
      <trkpt lat="36.7786" lon="-118.6832">
        <ele>1769.0</ele>
      </trkpt>
      <trkpt lat="36.77877" lon="-118.68312">
        <ele>1756.0</ele>
      </trkpt>
      <trkpt lat="36.77929" lon="-118.68312">
        <ele>1753.0</ele>
      </trkpt>
      <trkpt lat="36.77941" lon="-118.68318">
        <ele>1751.0</ele>
      </trkpt>
      <trkpt lat="36.77948" lon="-118.68318">
        <ele>1751.0</ele>
      </trkpt>
      <trkpt lat="36.7796" lon="-118.68312">
        <ele>1746.0</ele>
      </trkpt>
      <trkpt lat="36.7798" lon="-118.68311">
        <ele>1746.0</ele>
      </trkpt>
      <trkpt lat="36.77988" lon="-118.68315">
        <ele>1739.0</ele>
      </trkpt>
      <trkpt lat="36.77991" lon="-118.68312">
        <ele>1739.0</ele>
      </trkpt>
      <trkpt lat="36.77992" lon="-118.68305">
        <ele>1739.0</ele>
      </trkpt>
      <trkpt lat="36.77982" lon="-118.68296">
        <ele>1746.0</ele>
      </trkpt>
      <trkpt lat="36.77958" lon="-118.68289">
        <ele>1738.0</ele>
      </trkpt>
      <trkpt lat="36.77951" lon="-118.68283">
        <ele>1738.0</ele>
      </trkpt>
      <trkpt lat="36.77944" lon="-118.68271">
        <ele>1738.0</ele>
      </trkpt>
      <trkpt lat="36.77934" lon="-118.68266">
        <ele>1738.0</ele>
      </trkpt>
      <trkpt lat="36.77918" lon="-118.68246">
        <ele>1727.0</ele>
      </trkpt>
      <trkpt lat="36.77911" lon="-118.68245">
        <ele>1727.0</ele>
      </trkpt>
      <trkpt lat="36.77909" lon="-118.68238">
        <ele>1727.0</ele>
      </trkpt>
      <trkpt lat="36.77916" lon="-118.68234">
        <ele>1715.0</ele>
      </trkpt>
      <trkpt lat="36.77933" lon="-118.68235">
        <ele>1713.0</ele>
      </trkpt>
      <trkpt lat="36.77946" lon="-118.68239">
        <ele>1727.0</ele>
      </trkpt>
      <trkpt lat="36.77954" lon="-118.68245">
        <ele>1727.0</ele>
      </trkpt>
      <trkpt lat="36.77964" lon="-118.68247">
        <ele>1723.0</ele>
      </trkpt>
      <trkpt lat="36.77975" lon="-118.68238">
        <ele>1723.0</ele>
      </trkpt>
      <trkpt lat="36.77987" lon="-118.68234">
        <ele>1710.0</ele>
      </trkpt>
      <trkpt lat="36.78022" lon="-118.68209">
        <ele>1707.0</ele>
      </trkpt>
      <trkpt lat="36.78033" lon="-118.68214">
        <ele>1707.0</ele>
      </trkpt>
      <trkpt lat="36.78036" lon="-118.6822">
        <ele>1707.0</ele>
      </trkpt>
      <trkpt lat="36.78036" lon="-118.68232">
        <ele>1707.0</ele>
      </trkpt>
      <trkpt lat="36.78039" lon="-118.68236">
        <ele>1707.0</ele>
      </trkpt>
      <trkpt lat="36.78046" lon="-118.68236">
        <ele>1705.0</ele>
      </trkpt>
      <trkpt lat="36.78068" lon="-118.6821">
        <ele>1705.0</ele>
      </trkpt>
      <trkpt lat="36.78078" lon="-118.68192">
        <ele>1696.0</ele>
      </trkpt>
      <trkpt lat="36.78102" lon="-118.68186">
        <ele>1693.0</ele>
      </trkpt>
      <trkpt lat="36.78133" lon="-118.68151">
        <ele>1676.0</ele>
      </trkpt>
      <trkpt lat="36.78153" lon="-118.68139">
        <ele>1678.0</ele>
      </trkpt>
      <trkpt lat="36.78171" lon="-118.68121">
        <ele>1664.0</ele>
      </trkpt>
      <trkpt lat="36.78181" lon="-118.68119">
        <ele>1663.0</ele>
      </trkpt>
      <trkpt lat="36.78201" lon="-118.68118">
        <ele>1663.0</ele>
      </trkpt>
      <trkpt lat="36.78229" lon="-118.68114">
        <ele>1664.0</ele>
      </trkpt>
      <trkpt lat="36.78276" lon="-118.68118">
        <ele>1656.0</ele>
      </trkpt>
      <trkpt lat="36.78306" lon="-118.68131">
        <ele>1655.0</ele>
      </trkpt>
      <trkpt lat="36.78325" lon="-118.68148">
        <ele>1643.0</ele>
      </trkpt>
      <trkpt lat="36.7833" lon="-118.68155">
        <ele>1648.0</ele>
      </trkpt>
      <trkpt lat="36.78334" lon="-118.68156">
        <ele>1648.0</ele>
      </trkpt>
      <trkpt lat="36.78335" lon="-118.68151">
        <ele>1643.0</ele>
      </trkpt>
      <trkpt lat="36.78327" lon="-118.68123">
        <ele>1638.0</ele>
      </trkpt>
      <trkpt lat="36.78324" lon="-118.68102">
        <ele>1638.0</ele>
      </trkpt>
      <trkpt lat="36.78319" lon="-118.68093">
        <ele>1638.0</ele>
      </trkpt>
      <trkpt lat="36.78309" lon="-118.68087">
        <ele>1638.0</ele>
      </trkpt>
      <trkpt lat="36.78285" lon="-118.6806">
        <ele>1633.0</ele>
      </trkpt>
      <trkpt lat="36.78286" lon="-118.68058">
        <ele>1633.0</ele>
      </trkpt>
      <trkpt lat="36.78299" lon="-118.68059">
        <ele>1626.0</ele>
      </trkpt>
      <trkpt lat="36.78352" lon="-118.68076">
        <ele>1622.0</ele>
      </trkpt>
      <trkpt lat="36.78357" lon="-118.68081">
        <ele>1622.0</ele>
      </trkpt>
      <trkpt lat="36.78358" lon="-118.68091">
        <ele>1622.0</ele>
      </trkpt>
      <trkpt lat="36.78365" lon="-118.68098">
        <ele>1624.0</ele>
      </trkpt>
      <trkpt lat="36.78369" lon="-118.68094">
        <ele>1622.0</ele>
      </trkpt>
      <trkpt lat="36.78367" lon="-118.68083">
        <ele>1622.0</ele>
      </trkpt>
      <trkpt lat="36.78361" lon="-118.68066">
        <ele>1614.0</ele>
      </trkpt>
      <trkpt lat="36.78345" lon="-118.68038">
        <ele>1611.0</ele>
      </trkpt>
      <trkpt lat="36.78336" lon="-118.6803">
        <ele>1611.0</ele>
      </trkpt>
      <trkpt lat="36.78318" lon="-118.68028">
        <ele>1615.0</ele>
      </trkpt>
      <trkpt lat="36.78298" lon="-118.67996">
        <ele>1607.0</ele>
      </trkpt>
      <trkpt lat="36.78273" lon="-118.67998">
        <ele>1612.0</ele>
      </trkpt>
      <trkpt lat="36.78269" lon="-118.67995">
        <ele>1612.0</ele>
      </trkpt>
      <trkpt lat="36.78271" lon="-118.6798">
        <ele>1611.0</ele>
      </trkpt>
      <trkpt lat="36.78287" lon="-118.67969">
        <ele>1611.0</ele>
      </trkpt>
      <trkpt lat="36.78315" lon="-118.67964">
        <ele>1603.0</ele>
      </trkpt>
      <trkpt lat="36.78372" lon="-118.6793">
        <ele>1595.0</ele>
      </trkpt>
      <trkpt lat="36.78388" lon="-118.67897">
        <ele>1586.0</ele>
      </trkpt>
      <trkpt lat="36.7839" lon="-118.67878">
        <ele>1586.0</ele>
      </trkpt>
      <trkpt lat="36.78399" lon="-118.67854">
        <ele>1590.0</ele>
      </trkpt>
      <trkpt lat="36.78412" lon="-118.67803">
        <ele>1574.0</ele>
      </trkpt>
      <trkpt lat="36.78412" lon="-118.6779">
        <ele>1577.0</ele>
      </trkpt>
      <trkpt lat="36.78409" lon="-118.67783">
        <ele>1577.0</ele>
      </trkpt>
      <trkpt lat="36.78408" lon="-118.67776">
        <ele>1577.0</ele>
      </trkpt>
      <trkpt lat="36.78428" lon="-118.67756">
        <ele>1580.0</ele>
      </trkpt>
      <trkpt lat="36.78435" lon="-118.67742">
        <ele>1566.0</ele>
      </trkpt>
      <trkpt lat="36.78441" lon="-118.67714">
        <ele>1568.0</ele>
      </trkpt>
      <trkpt lat="36.78459" lon="-118.67681">
        <ele>1558.0</ele>
      </trkpt>
      <trkpt lat="36.78469" lon="-118.67651">
        <ele>1570.0</ele>
      </trkpt>
      <trkpt lat="36.78481" lon="-118.67635">
        <ele>1570.0</ele>
      </trkpt>
      <trkpt lat="36.78491" lon="-118.67628">
        <ele>1562.0</ele>
      </trkpt>
      <trkpt lat="36.78503" lon="-118.67626">
        <ele>1562.0</ele>
      </trkpt>
      <trkpt lat="36.78527" lon="-118.67597">
        <ele>1569.0</ele>
      </trkpt>
      <trkpt lat="36.78552" lon="-118.67587">
        <ele>1562.0</ele>
      </trkpt>
      <trkpt lat="36.78565" lon="-118.67577">
        <ele>1562.0</ele>
      </trkpt>
      <trkpt lat="36.78582" lon="-118.67558">
        <ele>1547.0</ele>
      </trkpt>
      <trkpt lat="36.78613" lon="-118.67477">
        <ele>1532.0</ele>
      </trkpt>
      <trkpt lat="36.78612" lon="-118.67467">
        <ele>1532.0</ele>
      </trkpt>
      <trkpt lat="36.78597" lon="-118.67449">
        <ele>1548.0</ele>
      </trkpt>
      <trkpt lat="36.78602" lon="-118.67438">
        <ele>1534.0</ele>
      </trkpt>
      <trkpt lat="36.78613" lon="-118.67432">
        <ele>1534.0</ele>
      </trkpt>
      <trkpt lat="36.78613" lon="-118.67432">
        <ele>1534.0</ele>
      </trkpt>
      <trkpt lat="36.78643" lon="-118.67412">
        <ele>1524.0</ele>
      </trkpt>
      <trkpt lat="36.78659" lon="-118.67387">
        <ele>1519.0</ele>
      </trkpt>
      <trkpt lat="36.78669" lon="-118.67344">
        <ele>1519.0</ele>
      </trkpt>
      <trkpt lat="36.78679" lon="-118.67334">
        <ele>1519.0</ele>
      </trkpt>
      <trkpt lat="36.78707" lon="-118.6732">
        <ele>1511.0</ele>
      </trkpt>
      <trkpt lat="36.78724773986048" lon="-118.6730303376629">
        <ele>1498.0</ele>
      </trkpt>
      <trkpt lat="36.78724773986048" lon="-118.6730303376629">
        <ele>1498.0</ele>
      </trkpt>
      <trkpt lat="36.78729" lon="-118.67299">
        <ele>1498.0</ele>
      </trkpt>
      <trkpt lat="36.78733" lon="-118.67268">
        <ele>1495.0</ele>
      </trkpt>
      <trkpt lat="36.7875" lon="-118.6724">
        <ele>1485.0</ele>
      </trkpt>
      <trkpt lat="36.78741" lon="-118.67209">
        <ele>1483.0</ele>
      </trkpt>
      <trkpt lat="36.78742" lon="-118.67158">
        <ele>1480.0</ele>
      </trkpt>
      <trkpt lat="36.78727" lon="-118.67084">
        <ele>1476.0</ele>
      </trkpt>
      <trkpt lat="36.78726" lon="-118.67063">
        <ele>1473.0</ele>
      </trkpt>
      <trkpt lat="36.78737" lon="-118.67032">
        <ele>1462.0</ele>
      </trkpt>
      <trkpt lat="36.78749" lon="-118.67009">
        <ele>1464.0</ele>
      </trkpt>
      <trkpt lat="36.78759" lon="-118.66998">
        <ele>1464.0</ele>
      </trkpt>
      <trkpt lat="36.78772" lon="-118.66993">
        <ele>1452.0</ele>
      </trkpt>
      <trkpt lat="36.78791" lon="-118.66992">
        <ele>1452.0</ele>
      </trkpt>
      <trkpt lat="36.78808908065659" lon="-118.670082186255">
        <ele>1446.0</ele>
      </trkpt>
      <trkpt lat="36.78808908106667" lon="-118.670082186255">
        <ele>1446.0</ele>
      </trkpt>
      <trkpt lat="36.78844" lon="-118.6704">
        <ele>1438.0</ele>
      </trkpt>
      <trkpt lat="36.78857" lon="-118.67045">
        <ele>1434.0</ele>
      </trkpt>
      <trkpt lat="36.78869" lon="-118.67045">
        <ele>1434.0</ele>
      </trkpt>
      <trkpt lat="36.78869" lon="-118.67045">
        <ele>1434.0</ele>
      </trkpt>
      <trkpt lat="36.78884" lon="-118.6704">
        <ele>1430.0</ele>
      </trkpt>
      <trkpt lat="36.78915" lon="-118.67053">
        <ele>1434.0</ele>
      </trkpt>
      <trkpt lat="36.78927540999538" lon="-118.6704941685727">
        <ele>1434.0</ele>
      </trkpt>
      <trkpt lat="36.78929807559281" lon="-118.6704697472969">
        <ele>1434.0</ele>
      </trkpt>
      <trkpt lat="36.78930294990574" lon="-118.6704837967871">
        <ele>1434.0</ele>
      </trkpt>
      <trkpt lat="36.78930822013427" lon="-118.6704989874458">
        <ele>1430.0</ele>
      </trkpt>
      <trkpt lat="36.78943" lon="-118.67085">
        <ele>1432.0</ele>
      </trkpt>
      <trkpt lat="36.78953" lon="-118.67089">
        <ele>1432.0</ele>
      </trkpt>
      <trkpt lat="36.78973" lon="-118.67111">
        <ele>1424.0</ele>
      </trkpt>
      <trkpt lat="36.78985200076157" lon="-118.6711155465772">
        <ele>1424.0</ele>
      </trkpt>
      <trkpt lat="36.78985200076157" lon="-118.6711155465772">
        <ele>1424.0</ele>
      </trkpt>
      <trkpt lat="36.78992" lon="-118.67002">
        <ele>1415.0</ele>
      </trkpt>
      <trkpt lat="36.78992" lon="-118.67002">
        <ele>1415.0</ele>
      </trkpt>
      <trkpt lat="36.78996" lon="-118.66954">
        <ele>1415.0</ele>
      </trkpt>
      <trkpt lat="36.78996" lon="-118.66954">
        <ele>1415.0</ele>
      </trkpt>
      <trkpt lat="36.79001" lon="-118.66908">
        <ele>1416.0</ele>
      </trkpt>
      <trkpt lat="36.7900161435339" lon="-118.6690615693983">
        <ele>1416.0</ele>
      </trkpt>
      <trkpt lat="36.79003237454347" lon="-118.6690700054169">
        <ele>1416.0</ele>
      </trkpt>
    </trkseg>
  </trk>
</gpx>
