<?xml version="1.0" encoding="UTF-8"?>
<gpx xmlns:xsi="http://www.w3.org/2001/XMLSchema-instance" version="1.1" creator="The Outbound Collective, Inc. 1.1.1 -- https://www.theoutbound.com" xsi:schemaLocation="http://www.topografix.com/GPX/1/1 http://www.topografix.com/GPX/1/1/gpx.xsd">
  <metadata>
    <name/>
    <time>2026-02-19T21:55:50+00:00</time>
    <bound minlat="36.78852" minlon="-118.58405" maxlat="36.813304658" maxlon="-118.54629"/>
  </metadata>
  <trk>
    <name/>
    <trkseg>
      <trkpt lat="36.794474327" lon="-118.584022522">
        <ele>1554.0</ele>
      </trkpt>
      <trkpt lat="36.794489025" lon="-118.58399155">
        <ele>1554.0</ele>
      </trkpt>
      <trkpt lat="36.79439" lon="-118.58391">
        <ele>1554.0</ele>
      </trkpt>
      <trkpt lat="36.79436" lon="-118.58368">
        <ele>1554.0</ele>
      </trkpt>
      <trkpt lat="36.79438" lon="-118.58341">
        <ele>1557.0</ele>
      </trkpt>
      <trkpt lat="36.79447" lon="-118.58312">
        <ele>1561.0</ele>
      </trkpt>
      <trkpt lat="36.79457" lon="-118.58297">
        <ele>1561.0</ele>
      </trkpt>
      <trkpt lat="36.794651132" lon="-118.58294566">
        <ele>1555.0</ele>
      </trkpt>
      <trkpt lat="36.79462" lon="-118.58216">
        <ele>1550.0</ele>
      </trkpt>
      <trkpt lat="36.79447" lon="-118.58168">
        <ele>1554.0</ele>
      </trkpt>
      <trkpt lat="36.79451" lon="-118.58138">
        <ele>1558.0</ele>
      </trkpt>
      <trkpt lat="36.79449" lon="-118.58087">
        <ele>1560.0</ele>
      </trkpt>
      <trkpt lat="36.79458" lon="-118.57983">
        <ele>1562.0</ele>
      </trkpt>
      <trkpt lat="36.79456" lon="-118.57963">
        <ele>1562.0</ele>
      </trkpt>
      <trkpt lat="36.79491" lon="-118.57895">
        <ele>1557.0</ele>
      </trkpt>
      <trkpt lat="36.79502" lon="-118.57891">
        <ele>1557.0</ele>
      </trkpt>
      <trkpt lat="36.79516" lon="-118.57874">
        <ele>1556.0</ele>
      </trkpt>
      <trkpt lat="36.79537" lon="-118.57805">
        <ele>1557.0</ele>
      </trkpt>
      <trkpt lat="36.79538" lon="-118.5778">
        <ele>1555.0</ele>
      </trkpt>
      <trkpt lat="36.79545" lon="-118.57765">
        <ele>1545.0</ele>
      </trkpt>
      <trkpt lat="36.79554" lon="-118.57694">
        <ele>1541.0</ele>
      </trkpt>
      <trkpt lat="36.79552" lon="-118.57669">
        <ele>1543.0</ele>
      </trkpt>
      <trkpt lat="36.79558" lon="-118.57649">
        <ele>1546.0</ele>
      </trkpt>
      <trkpt lat="36.79559" lon="-118.57633">
        <ele>1546.0</ele>
      </trkpt>
      <trkpt lat="36.79534" lon="-118.57573">
        <ele>1549.0</ele>
      </trkpt>
      <trkpt lat="36.79532" lon="-118.57562">
        <ele>1549.0</ele>
      </trkpt>
      <trkpt lat="36.79519" lon="-118.57431">
        <ele>1553.0</ele>
      </trkpt>
      <trkpt lat="36.79489" lon="-118.57345">
        <ele>1564.0</ele>
      </trkpt>
      <trkpt lat="36.7947" lon="-118.57312">
        <ele>1561.0</ele>
      </trkpt>
      <trkpt lat="36.79466" lon="-118.57282">
        <ele>1560.0</ele>
      </trkpt>
      <trkpt lat="36.79449" lon="-118.57227">
        <ele>1551.0</ele>
      </trkpt>
      <trkpt lat="36.79435" lon="-118.572">
        <ele>1553.0</ele>
      </trkpt>
      <trkpt lat="36.79398" lon="-118.57156">
        <ele>1545.0</ele>
      </trkpt>
      <trkpt lat="36.79328" lon="-118.57062">
        <ele>1558.0</ele>
      </trkpt>
      <trkpt lat="36.79289" lon="-118.57031">
        <ele>1544.0</ele>
      </trkpt>
      <trkpt lat="36.79257" lon="-118.56988">
        <ele>1544.0</ele>
      </trkpt>
      <trkpt lat="36.79228" lon="-118.5694">
        <ele>1548.0</ele>
      </trkpt>
      <trkpt lat="36.79211" lon="-118.569">
        <ele>1554.0</ele>
      </trkpt>
      <trkpt lat="36.79195" lon="-118.56874">
        <ele>1558.0</ele>
      </trkpt>
      <trkpt lat="36.79179" lon="-118.56824">
        <ele>1564.0</ele>
      </trkpt>
      <trkpt lat="36.79154" lon="-118.56787">
        <ele>1560.0</ele>
      </trkpt>
      <trkpt lat="36.79089" lon="-118.56712">
        <ele>1553.0</ele>
      </trkpt>
      <trkpt lat="36.79069" lon="-118.56676">
        <ele>1548.0</ele>
      </trkpt>
      <trkpt lat="36.79037" lon="-118.56593">
        <ele>1548.0</ele>
      </trkpt>
      <trkpt lat="36.79013" lon="-118.56544">
        <ele>1552.0</ele>
      </trkpt>
      <trkpt lat="36.79003" lon="-118.56528">
        <ele>1553.0</ele>
      </trkpt>
      <trkpt lat="36.78976" lon="-118.56514">
        <ele>1551.0</ele>
      </trkpt>
      <trkpt lat="36.78958" lon="-118.56471">
        <ele>1550.0</ele>
      </trkpt>
      <trkpt lat="36.78921" lon="-118.56405">
        <ele>1555.0</ele>
      </trkpt>
      <trkpt lat="36.78896" lon="-118.56371">
        <ele>1557.0</ele>
      </trkpt>
      <trkpt lat="36.78878" lon="-118.56322">
        <ele>1555.0</ele>
      </trkpt>
      <trkpt lat="36.78871" lon="-118.56283">
        <ele>1558.0</ele>
      </trkpt>
      <trkpt lat="36.78878" lon="-118.56193">
        <ele>1559.0</ele>
      </trkpt>
      <trkpt lat="36.78869" lon="-118.5616">
        <ele>1561.0</ele>
      </trkpt>
      <trkpt lat="36.78868" lon="-118.56116">
        <ele>1562.0</ele>
      </trkpt>
      <trkpt lat="36.7888" lon="-118.56042">
        <ele>1562.0</ele>
      </trkpt>
      <trkpt lat="36.789" lon="-118.55983">
        <ele>1570.0</ele>
      </trkpt>
      <trkpt lat="36.78902" lon="-118.55966">
        <ele>1570.0</ele>
      </trkpt>
      <trkpt lat="36.78886" lon="-118.55955">
        <ele>1573.0</ele>
      </trkpt>
      <trkpt lat="36.78886" lon="-118.55935">
        <ele>1573.0</ele>
      </trkpt>
      <trkpt lat="36.78873" lon="-118.55897">
        <ele>1575.0</ele>
      </trkpt>
      <trkpt lat="36.7887" lon="-118.55838">
        <ele>1563.0</ele>
      </trkpt>
      <trkpt lat="36.78874" lon="-118.55779">
        <ele>1559.0</ele>
      </trkpt>
      <trkpt lat="36.78869" lon="-118.5574">
        <ele>1556.0</ele>
      </trkpt>
      <trkpt lat="36.78852" lon="-118.55675">
        <ele>1575.0</ele>
      </trkpt>
      <trkpt lat="36.78852" lon="-118.5558">
        <ele>1582.0</ele>
      </trkpt>
      <trkpt lat="36.78858" lon="-118.55559">
        <ele>1581.0</ele>
      </trkpt>
      <trkpt lat="36.78864" lon="-118.55503">
        <ele>1576.0</ele>
      </trkpt>
      <trkpt lat="36.78876" lon="-118.55448">
        <ele>1581.0</ele>
      </trkpt>
      <trkpt lat="36.78893" lon="-118.55415">
        <ele>1578.0</ele>
      </trkpt>
      <trkpt lat="36.789" lon="-118.55382">
        <ele>1577.0</ele>
      </trkpt>
      <trkpt lat="36.78915" lon="-118.55347">
        <ele>1573.0</ele>
      </trkpt>
      <trkpt lat="36.78924" lon="-118.55335">
        <ele>1573.0</ele>
      </trkpt>
      <trkpt lat="36.78929" lon="-118.55305">
        <ele>1573.0</ele>
      </trkpt>
      <trkpt lat="36.78929" lon="-118.55283">
        <ele>1569.0</ele>
      </trkpt>
      <trkpt lat="36.78951" lon="-118.55285">
        <ele>1567.0</ele>
      </trkpt>
      <trkpt lat="36.78957" lon="-118.55269">
        <ele>1567.0</ele>
      </trkpt>
      <trkpt lat="36.78958" lon="-118.5525">
        <ele>1572.0</ele>
      </trkpt>
      <trkpt lat="36.78968" lon="-118.55219">
        <ele>1581.0</ele>
      </trkpt>
      <trkpt lat="36.78967" lon="-118.55204">
        <ele>1586.0</ele>
      </trkpt>
      <trkpt lat="36.7896" lon="-118.55198">
        <ele>1586.0</ele>
      </trkpt>
      <trkpt lat="36.78963" lon="-118.55168">
        <ele>1586.0</ele>
      </trkpt>
      <trkpt lat="36.78985" lon="-118.55119">
        <ele>1579.0</ele>
      </trkpt>
      <trkpt lat="36.79" lon="-118.55095">
        <ele>1581.0</ele>
      </trkpt>
      <trkpt lat="36.79037" lon="-118.55072">
        <ele>1582.0</ele>
      </trkpt>
      <trkpt lat="36.79066" lon="-118.55025">
        <ele>1579.0</ele>
      </trkpt>
      <trkpt lat="36.79078" lon="-118.55025">
        <ele>1581.0</ele>
      </trkpt>
      <trkpt lat="36.79092" lon="-118.5499">
        <ele>1578.0</ele>
      </trkpt>
      <trkpt lat="36.79117" lon="-118.54975">
        <ele>1575.0</ele>
      </trkpt>
      <trkpt lat="36.79134" lon="-118.54952">
        <ele>1574.0</ele>
      </trkpt>
      <trkpt lat="36.79143" lon="-118.54946">
        <ele>1574.0</ele>
      </trkpt>
      <trkpt lat="36.79169" lon="-118.54943">
        <ele>1586.0</ele>
      </trkpt>
      <trkpt lat="36.79179" lon="-118.54929">
        <ele>1587.0</ele>
      </trkpt>
      <trkpt lat="36.79205" lon="-118.54925">
        <ele>1587.0</ele>
      </trkpt>
      <trkpt lat="36.79224" lon="-118.54917">
        <ele>1587.0</ele>
      </trkpt>
      <trkpt lat="36.79235" lon="-118.54907">
        <ele>1587.0</ele>
      </trkpt>
      <trkpt lat="36.79246" lon="-118.54907">
        <ele>1585.0</ele>
      </trkpt>
      <trkpt lat="36.79255" lon="-118.54899">
        <ele>1575.0</ele>
      </trkpt>
      <trkpt lat="36.7928" lon="-118.54892">
        <ele>1584.0</ele>
      </trkpt>
      <trkpt lat="36.79301" lon="-118.54901">
        <ele>1585.0</ele>
      </trkpt>
      <trkpt lat="36.79318" lon="-118.54897">
        <ele>1585.0</ele>
      </trkpt>
      <trkpt lat="36.79364" lon="-118.54902">
        <ele>1583.0</ele>
      </trkpt>
      <trkpt lat="36.79383" lon="-118.54898">
        <ele>1587.0</ele>
      </trkpt>
      <trkpt lat="36.79402" lon="-118.54903">
        <ele>1597.0</ele>
      </trkpt>
      <trkpt lat="36.79414" lon="-118.54896">
        <ele>1593.0</ele>
      </trkpt>
      <trkpt lat="36.79423" lon="-118.54905">
        <ele>1603.0</ele>
      </trkpt>
      <trkpt lat="36.7945" lon="-118.54906">
        <ele>1606.0</ele>
      </trkpt>
      <trkpt lat="36.79463" lon="-118.54894">
        <ele>1599.0</ele>
      </trkpt>
      <trkpt lat="36.79492" lon="-118.549">
        <ele>1602.0</ele>
      </trkpt>
      <trkpt lat="36.79523" lon="-118.54868">
        <ele>1602.0</ele>
      </trkpt>
      <trkpt lat="36.79532" lon="-118.54849">
        <ele>1602.0</ele>
      </trkpt>
      <trkpt lat="36.79545" lon="-118.54839">
        <ele>1593.0</ele>
      </trkpt>
      <trkpt lat="36.79552" lon="-118.54843">
        <ele>1593.0</ele>
      </trkpt>
      <trkpt lat="36.79568" lon="-118.54841">
        <ele>1593.0</ele>
      </trkpt>
      <trkpt lat="36.7962" lon="-118.5481">
        <ele>1594.0</ele>
      </trkpt>
      <trkpt lat="36.79641" lon="-118.54793">
        <ele>1598.0</ele>
      </trkpt>
      <trkpt lat="36.7967" lon="-118.54761">
        <ele>1592.0</ele>
      </trkpt>
      <trkpt lat="36.79679" lon="-118.54765">
        <ele>1597.0</ele>
      </trkpt>
      <trkpt lat="36.79816" lon="-118.54762">
        <ele>1602.0</ele>
      </trkpt>
      <trkpt lat="36.79841" lon="-118.54754">
        <ele>1601.0</ele>
      </trkpt>
      <trkpt lat="36.79859" lon="-118.54752">
        <ele>1594.0</ele>
      </trkpt>
      <trkpt lat="36.7989" lon="-118.54763">
        <ele>1594.0</ele>
      </trkpt>
      <trkpt lat="36.79908" lon="-118.54758">
        <ele>1595.0</ele>
      </trkpt>
      <trkpt lat="36.79926" lon="-118.54763">
        <ele>1595.0</ele>
      </trkpt>
      <trkpt lat="36.79968" lon="-118.54761">
        <ele>1596.0</ele>
      </trkpt>
      <trkpt lat="36.80006" lon="-118.54776">
        <ele>1602.0</ele>
      </trkpt>
      <trkpt lat="36.80066" lon="-118.54814">
        <ele>1603.0</ele>
      </trkpt>
      <trkpt lat="36.80093" lon="-118.54811">
        <ele>1603.0</ele>
      </trkpt>
      <trkpt lat="36.80129" lon="-118.54818">
        <ele>1602.0</ele>
      </trkpt>
      <trkpt lat="36.80188" lon="-118.54779">
        <ele>1615.0</ele>
      </trkpt>
      <trkpt lat="36.80201" lon="-118.5476">
        <ele>1614.0</ele>
      </trkpt>
      <trkpt lat="36.80249" lon="-118.54734">
        <ele>1617.0</ele>
      </trkpt>
      <trkpt lat="36.80275" lon="-118.54696">
        <ele>1620.0</ele>
      </trkpt>
      <trkpt lat="36.80297" lon="-118.54682">
        <ele>1624.0</ele>
      </trkpt>
      <trkpt lat="36.80318" lon="-118.54684">
        <ele>1624.0</ele>
      </trkpt>
      <trkpt lat="36.80329" lon="-118.54675">
        <ele>1625.0</ele>
      </trkpt>
      <trkpt lat="36.80361" lon="-118.54635">
        <ele>1632.0</ele>
      </trkpt>
      <trkpt lat="36.80372" lon="-118.54629">
        <ele>1632.0</ele>
      </trkpt>
      <trkpt lat="36.8039" lon="-118.54637">
        <ele>1640.0</ele>
      </trkpt>
      <trkpt lat="36.80413" lon="-118.54636">
        <ele>1647.0</ele>
      </trkpt>
      <trkpt lat="36.80447" lon="-118.54665">
        <ele>1653.0</ele>
      </trkpt>
      <trkpt lat="36.80457" lon="-118.54669">
        <ele>1653.0</ele>
      </trkpt>
      <trkpt lat="36.80463" lon="-118.54675">
        <ele>1655.0</ele>
      </trkpt>
      <trkpt lat="36.80464" lon="-118.54685">
        <ele>1655.0</ele>
      </trkpt>
      <trkpt lat="36.80479" lon="-118.54716">
        <ele>1661.0</ele>
      </trkpt>
      <trkpt lat="36.80483" lon="-118.54719">
        <ele>1661.0</ele>
      </trkpt>
      <trkpt lat="36.80514" lon="-118.54717">
        <ele>1659.0</ele>
      </trkpt>
      <trkpt lat="36.80538" lon="-118.5471">
        <ele>1659.0</ele>
      </trkpt>
      <trkpt lat="36.80564" lon="-118.54696">
        <ele>1653.0</ele>
      </trkpt>
      <trkpt lat="36.80566" lon="-118.5468">
        <ele>1654.0</ele>
      </trkpt>
      <trkpt lat="36.80606" lon="-118.5468">
        <ele>1671.0</ele>
      </trkpt>
      <trkpt lat="36.80615" lon="-118.54686">
        <ele>1667.0</ele>
      </trkpt>
      <trkpt lat="36.80642" lon="-118.54677">
        <ele>1678.0</ele>
      </trkpt>
      <trkpt lat="36.80648" lon="-118.5468">
        <ele>1678.0</ele>
      </trkpt>
      <trkpt lat="36.80648" lon="-118.54686">
        <ele>1678.0</ele>
      </trkpt>
      <trkpt lat="36.80629" lon="-118.54697">
        <ele>1678.0</ele>
      </trkpt>
      <trkpt lat="36.80642" lon="-118.547">
        <ele>1678.0</ele>
      </trkpt>
      <trkpt lat="36.80656" lon="-118.54714">
        <ele>1684.0</ele>
      </trkpt>
      <trkpt lat="36.80666" lon="-118.54716">
        <ele>1684.0</ele>
      </trkpt>
      <trkpt lat="36.80674" lon="-118.54729">
        <ele>1684.0</ele>
      </trkpt>
      <trkpt lat="36.80706" lon="-118.54764">
        <ele>1703.0</ele>
      </trkpt>
      <trkpt lat="36.80732" lon="-118.54764">
        <ele>1703.0</ele>
      </trkpt>
      <trkpt lat="36.80749" lon="-118.54777">
        <ele>1708.0</ele>
      </trkpt>
      <trkpt lat="36.80768" lon="-118.54778">
        <ele>1713.0</ele>
      </trkpt>
      <trkpt lat="36.80781" lon="-118.54776">
        <ele>1713.0</ele>
      </trkpt>
      <trkpt lat="36.80814" lon="-118.54748">
        <ele>1711.0</ele>
      </trkpt>
      <trkpt lat="36.80827" lon="-118.54757">
        <ele>1721.0</ele>
      </trkpt>
      <trkpt lat="36.8084" lon="-118.54772">
        <ele>1723.0</ele>
      </trkpt>
      <trkpt lat="36.80858" lon="-118.54784">
        <ele>1728.0</ele>
      </trkpt>
      <trkpt lat="36.80902" lon="-118.54794">
        <ele>1733.0</ele>
      </trkpt>
      <trkpt lat="36.80939" lon="-118.54819">
        <ele>1745.0</ele>
      </trkpt>
      <trkpt lat="36.80949" lon="-118.54833">
        <ele>1744.0</ele>
      </trkpt>
      <trkpt lat="36.80957" lon="-118.54855">
        <ele>1747.0</ele>
      </trkpt>
      <trkpt lat="36.80964" lon="-118.54857">
        <ele>1748.0</ele>
      </trkpt>
      <trkpt lat="36.80979" lon="-118.54847">
        <ele>1743.0</ele>
      </trkpt>
      <trkpt lat="36.81003" lon="-118.54837">
        <ele>1745.0</ele>
      </trkpt>
      <trkpt lat="36.81015" lon="-118.54838">
        <ele>1749.0</ele>
      </trkpt>
      <trkpt lat="36.81026" lon="-118.54844">
        <ele>1749.0</ele>
      </trkpt>
      <trkpt lat="36.81045" lon="-118.54842">
        <ele>1754.0</ele>
      </trkpt>
      <trkpt lat="36.81051" lon="-118.54831">
        <ele>1754.0</ele>
      </trkpt>
      <trkpt lat="36.8105" lon="-118.54821">
        <ele>1754.0</ele>
      </trkpt>
      <trkpt lat="36.81088" lon="-118.54825">
        <ele>1754.0</ele>
      </trkpt>
      <trkpt lat="36.81113" lon="-118.54821">
        <ele>1751.0</ele>
      </trkpt>
      <trkpt lat="36.81136" lon="-118.54823">
        <ele>1749.0</ele>
      </trkpt>
      <trkpt lat="36.8115" lon="-118.54832">
        <ele>1749.0</ele>
      </trkpt>
      <trkpt lat="36.81162" lon="-118.54827">
        <ele>1752.0</ele>
      </trkpt>
      <trkpt lat="36.81177" lon="-118.54828">
        <ele>1752.0</ele>
      </trkpt>
      <trkpt lat="36.81189" lon="-118.5485">
        <ele>1756.0</ele>
      </trkpt>
      <trkpt lat="36.813304658" lon="-118.54818821">
        <ele>1767.0</ele>
      </trkpt>
      <trkpt lat="36.811827263" lon="-118.548402786">
        <ele>1754.0</ele>
      </trkpt>
      <trkpt lat="36.81177" lon="-118.54828">
        <ele>1752.0</ele>
      </trkpt>
      <trkpt lat="36.81162" lon="-118.54827">
        <ele>1752.0</ele>
      </trkpt>
      <trkpt lat="36.8115" lon="-118.54832">
        <ele>1749.0</ele>
      </trkpt>
      <trkpt lat="36.81136" lon="-118.54823">
        <ele>1749.0</ele>
      </trkpt>
      <trkpt lat="36.81113" lon="-118.54821">
        <ele>1751.0</ele>
      </trkpt>
      <trkpt lat="36.81088" lon="-118.54825">
        <ele>1754.0</ele>
      </trkpt>
      <trkpt lat="36.8105" lon="-118.54821">
        <ele>1754.0</ele>
      </trkpt>
      <trkpt lat="36.81051" lon="-118.54831">
        <ele>1754.0</ele>
      </trkpt>
      <trkpt lat="36.81045" lon="-118.54842">
        <ele>1754.0</ele>
      </trkpt>
      <trkpt lat="36.81026" lon="-118.54844">
        <ele>1749.0</ele>
      </trkpt>
      <trkpt lat="36.81015" lon="-118.54838">
        <ele>1749.0</ele>
      </trkpt>
      <trkpt lat="36.81003" lon="-118.54837">
        <ele>1745.0</ele>
      </trkpt>
      <trkpt lat="36.80979" lon="-118.54847">
        <ele>1743.0</ele>
      </trkpt>
      <trkpt lat="36.80964" lon="-118.54857">
        <ele>1748.0</ele>
      </trkpt>
      <trkpt lat="36.80957" lon="-118.54855">
        <ele>1747.0</ele>
      </trkpt>
      <trkpt lat="36.80949" lon="-118.54833">
        <ele>1744.0</ele>
      </trkpt>
      <trkpt lat="36.80939" lon="-118.54819">
        <ele>1745.0</ele>
      </trkpt>
      <trkpt lat="36.80902" lon="-118.54794">
        <ele>1733.0</ele>
      </trkpt>
      <trkpt lat="36.80858" lon="-118.54784">
        <ele>1728.0</ele>
      </trkpt>
      <trkpt lat="36.8084" lon="-118.54772">
        <ele>1723.0</ele>
      </trkpt>
      <trkpt lat="36.80827" lon="-118.54757">
        <ele>1721.0</ele>
      </trkpt>
      <trkpt lat="36.80814" lon="-118.54748">
        <ele>1711.0</ele>
      </trkpt>
      <trkpt lat="36.80781" lon="-118.54776">
        <ele>1713.0</ele>
      </trkpt>
      <trkpt lat="36.80768" lon="-118.54778">
        <ele>1713.0</ele>
      </trkpt>
      <trkpt lat="36.80749" lon="-118.54777">
        <ele>1708.0</ele>
      </trkpt>
      <trkpt lat="36.80732" lon="-118.54764">
        <ele>1703.0</ele>
      </trkpt>
      <trkpt lat="36.80706" lon="-118.54764">
        <ele>1703.0</ele>
      </trkpt>
      <trkpt lat="36.80674" lon="-118.54729">
        <ele>1684.0</ele>
      </trkpt>
      <trkpt lat="36.80666" lon="-118.54716">
        <ele>1684.0</ele>
      </trkpt>
      <trkpt lat="36.80656" lon="-118.54714">
        <ele>1684.0</ele>
      </trkpt>
      <trkpt lat="36.80642" lon="-118.547">
        <ele>1678.0</ele>
      </trkpt>
      <trkpt lat="36.80629" lon="-118.54697">
        <ele>1678.0</ele>
      </trkpt>
      <trkpt lat="36.80648" lon="-118.54686">
        <ele>1678.0</ele>
      </trkpt>
      <trkpt lat="36.80648" lon="-118.5468">
        <ele>1678.0</ele>
      </trkpt>
      <trkpt lat="36.80642" lon="-118.54677">
        <ele>1678.0</ele>
      </trkpt>
      <trkpt lat="36.80615" lon="-118.54686">
        <ele>1667.0</ele>
      </trkpt>
      <trkpt lat="36.80606" lon="-118.5468">
        <ele>1671.0</ele>
      </trkpt>
      <trkpt lat="36.80566" lon="-118.5468">
        <ele>1654.0</ele>
      </trkpt>
      <trkpt lat="36.80564" lon="-118.54696">
        <ele>1653.0</ele>
      </trkpt>
      <trkpt lat="36.80538" lon="-118.5471">
        <ele>1659.0</ele>
      </trkpt>
      <trkpt lat="36.80514" lon="-118.54717">
        <ele>1659.0</ele>
      </trkpt>
      <trkpt lat="36.80483" lon="-118.54719">
        <ele>1661.0</ele>
      </trkpt>
      <trkpt lat="36.80479" lon="-118.54716">
        <ele>1661.0</ele>
      </trkpt>
      <trkpt lat="36.80464" lon="-118.54685">
        <ele>1655.0</ele>
      </trkpt>
      <trkpt lat="36.80463" lon="-118.54675">
        <ele>1655.0</ele>
      </trkpt>
      <trkpt lat="36.80457" lon="-118.54669">
        <ele>1653.0</ele>
      </trkpt>
      <trkpt lat="36.80447" lon="-118.54665">
        <ele>1653.0</ele>
      </trkpt>
      <trkpt lat="36.80413" lon="-118.54636">
        <ele>1647.0</ele>
      </trkpt>
      <trkpt lat="36.8039" lon="-118.54637">
        <ele>1640.0</ele>
      </trkpt>
      <trkpt lat="36.80372" lon="-118.54629">
        <ele>1632.0</ele>
      </trkpt>
      <trkpt lat="36.80361" lon="-118.54635">
        <ele>1632.0</ele>
      </trkpt>
      <trkpt lat="36.80329" lon="-118.54675">
        <ele>1625.0</ele>
      </trkpt>
      <trkpt lat="36.80318" lon="-118.54684">
        <ele>1624.0</ele>
      </trkpt>
      <trkpt lat="36.80297" lon="-118.54682">
        <ele>1624.0</ele>
      </trkpt>
      <trkpt lat="36.80275" lon="-118.54696">
        <ele>1620.0</ele>
      </trkpt>
      <trkpt lat="36.80249" lon="-118.54734">
        <ele>1617.0</ele>
      </trkpt>
      <trkpt lat="36.80201" lon="-118.5476">
        <ele>1614.0</ele>
      </trkpt>
      <trkpt lat="36.80188" lon="-118.54779">
        <ele>1615.0</ele>
      </trkpt>
      <trkpt lat="36.80129" lon="-118.54818">
        <ele>1602.0</ele>
      </trkpt>
      <trkpt lat="36.80093" lon="-118.54811">
        <ele>1603.0</ele>
      </trkpt>
      <trkpt lat="36.80066" lon="-118.54814">
        <ele>1603.0</ele>
      </trkpt>
      <trkpt lat="36.80006" lon="-118.54776">
        <ele>1602.0</ele>
      </trkpt>
      <trkpt lat="36.79968" lon="-118.54761">
        <ele>1596.0</ele>
      </trkpt>
      <trkpt lat="36.79926" lon="-118.54763">
        <ele>1595.0</ele>
      </trkpt>
      <trkpt lat="36.79908" lon="-118.54758">
        <ele>1595.0</ele>
      </trkpt>
      <trkpt lat="36.7989" lon="-118.54763">
        <ele>1594.0</ele>
      </trkpt>
      <trkpt lat="36.79859" lon="-118.54752">
        <ele>1594.0</ele>
      </trkpt>
      <trkpt lat="36.79841" lon="-118.54754">
        <ele>1601.0</ele>
      </trkpt>
      <trkpt lat="36.79816" lon="-118.54762">
        <ele>1602.0</ele>
      </trkpt>
      <trkpt lat="36.79679" lon="-118.54765">
        <ele>1597.0</ele>
      </trkpt>
      <trkpt lat="36.7967" lon="-118.54761">
        <ele>1592.0</ele>
      </trkpt>
      <trkpt lat="36.79641" lon="-118.54793">
        <ele>1598.0</ele>
      </trkpt>
      <trkpt lat="36.7962" lon="-118.5481">
        <ele>1594.0</ele>
      </trkpt>
      <trkpt lat="36.79568" lon="-118.54841">
        <ele>1593.0</ele>
      </trkpt>
      <trkpt lat="36.79552" lon="-118.54843">
        <ele>1593.0</ele>
      </trkpt>
      <trkpt lat="36.79545" lon="-118.54839">
        <ele>1593.0</ele>
      </trkpt>
      <trkpt lat="36.79532" lon="-118.54849">
        <ele>1602.0</ele>
      </trkpt>
      <trkpt lat="36.79523" lon="-118.54868">
        <ele>1602.0</ele>
      </trkpt>
      <trkpt lat="36.79492" lon="-118.549">
        <ele>1602.0</ele>
      </trkpt>
      <trkpt lat="36.79463" lon="-118.54894">
        <ele>1599.0</ele>
      </trkpt>
      <trkpt lat="36.7945" lon="-118.54906">
        <ele>1606.0</ele>
      </trkpt>
      <trkpt lat="36.79423" lon="-118.54905">
        <ele>1603.0</ele>
      </trkpt>
      <trkpt lat="36.79414" lon="-118.54896">
        <ele>1593.0</ele>
      </trkpt>
      <trkpt lat="36.79402" lon="-118.54903">
        <ele>1597.0</ele>
      </trkpt>
      <trkpt lat="36.79383" lon="-118.54898">
        <ele>1587.0</ele>
      </trkpt>
      <trkpt lat="36.79364" lon="-118.54902">
        <ele>1583.0</ele>
      </trkpt>
      <trkpt lat="36.79318" lon="-118.54897">
        <ele>1585.0</ele>
      </trkpt>
      <trkpt lat="36.79301" lon="-118.54901">
        <ele>1585.0</ele>
      </trkpt>
      <trkpt lat="36.7928" lon="-118.54892">
        <ele>1584.0</ele>
      </trkpt>
      <trkpt lat="36.79255" lon="-118.54899">
        <ele>1575.0</ele>
      </trkpt>
      <trkpt lat="36.79246" lon="-118.54907">
        <ele>1585.0</ele>
      </trkpt>
      <trkpt lat="36.79235" lon="-118.54907">
        <ele>1587.0</ele>
      </trkpt>
      <trkpt lat="36.79224" lon="-118.54917">
        <ele>1587.0</ele>
      </trkpt>
      <trkpt lat="36.79205" lon="-118.54925">
        <ele>1587.0</ele>
      </trkpt>
      <trkpt lat="36.79179" lon="-118.54929">
        <ele>1587.0</ele>
      </trkpt>
      <trkpt lat="36.79169" lon="-118.54943">
        <ele>1586.0</ele>
      </trkpt>
      <trkpt lat="36.79143" lon="-118.54946">
        <ele>1574.0</ele>
      </trkpt>
      <trkpt lat="36.79134" lon="-118.54952">
        <ele>1574.0</ele>
      </trkpt>
      <trkpt lat="36.79117" lon="-118.54975">
        <ele>1575.0</ele>
      </trkpt>
      <trkpt lat="36.79092" lon="-118.5499">
        <ele>1578.0</ele>
      </trkpt>
      <trkpt lat="36.79078" lon="-118.55025">
        <ele>1581.0</ele>
      </trkpt>
      <trkpt lat="36.79066" lon="-118.55025">
        <ele>1579.0</ele>
      </trkpt>
      <trkpt lat="36.79037" lon="-118.55072">
        <ele>1582.0</ele>
      </trkpt>
      <trkpt lat="36.79" lon="-118.55095">
        <ele>1581.0</ele>
      </trkpt>
      <trkpt lat="36.78985" lon="-118.55119">
        <ele>1579.0</ele>
      </trkpt>
      <trkpt lat="36.78963" lon="-118.55168">
        <ele>1586.0</ele>
      </trkpt>
      <trkpt lat="36.7896" lon="-118.55198">
        <ele>1586.0</ele>
      </trkpt>
      <trkpt lat="36.78967" lon="-118.55204">
        <ele>1586.0</ele>
      </trkpt>
      <trkpt lat="36.78968" lon="-118.55219">
        <ele>1581.0</ele>
      </trkpt>
      <trkpt lat="36.78958" lon="-118.5525">
        <ele>1572.0</ele>
      </trkpt>
      <trkpt lat="36.78957" lon="-118.55269">
        <ele>1567.0</ele>
      </trkpt>
      <trkpt lat="36.78951" lon="-118.55285">
        <ele>1567.0</ele>
      </trkpt>
      <trkpt lat="36.78929" lon="-118.55283">
        <ele>1569.0</ele>
      </trkpt>
      <trkpt lat="36.78929" lon="-118.55305">
        <ele>1573.0</ele>
      </trkpt>
      <trkpt lat="36.78924" lon="-118.55335">
        <ele>1573.0</ele>
      </trkpt>
      <trkpt lat="36.78915" lon="-118.55347">
        <ele>1573.0</ele>
      </trkpt>
      <trkpt lat="36.789" lon="-118.55382">
        <ele>1577.0</ele>
      </trkpt>
      <trkpt lat="36.78893" lon="-118.55415">
        <ele>1578.0</ele>
      </trkpt>
      <trkpt lat="36.78876" lon="-118.55448">
        <ele>1581.0</ele>
      </trkpt>
      <trkpt lat="36.78864" lon="-118.55503">
        <ele>1576.0</ele>
      </trkpt>
      <trkpt lat="36.78858" lon="-118.55559">
        <ele>1581.0</ele>
      </trkpt>
      <trkpt lat="36.78852" lon="-118.5558">
        <ele>1582.0</ele>
      </trkpt>
      <trkpt lat="36.78852" lon="-118.55675">
        <ele>1575.0</ele>
      </trkpt>
      <trkpt lat="36.78869" lon="-118.5574">
        <ele>1556.0</ele>
      </trkpt>
      <trkpt lat="36.78874" lon="-118.55779">
        <ele>1559.0</ele>
      </trkpt>
      <trkpt lat="36.7887" lon="-118.55838">
        <ele>1563.0</ele>
      </trkpt>
      <trkpt lat="36.78873" lon="-118.55897">
        <ele>1575.0</ele>
      </trkpt>
      <trkpt lat="36.78886" lon="-118.55935">
        <ele>1573.0</ele>
      </trkpt>
      <trkpt lat="36.78886" lon="-118.55955">
        <ele>1573.0</ele>
      </trkpt>
      <trkpt lat="36.78902" lon="-118.55966">
        <ele>1570.0</ele>
      </trkpt>
      <trkpt lat="36.789" lon="-118.55983">
        <ele>1570.0</ele>
      </trkpt>
      <trkpt lat="36.7888" lon="-118.56042">
        <ele>1562.0</ele>
      </trkpt>
      <trkpt lat="36.78868" lon="-118.56116">
        <ele>1562.0</ele>
      </trkpt>
      <trkpt lat="36.78869" lon="-118.5616">
        <ele>1561.0</ele>
      </trkpt>
      <trkpt lat="36.78878" lon="-118.56193">
        <ele>1559.0</ele>
      </trkpt>
      <trkpt lat="36.78871" lon="-118.56283">
        <ele>1558.0</ele>
      </trkpt>
      <trkpt lat="36.78878" lon="-118.56322">
        <ele>1555.0</ele>
      </trkpt>
      <trkpt lat="36.78896" lon="-118.56371">
        <ele>1557.0</ele>
      </trkpt>
      <trkpt lat="36.78921" lon="-118.56405">
        <ele>1555.0</ele>
      </trkpt>
      <trkpt lat="36.78958" lon="-118.56471">
        <ele>1550.0</ele>
      </trkpt>
      <trkpt lat="36.78976" lon="-118.56514">
        <ele>1551.0</ele>
      </trkpt>
      <trkpt lat="36.79003" lon="-118.56528">
        <ele>1553.0</ele>
      </trkpt>
      <trkpt lat="36.79013" lon="-118.56544">
        <ele>1552.0</ele>
      </trkpt>
      <trkpt lat="36.79037" lon="-118.56593">
        <ele>1548.0</ele>
      </trkpt>
      <trkpt lat="36.79069" lon="-118.56676">
        <ele>1548.0</ele>
      </trkpt>
      <trkpt lat="36.79089" lon="-118.56712">
        <ele>1553.0</ele>
      </trkpt>
      <trkpt lat="36.79154" lon="-118.56787">
        <ele>1560.0</ele>
      </trkpt>
      <trkpt lat="36.79179" lon="-118.56824">
        <ele>1564.0</ele>
      </trkpt>
      <trkpt lat="36.79195" lon="-118.56874">
        <ele>1558.0</ele>
      </trkpt>
      <trkpt lat="36.79211" lon="-118.569">
        <ele>1554.0</ele>
      </trkpt>
      <trkpt lat="36.79228" lon="-118.5694">
        <ele>1548.0</ele>
      </trkpt>
      <trkpt lat="36.79257" lon="-118.56988">
        <ele>1544.0</ele>
      </trkpt>
      <trkpt lat="36.79289" lon="-118.57031">
        <ele>1544.0</ele>
      </trkpt>
      <trkpt lat="36.79328" lon="-118.57062">
        <ele>1558.0</ele>
      </trkpt>
      <trkpt lat="36.79398" lon="-118.57156">
        <ele>1545.0</ele>
      </trkpt>
      <trkpt lat="36.79435" lon="-118.572">
        <ele>1553.0</ele>
      </trkpt>
      <trkpt lat="36.79449" lon="-118.57227">
        <ele>1551.0</ele>
      </trkpt>
      <trkpt lat="36.79466" lon="-118.57282">
        <ele>1560.0</ele>
      </trkpt>
      <trkpt lat="36.7947" lon="-118.57312">
        <ele>1561.0</ele>
      </trkpt>
      <trkpt lat="36.79489" lon="-118.57345">
        <ele>1564.0</ele>
      </trkpt>
      <trkpt lat="36.79519" lon="-118.57431">
        <ele>1553.0</ele>
      </trkpt>
      <trkpt lat="36.79532" lon="-118.57562">
        <ele>1549.0</ele>
      </trkpt>
      <trkpt lat="36.79534" lon="-118.57573">
        <ele>1549.0</ele>
      </trkpt>
      <trkpt lat="36.79559" lon="-118.57633">
        <ele>1546.0</ele>
      </trkpt>
      <trkpt lat="36.79558" lon="-118.57649">
        <ele>1546.0</ele>
      </trkpt>
      <trkpt lat="36.79552" lon="-118.57669">
        <ele>1543.0</ele>
      </trkpt>
      <trkpt lat="36.79554" lon="-118.57694">
        <ele>1541.0</ele>
      </trkpt>
      <trkpt lat="36.79545" lon="-118.57765">
        <ele>1545.0</ele>
      </trkpt>
      <trkpt lat="36.79538" lon="-118.5778">
        <ele>1555.0</ele>
      </trkpt>
      <trkpt lat="36.79537" lon="-118.57805">
        <ele>1557.0</ele>
      </trkpt>
      <trkpt lat="36.79516" lon="-118.57874">
        <ele>1556.0</ele>
      </trkpt>
      <trkpt lat="36.79502" lon="-118.57891">
        <ele>1557.0</ele>
      </trkpt>
      <trkpt lat="36.79491" lon="-118.57895">
        <ele>1557.0</ele>
      </trkpt>
      <trkpt lat="36.79456" lon="-118.57963">
        <ele>1562.0</ele>
      </trkpt>
      <trkpt lat="36.79458" lon="-118.57983">
        <ele>1562.0</ele>
      </trkpt>
      <trkpt lat="36.79449" lon="-118.58087">
        <ele>1560.0</ele>
      </trkpt>
      <trkpt lat="36.79451" lon="-118.58138">
        <ele>1558.0</ele>
      </trkpt>
      <trkpt lat="36.79447" lon="-118.58168">
        <ele>1554.0</ele>
      </trkpt>
      <trkpt lat="36.79462" lon="-118.58216">
        <ele>1550.0</ele>
      </trkpt>
      <trkpt lat="36.794651132" lon="-118.58294566">
        <ele>1555.0</ele>
      </trkpt>
      <trkpt lat="36.79457" lon="-118.58297">
        <ele>1561.0</ele>
      </trkpt>
      <trkpt lat="36.79447" lon="-118.58312">
        <ele>1561.0</ele>
      </trkpt>
      <trkpt lat="36.79438" lon="-118.58341">
        <ele>1557.0</ele>
      </trkpt>
      <trkpt lat="36.79436" lon="-118.58368">
        <ele>1554.0</ele>
      </trkpt>
      <trkpt lat="36.79439" lon="-118.58391">
        <ele>1554.0</ele>
      </trkpt>
      <trkpt lat="36.79456" lon="-118.58405">
        <ele>1551.0</ele>
      </trkpt>
    </trkseg>
  </trk>
</gpx>
