<?xml version="1.0" encoding="UTF-8"?>
<gpx xmlns:xsi="http://www.w3.org/2001/XMLSchema-instance" version="1.1" creator="The Outbound Collective, Inc. 1.1.1 -- https://www.theoutbound.com" xsi:schemaLocation="http://www.topografix.com/GPX/1/1 http://www.topografix.com/GPX/1/1/gpx.xsd">
  <metadata>
    <name/>
    <time>2026-02-19T21:56:29+00:00</time>
    <bound minlat="40.6454634382312" minlon="-122.66846" maxlat="40.64925721317508" maxlon="-122.66675"/>
  </metadata>
  <trk>
    <name/>
    <trkseg>
      <trkpt lat="40.64925721317508" lon="-122.6681739091873">
        <ele>522.0</ele>
      </trkpt>
      <trkpt lat="40.64925" lon="-122.66817">
        <ele>522.0</ele>
      </trkpt>
      <trkpt lat="40.64905" lon="-122.66822">
        <ele>528.0</ele>
      </trkpt>
      <trkpt lat="40.64874" lon="-122.66826">
        <ele>530.0</ele>
      </trkpt>
      <trkpt lat="40.64852" lon="-122.66825">
        <ele>530.0</ele>
      </trkpt>
      <trkpt lat="40.64813" lon="-122.66816">
        <ele>529.0</ele>
      </trkpt>
      <trkpt lat="40.64798" lon="-122.66817">
        <ele>529.0</ele>
      </trkpt>
      <trkpt lat="40.64755" lon="-122.66838">
        <ele>531.0</ele>
      </trkpt>
      <trkpt lat="40.64743891027454" lon="-122.6684155487121">
        <ele>531.0</ele>
      </trkpt>
      <trkpt lat="40.64743891039013" lon="-122.6684155487121">
        <ele>531.0</ele>
      </trkpt>
      <trkpt lat="40.6473" lon="-122.66846">
        <ele>532.0</ele>
      </trkpt>
      <trkpt lat="40.6473" lon="-122.66846">
        <ele>532.0</ele>
      </trkpt>
      <trkpt lat="40.64705" lon="-122.66846">
        <ele>534.0</ele>
      </trkpt>
      <trkpt lat="40.64686" lon="-122.66841">
        <ele>534.0</ele>
      </trkpt>
      <trkpt lat="40.64656" lon="-122.66825">
        <ele>538.0</ele>
      </trkpt>
      <trkpt lat="40.64637" lon="-122.66809">
        <ele>552.0</ele>
      </trkpt>
      <trkpt lat="40.64632" lon="-122.668">
        <ele>552.0</ele>
      </trkpt>
      <trkpt lat="40.64619" lon="-122.66766">
        <ele>556.0</ele>
      </trkpt>
      <trkpt lat="40.64615" lon="-122.66706">
        <ele>547.0</ele>
      </trkpt>
      <trkpt lat="40.64612" lon="-122.66696">
        <ele>547.0</ele>
      </trkpt>
      <trkpt lat="40.64605" lon="-122.66688">
        <ele>547.0</ele>
      </trkpt>
      <trkpt lat="40.64593837968981" lon="-122.6668427932299">
        <ele>551.0</ele>
      </trkpt>
      <trkpt lat="40.64591535613636" lon="-122.6668260684091">
        <ele>551.0</ele>
      </trkpt>
      <trkpt lat="40.6459" lon="-122.66678">
        <ele>552.0</ele>
      </trkpt>
      <trkpt lat="40.64587" lon="-122.66675">
        <ele>552.0</ele>
      </trkpt>
      <trkpt lat="40.64573259659322" lon="-122.6668599227254">
        <ele>551.0</ele>
      </trkpt>
      <trkpt lat="40.64573259660617" lon="-122.6668599227254">
        <ele>551.0</ele>
      </trkpt>
      <trkpt lat="40.64587" lon="-122.66675">
        <ele>552.0</ele>
      </trkpt>
      <trkpt lat="40.6459" lon="-122.66678">
        <ele>552.0</ele>
      </trkpt>
      <trkpt lat="40.64591535613636" lon="-122.6668260684091">
        <ele>551.0</ele>
      </trkpt>
      <trkpt lat="40.64592015603073" lon="-122.6668421875487">
        <ele>551.0</ele>
      </trkpt>
      <trkpt lat="40.64584" lon="-122.66686">
        <ele>551.0</ele>
      </trkpt>
      <trkpt lat="40.64575" lon="-122.66696">
        <ele>551.0</ele>
      </trkpt>
      <trkpt lat="40.64575" lon="-122.66696">
        <ele>551.0</ele>
      </trkpt>
      <trkpt lat="40.6454634382312" lon="-122.6674343091346">
        <ele>552.0</ele>
      </trkpt>
      <trkpt lat="40.64546343823857" lon="-122.6674343091345">
        <ele>552.0</ele>
      </trkpt>
      <trkpt lat="40.64575" lon="-122.66696">
        <ele>551.0</ele>
      </trkpt>
      <trkpt lat="40.64575" lon="-122.66696">
        <ele>551.0</ele>
      </trkpt>
      <trkpt lat="40.64584" lon="-122.66686">
        <ele>551.0</ele>
      </trkpt>
      <trkpt lat="40.64592015603073" lon="-122.6668421875487">
        <ele>551.0</ele>
      </trkpt>
      <trkpt lat="40.64593837968981" lon="-122.6668427932299">
        <ele>551.0</ele>
      </trkpt>
      <trkpt lat="40.64605" lon="-122.66688">
        <ele>547.0</ele>
      </trkpt>
      <trkpt lat="40.64612" lon="-122.66696">
        <ele>547.0</ele>
      </trkpt>
      <trkpt lat="40.64615" lon="-122.66706">
        <ele>547.0</ele>
      </trkpt>
      <trkpt lat="40.64617846611191" lon="-122.6674869916787">
        <ele>551.0</ele>
      </trkpt>
      <trkpt lat="40.64617846611438" lon="-122.6674869916787">
        <ele>551.0</ele>
      </trkpt>
      <trkpt lat="40.64619" lon="-122.66766">
        <ele>556.0</ele>
      </trkpt>
      <trkpt lat="40.64632" lon="-122.668">
        <ele>552.0</ele>
      </trkpt>
      <trkpt lat="40.64637" lon="-122.66809">
        <ele>552.0</ele>
      </trkpt>
      <trkpt lat="40.64656" lon="-122.66825">
        <ele>538.0</ele>
      </trkpt>
      <trkpt lat="40.64686" lon="-122.66841">
        <ele>534.0</ele>
      </trkpt>
      <trkpt lat="40.64705" lon="-122.66846">
        <ele>534.0</ele>
      </trkpt>
      <trkpt lat="40.6473" lon="-122.66846">
        <ele>532.0</ele>
      </trkpt>
      <trkpt lat="40.6473" lon="-122.66846">
        <ele>532.0</ele>
      </trkpt>
      <trkpt lat="40.64755" lon="-122.66838">
        <ele>531.0</ele>
      </trkpt>
      <trkpt lat="40.64798" lon="-122.66817">
        <ele>529.0</ele>
      </trkpt>
      <trkpt lat="40.64813" lon="-122.66816">
        <ele>529.0</ele>
      </trkpt>
      <trkpt lat="40.64852" lon="-122.66825">
        <ele>530.0</ele>
      </trkpt>
      <trkpt lat="40.64868760012559" lon="-122.6682576181875">
        <ele>530.0</ele>
      </trkpt>
      <trkpt lat="40.64868760019139" lon="-122.6682576181875">
        <ele>530.0</ele>
      </trkpt>
      <trkpt lat="40.64874" lon="-122.66826">
        <ele>530.0</ele>
      </trkpt>
      <trkpt lat="40.64905" lon="-122.66822">
        <ele>528.0</ele>
      </trkpt>
      <trkpt lat="40.64924856223289" lon="-122.6681703594418">
        <ele>522.0</ele>
      </trkpt>
      <trkpt lat="40.64924907308266" lon="-122.6681739091873">
        <ele>522.0</ele>
      </trkpt>
    </trkseg>
  </trk>
</gpx>
