<?xml version="1.0" encoding="UTF-8"?>
<gpx xmlns:xsi="http://www.w3.org/2001/XMLSchema-instance" version="1.1" creator="The Outbound Collective, Inc. 1.1.1 -- https://www.theoutbound.com" xsi:schemaLocation="http://www.topografix.com/GPX/1/1 http://www.topografix.com/GPX/1/1/gpx.xsd">
  <metadata>
    <name/>
    <time>2026-02-19T21:51:52+00:00</time>
    <bound minlat="37.74167" minlon="-119.6064" maxlat="37.75964" maxlon="-119.59686687426"/>
  </metadata>
  <trk>
    <name/>
    <trkseg>
      <trkpt lat="37.741925289493" lon="-119.601910114288">
        <ele>1219.0</ele>
      </trkpt>
      <trkpt lat="37.7419238290202" lon="-119.601908040336">
        <ele>1219.0</ele>
      </trkpt>
      <trkpt lat="37.74181" lon="-119.60203">
        <ele>1219.0</ele>
      </trkpt>
      <trkpt lat="37.74167" lon="-119.60196">
        <ele>1219.0</ele>
      </trkpt>
      <trkpt lat="37.74167" lon="-119.60196">
        <ele>1219.0</ele>
      </trkpt>
      <trkpt lat="37.74186" lon="-119.60161">
        <ele>1216.0</ele>
      </trkpt>
      <trkpt lat="37.742" lon="-119.60166">
        <ele>1216.0</ele>
      </trkpt>
      <trkpt lat="37.742" lon="-119.60166">
        <ele>1216.0</ele>
      </trkpt>
      <trkpt lat="37.7422391623177" lon="-119.601921583272">
        <ele>1215.0</ele>
      </trkpt>
      <trkpt lat="37.7422391623177" lon="-119.601921583272">
        <ele>1215.0</ele>
      </trkpt>
      <trkpt lat="37.74232" lon="-119.60201">
        <ele>1215.0</ele>
      </trkpt>
      <trkpt lat="37.7423694214804" lon="-119.602023478586">
        <ele>1215.0</ele>
      </trkpt>
      <trkpt lat="37.74237" lon="-119.60202">
        <ele>1215.0</ele>
      </trkpt>
      <trkpt lat="37.74237" lon="-119.60218">
        <ele>1218.0</ele>
      </trkpt>
      <trkpt lat="37.74243" lon="-119.60225">
        <ele>1218.0</ele>
      </trkpt>
      <trkpt lat="37.74246" lon="-119.60233">
        <ele>1218.0</ele>
      </trkpt>
      <trkpt lat="37.74252" lon="-119.60238">
        <ele>1220.0</ele>
      </trkpt>
      <trkpt lat="37.74256" lon="-119.60252">
        <ele>1220.0</ele>
      </trkpt>
      <trkpt lat="37.74261" lon="-119.60261">
        <ele>1220.0</ele>
      </trkpt>
      <trkpt lat="37.74272" lon="-119.60319">
        <ele>1233.0</ele>
      </trkpt>
      <trkpt lat="37.74272" lon="-119.60319">
        <ele>1233.0</ele>
      </trkpt>
      <trkpt lat="37.74281" lon="-119.60325">
        <ele>1238.0</ele>
      </trkpt>
      <trkpt lat="37.74293" lon="-119.60341">
        <ele>1245.0</ele>
      </trkpt>
      <trkpt lat="37.74301" lon="-119.60333">
        <ele>1245.0</ele>
      </trkpt>
      <trkpt lat="37.74304" lon="-119.60344">
        <ele>1245.0</ele>
      </trkpt>
      <trkpt lat="37.7430502220748" lon="-119.603443407358">
        <ele>1245.0</ele>
      </trkpt>
      <trkpt lat="37.7430502220748" lon="-119.603443407358">
        <ele>1245.0</ele>
      </trkpt>
      <trkpt lat="37.74307" lon="-119.60345">
        <ele>1245.0</ele>
      </trkpt>
      <trkpt lat="37.74316" lon="-119.60337">
        <ele>1245.0</ele>
      </trkpt>
      <trkpt lat="37.74324" lon="-119.60321">
        <ele>1247.0</ele>
      </trkpt>
      <trkpt lat="37.74333" lon="-119.60324">
        <ele>1247.0</ele>
      </trkpt>
      <trkpt lat="37.74337" lon="-119.60358">
        <ele>1251.0</ele>
      </trkpt>
      <trkpt lat="37.74353" lon="-119.6035">
        <ele>1257.0</ele>
      </trkpt>
      <trkpt lat="37.74353" lon="-119.60367">
        <ele>1257.0</ele>
      </trkpt>
      <trkpt lat="37.74365" lon="-119.60353">
        <ele>1257.0</ele>
      </trkpt>
      <trkpt lat="37.74368" lon="-119.60372">
        <ele>1257.0</ele>
      </trkpt>
      <trkpt lat="37.74382" lon="-119.60362">
        <ele>1262.0</ele>
      </trkpt>
      <trkpt lat="37.74379" lon="-119.60383">
        <ele>1270.0</ele>
      </trkpt>
      <trkpt lat="37.74404" lon="-119.60375">
        <ele>1271.0</ele>
      </trkpt>
      <trkpt lat="37.74396" lon="-119.60389">
        <ele>1270.0</ele>
      </trkpt>
      <trkpt lat="37.74396" lon="-119.60397">
        <ele>1270.0</ele>
      </trkpt>
      <trkpt lat="37.74415" lon="-119.60391">
        <ele>1281.0</ele>
      </trkpt>
      <trkpt lat="37.74405" lon="-119.60408">
        <ele>1291.0</ele>
      </trkpt>
      <trkpt lat="37.74421" lon="-119.60411">
        <ele>1291.0</ele>
      </trkpt>
      <trkpt lat="37.74413" lon="-119.60431">
        <ele>1301.0</ele>
      </trkpt>
      <trkpt lat="37.74435" lon="-119.60424">
        <ele>1301.0</ele>
      </trkpt>
      <trkpt lat="37.7445" lon="-119.60427">
        <ele>1301.0</ele>
      </trkpt>
      <trkpt lat="37.7444" lon="-119.60463">
        <ele>1314.0</ele>
      </trkpt>
      <trkpt lat="37.74432" lon="-119.60478">
        <ele>1314.0</ele>
      </trkpt>
      <trkpt lat="37.74439" lon="-119.6048">
        <ele>1314.0</ele>
      </trkpt>
      <trkpt lat="37.74461" lon="-119.60476">
        <ele>1327.0</ele>
      </trkpt>
      <trkpt lat="37.74451" lon="-119.60494">
        <ele>1335.0</ele>
      </trkpt>
      <trkpt lat="37.74469" lon="-119.60492">
        <ele>1342.0</ele>
      </trkpt>
      <trkpt lat="37.74459" lon="-119.60511">
        <ele>1342.0</ele>
      </trkpt>
      <trkpt lat="37.74478" lon="-119.60506">
        <ele>1342.0</ele>
      </trkpt>
      <trkpt lat="37.74472" lon="-119.60523">
        <ele>1355.0</ele>
      </trkpt>
      <trkpt lat="37.74488" lon="-119.60525">
        <ele>1364.0</ele>
      </trkpt>
      <trkpt lat="37.74479" lon="-119.60539">
        <ele>1355.0</ele>
      </trkpt>
      <trkpt lat="37.74493" lon="-119.6054">
        <ele>1364.0</ele>
      </trkpt>
      <trkpt lat="37.74483" lon="-119.60555">
        <ele>1366.0</ele>
      </trkpt>
      <trkpt lat="37.74501" lon="-119.60559">
        <ele>1376.0</ele>
      </trkpt>
      <trkpt lat="37.7449" lon="-119.60576">
        <ele>1387.0</ele>
      </trkpt>
      <trkpt lat="37.74515" lon="-119.60579">
        <ele>1401.0</ele>
      </trkpt>
      <trkpt lat="37.745" lon="-119.60597">
        <ele>1387.0</ele>
      </trkpt>
      <trkpt lat="37.74519" lon="-119.60601">
        <ele>1409.0</ele>
      </trkpt>
      <trkpt lat="37.7451" lon="-119.60619">
        <ele>1394.0</ele>
      </trkpt>
      <trkpt lat="37.74533" lon="-119.60621">
        <ele>1409.0</ele>
      </trkpt>
      <trkpt lat="37.74521" lon="-119.60637">
        <ele>1421.0</ele>
      </trkpt>
      <trkpt lat="37.74535" lon="-119.60633">
        <ele>1421.0</ele>
      </trkpt>
      <trkpt lat="37.74534" lon="-119.6064">
        <ele>1421.0</ele>
      </trkpt>
      <trkpt lat="37.74545" lon="-119.6063">
        <ele>1450.0</ele>
      </trkpt>
      <trkpt lat="37.74564" lon="-119.60628">
        <ele>1450.0</ele>
      </trkpt>
      <trkpt lat="37.74573" lon="-119.60612">
        <ele>1449.0</ele>
      </trkpt>
      <trkpt lat="37.74587" lon="-119.60611">
        <ele>1449.0</ele>
      </trkpt>
      <trkpt lat="37.74599" lon="-119.60593">
        <ele>1459.0</ele>
      </trkpt>
      <trkpt lat="37.74602" lon="-119.60531">
        <ele>1454.0</ele>
      </trkpt>
      <trkpt lat="37.74613" lon="-119.6048">
        <ele>1451.0</ele>
      </trkpt>
      <trkpt lat="37.74616" lon="-119.60474">
        <ele>1451.0</ele>
      </trkpt>
      <trkpt lat="37.7462" lon="-119.60482">
        <ele>1451.0</ele>
      </trkpt>
      <trkpt lat="37.74622" lon="-119.60476">
        <ele>1451.0</ele>
      </trkpt>
      <trkpt lat="37.74622" lon="-119.60459">
        <ele>1451.0</ele>
      </trkpt>
      <trkpt lat="37.74619" lon="-119.60448">
        <ele>1450.0</ele>
      </trkpt>
      <trkpt lat="37.74623" lon="-119.6044">
        <ele>1450.0</ele>
      </trkpt>
      <trkpt lat="37.74622" lon="-119.60427">
        <ele>1444.0</ele>
      </trkpt>
      <trkpt lat="37.7463" lon="-119.60407">
        <ele>1480.0</ele>
      </trkpt>
      <trkpt lat="37.74612" lon="-119.60389">
        <ele>1438.0</ele>
      </trkpt>
      <trkpt lat="37.74612" lon="-119.60383">
        <ele>1438.0</ele>
      </trkpt>
      <trkpt lat="37.74615" lon="-119.60382">
        <ele>1438.0</ele>
      </trkpt>
      <trkpt lat="37.74627" lon="-119.6039">
        <ele>1488.0</ele>
      </trkpt>
      <trkpt lat="37.74622" lon="-119.60375">
        <ele>1431.0</ele>
      </trkpt>
      <trkpt lat="37.74636" lon="-119.6039">
        <ele>1488.0</ele>
      </trkpt>
      <trkpt lat="37.7463" lon="-119.60377">
        <ele>1488.0</ele>
      </trkpt>
      <trkpt lat="37.74628" lon="-119.60365">
        <ele>1491.0</ele>
      </trkpt>
      <trkpt lat="37.74644" lon="-119.60378">
        <ele>1488.0</ele>
      </trkpt>
      <trkpt lat="37.74629" lon="-119.60347">
        <ele>1484.0</ele>
      </trkpt>
      <trkpt lat="37.74644" lon="-119.60353">
        <ele>1491.0</ele>
      </trkpt>
      <trkpt lat="37.74633" lon="-119.60313">
        <ele>1474.0</ele>
      </trkpt>
      <trkpt lat="37.74637" lon="-119.60308">
        <ele>1474.0</ele>
      </trkpt>
      <trkpt lat="37.74643" lon="-119.60318">
        <ele>1474.0</ele>
      </trkpt>
      <trkpt lat="37.74652" lon="-119.60323">
        <ele>1484.0</ele>
      </trkpt>
      <trkpt lat="37.7465" lon="-119.60308">
        <ele>1474.0</ele>
      </trkpt>
      <trkpt lat="37.74654" lon="-119.60305">
        <ele>1523.0</ele>
      </trkpt>
      <trkpt lat="37.74663" lon="-119.60288">
        <ele>1512.0</ele>
      </trkpt>
      <trkpt lat="37.74669" lon="-119.60288">
        <ele>1512.0</ele>
      </trkpt>
      <trkpt lat="37.74676" lon="-119.60295">
        <ele>1523.0</ele>
      </trkpt>
      <trkpt lat="37.74684" lon="-119.60296">
        <ele>1554.0</ele>
      </trkpt>
      <trkpt lat="37.7469" lon="-119.60293">
        <ele>1554.0</ele>
      </trkpt>
      <trkpt lat="37.74705" lon="-119.60272">
        <ele>1543.0</ele>
      </trkpt>
      <trkpt lat="37.74716" lon="-119.60244">
        <ele>1557.0</ele>
      </trkpt>
      <trkpt lat="37.74752" lon="-119.6021">
        <ele>1563.0</ele>
      </trkpt>
      <trkpt lat="37.7478" lon="-119.60206">
        <ele>1566.0</ele>
      </trkpt>
      <trkpt lat="37.74817" lon="-119.60214">
        <ele>1586.0</ele>
      </trkpt>
      <trkpt lat="37.74833" lon="-119.60209">
        <ele>1594.0</ele>
      </trkpt>
      <trkpt lat="37.74851" lon="-119.60196">
        <ele>1590.0</ele>
      </trkpt>
      <trkpt lat="37.7485337777165" lon="-119.601919049488">
        <ele>1590.0</ele>
      </trkpt>
      <trkpt lat="37.7485337777165" lon="-119.601919049488">
        <ele>1590.0</ele>
      </trkpt>
      <trkpt lat="37.74869" lon="-119.60165">
        <ele>1572.0</ele>
      </trkpt>
      <trkpt lat="37.74875" lon="-119.60148">
        <ele>1557.0</ele>
      </trkpt>
      <trkpt lat="37.74884" lon="-119.60144">
        <ele>1567.0</ele>
      </trkpt>
      <trkpt lat="37.74904" lon="-119.60105">
        <ele>1571.0</ele>
      </trkpt>
      <trkpt lat="37.74923" lon="-119.60096">
        <ele>1563.0</ele>
      </trkpt>
      <trkpt lat="37.74937" lon="-119.60083">
        <ele>1574.0</ele>
      </trkpt>
      <trkpt lat="37.74951" lon="-119.60027">
        <ele>1560.0</ele>
      </trkpt>
      <trkpt lat="37.74974" lon="-119.59984">
        <ele>1554.0</ele>
      </trkpt>
      <trkpt lat="37.74982" lon="-119.59975">
        <ele>1554.0</ele>
      </trkpt>
      <trkpt lat="37.74991" lon="-119.59953">
        <ele>1561.0</ele>
      </trkpt>
      <trkpt lat="37.75015" lon="-119.59912">
        <ele>1563.0</ele>
      </trkpt>
      <trkpt lat="37.7503" lon="-119.59872">
        <ele>1536.0</ele>
      </trkpt>
      <trkpt lat="37.75048" lon="-119.5986">
        <ele>1542.0</ele>
      </trkpt>
      <trkpt lat="37.75059" lon="-119.59865">
        <ele>1542.0</ele>
      </trkpt>
      <trkpt lat="37.75076" lon="-119.59864">
        <ele>1529.0</ele>
      </trkpt>
      <trkpt lat="37.75072" lon="-119.59858">
        <ele>1529.0</ele>
      </trkpt>
      <trkpt lat="37.75086" lon="-119.59862">
        <ele>1529.0</ele>
      </trkpt>
      <trkpt lat="37.75108" lon="-119.59863">
        <ele>1534.0</ele>
      </trkpt>
      <trkpt lat="37.75128" lon="-119.59872">
        <ele>1527.0</ele>
      </trkpt>
      <trkpt lat="37.75243" lon="-119.59905">
        <ele>1557.0</ele>
      </trkpt>
      <trkpt lat="37.75334" lon="-119.59912">
        <ele>1563.0</ele>
      </trkpt>
      <trkpt lat="37.75334" lon="-119.59912">
        <ele>1563.0</ele>
      </trkpt>
      <trkpt lat="37.75351" lon="-119.59915">
        <ele>1562.0</ele>
      </trkpt>
      <trkpt lat="37.75365" lon="-119.59901">
        <ele>1546.0</ele>
      </trkpt>
      <trkpt lat="37.75384" lon="-119.59897">
        <ele>1554.0</ele>
      </trkpt>
      <trkpt lat="37.75371" lon="-119.59916">
        <ele>1562.0</ele>
      </trkpt>
      <trkpt lat="37.75395" lon="-119.59911">
        <ele>1571.0</ele>
      </trkpt>
      <trkpt lat="37.75383" lon="-119.59928">
        <ele>1571.0</ele>
      </trkpt>
      <trkpt lat="37.75387" lon="-119.59933">
        <ele>1584.0</ele>
      </trkpt>
      <trkpt lat="37.75407" lon="-119.59927">
        <ele>1577.0</ele>
      </trkpt>
      <trkpt lat="37.75409" lon="-119.59933">
        <ele>1585.0</ele>
      </trkpt>
      <trkpt lat="37.75402" lon="-119.5995">
        <ele>1584.0</ele>
      </trkpt>
      <trkpt lat="37.75402" lon="-119.5996">
        <ele>1603.0</ele>
      </trkpt>
      <trkpt lat="37.75409" lon="-119.59962">
        <ele>1607.0</ele>
      </trkpt>
      <trkpt lat="37.75422" lon="-119.59953">
        <ele>1585.0</ele>
      </trkpt>
      <trkpt lat="37.75427" lon="-119.59967">
        <ele>1607.0</ele>
      </trkpt>
      <trkpt lat="37.75438" lon="-119.5996">
        <ele>1611.0</ele>
      </trkpt>
      <trkpt lat="37.75448" lon="-119.59965">
        <ele>1611.0</ele>
      </trkpt>
      <trkpt lat="37.75443" lon="-119.59983">
        <ele>1611.0</ele>
      </trkpt>
      <trkpt lat="37.75444" lon="-119.59989">
        <ele>1627.0</ele>
      </trkpt>
      <trkpt lat="37.75497" lon="-119.59989">
        <ele>1649.0</ele>
      </trkpt>
      <trkpt lat="37.75503" lon="-119.59992">
        <ele>1649.0</ele>
      </trkpt>
      <trkpt lat="37.75501" lon="-119.59998">
        <ele>1649.0</ele>
      </trkpt>
      <trkpt lat="37.75483" lon="-119.60014">
        <ele>1647.0</ele>
      </trkpt>
      <trkpt lat="37.75497" lon="-119.60017">
        <ele>1663.0</ele>
      </trkpt>
      <trkpt lat="37.7547" lon="-119.60043">
        <ele>1662.0</ele>
      </trkpt>
      <trkpt lat="37.75449" lon="-119.60068">
        <ele>1658.0</ele>
      </trkpt>
      <trkpt lat="37.75449" lon="-119.60078">
        <ele>1676.0</ele>
      </trkpt>
      <trkpt lat="37.75479" lon="-119.6008">
        <ele>1675.0</ele>
      </trkpt>
      <trkpt lat="37.75482" lon="-119.60084">
        <ele>1675.0</ele>
      </trkpt>
      <trkpt lat="37.75474" lon="-119.60094">
        <ele>1675.0</ele>
      </trkpt>
      <trkpt lat="37.7546" lon="-119.60101">
        <ele>1694.0</ele>
      </trkpt>
      <trkpt lat="37.7546" lon="-119.60106">
        <ele>1694.0</ele>
      </trkpt>
      <trkpt lat="37.7548" lon="-119.60109">
        <ele>1694.0</ele>
      </trkpt>
      <trkpt lat="37.75475" lon="-119.60115">
        <ele>1694.0</ele>
      </trkpt>
      <trkpt lat="37.75473" lon="-119.60122">
        <ele>1694.0</ele>
      </trkpt>
      <trkpt lat="37.75482" lon="-119.60132">
        <ele>1709.0</ele>
      </trkpt>
      <trkpt lat="37.75499" lon="-119.60127">
        <ele>1713.0</ele>
      </trkpt>
      <trkpt lat="37.75493" lon="-119.60143">
        <ele>1713.0</ele>
      </trkpt>
      <trkpt lat="37.75484" lon="-119.60152">
        <ele>1709.0</ele>
      </trkpt>
      <trkpt lat="37.75504" lon="-119.6015">
        <ele>1713.0</ele>
      </trkpt>
      <trkpt lat="37.75517" lon="-119.6014">
        <ele>1734.0</ele>
      </trkpt>
      <trkpt lat="37.75522" lon="-119.60146">
        <ele>1734.0</ele>
      </trkpt>
      <trkpt lat="37.75512" lon="-119.60158">
        <ele>1734.0</ele>
      </trkpt>
      <trkpt lat="37.75529" lon="-119.60154">
        <ele>1757.0</ele>
      </trkpt>
      <trkpt lat="37.75533" lon="-119.60156">
        <ele>1757.0</ele>
      </trkpt>
      <trkpt lat="37.75518" lon="-119.60177">
        <ele>1757.0</ele>
      </trkpt>
      <trkpt lat="37.75519" lon="-119.60181">
        <ele>1806.0</ele>
      </trkpt>
      <trkpt lat="37.7554" lon="-119.6018">
        <ele>1757.0</ele>
      </trkpt>
      <trkpt lat="37.7556" lon="-119.60174">
        <ele>1791.0</ele>
      </trkpt>
      <trkpt lat="37.75563" lon="-119.60176">
        <ele>1791.0</ele>
      </trkpt>
      <trkpt lat="37.75546" lon="-119.60215">
        <ele>1909.0</ele>
      </trkpt>
      <trkpt lat="37.75553" lon="-119.6022">
        <ele>1909.0</ele>
      </trkpt>
      <trkpt lat="37.75591" lon="-119.60203">
        <ele>1875.0</ele>
      </trkpt>
      <trkpt lat="37.75597" lon="-119.60194">
        <ele>1875.0</ele>
      </trkpt>
      <trkpt lat="37.756" lon="-119.60194">
        <ele>1907.0</ele>
      </trkpt>
      <trkpt lat="37.75599" lon="-119.60205">
        <ele>1907.0</ele>
      </trkpt>
      <trkpt lat="37.75609" lon="-119.60203">
        <ele>1907.0</ele>
      </trkpt>
      <trkpt lat="37.75615" lon="-119.60208">
        <ele>1907.0</ele>
      </trkpt>
      <trkpt lat="37.75622" lon="-119.60185">
        <ele>1907.0</ele>
      </trkpt>
      <trkpt lat="37.75633" lon="-119.60173">
        <ele>1892.0</ele>
      </trkpt>
      <trkpt lat="37.75639" lon="-119.60156">
        <ele>1892.0</ele>
      </trkpt>
      <trkpt lat="37.75645" lon="-119.60165">
        <ele>1892.0</ele>
      </trkpt>
      <trkpt lat="37.75651" lon="-119.60158">
        <ele>1892.0</ele>
      </trkpt>
      <trkpt lat="37.75657" lon="-119.60141">
        <ele>1847.0</ele>
      </trkpt>
      <trkpt lat="37.75664" lon="-119.60183">
        <ele>1992.0</ele>
      </trkpt>
      <trkpt lat="37.75672" lon="-119.60178">
        <ele>1906.0</ele>
      </trkpt>
      <trkpt lat="37.75691" lon="-119.60145">
        <ele>1860.0</ele>
      </trkpt>
      <trkpt lat="37.75701" lon="-119.60137">
        <ele>1860.0</ele>
      </trkpt>
      <trkpt lat="37.75707" lon="-119.60109">
        <ele>1859.0</ele>
      </trkpt>
      <trkpt lat="37.75709" lon="-119.6011">
        <ele>1880.0</ele>
      </trkpt>
      <trkpt lat="37.75713" lon="-119.60126">
        <ele>1905.0</ele>
      </trkpt>
      <trkpt lat="37.75737" lon="-119.60171">
        <ele>1934.0</ele>
      </trkpt>
      <trkpt lat="37.75747" lon="-119.60151">
        <ele>1920.0</ele>
      </trkpt>
      <trkpt lat="37.75757" lon="-119.60078">
        <ele>1893.0</ele>
      </trkpt>
      <trkpt lat="37.75762" lon="-119.60075">
        <ele>1893.0</ele>
      </trkpt>
      <trkpt lat="37.75768" lon="-119.60081">
        <ele>1913.0</ele>
      </trkpt>
      <trkpt lat="37.75782" lon="-119.60111">
        <ele>1916.0</ele>
      </trkpt>
      <trkpt lat="37.75786" lon="-119.60083">
        <ele>1913.0</ele>
      </trkpt>
      <trkpt lat="37.75791" lon="-119.60069">
        <ele>1917.0</ele>
      </trkpt>
      <trkpt lat="37.75793" lon="-119.60072">
        <ele>1932.0</ele>
      </trkpt>
      <trkpt lat="37.75799" lon="-119.60105">
        <ele>1936.0</ele>
      </trkpt>
      <trkpt lat="37.75802" lon="-119.60067">
        <ele>1933.0</ele>
      </trkpt>
      <trkpt lat="37.75809" lon="-119.6005">
        <ele>1933.0</ele>
      </trkpt>
      <trkpt lat="37.75812" lon="-119.60054">
        <ele>1933.0</ele>
      </trkpt>
      <trkpt lat="37.75819" lon="-119.60031">
        <ele>1937.0</ele>
      </trkpt>
      <trkpt lat="37.75822" lon="-119.60027">
        <ele>1951.0</ele>
      </trkpt>
      <trkpt lat="37.75837" lon="-119.60054">
        <ele>1949.0</ele>
      </trkpt>
      <trkpt lat="37.7584" lon="-119.60049">
        <ele>1949.0</ele>
      </trkpt>
      <trkpt lat="37.75842" lon="-119.60026">
        <ele>1951.0</ele>
      </trkpt>
      <trkpt lat="37.7585" lon="-119.60043">
        <ele>1975.0</ele>
      </trkpt>
      <trkpt lat="37.75854" lon="-119.60036">
        <ele>1975.0</ele>
      </trkpt>
      <trkpt lat="37.75852" lon="-119.60005">
        <ele>1981.0</ele>
      </trkpt>
      <trkpt lat="37.7586" lon="-119.59998">
        <ele>1981.0</ele>
      </trkpt>
      <trkpt lat="37.75865" lon="-119.59977">
        <ele>1988.0</ele>
      </trkpt>
      <trkpt lat="37.75871" lon="-119.59974">
        <ele>1988.0</ele>
      </trkpt>
      <trkpt lat="37.75874" lon="-119.59966">
        <ele>1988.0</ele>
      </trkpt>
      <trkpt lat="37.75881" lon="-119.59958">
        <ele>2002.0</ele>
      </trkpt>
      <trkpt lat="37.75889" lon="-119.59943">
        <ele>2002.0</ele>
      </trkpt>
      <trkpt lat="37.75894" lon="-119.5994">
        <ele>2002.0</ele>
      </trkpt>
      <trkpt lat="37.75927" lon="-119.59937">
        <ele>2009.0</ele>
      </trkpt>
      <trkpt lat="37.75953" lon="-119.59928">
        <ele>2019.0</ele>
      </trkpt>
      <trkpt lat="37.75964" lon="-119.59905">
        <ele>2029.0</ele>
      </trkpt>
      <trkpt lat="37.75964" lon="-119.59905">
        <ele>2029.0</ele>
      </trkpt>
      <trkpt lat="37.75962" lon="-119.5988">
        <ele>2032.0</ele>
      </trkpt>
      <trkpt lat="37.75949" lon="-119.59871">
        <ele>2030.0</ele>
      </trkpt>
      <trkpt lat="37.75935" lon="-119.5987">
        <ele>2030.0</ele>
      </trkpt>
      <trkpt lat="37.75935" lon="-119.59853">
        <ele>2030.0</ele>
      </trkpt>
      <trkpt lat="37.7593" lon="-119.59845">
        <ele>2034.0</ele>
      </trkpt>
      <trkpt lat="37.75926" lon="-119.59828">
        <ele>2034.0</ele>
      </trkpt>
      <trkpt lat="37.75915" lon="-119.59821">
        <ele>2034.0</ele>
      </trkpt>
      <trkpt lat="37.75915" lon="-119.59821">
        <ele>2034.0</ele>
      </trkpt>
      <trkpt lat="37.75874" lon="-119.59801">
        <ele>2032.0</ele>
      </trkpt>
      <trkpt lat="37.75853" lon="-119.59787">
        <ele>2033.0</ele>
      </trkpt>
      <trkpt lat="37.75825" lon="-119.59777">
        <ele>2031.0</ele>
      </trkpt>
      <trkpt lat="37.75802" lon="-119.59779">
        <ele>2027.0</ele>
      </trkpt>
      <trkpt lat="37.75732" lon="-119.59776">
        <ele>1929.0</ele>
      </trkpt>
      <trkpt lat="37.75709" lon="-119.59767">
        <ele>1929.0</ele>
      </trkpt>
      <trkpt lat="37.75706" lon="-119.59755">
        <ele>1847.0</ele>
      </trkpt>
      <trkpt lat="37.75707" lon="-119.59734">
        <ele>1843.0</ele>
      </trkpt>
      <trkpt lat="37.75707" lon="-119.59734">
        <ele>1843.0</ele>
      </trkpt>
      <trkpt lat="37.75712" lon="-119.59717">
        <ele>1927.0</ele>
      </trkpt>
      <trkpt lat="37.75712" lon="-119.59717">
        <ele>1927.0</ele>
      </trkpt>
      <trkpt lat="37.7571536806378" lon="-119.59686687426">
        <ele>1929.0</ele>
      </trkpt>
      <trkpt lat="37.7571536806378" lon="-119.59686687426">
        <ele>1929.0</ele>
      </trkpt>
      <trkpt lat="37.75712" lon="-119.59717">
        <ele>1927.0</ele>
      </trkpt>
      <trkpt lat="37.75712" lon="-119.59717">
        <ele>1927.0</ele>
      </trkpt>
      <trkpt lat="37.75707" lon="-119.59734">
        <ele>1843.0</ele>
      </trkpt>
      <trkpt lat="37.75707" lon="-119.59734">
        <ele>1843.0</ele>
      </trkpt>
      <trkpt lat="37.75706" lon="-119.59755">
        <ele>1847.0</ele>
      </trkpt>
      <trkpt lat="37.75709" lon="-119.59767">
        <ele>1929.0</ele>
      </trkpt>
      <trkpt lat="37.75732" lon="-119.59776">
        <ele>1929.0</ele>
      </trkpt>
      <trkpt lat="37.75802" lon="-119.59779">
        <ele>2027.0</ele>
      </trkpt>
      <trkpt lat="37.75825" lon="-119.59777">
        <ele>2031.0</ele>
      </trkpt>
      <trkpt lat="37.75853" lon="-119.59787">
        <ele>2033.0</ele>
      </trkpt>
      <trkpt lat="37.75874" lon="-119.59801">
        <ele>2032.0</ele>
      </trkpt>
      <trkpt lat="37.75915" lon="-119.59821">
        <ele>2034.0</ele>
      </trkpt>
      <trkpt lat="37.75915" lon="-119.59821">
        <ele>2034.0</ele>
      </trkpt>
      <trkpt lat="37.75926" lon="-119.59828">
        <ele>2034.0</ele>
      </trkpt>
      <trkpt lat="37.7593" lon="-119.59845">
        <ele>2034.0</ele>
      </trkpt>
      <trkpt lat="37.75935" lon="-119.59853">
        <ele>2030.0</ele>
      </trkpt>
      <trkpt lat="37.75935" lon="-119.5987">
        <ele>2030.0</ele>
      </trkpt>
      <trkpt lat="37.75949" lon="-119.59871">
        <ele>2030.0</ele>
      </trkpt>
      <trkpt lat="37.75962" lon="-119.5988">
        <ele>2032.0</ele>
      </trkpt>
      <trkpt lat="37.75964" lon="-119.59905">
        <ele>2029.0</ele>
      </trkpt>
      <trkpt lat="37.75964" lon="-119.59905">
        <ele>2029.0</ele>
      </trkpt>
      <trkpt lat="37.75953" lon="-119.59928">
        <ele>2019.0</ele>
      </trkpt>
      <trkpt lat="37.75927" lon="-119.59937">
        <ele>2009.0</ele>
      </trkpt>
      <trkpt lat="37.75894" lon="-119.5994">
        <ele>2002.0</ele>
      </trkpt>
      <trkpt lat="37.75889" lon="-119.59943">
        <ele>2002.0</ele>
      </trkpt>
      <trkpt lat="37.75881" lon="-119.59958">
        <ele>2002.0</ele>
      </trkpt>
      <trkpt lat="37.75874" lon="-119.59966">
        <ele>1988.0</ele>
      </trkpt>
      <trkpt lat="37.75871" lon="-119.59974">
        <ele>1988.0</ele>
      </trkpt>
      <trkpt lat="37.75865" lon="-119.59977">
        <ele>1988.0</ele>
      </trkpt>
      <trkpt lat="37.7586" lon="-119.59998">
        <ele>1981.0</ele>
      </trkpt>
      <trkpt lat="37.75852" lon="-119.60005">
        <ele>1981.0</ele>
      </trkpt>
      <trkpt lat="37.75854" lon="-119.60036">
        <ele>1975.0</ele>
      </trkpt>
      <trkpt lat="37.7585" lon="-119.60043">
        <ele>1975.0</ele>
      </trkpt>
      <trkpt lat="37.75842" lon="-119.60026">
        <ele>1951.0</ele>
      </trkpt>
      <trkpt lat="37.7584" lon="-119.60049">
        <ele>1949.0</ele>
      </trkpt>
      <trkpt lat="37.75837" lon="-119.60054">
        <ele>1949.0</ele>
      </trkpt>
      <trkpt lat="37.75822" lon="-119.60027">
        <ele>1951.0</ele>
      </trkpt>
      <trkpt lat="37.75819" lon="-119.60031">
        <ele>1937.0</ele>
      </trkpt>
      <trkpt lat="37.75812" lon="-119.60054">
        <ele>1933.0</ele>
      </trkpt>
      <trkpt lat="37.75809" lon="-119.6005">
        <ele>1933.0</ele>
      </trkpt>
      <trkpt lat="37.75802" lon="-119.60067">
        <ele>1933.0</ele>
      </trkpt>
      <trkpt lat="37.75799" lon="-119.60105">
        <ele>1936.0</ele>
      </trkpt>
      <trkpt lat="37.75793" lon="-119.60072">
        <ele>1932.0</ele>
      </trkpt>
      <trkpt lat="37.75791" lon="-119.60069">
        <ele>1917.0</ele>
      </trkpt>
      <trkpt lat="37.75786" lon="-119.60083">
        <ele>1913.0</ele>
      </trkpt>
      <trkpt lat="37.75782" lon="-119.60111">
        <ele>1916.0</ele>
      </trkpt>
      <trkpt lat="37.75768" lon="-119.60081">
        <ele>1913.0</ele>
      </trkpt>
      <trkpt lat="37.75762" lon="-119.60075">
        <ele>1893.0</ele>
      </trkpt>
      <trkpt lat="37.75757" lon="-119.60078">
        <ele>1893.0</ele>
      </trkpt>
      <trkpt lat="37.75747" lon="-119.60151">
        <ele>1920.0</ele>
      </trkpt>
      <trkpt lat="37.75737" lon="-119.60171">
        <ele>1934.0</ele>
      </trkpt>
      <trkpt lat="37.75713" lon="-119.60126">
        <ele>1905.0</ele>
      </trkpt>
      <trkpt lat="37.75709" lon="-119.6011">
        <ele>1880.0</ele>
      </trkpt>
      <trkpt lat="37.75707" lon="-119.60109">
        <ele>1859.0</ele>
      </trkpt>
      <trkpt lat="37.75701" lon="-119.60137">
        <ele>1860.0</ele>
      </trkpt>
      <trkpt lat="37.75691" lon="-119.60145">
        <ele>1860.0</ele>
      </trkpt>
      <trkpt lat="37.75672" lon="-119.60178">
        <ele>1906.0</ele>
      </trkpt>
      <trkpt lat="37.75664" lon="-119.60183">
        <ele>1992.0</ele>
      </trkpt>
      <trkpt lat="37.75657" lon="-119.60141">
        <ele>1847.0</ele>
      </trkpt>
      <trkpt lat="37.75651" lon="-119.60158">
        <ele>1892.0</ele>
      </trkpt>
      <trkpt lat="37.75645" lon="-119.60165">
        <ele>1892.0</ele>
      </trkpt>
      <trkpt lat="37.75639" lon="-119.60156">
        <ele>1892.0</ele>
      </trkpt>
      <trkpt lat="37.75633" lon="-119.60173">
        <ele>1892.0</ele>
      </trkpt>
      <trkpt lat="37.75622" lon="-119.60185">
        <ele>1907.0</ele>
      </trkpt>
      <trkpt lat="37.75615" lon="-119.60208">
        <ele>1907.0</ele>
      </trkpt>
      <trkpt lat="37.75609" lon="-119.60203">
        <ele>1907.0</ele>
      </trkpt>
      <trkpt lat="37.75599" lon="-119.60205">
        <ele>1907.0</ele>
      </trkpt>
      <trkpt lat="37.756" lon="-119.60194">
        <ele>1907.0</ele>
      </trkpt>
      <trkpt lat="37.75597" lon="-119.60194">
        <ele>1875.0</ele>
      </trkpt>
      <trkpt lat="37.75591" lon="-119.60203">
        <ele>1875.0</ele>
      </trkpt>
      <trkpt lat="37.75553" lon="-119.6022">
        <ele>1909.0</ele>
      </trkpt>
      <trkpt lat="37.75546" lon="-119.60215">
        <ele>1909.0</ele>
      </trkpt>
      <trkpt lat="37.75563" lon="-119.60176">
        <ele>1791.0</ele>
      </trkpt>
      <trkpt lat="37.7556" lon="-119.60174">
        <ele>1791.0</ele>
      </trkpt>
      <trkpt lat="37.7554" lon="-119.6018">
        <ele>1757.0</ele>
      </trkpt>
      <trkpt lat="37.75519" lon="-119.60181">
        <ele>1806.0</ele>
      </trkpt>
      <trkpt lat="37.75518" lon="-119.60177">
        <ele>1757.0</ele>
      </trkpt>
      <trkpt lat="37.75533" lon="-119.60156">
        <ele>1757.0</ele>
      </trkpt>
      <trkpt lat="37.75529" lon="-119.60154">
        <ele>1757.0</ele>
      </trkpt>
      <trkpt lat="37.75512" lon="-119.60158">
        <ele>1734.0</ele>
      </trkpt>
      <trkpt lat="37.75522" lon="-119.60146">
        <ele>1734.0</ele>
      </trkpt>
      <trkpt lat="37.75517" lon="-119.6014">
        <ele>1734.0</ele>
      </trkpt>
      <trkpt lat="37.75504" lon="-119.6015">
        <ele>1713.0</ele>
      </trkpt>
      <trkpt lat="37.75484" lon="-119.60152">
        <ele>1709.0</ele>
      </trkpt>
      <trkpt lat="37.75493" lon="-119.60143">
        <ele>1713.0</ele>
      </trkpt>
      <trkpt lat="37.75499" lon="-119.60127">
        <ele>1713.0</ele>
      </trkpt>
      <trkpt lat="37.75482" lon="-119.60132">
        <ele>1709.0</ele>
      </trkpt>
      <trkpt lat="37.75473" lon="-119.60122">
        <ele>1694.0</ele>
      </trkpt>
      <trkpt lat="37.75475" lon="-119.60115">
        <ele>1694.0</ele>
      </trkpt>
      <trkpt lat="37.7548" lon="-119.60109">
        <ele>1694.0</ele>
      </trkpt>
      <trkpt lat="37.7546" lon="-119.60106">
        <ele>1694.0</ele>
      </trkpt>
      <trkpt lat="37.7546" lon="-119.60101">
        <ele>1694.0</ele>
      </trkpt>
      <trkpt lat="37.75474" lon="-119.60094">
        <ele>1675.0</ele>
      </trkpt>
      <trkpt lat="37.75482" lon="-119.60084">
        <ele>1675.0</ele>
      </trkpt>
      <trkpt lat="37.75479" lon="-119.6008">
        <ele>1675.0</ele>
      </trkpt>
      <trkpt lat="37.7546511987096" lon="-119.600790746581">
        <ele>1675.0</ele>
      </trkpt>
      <trkpt lat="37.75465119871" lon="-119.600790746581">
        <ele>1675.0</ele>
      </trkpt>
      <trkpt lat="37.75449" lon="-119.60078">
        <ele>1676.0</ele>
      </trkpt>
      <trkpt lat="37.75449" lon="-119.60068">
        <ele>1658.0</ele>
      </trkpt>
      <trkpt lat="37.7547" lon="-119.60043">
        <ele>1662.0</ele>
      </trkpt>
      <trkpt lat="37.75497" lon="-119.60017">
        <ele>1663.0</ele>
      </trkpt>
      <trkpt lat="37.75483" lon="-119.60014">
        <ele>1647.0</ele>
      </trkpt>
      <trkpt lat="37.75501" lon="-119.59998">
        <ele>1649.0</ele>
      </trkpt>
      <trkpt lat="37.75503" lon="-119.59992">
        <ele>1649.0</ele>
      </trkpt>
      <trkpt lat="37.75497" lon="-119.59989">
        <ele>1649.0</ele>
      </trkpt>
      <trkpt lat="37.75444" lon="-119.59989">
        <ele>1627.0</ele>
      </trkpt>
      <trkpt lat="37.75443" lon="-119.59983">
        <ele>1611.0</ele>
      </trkpt>
      <trkpt lat="37.75448" lon="-119.59965">
        <ele>1611.0</ele>
      </trkpt>
      <trkpt lat="37.75438" lon="-119.5996">
        <ele>1611.0</ele>
      </trkpt>
      <trkpt lat="37.75427" lon="-119.59967">
        <ele>1607.0</ele>
      </trkpt>
      <trkpt lat="37.75422" lon="-119.59953">
        <ele>1585.0</ele>
      </trkpt>
      <trkpt lat="37.75409" lon="-119.59962">
        <ele>1607.0</ele>
      </trkpt>
      <trkpt lat="37.75402" lon="-119.5996">
        <ele>1603.0</ele>
      </trkpt>
      <trkpt lat="37.75402" lon="-119.5995">
        <ele>1584.0</ele>
      </trkpt>
      <trkpt lat="37.75409" lon="-119.59933">
        <ele>1585.0</ele>
      </trkpt>
      <trkpt lat="37.75407" lon="-119.59927">
        <ele>1577.0</ele>
      </trkpt>
      <trkpt lat="37.75387" lon="-119.59933">
        <ele>1584.0</ele>
      </trkpt>
      <trkpt lat="37.75383" lon="-119.59928">
        <ele>1571.0</ele>
      </trkpt>
      <trkpt lat="37.75395" lon="-119.59911">
        <ele>1571.0</ele>
      </trkpt>
      <trkpt lat="37.75371" lon="-119.59916">
        <ele>1562.0</ele>
      </trkpt>
      <trkpt lat="37.75384" lon="-119.59897">
        <ele>1554.0</ele>
      </trkpt>
      <trkpt lat="37.75365" lon="-119.59901">
        <ele>1546.0</ele>
      </trkpt>
      <trkpt lat="37.75351" lon="-119.59915">
        <ele>1562.0</ele>
      </trkpt>
      <trkpt lat="37.75334" lon="-119.59912">
        <ele>1563.0</ele>
      </trkpt>
      <trkpt lat="37.75334" lon="-119.59912">
        <ele>1563.0</ele>
      </trkpt>
      <trkpt lat="37.75243" lon="-119.59905">
        <ele>1557.0</ele>
      </trkpt>
      <trkpt lat="37.75128" lon="-119.59872">
        <ele>1527.0</ele>
      </trkpt>
      <trkpt lat="37.75108" lon="-119.59863">
        <ele>1534.0</ele>
      </trkpt>
      <trkpt lat="37.75086" lon="-119.59862">
        <ele>1529.0</ele>
      </trkpt>
      <trkpt lat="37.75072" lon="-119.59858">
        <ele>1529.0</ele>
      </trkpt>
      <trkpt lat="37.75076" lon="-119.59864">
        <ele>1529.0</ele>
      </trkpt>
      <trkpt lat="37.75059" lon="-119.59865">
        <ele>1542.0</ele>
      </trkpt>
      <trkpt lat="37.75048" lon="-119.5986">
        <ele>1542.0</ele>
      </trkpt>
      <trkpt lat="37.7503" lon="-119.59872">
        <ele>1536.0</ele>
      </trkpt>
      <trkpt lat="37.75015" lon="-119.59912">
        <ele>1563.0</ele>
      </trkpt>
      <trkpt lat="37.74991" lon="-119.59953">
        <ele>1561.0</ele>
      </trkpt>
      <trkpt lat="37.74982" lon="-119.59975">
        <ele>1554.0</ele>
      </trkpt>
      <trkpt lat="37.74974" lon="-119.59984">
        <ele>1554.0</ele>
      </trkpt>
      <trkpt lat="37.74951" lon="-119.60027">
        <ele>1560.0</ele>
      </trkpt>
      <trkpt lat="37.74937" lon="-119.60083">
        <ele>1574.0</ele>
      </trkpt>
      <trkpt lat="37.74923" lon="-119.60096">
        <ele>1563.0</ele>
      </trkpt>
      <trkpt lat="37.74904" lon="-119.60105">
        <ele>1571.0</ele>
      </trkpt>
      <trkpt lat="37.74884" lon="-119.60144">
        <ele>1567.0</ele>
      </trkpt>
      <trkpt lat="37.74875" lon="-119.60148">
        <ele>1557.0</ele>
      </trkpt>
      <trkpt lat="37.74869" lon="-119.60165">
        <ele>1572.0</ele>
      </trkpt>
      <trkpt lat="37.74851" lon="-119.60196">
        <ele>1590.0</ele>
      </trkpt>
      <trkpt lat="37.74833" lon="-119.60209">
        <ele>1594.0</ele>
      </trkpt>
      <trkpt lat="37.74817" lon="-119.60214">
        <ele>1586.0</ele>
      </trkpt>
      <trkpt lat="37.7478" lon="-119.60206">
        <ele>1566.0</ele>
      </trkpt>
      <trkpt lat="37.74752" lon="-119.6021">
        <ele>1563.0</ele>
      </trkpt>
      <trkpt lat="37.74716" lon="-119.60244">
        <ele>1557.0</ele>
      </trkpt>
      <trkpt lat="37.74705" lon="-119.60272">
        <ele>1543.0</ele>
      </trkpt>
      <trkpt lat="37.7469" lon="-119.60293">
        <ele>1554.0</ele>
      </trkpt>
      <trkpt lat="37.74684" lon="-119.60296">
        <ele>1554.0</ele>
      </trkpt>
      <trkpt lat="37.74676" lon="-119.60295">
        <ele>1523.0</ele>
      </trkpt>
      <trkpt lat="37.74669" lon="-119.60288">
        <ele>1512.0</ele>
      </trkpt>
      <trkpt lat="37.74663" lon="-119.60288">
        <ele>1512.0</ele>
      </trkpt>
      <trkpt lat="37.74654" lon="-119.60305">
        <ele>1523.0</ele>
      </trkpt>
      <trkpt lat="37.7465" lon="-119.60308">
        <ele>1474.0</ele>
      </trkpt>
      <trkpt lat="37.74652" lon="-119.60323">
        <ele>1484.0</ele>
      </trkpt>
      <trkpt lat="37.74643" lon="-119.60318">
        <ele>1474.0</ele>
      </trkpt>
      <trkpt lat="37.74637" lon="-119.60308">
        <ele>1474.0</ele>
      </trkpt>
      <trkpt lat="37.74633" lon="-119.60313">
        <ele>1474.0</ele>
      </trkpt>
      <trkpt lat="37.74644" lon="-119.60353">
        <ele>1491.0</ele>
      </trkpt>
      <trkpt lat="37.74629" lon="-119.60347">
        <ele>1484.0</ele>
      </trkpt>
      <trkpt lat="37.74644" lon="-119.60378">
        <ele>1488.0</ele>
      </trkpt>
      <trkpt lat="37.74628" lon="-119.60365">
        <ele>1491.0</ele>
      </trkpt>
      <trkpt lat="37.7463" lon="-119.60377">
        <ele>1488.0</ele>
      </trkpt>
      <trkpt lat="37.74636" lon="-119.6039">
        <ele>1488.0</ele>
      </trkpt>
      <trkpt lat="37.74622" lon="-119.60375">
        <ele>1431.0</ele>
      </trkpt>
      <trkpt lat="37.74627" lon="-119.6039">
        <ele>1488.0</ele>
      </trkpt>
      <trkpt lat="37.74615" lon="-119.60382">
        <ele>1438.0</ele>
      </trkpt>
      <trkpt lat="37.74612" lon="-119.60383">
        <ele>1438.0</ele>
      </trkpt>
      <trkpt lat="37.74612" lon="-119.60389">
        <ele>1438.0</ele>
      </trkpt>
      <trkpt lat="37.7463" lon="-119.60407">
        <ele>1480.0</ele>
      </trkpt>
      <trkpt lat="37.74622" lon="-119.60427">
        <ele>1444.0</ele>
      </trkpt>
      <trkpt lat="37.74623" lon="-119.6044">
        <ele>1450.0</ele>
      </trkpt>
      <trkpt lat="37.74619" lon="-119.60448">
        <ele>1450.0</ele>
      </trkpt>
      <trkpt lat="37.74622" lon="-119.60459">
        <ele>1451.0</ele>
      </trkpt>
      <trkpt lat="37.74622" lon="-119.60476">
        <ele>1451.0</ele>
      </trkpt>
      <trkpt lat="37.7462" lon="-119.60482">
        <ele>1451.0</ele>
      </trkpt>
      <trkpt lat="37.74616" lon="-119.60474">
        <ele>1451.0</ele>
      </trkpt>
      <trkpt lat="37.74613" lon="-119.6048">
        <ele>1451.0</ele>
      </trkpt>
      <trkpt lat="37.74613" lon="-119.6048">
        <ele>1451.0</ele>
      </trkpt>
      <trkpt lat="37.74602" lon="-119.60531">
        <ele>1454.0</ele>
      </trkpt>
      <trkpt lat="37.74602" lon="-119.60531">
        <ele>1454.0</ele>
      </trkpt>
      <trkpt lat="37.74599" lon="-119.60593">
        <ele>1459.0</ele>
      </trkpt>
      <trkpt lat="37.74587" lon="-119.60611">
        <ele>1449.0</ele>
      </trkpt>
      <trkpt lat="37.74573" lon="-119.60612">
        <ele>1449.0</ele>
      </trkpt>
      <trkpt lat="37.74564" lon="-119.60628">
        <ele>1450.0</ele>
      </trkpt>
      <trkpt lat="37.74545" lon="-119.6063">
        <ele>1450.0</ele>
      </trkpt>
      <trkpt lat="37.74534" lon="-119.6064">
        <ele>1421.0</ele>
      </trkpt>
      <trkpt lat="37.74535" lon="-119.60633">
        <ele>1421.0</ele>
      </trkpt>
      <trkpt lat="37.74521" lon="-119.60637">
        <ele>1421.0</ele>
      </trkpt>
      <trkpt lat="37.74533" lon="-119.60621">
        <ele>1409.0</ele>
      </trkpt>
      <trkpt lat="37.7451" lon="-119.60619">
        <ele>1394.0</ele>
      </trkpt>
      <trkpt lat="37.74519" lon="-119.60601">
        <ele>1409.0</ele>
      </trkpt>
      <trkpt lat="37.745" lon="-119.60597">
        <ele>1387.0</ele>
      </trkpt>
      <trkpt lat="37.74515" lon="-119.60579">
        <ele>1401.0</ele>
      </trkpt>
      <trkpt lat="37.7449" lon="-119.60576">
        <ele>1387.0</ele>
      </trkpt>
      <trkpt lat="37.74501" lon="-119.60559">
        <ele>1376.0</ele>
      </trkpt>
      <trkpt lat="37.74483" lon="-119.60555">
        <ele>1366.0</ele>
      </trkpt>
      <trkpt lat="37.74493" lon="-119.6054">
        <ele>1364.0</ele>
      </trkpt>
      <trkpt lat="37.74479" lon="-119.60539">
        <ele>1355.0</ele>
      </trkpt>
      <trkpt lat="37.74488" lon="-119.60525">
        <ele>1364.0</ele>
      </trkpt>
      <trkpt lat="37.74472" lon="-119.60523">
        <ele>1355.0</ele>
      </trkpt>
      <trkpt lat="37.74478" lon="-119.60506">
        <ele>1342.0</ele>
      </trkpt>
      <trkpt lat="37.74459" lon="-119.60511">
        <ele>1342.0</ele>
      </trkpt>
      <trkpt lat="37.74469" lon="-119.60492">
        <ele>1342.0</ele>
      </trkpt>
      <trkpt lat="37.74451" lon="-119.60494">
        <ele>1335.0</ele>
      </trkpt>
      <trkpt lat="37.74461" lon="-119.60476">
        <ele>1327.0</ele>
      </trkpt>
      <trkpt lat="37.74439" lon="-119.6048">
        <ele>1314.0</ele>
      </trkpt>
      <trkpt lat="37.74432" lon="-119.60478">
        <ele>1314.0</ele>
      </trkpt>
      <trkpt lat="37.7444" lon="-119.60463">
        <ele>1314.0</ele>
      </trkpt>
      <trkpt lat="37.7445" lon="-119.60427">
        <ele>1301.0</ele>
      </trkpt>
      <trkpt lat="37.74435" lon="-119.60424">
        <ele>1301.0</ele>
      </trkpt>
      <trkpt lat="37.74413" lon="-119.60431">
        <ele>1301.0</ele>
      </trkpt>
      <trkpt lat="37.74421" lon="-119.60411">
        <ele>1291.0</ele>
      </trkpt>
      <trkpt lat="37.74405" lon="-119.60408">
        <ele>1291.0</ele>
      </trkpt>
      <trkpt lat="37.74415" lon="-119.60391">
        <ele>1281.0</ele>
      </trkpt>
      <trkpt lat="37.74396" lon="-119.60397">
        <ele>1270.0</ele>
      </trkpt>
      <trkpt lat="37.74396" lon="-119.60389">
        <ele>1270.0</ele>
      </trkpt>
      <trkpt lat="37.74404" lon="-119.60375">
        <ele>1271.0</ele>
      </trkpt>
      <trkpt lat="37.74379" lon="-119.60383">
        <ele>1270.0</ele>
      </trkpt>
      <trkpt lat="37.74382" lon="-119.60362">
        <ele>1262.0</ele>
      </trkpt>
      <trkpt lat="37.74368" lon="-119.60372">
        <ele>1257.0</ele>
      </trkpt>
      <trkpt lat="37.74365" lon="-119.60353">
        <ele>1257.0</ele>
      </trkpt>
      <trkpt lat="37.74353" lon="-119.60367">
        <ele>1257.0</ele>
      </trkpt>
      <trkpt lat="37.74353" lon="-119.6035">
        <ele>1257.0</ele>
      </trkpt>
      <trkpt lat="37.74337" lon="-119.60358">
        <ele>1251.0</ele>
      </trkpt>
      <trkpt lat="37.74333" lon="-119.60324">
        <ele>1247.0</ele>
      </trkpt>
      <trkpt lat="37.74324" lon="-119.60321">
        <ele>1247.0</ele>
      </trkpt>
      <trkpt lat="37.74316" lon="-119.60337">
        <ele>1245.0</ele>
      </trkpt>
      <trkpt lat="37.74307" lon="-119.60345">
        <ele>1245.0</ele>
      </trkpt>
      <trkpt lat="37.74304" lon="-119.60344">
        <ele>1245.0</ele>
      </trkpt>
      <trkpt lat="37.74301" lon="-119.60333">
        <ele>1245.0</ele>
      </trkpt>
      <trkpt lat="37.74293" lon="-119.60341">
        <ele>1245.0</ele>
      </trkpt>
      <trkpt lat="37.74281" lon="-119.60325">
        <ele>1238.0</ele>
      </trkpt>
      <trkpt lat="37.74272" lon="-119.60319">
        <ele>1233.0</ele>
      </trkpt>
      <trkpt lat="37.74272" lon="-119.60319">
        <ele>1233.0</ele>
      </trkpt>
      <trkpt lat="37.7426205380524" lon="-119.602665564276">
        <ele>1223.0</ele>
      </trkpt>
      <trkpt lat="37.7426205380524" lon="-119.602665564276">
        <ele>1223.0</ele>
      </trkpt>
      <trkpt lat="37.74261" lon="-119.60261">
        <ele>1220.0</ele>
      </trkpt>
      <trkpt lat="37.74256" lon="-119.60252">
        <ele>1220.0</ele>
      </trkpt>
      <trkpt lat="37.74252" lon="-119.60238">
        <ele>1220.0</ele>
      </trkpt>
      <trkpt lat="37.74246" lon="-119.60233">
        <ele>1218.0</ele>
      </trkpt>
      <trkpt lat="37.74243" lon="-119.60225">
        <ele>1218.0</ele>
      </trkpt>
      <trkpt lat="37.74237" lon="-119.60218">
        <ele>1218.0</ele>
      </trkpt>
      <trkpt lat="37.74237" lon="-119.60202">
        <ele>1215.0</ele>
      </trkpt>
      <trkpt lat="37.7423694214804" lon="-119.602023478586">
        <ele>1215.0</ele>
      </trkpt>
      <trkpt lat="37.74232" lon="-119.60201">
        <ele>1215.0</ele>
      </trkpt>
      <trkpt lat="37.7422391623177" lon="-119.601921583272">
        <ele>1215.0</ele>
      </trkpt>
      <trkpt lat="37.7422391623177" lon="-119.601921583272">
        <ele>1215.0</ele>
      </trkpt>
      <trkpt lat="37.742" lon="-119.60166">
        <ele>1216.0</ele>
      </trkpt>
      <trkpt lat="37.742" lon="-119.60166">
        <ele>1216.0</ele>
      </trkpt>
      <trkpt lat="37.74186" lon="-119.60161">
        <ele>1216.0</ele>
      </trkpt>
      <trkpt lat="37.7418320095015" lon="-119.601661561445">
        <ele>1216.0</ele>
      </trkpt>
      <trkpt lat="37.7418320095015" lon="-119.601661561445">
        <ele>1216.0</ele>
      </trkpt>
      <trkpt lat="37.74167" lon="-119.60196">
        <ele>1219.0</ele>
      </trkpt>
      <trkpt lat="37.74167" lon="-119.60196">
        <ele>1219.0</ele>
      </trkpt>
      <trkpt lat="37.7418004306421" lon="-119.602025215321">
        <ele>1219.0</ele>
      </trkpt>
      <trkpt lat="37.7418004306421" lon="-119.602025215321">
        <ele>1219.0</ele>
      </trkpt>
      <trkpt lat="37.74181" lon="-119.60203">
        <ele>1219.0</ele>
      </trkpt>
      <trkpt lat="37.7419099851705" lon="-119.601922873032">
        <ele>1219.0</ele>
      </trkpt>
    </trkseg>
  </trk>
</gpx>
