<?xml version="1.0" encoding="UTF-8"?>
<gpx xmlns:xsi="http://www.w3.org/2001/XMLSchema-instance" version="1.1" creator="The Outbound Collective, Inc. 1.1.1 -- https://www.theoutbound.com" xsi:schemaLocation="http://www.topografix.com/GPX/1/1 http://www.topografix.com/GPX/1/1/gpx.xsd">
  <metadata>
    <name/>
    <time>2026-02-19T22:01:28+00:00</time>
    <bound minlat="36.16081" minlon="-115.45085" maxlat="36.16664" maxlon="-115.43791"/>
  </metadata>
  <trk>
    <name/>
    <trkseg>
      <trkpt lat="36.16237007924543" lon="-115.4503333568573">
        <ele>1318.0</ele>
      </trkpt>
      <trkpt lat="36.16237137264883" lon="-115.4503313725379">
        <ele>1318.0</ele>
      </trkpt>
      <trkpt lat="36.16242" lon="-115.45038">
        <ele>1318.0</ele>
      </trkpt>
      <trkpt lat="36.16243" lon="-115.45034">
        <ele>1318.0</ele>
      </trkpt>
      <trkpt lat="36.16243" lon="-115.45034">
        <ele>1318.0</ele>
      </trkpt>
      <trkpt lat="36.16254" lon="-115.45034">
        <ele>1318.0</ele>
      </trkpt>
      <trkpt lat="36.16325" lon="-115.45008">
        <ele>1336.0</ele>
      </trkpt>
      <trkpt lat="36.16332" lon="-115.45009">
        <ele>1336.0</ele>
      </trkpt>
      <trkpt lat="36.16340954915081" lon="-115.4501944740093">
        <ele>1325.0</ele>
      </trkpt>
      <trkpt lat="36.16340954915081" lon="-115.4501944740093">
        <ele>1325.0</ele>
      </trkpt>
      <trkpt lat="36.16356" lon="-115.45037">
        <ele>1327.0</ele>
      </trkpt>
      <trkpt lat="36.16359" lon="-115.45046">
        <ele>1322.0</ele>
      </trkpt>
      <trkpt lat="36.16368" lon="-115.4505">
        <ele>1322.0</ele>
      </trkpt>
      <trkpt lat="36.16374" lon="-115.45063">
        <ele>1322.0</ele>
      </trkpt>
      <trkpt lat="36.16395" lon="-115.45083">
        <ele>1324.0</ele>
      </trkpt>
      <trkpt lat="36.16411024646207" lon="-115.450843934475">
        <ele>1326.0</ele>
      </trkpt>
      <trkpt lat="36.16411024646207" lon="-115.450843934475">
        <ele>1326.0</ele>
      </trkpt>
      <trkpt lat="36.16418" lon="-115.45085">
        <ele>1326.0</ele>
      </trkpt>
      <trkpt lat="36.16496" lon="-115.45079">
        <ele>1329.0</ele>
      </trkpt>
      <trkpt lat="36.16496" lon="-115.45079">
        <ele>1329.0</ele>
      </trkpt>
      <trkpt lat="36.16496" lon="-115.45079">
        <ele>1329.0</ele>
      </trkpt>
      <trkpt lat="36.16529" lon="-115.45066">
        <ele>1330.0</ele>
      </trkpt>
      <trkpt lat="36.16584" lon="-115.45021">
        <ele>1334.0</ele>
      </trkpt>
      <trkpt lat="36.16585" lon="-115.45005">
        <ele>1337.0</ele>
      </trkpt>
      <trkpt lat="36.16597" lon="-115.44988">
        <ele>1337.0</ele>
      </trkpt>
      <trkpt lat="36.16634" lon="-115.44965">
        <ele>1338.0</ele>
      </trkpt>
      <trkpt lat="36.16661" lon="-115.44929">
        <ele>1349.0</ele>
      </trkpt>
      <trkpt lat="36.16663" lon="-115.44911">
        <ele>1349.0</ele>
      </trkpt>
      <trkpt lat="36.16664" lon="-115.44855">
        <ele>1352.0</ele>
      </trkpt>
      <trkpt lat="36.16663589496202" lon="-115.4484802143544">
        <ele>1352.0</ele>
      </trkpt>
      <trkpt lat="36.16663589496202" lon="-115.4484802143544">
        <ele>1352.0</ele>
      </trkpt>
      <trkpt lat="36.16661" lon="-115.44804">
        <ele>1349.0</ele>
      </trkpt>
      <trkpt lat="36.16654" lon="-115.44779">
        <ele>1345.0</ele>
      </trkpt>
      <trkpt lat="36.1663" lon="-115.44752">
        <ele>1343.0</ele>
      </trkpt>
      <trkpt lat="36.1661" lon="-115.44718">
        <ele>1344.0</ele>
      </trkpt>
      <trkpt lat="36.16601" lon="-115.44649">
        <ele>1343.0</ele>
      </trkpt>
      <trkpt lat="36.16566" lon="-115.44605">
        <ele>1349.0</ele>
      </trkpt>
      <trkpt lat="36.16533852677161" lon="-115.4458705730818">
        <ele>1364.0</ele>
      </trkpt>
      <trkpt lat="36.16533852699418" lon="-115.4458705730818">
        <ele>1364.0</ele>
      </trkpt>
      <trkpt lat="36.16523" lon="-115.44581">
        <ele>1364.0</ele>
      </trkpt>
      <trkpt lat="36.16517" lon="-115.44549">
        <ele>1376.0</ele>
      </trkpt>
      <trkpt lat="36.16501" lon="-115.44512">
        <ele>1405.0</ele>
      </trkpt>
      <trkpt lat="36.16475" lon="-115.44466">
        <ele>1413.0</ele>
      </trkpt>
      <trkpt lat="36.16457" lon="-115.44448">
        <ele>1419.0</ele>
      </trkpt>
      <trkpt lat="36.16456" lon="-115.44434">
        <ele>1419.0</ele>
      </trkpt>
      <trkpt lat="36.16456" lon="-115.44434">
        <ele>1419.0</ele>
      </trkpt>
      <trkpt lat="36.16455" lon="-115.44395">
        <ele>1406.0</ele>
      </trkpt>
      <trkpt lat="36.16441" lon="-115.44373">
        <ele>1399.0</ele>
      </trkpt>
      <trkpt lat="36.16415" lon="-115.44358">
        <ele>1403.0</ele>
      </trkpt>
      <trkpt lat="36.16397" lon="-115.4434">
        <ele>1403.0</ele>
      </trkpt>
      <trkpt lat="36.16377733086204" lon="-115.4431460270454">
        <ele>1407.0</ele>
      </trkpt>
      <trkpt lat="36.16377733143638" lon="-115.4431460270454">
        <ele>1407.0</ele>
      </trkpt>
      <trkpt lat="36.16331" lon="-115.44253">
        <ele>1403.0</ele>
      </trkpt>
      <trkpt lat="36.16314" lon="-115.44202">
        <ele>1413.0</ele>
      </trkpt>
      <trkpt lat="36.16286" lon="-115.44147">
        <ele>1432.0</ele>
      </trkpt>
      <trkpt lat="36.16258" lon="-115.44108">
        <ele>1436.0</ele>
      </trkpt>
      <trkpt lat="36.1624" lon="-115.44091">
        <ele>1441.0</ele>
      </trkpt>
      <trkpt lat="36.16228378453958" lon="-115.4406950013982">
        <ele>1448.0</ele>
      </trkpt>
      <trkpt lat="36.16228378460168" lon="-115.4406950013982">
        <ele>1448.0</ele>
      </trkpt>
      <trkpt lat="36.1622" lon="-115.44054">
        <ele>1448.0</ele>
      </trkpt>
      <trkpt lat="36.16188" lon="-115.43992">
        <ele>1443.0</ele>
      </trkpt>
      <trkpt lat="36.16179" lon="-115.43989">
        <ele>1448.0</ele>
      </trkpt>
      <trkpt lat="36.16177" lon="-115.43973">
        <ele>1444.0</ele>
      </trkpt>
      <trkpt lat="36.16179" lon="-115.43963">
        <ele>1444.0</ele>
      </trkpt>
      <trkpt lat="36.16167" lon="-115.43948">
        <ele>1441.0</ele>
      </trkpt>
      <trkpt lat="36.16163295461055" lon="-115.4394102675022">
        <ele>1441.0</ele>
      </trkpt>
      <trkpt lat="36.16163295462962" lon="-115.4394102675022">
        <ele>1441.0</ele>
      </trkpt>
      <trkpt lat="36.1615521917864" lon="-115.4392582433626">
        <ele>1436.0</ele>
      </trkpt>
      <trkpt lat="36.1615521917864" lon="-115.4392582433626">
        <ele>1436.0</ele>
      </trkpt>
      <trkpt lat="36.1615" lon="-115.43916">
        <ele>1448.0</ele>
      </trkpt>
      <trkpt lat="36.16148" lon="-115.43893">
        <ele>1445.0</ele>
      </trkpt>
      <trkpt lat="36.16102" lon="-115.43832">
        <ele>1448.0</ele>
      </trkpt>
      <trkpt lat="36.16081" lon="-115.43791">
        <ele>1450.0</ele>
      </trkpt>
      <trkpt lat="36.16081" lon="-115.43791">
        <ele>1450.0</ele>
      </trkpt>
      <trkpt lat="36.16081" lon="-115.43791">
        <ele>1450.0</ele>
      </trkpt>
      <trkpt lat="36.16081000000001" lon="-115.43791">
        <ele>1450.0</ele>
      </trkpt>
      <trkpt lat="36.16102" lon="-115.43832">
        <ele>1448.0</ele>
      </trkpt>
      <trkpt lat="36.16148" lon="-115.43893">
        <ele>1445.0</ele>
      </trkpt>
      <trkpt lat="36.1615" lon="-115.43916">
        <ele>1448.0</ele>
      </trkpt>
      <trkpt lat="36.1615521917864" lon="-115.4392582433626">
        <ele>1436.0</ele>
      </trkpt>
      <trkpt lat="36.1615521917864" lon="-115.4392582433626">
        <ele>1436.0</ele>
      </trkpt>
      <trkpt lat="36.16167" lon="-115.43948">
        <ele>1441.0</ele>
      </trkpt>
      <trkpt lat="36.16179" lon="-115.43963">
        <ele>1444.0</ele>
      </trkpt>
      <trkpt lat="36.16177" lon="-115.43973">
        <ele>1444.0</ele>
      </trkpt>
      <trkpt lat="36.16179" lon="-115.43989">
        <ele>1448.0</ele>
      </trkpt>
      <trkpt lat="36.16188" lon="-115.43992">
        <ele>1443.0</ele>
      </trkpt>
      <trkpt lat="36.16216720028168" lon="-115.4404764505458">
        <ele>1448.0</ele>
      </trkpt>
      <trkpt lat="36.16216720034175" lon="-115.4404764505458">
        <ele>1448.0</ele>
      </trkpt>
      <trkpt lat="36.1622" lon="-115.44054">
        <ele>1448.0</ele>
      </trkpt>
      <trkpt lat="36.1624" lon="-115.44091">
        <ele>1441.0</ele>
      </trkpt>
      <trkpt lat="36.16258" lon="-115.44108">
        <ele>1436.0</ele>
      </trkpt>
      <trkpt lat="36.16286" lon="-115.44147">
        <ele>1432.0</ele>
      </trkpt>
      <trkpt lat="36.16314" lon="-115.44202">
        <ele>1413.0</ele>
      </trkpt>
      <trkpt lat="36.16331" lon="-115.44253">
        <ele>1403.0</ele>
      </trkpt>
      <trkpt lat="36.16397" lon="-115.4434">
        <ele>1403.0</ele>
      </trkpt>
      <trkpt lat="36.16415" lon="-115.44358">
        <ele>1403.0</ele>
      </trkpt>
      <trkpt lat="36.16441" lon="-115.44373">
        <ele>1399.0</ele>
      </trkpt>
      <trkpt lat="36.16455" lon="-115.44395">
        <ele>1406.0</ele>
      </trkpt>
      <trkpt lat="36.16456" lon="-115.44434">
        <ele>1419.0</ele>
      </trkpt>
      <trkpt lat="36.16456" lon="-115.44434">
        <ele>1419.0</ele>
      </trkpt>
      <trkpt lat="36.16457" lon="-115.44448">
        <ele>1419.0</ele>
      </trkpt>
      <trkpt lat="36.16475" lon="-115.44466">
        <ele>1413.0</ele>
      </trkpt>
      <trkpt lat="36.16501" lon="-115.44512">
        <ele>1405.0</ele>
      </trkpt>
      <trkpt lat="36.16517" lon="-115.44549">
        <ele>1376.0</ele>
      </trkpt>
      <trkpt lat="36.16523" lon="-115.44581">
        <ele>1364.0</ele>
      </trkpt>
      <trkpt lat="36.16566" lon="-115.44605">
        <ele>1349.0</ele>
      </trkpt>
      <trkpt lat="36.16601" lon="-115.44649">
        <ele>1343.0</ele>
      </trkpt>
      <trkpt lat="36.1661" lon="-115.44718">
        <ele>1344.0</ele>
      </trkpt>
      <trkpt lat="36.1663" lon="-115.44752">
        <ele>1343.0</ele>
      </trkpt>
      <trkpt lat="36.16654" lon="-115.44779">
        <ele>1345.0</ele>
      </trkpt>
      <trkpt lat="36.16661" lon="-115.44804">
        <ele>1349.0</ele>
      </trkpt>
      <trkpt lat="36.16663589496202" lon="-115.4484802143544">
        <ele>1352.0</ele>
      </trkpt>
      <trkpt lat="36.16663589496202" lon="-115.4484802143544">
        <ele>1352.0</ele>
      </trkpt>
      <trkpt lat="36.16664" lon="-115.44855">
        <ele>1352.0</ele>
      </trkpt>
      <trkpt lat="36.16663" lon="-115.44911">
        <ele>1349.0</ele>
      </trkpt>
      <trkpt lat="36.16661" lon="-115.44929">
        <ele>1349.0</ele>
      </trkpt>
      <trkpt lat="36.16634" lon="-115.44965">
        <ele>1338.0</ele>
      </trkpt>
      <trkpt lat="36.16597" lon="-115.44988">
        <ele>1337.0</ele>
      </trkpt>
      <trkpt lat="36.16585" lon="-115.45005">
        <ele>1337.0</ele>
      </trkpt>
      <trkpt lat="36.16584" lon="-115.45021">
        <ele>1334.0</ele>
      </trkpt>
      <trkpt lat="36.16529" lon="-115.45066">
        <ele>1330.0</ele>
      </trkpt>
      <trkpt lat="36.16496" lon="-115.45079">
        <ele>1329.0</ele>
      </trkpt>
      <trkpt lat="36.16496" lon="-115.45079">
        <ele>1329.0</ele>
      </trkpt>
      <trkpt lat="36.16496" lon="-115.45079">
        <ele>1329.0</ele>
      </trkpt>
      <trkpt lat="36.16418" lon="-115.45085">
        <ele>1326.0</ele>
      </trkpt>
      <trkpt lat="36.16411024646207" lon="-115.450843934475">
        <ele>1326.0</ele>
      </trkpt>
      <trkpt lat="36.16411024646207" lon="-115.450843934475">
        <ele>1326.0</ele>
      </trkpt>
      <trkpt lat="36.16395" lon="-115.45083">
        <ele>1324.0</ele>
      </trkpt>
      <trkpt lat="36.16374" lon="-115.45063">
        <ele>1322.0</ele>
      </trkpt>
      <trkpt lat="36.16368" lon="-115.4505">
        <ele>1322.0</ele>
      </trkpt>
      <trkpt lat="36.16359" lon="-115.45046">
        <ele>1322.0</ele>
      </trkpt>
      <trkpt lat="36.16356" lon="-115.45037">
        <ele>1327.0</ele>
      </trkpt>
      <trkpt lat="36.16340954915081" lon="-115.4501944740093">
        <ele>1325.0</ele>
      </trkpt>
      <trkpt lat="36.16340954915081" lon="-115.4501944740093">
        <ele>1325.0</ele>
      </trkpt>
      <trkpt lat="36.16332" lon="-115.45009">
        <ele>1336.0</ele>
      </trkpt>
      <trkpt lat="36.16325" lon="-115.45008">
        <ele>1336.0</ele>
      </trkpt>
      <trkpt lat="36.1629809189247" lon="-115.4501785367318">
        <ele>1325.0</ele>
      </trkpt>
      <trkpt lat="36.16298091968145" lon="-115.4501785367318">
        <ele>1325.0</ele>
      </trkpt>
      <trkpt lat="36.16254" lon="-115.45034">
        <ele>1318.0</ele>
      </trkpt>
      <trkpt lat="36.16243" lon="-115.45034">
        <ele>1318.0</ele>
      </trkpt>
      <trkpt lat="36.16243" lon="-115.45034">
        <ele>1318.0</ele>
      </trkpt>
      <trkpt lat="36.16242" lon="-115.45038">
        <ele>1318.0</ele>
      </trkpt>
      <trkpt lat="36.16236139000597" lon="-115.4503213898837">
        <ele>1318.0</ele>
      </trkpt>
      <trkpt lat="36.1623570863874" lon="-115.4503279924393">
        <ele>1317.0</ele>
      </trkpt>
    </trkseg>
  </trk>
</gpx>
