<?xml version="1.0" encoding="UTF-8"?>
<gpx xmlns:xsi="http://www.w3.org/2001/XMLSchema-instance" version="1.1" creator="The Outbound Collective, Inc. 1.1.1 -- https://www.theoutbound.com" xsi:schemaLocation="http://www.topografix.com/GPX/1/1 http://www.topografix.com/GPX/1/1/gpx.xsd">
  <metadata>
    <name/>
    <time>2026-02-19T22:01:29+00:00</time>
    <bound minlat="36.1435" minlon="-115.50107" maxlat="36.15003888834738" maxlon="-115.4840164603267"/>
  </metadata>
  <trk>
    <name/>
    <trkseg>
      <trkpt lat="36.15003888834738" lon="-115.4840326309204">
        <time>1970-01-01T00:00:00+00:00</time>
        <ele>1300.0</ele>
      </trkpt>
      <trkpt lat="36.1500344952262" lon="-115.4840164603267">
        <time>1970-01-01T00:00:00+00:00</time>
        <ele>1301.0</ele>
      </trkpt>
      <trkpt lat="36.14993" lon="-115.48406">
        <time>1970-01-01T00:00:00+00:00</time>
        <ele>1300.0</ele>
      </trkpt>
      <trkpt lat="36.14994" lon="-115.48418">
        <time>1970-01-01T00:00:00+00:00</time>
        <ele>1300.0</ele>
      </trkpt>
      <trkpt lat="36.14983" lon="-115.48423">
        <time>1970-01-01T00:00:00+00:00</time>
        <ele>1298.0</ele>
      </trkpt>
      <trkpt lat="36.14951" lon="-115.48479">
        <time>1970-01-01T00:00:00+00:00</time>
        <ele>1298.0</ele>
      </trkpt>
      <trkpt lat="36.14941" lon="-115.48483">
        <time>1970-01-01T00:00:00+00:00</time>
        <ele>1298.0</ele>
      </trkpt>
      <trkpt lat="36.14933" lon="-115.485">
        <time>1970-01-01T00:00:00+00:00</time>
        <ele>1300.0</ele>
      </trkpt>
      <trkpt lat="36.14927" lon="-115.48501">
        <time>1970-01-01T00:00:00+00:00</time>
        <ele>1295.0</ele>
      </trkpt>
      <trkpt lat="36.14917" lon="-115.48506">
        <time>1970-01-01T00:00:00+00:00</time>
        <ele>1295.0</ele>
      </trkpt>
      <trkpt lat="36.1491" lon="-115.48515">
        <time>1970-01-01T00:00:00+00:00</time>
        <ele>1297.0</ele>
      </trkpt>
      <trkpt lat="36.14905" lon="-115.48515">
        <time>1970-01-01T00:00:00+00:00</time>
        <ele>1297.0</ele>
      </trkpt>
      <trkpt lat="36.14898754458989" lon="-115.4853284440289">
        <time>1970-01-01T00:00:00+00:00</time>
        <ele>1297.0</ele>
      </trkpt>
      <trkpt lat="36.14898754458989" lon="-115.4853284440289">
        <time>1970-01-01T00:00:00+00:00</time>
        <ele>1297.0</ele>
      </trkpt>
      <trkpt lat="36.14898" lon="-115.48535">
        <time>1970-01-01T00:00:00+00:00</time>
        <ele>1297.0</ele>
      </trkpt>
      <trkpt lat="36.1489" lon="-115.48545">
        <time>1970-01-01T00:00:00+00:00</time>
        <ele>1300.0</ele>
      </trkpt>
      <trkpt lat="36.14871" lon="-115.48546">
        <time>1970-01-01T00:00:00+00:00</time>
        <ele>1301.0</ele>
      </trkpt>
      <trkpt lat="36.14868" lon="-115.48556">
        <time>1970-01-01T00:00:00+00:00</time>
        <ele>1301.0</ele>
      </trkpt>
      <trkpt lat="36.14861" lon="-115.48559">
        <time>1970-01-01T00:00:00+00:00</time>
        <ele>1301.0</ele>
      </trkpt>
      <trkpt lat="36.14843" lon="-115.48577">
        <time>1970-01-01T00:00:00+00:00</time>
        <ele>1309.0</ele>
      </trkpt>
      <trkpt lat="36.14806" lon="-115.48631">
        <time>1970-01-01T00:00:00+00:00</time>
        <ele>1315.0</ele>
      </trkpt>
      <trkpt lat="36.14796" lon="-115.48651">
        <time>1970-01-01T00:00:00+00:00</time>
        <ele>1315.0</ele>
      </trkpt>
      <trkpt lat="36.14796" lon="-115.48651">
        <time>1970-01-01T00:00:00+00:00</time>
        <ele>1315.0</ele>
      </trkpt>
      <trkpt lat="36.14796" lon="-115.48651">
        <time>1970-01-01T00:00:00+00:00</time>
        <ele>1315.0</ele>
      </trkpt>
      <trkpt lat="36.14786" lon="-115.48682">
        <time>1970-01-01T00:00:00+00:00</time>
        <ele>1317.0</ele>
      </trkpt>
      <trkpt lat="36.14776" lon="-115.48697">
        <time>1970-01-01T00:00:00+00:00</time>
        <ele>1317.0</ele>
      </trkpt>
      <trkpt lat="36.14773" lon="-115.48708">
        <time>1970-01-01T00:00:00+00:00</time>
        <ele>1317.0</ele>
      </trkpt>
      <trkpt lat="36.14758" lon="-115.48727">
        <time>1970-01-01T00:00:00+00:00</time>
        <ele>1318.0</ele>
      </trkpt>
      <trkpt lat="36.14745" lon="-115.48761">
        <time>1970-01-01T00:00:00+00:00</time>
        <ele>1320.0</ele>
      </trkpt>
      <trkpt lat="36.14752" lon="-115.48807">
        <time>1970-01-01T00:00:00+00:00</time>
        <ele>1326.0</ele>
      </trkpt>
      <trkpt lat="36.14755" lon="-115.48814">
        <time>1970-01-01T00:00:00+00:00</time>
        <ele>1326.0</ele>
      </trkpt>
      <trkpt lat="36.14744" lon="-115.48828">
        <time>1970-01-01T00:00:00+00:00</time>
        <ele>1327.0</ele>
      </trkpt>
      <trkpt lat="36.14744" lon="-115.48828">
        <time>1970-01-01T00:00:00+00:00</time>
        <ele>1327.0</ele>
      </trkpt>
      <trkpt lat="36.14732" lon="-115.48851">
        <time>1970-01-01T00:00:00+00:00</time>
        <ele>1330.0</ele>
      </trkpt>
      <trkpt lat="36.14718" lon="-115.48863">
        <time>1970-01-01T00:00:00+00:00</time>
        <ele>1330.0</ele>
      </trkpt>
      <trkpt lat="36.14709" lon="-115.48893">
        <time>1970-01-01T00:00:00+00:00</time>
        <ele>1332.0</ele>
      </trkpt>
      <trkpt lat="36.147" lon="-115.48911">
        <time>1970-01-01T00:00:00+00:00</time>
        <ele>1334.0</ele>
      </trkpt>
      <trkpt lat="36.14690564925728" lon="-115.4892681762452">
        <time>1970-01-01T00:00:00+00:00</time>
        <ele>1334.0</ele>
      </trkpt>
      <trkpt lat="36.14690564940501" lon="-115.4892681762451">
        <time>1970-01-01T00:00:00+00:00</time>
        <ele>1334.0</ele>
      </trkpt>
      <trkpt lat="36.14666" lon="-115.48968">
        <time>1970-01-01T00:00:00+00:00</time>
        <ele>1342.0</ele>
      </trkpt>
      <trkpt lat="36.14649" lon="-115.48979">
        <time>1970-01-01T00:00:00+00:00</time>
        <ele>1336.0</ele>
      </trkpt>
      <trkpt lat="36.14636" lon="-115.4901">
        <time>1970-01-01T00:00:00+00:00</time>
        <ele>1342.0</ele>
      </trkpt>
      <trkpt lat="36.14634" lon="-115.49034">
        <time>1970-01-01T00:00:00+00:00</time>
        <ele>1345.0</ele>
      </trkpt>
      <trkpt lat="36.14629" lon="-115.49047">
        <time>1970-01-01T00:00:00+00:00</time>
        <ele>1348.0</ele>
      </trkpt>
      <trkpt lat="36.14617" lon="-115.49053">
        <time>1970-01-01T00:00:00+00:00</time>
        <ele>1346.0</ele>
      </trkpt>
      <trkpt lat="36.1461" lon="-115.49065">
        <time>1970-01-01T00:00:00+00:00</time>
        <ele>1346.0</ele>
      </trkpt>
      <trkpt lat="36.14609" lon="-115.49093">
        <time>1970-01-01T00:00:00+00:00</time>
        <ele>1348.0</ele>
      </trkpt>
      <trkpt lat="36.14598" lon="-115.49122">
        <time>1970-01-01T00:00:00+00:00</time>
        <ele>1351.0</ele>
      </trkpt>
      <trkpt lat="36.14566" lon="-115.49166">
        <time>1970-01-01T00:00:00+00:00</time>
        <ele>1358.0</ele>
      </trkpt>
      <trkpt lat="36.14550865649128" lon="-115.4917874471652">
        <time>1970-01-01T00:00:00+00:00</time>
        <ele>1358.0</ele>
      </trkpt>
      <trkpt lat="36.14550865649128" lon="-115.4917874471652">
        <time>1970-01-01T00:00:00+00:00</time>
        <ele>1358.0</ele>
      </trkpt>
      <trkpt lat="36.14547" lon="-115.49182">
        <time>1970-01-01T00:00:00+00:00</time>
        <ele>1366.0</ele>
      </trkpt>
      <trkpt lat="36.14545" lon="-115.49203">
        <time>1970-01-01T00:00:00+00:00</time>
        <ele>1366.0</ele>
      </trkpt>
      <trkpt lat="36.14532596709137" lon="-115.4921850411358">
        <time>1970-01-01T00:00:00+00:00</time>
        <ele>1386.0</ele>
      </trkpt>
      <trkpt lat="36.14532596709137" lon="-115.4921850411358">
        <time>1970-01-01T00:00:00+00:00</time>
        <ele>1386.0</ele>
      </trkpt>
      <trkpt lat="36.14521" lon="-115.49233">
        <time>1970-01-01T00:00:00+00:00</time>
        <ele>1386.0</ele>
      </trkpt>
      <trkpt lat="36.14518" lon="-115.49267">
        <time>1970-01-01T00:00:00+00:00</time>
        <ele>1390.0</ele>
      </trkpt>
      <trkpt lat="36.14508" lon="-115.49297">
        <time>1970-01-01T00:00:00+00:00</time>
        <ele>1394.0</ele>
      </trkpt>
      <trkpt lat="36.14501098218384" lon="-115.4931111728058">
        <time>1970-01-01T00:00:00+00:00</time>
        <ele>1394.0</ele>
      </trkpt>
      <trkpt lat="36.14501098225025" lon="-115.4931111728058">
        <time>1970-01-01T00:00:00+00:00</time>
        <ele>1394.0</ele>
      </trkpt>
      <trkpt lat="36.14486" lon="-115.49342">
        <time>1970-01-01T00:00:00+00:00</time>
        <ele>1399.0</ele>
      </trkpt>
      <trkpt lat="36.14486" lon="-115.49366">
        <time>1970-01-01T00:00:00+00:00</time>
        <ele>1454.0</ele>
      </trkpt>
      <trkpt lat="36.14486" lon="-115.49366">
        <time>1970-01-01T00:00:00+00:00</time>
        <ele>1454.0</ele>
      </trkpt>
      <trkpt lat="36.1447" lon="-115.49405">
        <time>1970-01-01T00:00:00+00:00</time>
        <ele>1434.0</ele>
      </trkpt>
      <trkpt lat="36.14469" lon="-115.49427">
        <time>1970-01-01T00:00:00+00:00</time>
        <ele>1434.0</ele>
      </trkpt>
      <trkpt lat="36.14464" lon="-115.49439">
        <time>1970-01-01T00:00:00+00:00</time>
        <ele>1430.0</ele>
      </trkpt>
      <trkpt lat="36.14449" lon="-115.49526">
        <time>1970-01-01T00:00:00+00:00</time>
        <ele>1521.0</ele>
      </trkpt>
      <trkpt lat="36.14437" lon="-115.49542">
        <time>1970-01-01T00:00:00+00:00</time>
        <ele>1523.0</ele>
      </trkpt>
      <trkpt lat="36.14431" lon="-115.49556">
        <time>1970-01-01T00:00:00+00:00</time>
        <ele>1523.0</ele>
      </trkpt>
      <trkpt lat="36.14441" lon="-115.49597">
        <time>1970-01-01T00:00:00+00:00</time>
        <ele>1526.0</ele>
      </trkpt>
      <trkpt lat="36.14438" lon="-115.49614">
        <time>1970-01-01T00:00:00+00:00</time>
        <ele>1533.0</ele>
      </trkpt>
      <trkpt lat="36.14425" lon="-115.49643">
        <time>1970-01-01T00:00:00+00:00</time>
        <ele>1560.0</ele>
      </trkpt>
      <trkpt lat="36.14427" lon="-115.49691">
        <time>1970-01-01T00:00:00+00:00</time>
        <ele>1588.0</ele>
      </trkpt>
      <trkpt lat="36.14432" lon="-115.49728">
        <time>1970-01-01T00:00:00+00:00</time>
        <ele>1588.0</ele>
      </trkpt>
      <trkpt lat="36.14393" lon="-115.49859">
        <time>1970-01-01T00:00:00+00:00</time>
        <ele>1504.0</ele>
      </trkpt>
      <trkpt lat="36.14354" lon="-115.49915">
        <time>1970-01-01T00:00:00+00:00</time>
        <ele>1515.0</ele>
      </trkpt>
      <trkpt lat="36.1435" lon="-115.49951">
        <time>1970-01-01T00:00:00+00:00</time>
        <ele>1528.0</ele>
      </trkpt>
      <trkpt lat="36.14367" lon="-115.49984">
        <time>1970-01-01T00:00:00+00:00</time>
        <ele>1545.0</ele>
      </trkpt>
      <trkpt lat="36.14378" lon="-115.50019">
        <time>1970-01-01T00:00:00+00:00</time>
        <ele>1559.0</ele>
      </trkpt>
      <trkpt lat="36.14386" lon="-115.50059">
        <time>1970-01-01T00:00:00+00:00</time>
        <ele>1559.0</ele>
      </trkpt>
      <trkpt lat="36.14385" lon="-115.50085">
        <time>1970-01-01T00:00:00+00:00</time>
        <ele>1561.0</ele>
      </trkpt>
      <trkpt lat="36.14371" lon="-115.50107">
        <time>1970-01-01T00:00:00+00:00</time>
        <ele>1562.0</ele>
      </trkpt>
      <trkpt lat="36.14371" lon="-115.50107">
        <time>1970-01-01T00:00:00+00:00</time>
        <ele>1562.0</ele>
      </trkpt>
      <trkpt lat="36.14371" lon="-115.50107">
        <time>1970-01-01T00:00:00+00:00</time>
        <ele>1562.0</ele>
      </trkpt>
      <trkpt lat="36.143710000000006" lon="-115.50107">
        <time>1970-01-01T00:00:00+00:00</time>
        <ele>1562.0</ele>
      </trkpt>
      <trkpt lat="36.14385" lon="-115.50085">
        <time>1970-01-01T00:00:00+00:00</time>
        <ele>1561.0</ele>
      </trkpt>
      <trkpt lat="36.14386" lon="-115.50059">
        <time>1970-01-01T00:00:00+00:00</time>
        <ele>1559.0</ele>
      </trkpt>
      <trkpt lat="36.14378" lon="-115.50019">
        <time>1970-01-01T00:00:00+00:00</time>
        <ele>1559.0</ele>
      </trkpt>
      <trkpt lat="36.14367" lon="-115.49984">
        <time>1970-01-01T00:00:00+00:00</time>
        <ele>1545.0</ele>
      </trkpt>
      <trkpt lat="36.1435" lon="-115.49951">
        <time>1970-01-01T00:00:00+00:00</time>
        <ele>1528.0</ele>
      </trkpt>
      <trkpt lat="36.14354" lon="-115.49915">
        <time>1970-01-01T00:00:00+00:00</time>
        <ele>1515.0</ele>
      </trkpt>
      <trkpt lat="36.14393" lon="-115.49859">
        <time>1970-01-01T00:00:00+00:00</time>
        <ele>1504.0</ele>
      </trkpt>
      <trkpt lat="36.14432" lon="-115.49728">
        <time>1970-01-01T00:00:00+00:00</time>
        <ele>1588.0</ele>
      </trkpt>
      <trkpt lat="36.14427" lon="-115.49691">
        <time>1970-01-01T00:00:00+00:00</time>
        <ele>1588.0</ele>
      </trkpt>
      <trkpt lat="36.14425" lon="-115.49643">
        <time>1970-01-01T00:00:00+00:00</time>
        <ele>1560.0</ele>
      </trkpt>
      <trkpt lat="36.14438" lon="-115.49614">
        <time>1970-01-01T00:00:00+00:00</time>
        <ele>1533.0</ele>
      </trkpt>
      <trkpt lat="36.14441" lon="-115.49597">
        <time>1970-01-01T00:00:00+00:00</time>
        <ele>1526.0</ele>
      </trkpt>
      <trkpt lat="36.14431" lon="-115.49556">
        <time>1970-01-01T00:00:00+00:00</time>
        <ele>1523.0</ele>
      </trkpt>
      <trkpt lat="36.14437" lon="-115.49542">
        <time>1970-01-01T00:00:00+00:00</time>
        <ele>1523.0</ele>
      </trkpt>
      <trkpt lat="36.14449" lon="-115.49526">
        <time>1970-01-01T00:00:00+00:00</time>
        <ele>1521.0</ele>
      </trkpt>
      <trkpt lat="36.14464" lon="-115.49439">
        <time>1970-01-01T00:00:00+00:00</time>
        <ele>1430.0</ele>
      </trkpt>
      <trkpt lat="36.14469" lon="-115.49427">
        <time>1970-01-01T00:00:00+00:00</time>
        <ele>1434.0</ele>
      </trkpt>
      <trkpt lat="36.1447" lon="-115.49405">
        <time>1970-01-01T00:00:00+00:00</time>
        <ele>1434.0</ele>
      </trkpt>
      <trkpt lat="36.14486" lon="-115.49366">
        <time>1970-01-01T00:00:00+00:00</time>
        <ele>1454.0</ele>
      </trkpt>
      <trkpt lat="36.14486" lon="-115.49366">
        <time>1970-01-01T00:00:00+00:00</time>
        <ele>1454.0</ele>
      </trkpt>
      <trkpt lat="36.14486" lon="-115.49342">
        <time>1970-01-01T00:00:00+00:00</time>
        <ele>1399.0</ele>
      </trkpt>
      <trkpt lat="36.14508" lon="-115.49297">
        <time>1970-01-01T00:00:00+00:00</time>
        <ele>1394.0</ele>
      </trkpt>
      <trkpt lat="36.14518" lon="-115.49267">
        <time>1970-01-01T00:00:00+00:00</time>
        <ele>1390.0</ele>
      </trkpt>
      <trkpt lat="36.14521" lon="-115.49233">
        <time>1970-01-01T00:00:00+00:00</time>
        <ele>1386.0</ele>
      </trkpt>
      <trkpt lat="36.14532596709137" lon="-115.4921850411358">
        <time>1970-01-01T00:00:00+00:00</time>
        <ele>1386.0</ele>
      </trkpt>
      <trkpt lat="36.14532596709137" lon="-115.4921850411358">
        <time>1970-01-01T00:00:00+00:00</time>
        <ele>1386.0</ele>
      </trkpt>
      <trkpt lat="36.14545" lon="-115.49203">
        <time>1970-01-01T00:00:00+00:00</time>
        <ele>1366.0</ele>
      </trkpt>
      <trkpt lat="36.14547" lon="-115.49182">
        <time>1970-01-01T00:00:00+00:00</time>
        <ele>1366.0</ele>
      </trkpt>
      <trkpt lat="36.14550865649128" lon="-115.4917874471652">
        <time>1970-01-01T00:00:00+00:00</time>
        <ele>1358.0</ele>
      </trkpt>
      <trkpt lat="36.14550865649128" lon="-115.4917874471652">
        <time>1970-01-01T00:00:00+00:00</time>
        <ele>1358.0</ele>
      </trkpt>
      <trkpt lat="36.14566" lon="-115.49166">
        <time>1970-01-01T00:00:00+00:00</time>
        <ele>1358.0</ele>
      </trkpt>
      <trkpt lat="36.14598" lon="-115.49122">
        <time>1970-01-01T00:00:00+00:00</time>
        <ele>1351.0</ele>
      </trkpt>
      <trkpt lat="36.14609" lon="-115.49093">
        <time>1970-01-01T00:00:00+00:00</time>
        <ele>1348.0</ele>
      </trkpt>
      <trkpt lat="36.1461" lon="-115.49065">
        <time>1970-01-01T00:00:00+00:00</time>
        <ele>1346.0</ele>
      </trkpt>
      <trkpt lat="36.14617" lon="-115.49053">
        <time>1970-01-01T00:00:00+00:00</time>
        <ele>1346.0</ele>
      </trkpt>
      <trkpt lat="36.14629" lon="-115.49047">
        <time>1970-01-01T00:00:00+00:00</time>
        <ele>1348.0</ele>
      </trkpt>
      <trkpt lat="36.14634" lon="-115.49034">
        <time>1970-01-01T00:00:00+00:00</time>
        <ele>1345.0</ele>
      </trkpt>
      <trkpt lat="36.14636" lon="-115.4901">
        <time>1970-01-01T00:00:00+00:00</time>
        <ele>1342.0</ele>
      </trkpt>
      <trkpt lat="36.14649" lon="-115.48979">
        <time>1970-01-01T00:00:00+00:00</time>
        <ele>1336.0</ele>
      </trkpt>
      <trkpt lat="36.14666" lon="-115.48968">
        <time>1970-01-01T00:00:00+00:00</time>
        <ele>1342.0</ele>
      </trkpt>
      <trkpt lat="36.147" lon="-115.48911">
        <time>1970-01-01T00:00:00+00:00</time>
        <ele>1334.0</ele>
      </trkpt>
      <trkpt lat="36.14709" lon="-115.48893">
        <time>1970-01-01T00:00:00+00:00</time>
        <ele>1332.0</ele>
      </trkpt>
      <trkpt lat="36.14718" lon="-115.48863">
        <time>1970-01-01T00:00:00+00:00</time>
        <ele>1330.0</ele>
      </trkpt>
      <trkpt lat="36.14732" lon="-115.48851">
        <time>1970-01-01T00:00:00+00:00</time>
        <ele>1330.0</ele>
      </trkpt>
      <trkpt lat="36.14744" lon="-115.48828">
        <time>1970-01-01T00:00:00+00:00</time>
        <ele>1327.0</ele>
      </trkpt>
      <trkpt lat="36.14744" lon="-115.48828">
        <time>1970-01-01T00:00:00+00:00</time>
        <ele>1327.0</ele>
      </trkpt>
      <trkpt lat="36.14755" lon="-115.48814">
        <time>1970-01-01T00:00:00+00:00</time>
        <ele>1326.0</ele>
      </trkpt>
      <trkpt lat="36.14752" lon="-115.48807">
        <time>1970-01-01T00:00:00+00:00</time>
        <ele>1326.0</ele>
      </trkpt>
      <trkpt lat="36.14745" lon="-115.48761">
        <time>1970-01-01T00:00:00+00:00</time>
        <ele>1320.0</ele>
      </trkpt>
      <trkpt lat="36.14758" lon="-115.48727">
        <time>1970-01-01T00:00:00+00:00</time>
        <ele>1318.0</ele>
      </trkpt>
      <trkpt lat="36.14773" lon="-115.48708">
        <time>1970-01-01T00:00:00+00:00</time>
        <ele>1317.0</ele>
      </trkpt>
      <trkpt lat="36.14776" lon="-115.48697">
        <time>1970-01-01T00:00:00+00:00</time>
        <ele>1317.0</ele>
      </trkpt>
      <trkpt lat="36.14786" lon="-115.48682">
        <time>1970-01-01T00:00:00+00:00</time>
        <ele>1317.0</ele>
      </trkpt>
      <trkpt lat="36.14796" lon="-115.48651">
        <time>1970-01-01T00:00:00+00:00</time>
        <ele>1315.0</ele>
      </trkpt>
      <trkpt lat="36.14796" lon="-115.48651">
        <time>1970-01-01T00:00:00+00:00</time>
        <ele>1315.0</ele>
      </trkpt>
      <trkpt lat="36.14796" lon="-115.48651">
        <time>1970-01-01T00:00:00+00:00</time>
        <ele>1315.0</ele>
      </trkpt>
      <trkpt lat="36.14806" lon="-115.48631">
        <time>1970-01-01T00:00:00+00:00</time>
        <ele>1315.0</ele>
      </trkpt>
      <trkpt lat="36.14843" lon="-115.48577">
        <time>1970-01-01T00:00:00+00:00</time>
        <ele>1309.0</ele>
      </trkpt>
      <trkpt lat="36.14861" lon="-115.48559">
        <time>1970-01-01T00:00:00+00:00</time>
        <ele>1301.0</ele>
      </trkpt>
      <trkpt lat="36.14868" lon="-115.48556">
        <time>1970-01-01T00:00:00+00:00</time>
        <ele>1301.0</ele>
      </trkpt>
      <trkpt lat="36.14871" lon="-115.48546">
        <time>1970-01-01T00:00:00+00:00</time>
        <ele>1301.0</ele>
      </trkpt>
      <trkpt lat="36.1489" lon="-115.48545">
        <time>1970-01-01T00:00:00+00:00</time>
        <ele>1300.0</ele>
      </trkpt>
      <trkpt lat="36.14898" lon="-115.48535">
        <time>1970-01-01T00:00:00+00:00</time>
        <ele>1297.0</ele>
      </trkpt>
      <trkpt lat="36.14898754458989" lon="-115.4853284440289">
        <time>1970-01-01T00:00:00+00:00</time>
        <ele>1297.0</ele>
      </trkpt>
      <trkpt lat="36.14898754458989" lon="-115.4853284440289">
        <time>1970-01-01T00:00:00+00:00</time>
        <ele>1297.0</ele>
      </trkpt>
      <trkpt lat="36.14905" lon="-115.48515">
        <time>1970-01-01T00:00:00+00:00</time>
        <ele>1297.0</ele>
      </trkpt>
      <trkpt lat="36.1491" lon="-115.48515">
        <time>1970-01-01T00:00:00+00:00</time>
        <ele>1297.0</ele>
      </trkpt>
      <trkpt lat="36.14917" lon="-115.48506">
        <time>1970-01-01T00:00:00+00:00</time>
        <ele>1295.0</ele>
      </trkpt>
      <trkpt lat="36.14927" lon="-115.48501">
        <time>1970-01-01T00:00:00+00:00</time>
        <ele>1295.0</ele>
      </trkpt>
      <trkpt lat="36.14933" lon="-115.485">
        <time>1970-01-01T00:00:00+00:00</time>
        <ele>1300.0</ele>
      </trkpt>
      <trkpt lat="36.14941" lon="-115.48483">
        <time>1970-01-01T00:00:00+00:00</time>
        <ele>1298.0</ele>
      </trkpt>
      <trkpt lat="36.14951" lon="-115.48479">
        <time>1970-01-01T00:00:00+00:00</time>
        <ele>1298.0</ele>
      </trkpt>
      <trkpt lat="36.14983" lon="-115.48423">
        <time>1970-01-01T00:00:00+00:00</time>
        <ele>1298.0</ele>
      </trkpt>
      <trkpt lat="36.14994" lon="-115.48418">
        <time>1970-01-01T00:00:00+00:00</time>
        <ele>1300.0</ele>
      </trkpt>
      <trkpt lat="36.14993" lon="-115.48406">
        <time>1970-01-01T00:00:00+00:00</time>
        <ele>1300.0</ele>
      </trkpt>
      <trkpt lat="36.15002671288296" lon="-115.4840197029654">
        <time>1970-01-01T00:00:00+00:00</time>
        <ele>1301.0</ele>
      </trkpt>
      <trkpt lat="36.15003022507997" lon="-115.4840326309204">
        <time>1970-01-01T00:00:00+00:00</time>
        <ele>1300.0</ele>
      </trkpt>
    </trkseg>
  </trk>
</gpx>
