<?xml version="1.0" encoding="UTF-8"?>
<gpx version="1.1" creator="strava-segment-scraper" xmlns="http://www.topografix.com/GPX/1/1">
  <trk>
    <name>Bald Hills Rd Climb</name>
    <trkseg>
      <trkpt lat="41.20604" lon="-123.75683" />
      <trkpt lat="41.20577" lon="-123.75669" />
      <trkpt lat="41.20529" lon="-123.75661" />
      <trkpt lat="41.20524" lon="-123.75655" />
      <trkpt lat="41.20517" lon="-123.75653" />
      <trkpt lat="41.20503" lon="-123.75645" />
      <trkpt lat="41.20499" lon="-123.75641" />
      <trkpt lat="41.20485" lon="-123.75635" />
      <trkpt lat="41.20477" lon="-123.75626" />
      <trkpt lat="41.20456" lon="-123.7562" />
      <trkpt lat="41.2045" lon="-123.7562" />
      <trkpt lat="41.20437" lon="-123.75612" />
      <trkpt lat="41.20424" lon="-123.75612" />
      <trkpt lat="41.20413" lon="-123.75609" />
      <trkpt lat="41.20407" lon="-123.75606" />
      <trkpt lat="41.20403" lon="-123.75607" />
      <trkpt lat="41.20385" lon="-123.75604" />
      <trkpt lat="41.20367" lon="-123.75604" />
      <trkpt lat="41.20358" lon="-123.75602" />
      <trkpt lat="41.20329" lon="-123.7561" />
      <trkpt lat="41.20304" lon="-123.75606" />
      <trkpt lat="41.20284" lon="-123.75605" />
      <trkpt lat="41.20266" lon="-123.75596" />
      <trkpt lat="41.20258" lon="-123.7559" />
      <trkpt lat="41.20245" lon="-123.75585" />
      <trkpt lat="41.20234" lon="-123.75578" />
      <trkpt lat="41.20231" lon="-123.75572" />
      <trkpt lat="41.20217" lon="-123.75572" />
      <trkpt lat="41.20206" lon="-123.75564" />
      <trkpt lat="41.20178" lon="-123.75551" />
      <trkpt lat="41.20112" lon="-123.75568" />
      <trkpt lat="41.20093" lon="-123.75563" />
      <trkpt lat="41.20071" lon="-123.75561" />
      <trkpt lat="41.20061" lon="-123.75556" />
      <trkpt lat="41.20058" lon="-123.75552" />
      <trkpt lat="41.20044" lon="-123.75553" />
      <trkpt lat="41.20012" lon="-123.75566" />
      <trkpt lat="41.19997" lon="-123.75577" />
      <trkpt lat="41.19982" lon="-123.75585" />
      <trkpt lat="41.19953" lon="-123.75605" />
      <trkpt lat="41.19927" lon="-123.75616" />
      <trkpt lat="41.19898" lon="-123.7564" />
      <trkpt lat="41.19881" lon="-123.75648" />
      <trkpt lat="41.19865" lon="-123.75652" />
      <trkpt lat="41.19859" lon="-123.75655" />
      <trkpt lat="41.19838" lon="-123.75672" />
      <trkpt lat="41.19828" lon="-123.75676" />
      <trkpt lat="41.19819" lon="-123.75677" />
      <trkpt lat="41.19807" lon="-123.75683" />
      <trkpt lat="41.198" lon="-123.75691" />
      <trkpt lat="41.19793" lon="-123.75704" />
      <trkpt lat="41.19787" lon="-123.75711" />
      <trkpt lat="41.19768" lon="-123.75721" />
      <trkpt lat="41.19757" lon="-123.75736" />
      <trkpt lat="41.19751" lon="-123.7574" />
      <trkpt lat="41.19749" lon="-123.7575" />
      <trkpt lat="41.19731" lon="-123.75769" />
      <trkpt lat="41.19703" lon="-123.75789" />
      <trkpt lat="41.1969" lon="-123.75804" />
      <trkpt lat="41.19677" lon="-123.75811" />
      <trkpt lat="41.19662" lon="-123.75823" />
      <trkpt lat="41.19657" lon="-123.75825" />
      <trkpt lat="41.19641" lon="-123.75826" />
      <trkpt lat="41.19625" lon="-123.75833" />
      <trkpt lat="41.19615" lon="-123.75845" />
      <trkpt lat="41.1961" lon="-123.7586" />
      <trkpt lat="41.19611" lon="-123.75868" />
      <trkpt lat="41.19618" lon="-123.75878" />
      <trkpt lat="41.19629" lon="-123.75883" />
      <trkpt lat="41.19635" lon="-123.75883" />
      <trkpt lat="41.19648" lon="-123.7588" />
      <trkpt lat="41.19663" lon="-123.7588" />
      <trkpt lat="41.19675" lon="-123.75876" />
      <trkpt lat="41.1969" lon="-123.75878" />
      <trkpt lat="41.19721" lon="-123.75875" />
      <trkpt lat="41.1974" lon="-123.75878" />
      <trkpt lat="41.19758" lon="-123.75884" />
      <trkpt lat="41.19769" lon="-123.75893" />
      <trkpt lat="41.19794" lon="-123.75888" />
      <trkpt lat="41.19813" lon="-123.75892" />
      <trkpt lat="41.19834" lon="-123.75891" />
      <trkpt lat="41.19841" lon="-123.75892" />
      <trkpt lat="41.19852" lon="-123.75899" />
      <trkpt lat="41.19864" lon="-123.75899" />
      <trkpt lat="41.19888" lon="-123.7591" />
      <trkpt lat="41.19906" lon="-123.75912" />
      <trkpt lat="41.19922" lon="-123.75922" />
      <trkpt lat="41.19927" lon="-123.75922" />
      <trkpt lat="41.19939" lon="-123.7592" />
      <trkpt lat="41.19944" lon="-123.75921" />
      <trkpt lat="41.19971" lon="-123.75934" />
      <trkpt lat="41.19991" lon="-123.75952" />
      <trkpt lat="41.20002" lon="-123.7596" />
      <trkpt lat="41.20009" lon="-123.75967" />
      <trkpt lat="41.20026" lon="-123.75975" />
      <trkpt lat="41.20037" lon="-123.75986" />
      <trkpt lat="41.20058" lon="-123.76023" />
      <trkpt lat="41.20069" lon="-123.76064" />
      <trkpt lat="41.20079" lon="-123.76075" />
      <trkpt lat="41.20103" lon="-123.76087" />
      <trkpt lat="41.20118" lon="-123.76111" />
      <trkpt lat="41.20149" lon="-123.76134" />
      <trkpt lat="41.20169" lon="-123.76154" />
      <trkpt lat="41.20184" lon="-123.76165" />
      <trkpt lat="41.20195" lon="-123.76178" />
      <trkpt lat="41.20198" lon="-123.76178" />
      <trkpt lat="41.20209" lon="-123.76181" />
      <trkpt lat="41.20219" lon="-123.76191" />
      <trkpt lat="41.20224" lon="-123.76205" />
      <trkpt lat="41.20224" lon="-123.76211" />
      <trkpt lat="41.20221" lon="-123.76217" />
      <trkpt lat="41.20207" lon="-123.76235" />
      <trkpt lat="41.20198" lon="-123.76241" />
      <trkpt lat="41.20192" lon="-123.76241" />
      <trkpt lat="41.20189" lon="-123.7624" />
      <trkpt lat="41.20185" lon="-123.76231" />
      <trkpt lat="41.20184" lon="-123.76211" />
      <trkpt lat="41.20178" lon="-123.76197" />
      <trkpt lat="41.20173" lon="-123.76192" />
      <trkpt lat="41.20169" lon="-123.76191" />
      <trkpt lat="41.20161" lon="-123.76191" />
      <trkpt lat="41.20152" lon="-123.76195" />
      <trkpt lat="41.20137" lon="-123.76209" />
      <trkpt lat="41.20122" lon="-123.76227" />
      <trkpt lat="41.20109" lon="-123.76235" />
      <trkpt lat="41.201" lon="-123.76237" />
      <trkpt lat="41.20063" lon="-123.76229" />
      <trkpt lat="41.20053" lon="-123.76215" />
      <trkpt lat="41.20026" lon="-123.76203" />
      <trkpt lat="41.20003" lon="-123.76203" />
      <trkpt lat="41.19998" lon="-123.76201" />
      <trkpt lat="41.1999" lon="-123.76195" />
      <trkpt lat="41.19963" lon="-123.76191" />
      <trkpt lat="41.19947" lon="-123.76196" />
      <trkpt lat="41.19935" lon="-123.76204" />
      <trkpt lat="41.19924" lon="-123.76209" />
      <trkpt lat="41.19909" lon="-123.76213" />
      <trkpt lat="41.19901" lon="-123.76219" />
      <trkpt lat="41.19897" lon="-123.76224" />
      <trkpt lat="41.19896" lon="-123.7623" />
      <trkpt lat="41.19896" lon="-123.76267" />
      <trkpt lat="41.19899" lon="-123.76273" />
      <trkpt lat="41.19908" lon="-123.7628" />
      <trkpt lat="41.19911" lon="-123.76281" />
      <trkpt lat="41.19922" lon="-123.76277" />
      <trkpt lat="41.19932" lon="-123.76281" />
      <trkpt lat="41.1994" lon="-123.76288" />
      <trkpt lat="41.19967" lon="-123.76333" />
      <trkpt lat="41.19983" lon="-123.76347" />
      <trkpt lat="41.19995" lon="-123.76367" />
      <trkpt lat="41.20004" lon="-123.76374" />
      <trkpt lat="41.20009" lon="-123.76375" />
      <trkpt lat="41.20021" lon="-123.76382" />
      <trkpt lat="41.20038" lon="-123.76409" />
      <trkpt lat="41.20055" lon="-123.76425" />
      <trkpt lat="41.20059" lon="-123.76433" />
      <trkpt lat="41.20085" lon="-123.76446" />
      <trkpt lat="41.20104" lon="-123.76465" />
      <trkpt lat="41.20123" lon="-123.76489" />
      <trkpt lat="41.20125" lon="-123.76495" />
      <trkpt lat="41.20124" lon="-123.7651" />
      <trkpt lat="41.2013" lon="-123.76549" />
      <trkpt lat="41.20145" lon="-123.76581" />
      <trkpt lat="41.20149" lon="-123.76596" />
      <trkpt lat="41.20163" lon="-123.7661" />
      <trkpt lat="41.20187" lon="-123.76623" />
      <trkpt lat="41.20194" lon="-123.76631" />
      <trkpt lat="41.20212" lon="-123.76667" />
      <trkpt lat="41.20232" lon="-123.76695" />
      <trkpt lat="41.20241" lon="-123.76715" />
      <trkpt lat="41.20247" lon="-123.76735" />
      <trkpt lat="41.20245" lon="-123.7676" />
      <trkpt lat="41.20235" lon="-123.76765" />
      <trkpt lat="41.20223" lon="-123.76767" />
      <trkpt lat="41.20215" lon="-123.76762" />
      <trkpt lat="41.20203" lon="-123.76758" />
      <trkpt lat="41.20175" lon="-123.76765" />
      <trkpt lat="41.2015" lon="-123.76762" />
      <trkpt lat="41.20121" lon="-123.76756" />
      <trkpt lat="41.20116" lon="-123.76752" />
      <trkpt lat="41.20106" lon="-123.76737" />
      <trkpt lat="41.20097" lon="-123.76729" />
      <trkpt lat="41.20065" lon="-123.76723" />
      <trkpt lat="41.20056" lon="-123.76735" />
      <trkpt lat="41.20036" lon="-123.76748" />
      <trkpt lat="41.20027" lon="-123.76751" />
      <trkpt lat="41.20015" lon="-123.76752" />
      <trkpt lat="41.20003" lon="-123.76749" />
      <trkpt lat="41.19988" lon="-123.76726" />
      <trkpt lat="41.19977" lon="-123.7672" />
      <trkpt lat="41.19962" lon="-123.76718" />
      <trkpt lat="41.19948" lon="-123.76723" />
      <trkpt lat="41.19937" lon="-123.76733" />
      <trkpt lat="41.19923" lon="-123.76751" />
      <trkpt lat="41.19901" lon="-123.76767" />
      <trkpt lat="41.19894" lon="-123.76775" />
      <trkpt lat="41.19865" lon="-123.76797" />
      <trkpt lat="41.19856" lon="-123.76812" />
      <trkpt lat="41.19828" lon="-123.76834" />
      <trkpt lat="41.19801" lon="-123.76884" />
      <trkpt lat="41.19793" lon="-123.76918" />
      <trkpt lat="41.19763" lon="-123.76965" />
      <trkpt lat="41.19751" lon="-123.76972" />
      <trkpt lat="41.19741" lon="-123.76983" />
      <trkpt lat="41.1973" lon="-123.76999" />
      <trkpt lat="41.19731" lon="-123.77003" />
      <trkpt lat="41.19737" lon="-123.77019" />
      <trkpt lat="41.19741" lon="-123.77026" />
      <trkpt lat="41.19746" lon="-123.7703" />
      <trkpt lat="41.19785" lon="-123.77029" />
      <trkpt lat="41.19811" lon="-123.77022" />
      <trkpt lat="41.19825" lon="-123.77025" />
      <trkpt lat="41.19843" lon="-123.77033" />
      <trkpt lat="41.19875" lon="-123.77037" />
      <trkpt lat="41.19881" lon="-123.77034" />
      <trkpt lat="41.19884" lon="-123.77027" />
      <trkpt lat="41.19888" lon="-123.77024" />
      <trkpt lat="41.19909" lon="-123.77023" />
      <trkpt lat="41.19928" lon="-123.77033" />
      <trkpt lat="41.19934" lon="-123.77034" />
      <trkpt lat="41.19954" lon="-123.77047" />
      <trkpt lat="41.19985" lon="-123.7706" />
      <trkpt lat="41.19998" lon="-123.77072" />
      <trkpt lat="41.20014" lon="-123.77077" />
      <trkpt lat="41.20026" lon="-123.77085" />
      <trkpt lat="41.20052" lon="-123.77111" />
      <trkpt lat="41.20068" lon="-123.77128" />
      <trkpt lat="41.20077" lon="-123.7714" />
      <trkpt lat="41.20092" lon="-123.77149" />
      <trkpt lat="41.20107" lon="-123.77163" />
      <trkpt lat="41.20115" lon="-123.77177" />
      <trkpt lat="41.20127" lon="-123.7719" />
      <trkpt lat="41.2014" lon="-123.77197" />
      <trkpt lat="41.20155" lon="-123.77213" />
      <trkpt lat="41.20194" lon="-123.77229" />
      <trkpt lat="41.20198" lon="-123.77233" />
      <trkpt lat="41.20202" lon="-123.77243" />
      <trkpt lat="41.20212" lon="-123.7725" />
      <trkpt lat="41.20233" lon="-123.77257" />
      <trkpt lat="41.20254" lon="-123.77275" />
      <trkpt lat="41.20274" lon="-123.77299" />
      <trkpt lat="41.20283" lon="-123.77295" />
      <trkpt lat="41.20283" lon="-123.77327" />
      <trkpt lat="41.20279" lon="-123.77354" />
      <trkpt lat="41.20278" lon="-123.77366" />
      <trkpt lat="41.20284" lon="-123.77375" />
      <trkpt lat="41.20288" lon="-123.77388" />
      <trkpt lat="41.20293" lon="-123.77392" />
      <trkpt lat="41.2029" lon="-123.7741" />
      <trkpt lat="41.20297" lon="-123.77419" />
      <trkpt lat="41.20302" lon="-123.77429" />
      <trkpt lat="41.20304" lon="-123.77453" />
      <trkpt lat="41.20309" lon="-123.77458" />
      <trkpt lat="41.20313" lon="-123.77458" />
      <trkpt lat="41.20324" lon="-123.77466" />
      <trkpt lat="41.2035" lon="-123.77472" />
      <trkpt lat="41.20361" lon="-123.7748" />
      <trkpt lat="41.20364" lon="-123.77487" />
      <trkpt lat="41.20364" lon="-123.77515" />
      <trkpt lat="41.20369" lon="-123.77523" />
      <trkpt lat="41.20383" lon="-123.77538" />
      <trkpt lat="41.20391" lon="-123.77558" />
      <trkpt lat="41.20398" lon="-123.77567" />
      <trkpt lat="41.20404" lon="-123.77598" />
      <trkpt lat="41.2041" lon="-123.77616" />
      <trkpt lat="41.20434" lon="-123.77646" />
      <trkpt lat="41.2045" lon="-123.77674" />
      <trkpt lat="41.20448" lon="-123.77685" />
      <trkpt lat="41.20439" lon="-123.777" />
      <trkpt lat="41.20435" lon="-123.77704" />
      <trkpt lat="41.20429" lon="-123.77702" />
      <trkpt lat="41.20423" lon="-123.77685" />
      <trkpt lat="41.20391" lon="-123.77652" />
      <trkpt lat="41.20377" lon="-123.77643" />
      <trkpt lat="41.20362" lon="-123.77638" />
      <trkpt lat="41.20332" lon="-123.7764" />
      <trkpt lat="41.20326" lon="-123.77638" />
      <trkpt lat="41.20316" lon="-123.77624" />
      <trkpt lat="41.20312" lon="-123.77612" />
      <trkpt lat="41.20306" lon="-123.77602" />
      <trkpt lat="41.20301" lon="-123.77596" />
      <trkpt lat="41.2029" lon="-123.7759" />
      <trkpt lat="41.20278" lon="-123.77591" />
      <trkpt lat="41.20271" lon="-123.77595" />
      <trkpt lat="41.20238" lon="-123.77605" />
      <trkpt lat="41.20203" lon="-123.77603" />
      <trkpt lat="41.20184" lon="-123.77607" />
      <trkpt lat="41.20171" lon="-123.77604" />
      <trkpt lat="41.20158" lon="-123.77609" />
      <trkpt lat="41.20137" lon="-123.77624" />
      <trkpt lat="41.20128" lon="-123.77621" />
      <trkpt lat="41.2012" lon="-123.77611" />
      <trkpt lat="41.20102" lon="-123.776" />
      <trkpt lat="41.20089" lon="-123.77588" />
      <trkpt lat="41.20081" lon="-123.77586" />
      <trkpt lat="41.20053" lon="-123.77583" />
      <trkpt lat="41.20042" lon="-123.77584" />
      <trkpt lat="41.20038" lon="-123.77586" />
      <trkpt lat="41.20004" lon="-123.77589" />
      <trkpt lat="41.1998" lon="-123.77597" />
      <trkpt lat="41.19969" lon="-123.77609" />
      <trkpt lat="41.19962" lon="-123.77613" />
      <trkpt lat="41.19938" lon="-123.77618" />
      <trkpt lat="41.19935" lon="-123.7762" />
      <trkpt lat="41.19931" lon="-123.7764" />
      <trkpt lat="41.19921" lon="-123.77652" />
      <trkpt lat="41.19909" lon="-123.77658" />
      <trkpt lat="41.19889" lon="-123.77659" />
      <trkpt lat="41.19873" lon="-123.77674" />
      <trkpt lat="41.19868" lon="-123.77681" />
      <trkpt lat="41.19863" lon="-123.77703" />
      <trkpt lat="41.19857" lon="-123.77717" />
      <trkpt lat="41.19862" lon="-123.77733" />
      <trkpt lat="41.19862" lon="-123.7774" />
      <trkpt lat="41.19862" lon="-123.77747" />
      <trkpt lat="41.19856" lon="-123.77762" />
      <trkpt lat="41.19857" lon="-123.77767" />
      <trkpt lat="41.19826" lon="-123.77783" />
      <trkpt lat="41.19815" lon="-123.77786" />
      <trkpt lat="41.19807" lon="-123.77796" />
      <trkpt lat="41.19799" lon="-123.77824" />
      <trkpt lat="41.198" lon="-123.77834" />
      <trkpt lat="41.19798" lon="-123.7784" />
      <trkpt lat="41.19799" lon="-123.77841" />
      <trkpt lat="41.19829" lon="-123.77824" />
      <trkpt lat="41.19858" lon="-123.77829" />
      <trkpt lat="41.19892" lon="-123.77826" />
      <trkpt lat="41.19915" lon="-123.77834" />
      <trkpt lat="41.19922" lon="-123.77833" />
      <trkpt lat="41.1993" lon="-123.77834" />
      <trkpt lat="41.19946" lon="-123.77833" />
      <trkpt lat="41.19959" lon="-123.77827" />
      <trkpt lat="41.1998" lon="-123.7782" />
      <trkpt lat="41.19992" lon="-123.77821" />
      <trkpt lat="41.19999" lon="-123.77825" />
      <trkpt lat="41.20009" lon="-123.77853" />
      <trkpt lat="41.20015" lon="-123.77862" />
      <trkpt lat="41.20022" lon="-123.77887" />
      <trkpt lat="41.20028" lon="-123.77891" />
      <trkpt lat="41.20038" lon="-123.77893" />
      <trkpt lat="41.20051" lon="-123.77912" />
      <trkpt lat="41.2006" lon="-123.77918" />
      <trkpt lat="41.20068" lon="-123.77929" />
      <trkpt lat="41.20074" lon="-123.77946" />
      <trkpt lat="41.2008" lon="-123.77956" />
      <trkpt lat="41.20101" lon="-123.77969" />
      <trkpt lat="41.20127" lon="-123.7797" />
      <trkpt lat="41.20141" lon="-123.77974" />
      <trkpt lat="41.20149" lon="-123.77974" />
      <trkpt lat="41.20169" lon="-123.77995" />
      <trkpt lat="41.20183" lon="-123.78022" />
      <trkpt lat="41.20198" lon="-123.78055" />
      <trkpt lat="41.20201" lon="-123.78068" />
      <trkpt lat="41.20203" lon="-123.78086" />
      <trkpt lat="41.2021" lon="-123.7809" />
      <trkpt lat="41.20219" lon="-123.781" />
      <trkpt lat="41.20232" lon="-123.78125" />
      <trkpt lat="41.20236" lon="-123.78141" />
      <trkpt lat="41.20234" lon="-123.78162" />
      <trkpt lat="41.20238" lon="-123.78172" />
      <trkpt lat="41.20253" lon="-123.78192" />
      <trkpt lat="41.20265" lon="-123.78199" />
      <trkpt lat="41.20267" lon="-123.78202" />
      <trkpt lat="41.20276" lon="-123.78223" />
      <trkpt lat="41.20293" lon="-123.78247" />
      <trkpt lat="41.203" lon="-123.78264" />
      <trkpt lat="41.20318" lon="-123.78274" />
      <trkpt lat="41.20329" lon="-123.78283" />
      <trkpt lat="41.20345" lon="-123.7829" />
      <trkpt lat="41.20352" lon="-123.78294" />
      <trkpt lat="41.20355" lon="-123.78297" />
      <trkpt lat="41.20358" lon="-123.78304" />
      <trkpt lat="41.20361" lon="-123.78319" />
      <trkpt lat="41.20361" lon="-123.78328" />
      <trkpt lat="41.20357" lon="-123.78336" />
      <trkpt lat="41.20351" lon="-123.78339" />
      <trkpt lat="41.20342" lon="-123.78332" />
      <trkpt lat="41.20336" lon="-123.78325" />
      <trkpt lat="41.20324" lon="-123.78317" />
      <trkpt lat="41.20294" lon="-123.78312" />
      <trkpt lat="41.20282" lon="-123.78307" />
      <trkpt lat="41.20279" lon="-123.78306" />
      <trkpt lat="41.20264" lon="-123.78287" />
      <trkpt lat="41.20243" lon="-123.78272" />
      <trkpt lat="41.20209" lon="-123.78256" />
      <trkpt lat="41.20179" lon="-123.78232" />
      <trkpt lat="41.20165" lon="-123.78228" />
      <trkpt lat="41.20155" lon="-123.78222" />
      <trkpt lat="41.20142" lon="-123.7822" />
      <trkpt lat="41.2013" lon="-123.78221" />
      <trkpt lat="41.20121" lon="-123.78225" />
      <trkpt lat="41.20102" lon="-123.78241" />
      <trkpt lat="41.20057" lon="-123.78254" />
      <trkpt lat="41.20041" lon="-123.78263" />
      <trkpt lat="41.20028" lon="-123.78262" />
      <trkpt lat="41.20015" lon="-123.78254" />
      <trkpt lat="41.19996" lon="-123.78257" />
      <trkpt lat="41.19986" lon="-123.78251" />
      <trkpt lat="41.19962" lon="-123.7825" />
      <trkpt lat="41.19957" lon="-123.78251" />
      <trkpt lat="41.19952" lon="-123.78255" />
      <trkpt lat="41.19949" lon="-123.78255" />
      <trkpt lat="41.19938" lon="-123.78263" />
      <trkpt lat="41.19929" lon="-123.78281" />
      <trkpt lat="41.19904" lon="-123.78301" />
      <trkpt lat="41.19893" lon="-123.78312" />
      <trkpt lat="41.19881" lon="-123.7832" />
      <trkpt lat="41.19872" lon="-123.78336" />
      <trkpt lat="41.19864" lon="-123.78343" />
      <trkpt lat="41.19853" lon="-123.78368" />
      <trkpt lat="41.19845" lon="-123.78395" />
      <trkpt lat="41.19831" lon="-123.78414" />
      <trkpt lat="41.19816" lon="-123.78412" />
      <trkpt lat="41.19804" lon="-123.78417" />
      <trkpt lat="41.19799" lon="-123.78424" />
      <trkpt lat="41.19795" lon="-123.78442" />
      <trkpt lat="41.19798" lon="-123.7846" />
      <trkpt lat="41.19803" lon="-123.78468" />
      <trkpt lat="41.19811" lon="-123.78472" />
      <trkpt lat="41.19834" lon="-123.78476" />
      <trkpt lat="41.19879" lon="-123.78475" />
      <trkpt lat="41.19891" lon="-123.78476" />
      <trkpt lat="41.19902" lon="-123.78479" />
      <trkpt lat="41.19941" lon="-123.7848" />
      <trkpt lat="41.19949" lon="-123.78481" />
      <trkpt lat="41.19967" lon="-123.78491" />
      <trkpt lat="41.19993" lon="-123.78501" />
      <trkpt lat="41.20015" lon="-123.78505" />
      <trkpt lat="41.20024" lon="-123.78504" />
      <trkpt lat="41.20057" lon="-123.78506" />
      <trkpt lat="41.20077" lon="-123.78516" />
      <trkpt lat="41.20093" lon="-123.78533" />
      <trkpt lat="41.20116" lon="-123.78575" />
      <trkpt lat="41.2012" lon="-123.78593" />
      <trkpt lat="41.20131" lon="-123.78621" />
      <trkpt lat="41.20149" lon="-123.78646" />
      <trkpt lat="41.20171" lon="-123.78669" />
      <trkpt lat="41.20183" lon="-123.7869" />
      <trkpt lat="41.20185" lon="-123.78697" />
      <trkpt lat="41.2019" lon="-123.78725" />
      <trkpt lat="41.20174" lon="-123.78759" />
      <trkpt lat="41.20176" lon="-123.7876" />
      <trkpt lat="41.20166" lon="-123.78799" />
      <trkpt lat="41.20171" lon="-123.78835" />
      <trkpt lat="41.20176" lon="-123.78851" />
      <trkpt lat="41.2018" lon="-123.7889" />
      <trkpt lat="41.20185" lon="-123.78915" />
      <trkpt lat="41.20182" lon="-123.78932" />
      <trkpt lat="41.20174" lon="-123.78953" />
      <trkpt lat="41.20171" lon="-123.78972" />
      <trkpt lat="41.20169" lon="-123.78988" />
      <trkpt lat="41.20173" lon="-123.79023" />
      <trkpt lat="41.2017" lon="-123.79039" />
      <trkpt lat="41.20149" lon="-123.79082" />
      <trkpt lat="41.20141" lon="-123.79095" />
      <trkpt lat="41.20115" lon="-123.79123" />
      <trkpt lat="41.201" lon="-123.7915" />
      <trkpt lat="41.20087" lon="-123.79165" />
      <trkpt lat="41.20082" lon="-123.79168" />
      <trkpt lat="41.20061" lon="-123.79188" />
      <trkpt lat="41.20044" lon="-123.79209" />
      <trkpt lat="41.20026" lon="-123.79223" />
      <trkpt lat="41.20011" lon="-123.79237" />
      <trkpt lat="41.19994" lon="-123.79268" />
      <trkpt lat="41.19993" lon="-123.79278" />
      <trkpt lat="41.19997" lon="-123.79314" />
      <trkpt lat="41.19997" lon="-123.7937" />
      <trkpt lat="41.2" lon="-123.79383" />
      <trkpt lat="41.20002" lon="-123.79387" />
      <trkpt lat="41.20023" lon="-123.79403" />
      <trkpt lat="41.20059" lon="-123.79413" />
      <trkpt lat="41.2007" lon="-123.79423" />
      <trkpt lat="41.20082" lon="-123.7943" />
      <trkpt lat="41.20088" lon="-123.79437" />
      <trkpt lat="41.20094" lon="-123.79449" />
      <trkpt lat="41.20097" lon="-123.79462" />
      <trkpt lat="41.20093" lon="-123.79493" />
      <trkpt lat="41.20085" lon="-123.79518" />
      <trkpt lat="41.20087" lon="-123.79526" />
      <trkpt lat="41.20094" lon="-123.79542" />
      <trkpt lat="41.20099" lon="-123.79548" />
      <trkpt lat="41.20105" lon="-123.79552" />
      <trkpt lat="41.20121" lon="-123.79559" />
      <trkpt lat="41.20127" lon="-123.79563" />
      <trkpt lat="41.20135" lon="-123.79565" />
      <trkpt lat="41.20139" lon="-123.79568" />
      <trkpt lat="41.20159" lon="-123.7959" />
      <trkpt lat="41.20174" lon="-123.79613" />
      <trkpt lat="41.20197" lon="-123.79639" />
      <trkpt lat="41.20204" lon="-123.79654" />
      <trkpt lat="41.20216" lon="-123.79706" />
      <trkpt lat="41.20216" lon="-123.79733" />
      <trkpt lat="41.2022" lon="-123.79781" />
      <trkpt lat="41.20217" lon="-123.79831" />
      <trkpt lat="41.2022" lon="-123.79852" />
      <trkpt lat="41.20234" lon="-123.79883" />
      <trkpt lat="41.20241" lon="-123.79893" />
      <trkpt lat="41.20254" lon="-123.799" />
      <trkpt lat="41.2027" lon="-123.79915" />
      <trkpt lat="41.20274" lon="-123.79925" />
      <trkpt lat="41.20275" lon="-123.79936" />
      <trkpt lat="41.20273" lon="-123.79948" />
      <trkpt lat="41.20246" lon="-123.79999" />
      <trkpt lat="41.2023" lon="-123.80022" />
      <trkpt lat="41.20201" lon="-123.80047" />
      <trkpt lat="41.20198" lon="-123.80056" />
      <trkpt lat="41.20197" lon="-123.80075" />
      <trkpt lat="41.20194" lon="-123.80104" />
      <trkpt lat="41.20187" lon="-123.80129" />
      <trkpt lat="41.20181" lon="-123.80142" />
      <trkpt lat="41.20168" lon="-123.80161" />
    </trkseg>
  </trk>
</gpx>