<?xml version="1.0" encoding="UTF-8"?>
<gpx version="1.1" creator="strava-segment-scraper" xmlns="http://www.topografix.com/GPX/1/1">
  <trk>
    <name>PCT Descent from Big Rock to Road</name>
    <trkseg>
      <trkpt lat="41.96529" lon="-122.94381" />
      <trkpt lat="41.96521" lon="-122.94375" />
      <trkpt lat="41.96513" lon="-122.94367" />
      <trkpt lat="41.965" lon="-122.94364" />
      <trkpt lat="41.96495" lon="-122.94365" />
      <trkpt lat="41.96487" lon="-122.94373" />
      <trkpt lat="41.96485" lon="-122.94378" />
      <trkpt lat="41.96479" lon="-122.94379" />
      <trkpt lat="41.96466" lon="-122.94378" />
      <trkpt lat="41.96451" lon="-122.94374" />
      <trkpt lat="41.96439" lon="-122.94376" />
      <trkpt lat="41.96437" lon="-122.94372" />
      <trkpt lat="41.96437" lon="-122.94368" />
      <trkpt lat="41.96444" lon="-122.94285" />
      <trkpt lat="41.96449" lon="-122.94259" />
      <trkpt lat="41.96467" lon="-122.94212" />
      <trkpt lat="41.96491" lon="-122.94159" />
      <trkpt lat="41.96505" lon="-122.94121" />
      <trkpt lat="41.96513" lon="-122.94111" />
      <trkpt lat="41.96514" lon="-122.94097" />
      <trkpt lat="41.96517" lon="-122.94082" />
      <trkpt lat="41.96538" lon="-122.94026" />
      <trkpt lat="41.96558" lon="-122.9401" />
      <trkpt lat="41.96572" lon="-122.93995" />
      <trkpt lat="41.96579" lon="-122.93989" />
      <trkpt lat="41.96594" lon="-122.93981" />
      <trkpt lat="41.96606" lon="-122.93972" />
      <trkpt lat="41.96645" lon="-122.9395" />
      <trkpt lat="41.96678" lon="-122.93923" />
      <trkpt lat="41.96691" lon="-122.93916" />
      <trkpt lat="41.967" lon="-122.93909" />
      <trkpt lat="41.96724" lon="-122.93903" />
      <trkpt lat="41.96755" lon="-122.93901" />
      <trkpt lat="41.96784" lon="-122.93892" />
      <trkpt lat="41.96807" lon="-122.9388" />
      <trkpt lat="41.9682" lon="-122.93879" />
      <trkpt lat="41.9686" lon="-122.9387" />
      <trkpt lat="41.96865" lon="-122.93866" />
      <trkpt lat="41.96898" lon="-122.93852" />
      <trkpt lat="41.96911" lon="-122.93843" />
      <trkpt lat="41.96906" lon="-122.93838" />
      <trkpt lat="41.96886" lon="-122.93824" />
      <trkpt lat="41.96878" lon="-122.93814" />
      <trkpt lat="41.96875" lon="-122.9381" />
      <trkpt lat="41.96875" lon="-122.93805" />
      <trkpt lat="41.96856" lon="-122.93786" />
      <trkpt lat="41.96847" lon="-122.93779" />
      <trkpt lat="41.96827" lon="-122.93769" />
      <trkpt lat="41.96814" lon="-122.9377" />
      <trkpt lat="41.96809" lon="-122.93765" />
      <trkpt lat="41.968" lon="-122.93764" />
      <trkpt lat="41.96786" lon="-122.93763" />
      <trkpt lat="41.96779" lon="-122.93767" />
      <trkpt lat="41.96777" lon="-122.93765" />
      <trkpt lat="41.96763" lon="-122.93765" />
      <trkpt lat="41.96738" lon="-122.93773" />
      <trkpt lat="41.96731" lon="-122.93773" />
      <trkpt lat="41.9672" lon="-122.93776" />
      <trkpt lat="41.96708" lon="-122.93775" />
      <trkpt lat="41.96685" lon="-122.93777" />
      <trkpt lat="41.96661" lon="-122.93772" />
      <trkpt lat="41.96645" lon="-122.93766" />
      <trkpt lat="41.96622" lon="-122.93763" />
      <trkpt lat="41.96616" lon="-122.93764" />
      <trkpt lat="41.96607" lon="-122.93762" />
      <trkpt lat="41.96595" lon="-122.93765" />
      <trkpt lat="41.96582" lon="-122.93767" />
      <trkpt lat="41.96577" lon="-122.93765" />
      <trkpt lat="41.96561" lon="-122.93767" />
      <trkpt lat="41.96533" lon="-122.93764" />
      <trkpt lat="41.96522" lon="-122.93769" />
      <trkpt lat="41.96502" lon="-122.9377" />
      <trkpt lat="41.96483" lon="-122.93776" />
      <trkpt lat="41.96459" lon="-122.93772" />
      <trkpt lat="41.96457" lon="-122.93771" />
      <trkpt lat="41.96453" lon="-122.93763" />
      <trkpt lat="41.96448" lon="-122.93731" />
      <trkpt lat="41.9644" lon="-122.93709" />
      <trkpt lat="41.96429" lon="-122.93698" />
      <trkpt lat="41.96419" lon="-122.93691" />
      <trkpt lat="41.9639" lon="-122.93648" />
      <trkpt lat="41.96386" lon="-122.93646" />
      <trkpt lat="41.96382" lon="-122.9364" />
      <trkpt lat="41.96378" lon="-122.93639" />
      <trkpt lat="41.96372" lon="-122.93643" />
      <trkpt lat="41.96357" lon="-122.93644" />
      <trkpt lat="41.96355" lon="-122.93641" />
      <trkpt lat="41.96344" lon="-122.93639" />
      <trkpt lat="41.96312" lon="-122.93655" />
      <trkpt lat="41.9631" lon="-122.93647" />
      <trkpt lat="41.96318" lon="-122.93619" />
      <trkpt lat="41.96319" lon="-122.9361" />
      <trkpt lat="41.96318" lon="-122.93595" />
      <trkpt lat="41.96318" lon="-122.93497" />
      <trkpt lat="41.96321" lon="-122.93492" />
      <trkpt lat="41.96329" lon="-122.93432" />
      <trkpt lat="41.96336" lon="-122.93419" />
      <trkpt lat="41.96345" lon="-122.93409" />
      <trkpt lat="41.9635" lon="-122.93406" />
      <trkpt lat="41.96353" lon="-122.93401" />
      <trkpt lat="41.96353" lon="-122.93398" />
      <trkpt lat="41.96359" lon="-122.9339" />
      <trkpt lat="41.96369" lon="-122.93367" />
      <trkpt lat="41.96371" lon="-122.93365" />
      <trkpt lat="41.96378" lon="-122.93364" />
      <trkpt lat="41.96379" lon="-122.9336" />
      <trkpt lat="41.96395" lon="-122.93327" />
      <trkpt lat="41.96404" lon="-122.93319" />
      <trkpt lat="41.96447" lon="-122.93289" />
      <trkpt lat="41.96466" lon="-122.93263" />
      <trkpt lat="41.96473" lon="-122.93249" />
      <trkpt lat="41.96483" lon="-122.93237" />
      <trkpt lat="41.96497" lon="-122.93223" />
      <trkpt lat="41.96507" lon="-122.93216" />
      <trkpt lat="41.96512" lon="-122.9321" />
      <trkpt lat="41.96536" lon="-122.93199" />
      <trkpt lat="41.96543" lon="-122.93192" />
      <trkpt lat="41.96553" lon="-122.93191" />
      <trkpt lat="41.96574" lon="-122.93181" />
      <trkpt lat="41.966" lon="-122.93162" />
      <trkpt lat="41.96611" lon="-122.93153" />
      <trkpt lat="41.96637" lon="-122.93144" />
      <trkpt lat="41.96648" lon="-122.93134" />
      <trkpt lat="41.96661" lon="-122.93117" />
      <trkpt lat="41.96665" lon="-122.93114" />
      <trkpt lat="41.96671" lon="-122.93107" />
      <trkpt lat="41.96678" lon="-122.93101" />
      <trkpt lat="41.96687" lon="-122.931" />
      <trkpt lat="41.96698" lon="-122.93107" />
      <trkpt lat="41.96702" lon="-122.93107" />
      <trkpt lat="41.96711" lon="-122.931" />
      <trkpt lat="41.96733" lon="-122.93092" />
      <trkpt lat="41.96737" lon="-122.93088" />
      <trkpt lat="41.9675" lon="-122.93081" />
      <trkpt lat="41.96765" lon="-122.93067" />
      <trkpt lat="41.96801" lon="-122.93051" />
      <trkpt lat="41.96806" lon="-122.93051" />
      <trkpt lat="41.96817" lon="-122.93056" />
      <trkpt lat="41.9682" lon="-122.93056" />
      <trkpt lat="41.9683" lon="-122.9306" />
      <trkpt lat="41.96839" lon="-122.93062" />
      <trkpt lat="41.96857" lon="-122.93061" />
      <trkpt lat="41.96877" lon="-122.9307" />
      <trkpt lat="41.96886" lon="-122.93067" />
      <trkpt lat="41.96895" lon="-122.93062" />
      <trkpt lat="41.96905" lon="-122.93059" />
      <trkpt lat="41.9692" lon="-122.93022" />
      <trkpt lat="41.96923" lon="-122.93008" />
      <trkpt lat="41.96922" lon="-122.92992" />
      <trkpt lat="41.96925" lon="-122.92983" />
      <trkpt lat="41.96925" lon="-122.92965" />
      <trkpt lat="41.96931" lon="-122.92947" />
      <trkpt lat="41.96938" lon="-122.92935" />
      <trkpt lat="41.96941" lon="-122.92919" />
      <trkpt lat="41.96948" lon="-122.92906" />
      <trkpt lat="41.96955" lon="-122.92901" />
      <trkpt lat="41.96993" lon="-122.92861" />
      <trkpt lat="41.96997" lon="-122.92858" />
      <trkpt lat="41.97007" lon="-122.92825" />
      <trkpt lat="41.97014" lon="-122.9281" />
      <trkpt lat="41.97031" lon="-122.92789" />
      <trkpt lat="41.97035" lon="-122.92786" />
      <trkpt lat="41.97047" lon="-122.92768" />
      <trkpt lat="41.97056" lon="-122.9276" />
      <trkpt lat="41.97083" lon="-122.92745" />
      <trkpt lat="41.97092" lon="-122.92742" />
      <trkpt lat="41.9711" lon="-122.92724" />
      <trkpt lat="41.97119" lon="-122.92719" />
      <trkpt lat="41.97136" lon="-122.92712" />
      <trkpt lat="41.97149" lon="-122.92702" />
      <trkpt lat="41.97154" lon="-122.9269" />
      <trkpt lat="41.97157" lon="-122.92677" />
      <trkpt lat="41.97159" lon="-122.92674" />
      <trkpt lat="41.97168" lon="-122.92664" />
      <trkpt lat="41.97178" lon="-122.92658" />
      <trkpt lat="41.97194" lon="-122.92645" />
      <trkpt lat="41.97199" lon="-122.92644" />
      <trkpt lat="41.97215" lon="-122.92647" />
      <trkpt lat="41.97228" lon="-122.92643" />
      <trkpt lat="41.97278" lon="-122.92653" />
      <trkpt lat="41.97305" lon="-122.92645" />
      <trkpt lat="41.97315" lon="-122.92646" />
      <trkpt lat="41.9732" lon="-122.92644" />
      <trkpt lat="41.97344" lon="-122.92628" />
      <trkpt lat="41.97355" lon="-122.92615" />
      <trkpt lat="41.9738" lon="-122.92577" />
      <trkpt lat="41.9739" lon="-122.92566" />
      <trkpt lat="41.97404" lon="-122.92564" />
      <trkpt lat="41.97424" lon="-122.92552" />
      <trkpt lat="41.97436" lon="-122.92547" />
      <trkpt lat="41.97454" lon="-122.9255" />
      <trkpt lat="41.97469" lon="-122.92549" />
      <trkpt lat="41.97473" lon="-122.9255" />
      <trkpt lat="41.97475" lon="-122.92549" />
      <trkpt lat="41.97486" lon="-122.92553" />
      <trkpt lat="41.97493" lon="-122.92559" />
      <trkpt lat="41.97506" lon="-122.92562" />
      <trkpt lat="41.97523" lon="-122.92555" />
      <trkpt lat="41.97528" lon="-122.92555" />
      <trkpt lat="41.97546" lon="-122.92542" />
      <trkpt lat="41.97561" lon="-122.92522" />
      <trkpt lat="41.97566" lon="-122.92505" />
      <trkpt lat="41.97567" lon="-122.92495" />
      <trkpt lat="41.97565" lon="-122.92463" />
      <trkpt lat="41.97563" lon="-122.9245" />
      <trkpt lat="41.97564" lon="-122.92439" />
      <trkpt lat="41.97577" lon="-122.92416" />
      <trkpt lat="41.97598" lon="-122.9239" />
      <trkpt lat="41.97618" lon="-122.92375" />
      <trkpt lat="41.97631" lon="-122.92374" />
      <trkpt lat="41.9764" lon="-122.9237" />
      <trkpt lat="41.97647" lon="-122.92364" />
      <trkpt lat="41.97649" lon="-122.9236" />
      <trkpt lat="41.97659" lon="-122.92352" />
      <trkpt lat="41.97683" lon="-122.92343" />
      <trkpt lat="41.97704" lon="-122.92324" />
      <trkpt lat="41.97715" lon="-122.92317" />
      <trkpt lat="41.97717" lon="-122.92317" />
      <trkpt lat="41.97742" lon="-122.92299" />
      <trkpt lat="41.97766" lon="-122.9228" />
      <trkpt lat="41.97782" lon="-122.92272" />
      <trkpt lat="41.97792" lon="-122.92265" />
      <trkpt lat="41.978" lon="-122.92262" />
      <trkpt lat="41.97819" lon="-122.92249" />
      <trkpt lat="41.97825" lon="-122.92247" />
      <trkpt lat="41.97842" lon="-122.92233" />
      <trkpt lat="41.97847" lon="-122.92231" />
      <trkpt lat="41.97856" lon="-122.9222" />
      <trkpt lat="41.97861" lon="-122.92217" />
      <trkpt lat="41.97867" lon="-122.92216" />
      <trkpt lat="41.97882" lon="-122.92202" />
      <trkpt lat="41.97898" lon="-122.9218" />
      <trkpt lat="41.97922" lon="-122.92169" />
      <trkpt lat="41.97942" lon="-122.92154" />
      <trkpt lat="41.97954" lon="-122.92148" />
      <trkpt lat="41.97973" lon="-122.92131" />
      <trkpt lat="41.97982" lon="-122.92119" />
      <trkpt lat="41.97992" lon="-122.92113" />
      <trkpt lat="41.98001" lon="-122.92111" />
      <trkpt lat="41.9801" lon="-122.92112" />
      <trkpt lat="41.98025" lon="-122.92119" />
      <trkpt lat="41.98038" lon="-122.92121" />
      <trkpt lat="41.98059" lon="-122.92119" />
      <trkpt lat="41.98067" lon="-122.92113" />
      <trkpt lat="41.98073" lon="-122.92102" />
      <trkpt lat="41.98092" lon="-122.92081" />
      <trkpt lat="41.98113" lon="-122.92066" />
      <trkpt lat="41.9812" lon="-122.92056" />
      <trkpt lat="41.98125" lon="-122.92047" />
      <trkpt lat="41.98135" lon="-122.92038" />
      <trkpt lat="41.9814" lon="-122.92036" />
      <trkpt lat="41.98155" lon="-122.92045" />
      <trkpt lat="41.98163" lon="-122.92044" />
      <trkpt lat="41.98168" lon="-122.92039" />
      <trkpt lat="41.98175" lon="-122.92021" />
      <trkpt lat="41.98182" lon="-122.92015" />
      <trkpt lat="41.9819" lon="-122.92013" />
      <trkpt lat="41.98197" lon="-122.92" />
      <trkpt lat="41.98202" lon="-122.91969" />
      <trkpt lat="41.98212" lon="-122.9194" />
      <trkpt lat="41.9822" lon="-122.91904" />
      <trkpt lat="41.98224" lon="-122.91897" />
      <trkpt lat="41.98233" lon="-122.9189" />
      <trkpt lat="41.98241" lon="-122.91888" />
      <trkpt lat="41.98251" lon="-122.9188" />
      <trkpt lat="41.98274" lon="-122.9187" />
      <trkpt lat="41.98285" lon="-122.91856" />
      <trkpt lat="41.98302" lon="-122.91842" />
      <trkpt lat="41.98311" lon="-122.91837" />
      <trkpt lat="41.98317" lon="-122.91837" />
      <trkpt lat="41.98329" lon="-122.91841" />
      <trkpt lat="41.98346" lon="-122.91857" />
      <trkpt lat="41.98351" lon="-122.91858" />
      <trkpt lat="41.98354" lon="-122.91835" />
      <trkpt lat="41.98361" lon="-122.91823" />
      <trkpt lat="41.98369" lon="-122.91807" />
      <trkpt lat="41.98372" lon="-122.91795" />
      <trkpt lat="41.98372" lon="-122.91782" />
      <trkpt lat="41.98376" lon="-122.91774" />
    </trkseg>
  </trk>
</gpx>