<?xml version="1.0" encoding="UTF-8"?>
<gpx version="1.1" creator="strava-segment-scraper" xmlns="http://www.topografix.com/GPX/1/1">
  <trk>
    <name>Hoy Road uphill full length</name>
    <trkseg>
      <trkpt lat="41.4667" lon="-122.41323" />
      <trkpt lat="41.46677" lon="-122.41283" />
      <trkpt lat="41.46702" lon="-122.41189" />
      <trkpt lat="41.4671" lon="-122.41138" />
      <trkpt lat="41.46718" lon="-122.41064" />
      <trkpt lat="41.46721" lon="-122.40946" />
      <trkpt lat="41.46727" lon="-122.40891" />
      <trkpt lat="41.46726" lon="-122.40856" />
      <trkpt lat="41.4671" lon="-122.40794" />
      <trkpt lat="41.46697" lon="-122.40759" />
      <trkpt lat="41.46658" lon="-122.40637" />
      <trkpt lat="41.46637" lon="-122.40583" />
      <trkpt lat="41.46597" lon="-122.40468" />
      <trkpt lat="41.46585" lon="-122.40439" />
      <trkpt lat="41.46569" lon="-122.40389" />
      <trkpt lat="41.46527" lon="-122.40282" />
      <trkpt lat="41.46515" lon="-122.40239" />
      <trkpt lat="41.4651" lon="-122.40208" />
      <trkpt lat="41.46498" lon="-122.40109" />
      <trkpt lat="41.46497" lon="-122.40084" />
      <trkpt lat="41.46498" lon="-122.40008" />
      <trkpt lat="41.46508" lon="-122.39746" />
      <trkpt lat="41.46508" lon="-122.39698" />
      <trkpt lat="41.46502" lon="-122.39567" />
      <trkpt lat="41.46489" lon="-122.39364" />
      <trkpt lat="41.46489" lon="-122.39337" />
      <trkpt lat="41.465" lon="-122.39267" />
      <trkpt lat="41.46506" lon="-122.39181" />
      <trkpt lat="41.46506" lon="-122.39158" />
      <trkpt lat="41.46501" lon="-122.39114" />
      <trkpt lat="41.46499" lon="-122.39061" />
      <trkpt lat="41.46507" lon="-122.38849" />
      <trkpt lat="41.46507" lon="-122.38764" />
      <trkpt lat="41.46503" lon="-122.38735" />
      <trkpt lat="41.46497" lon="-122.38725" />
      <trkpt lat="41.4649" lon="-122.38719" />
      <trkpt lat="41.46462" lon="-122.38714" />
      <trkpt lat="41.46407" lon="-122.38706" />
      <trkpt lat="41.46371" lon="-122.38705" />
      <trkpt lat="41.46309" lon="-122.38695" />
      <trkpt lat="41.46297" lon="-122.38692" />
      <trkpt lat="41.4628" lon="-122.38685" />
      <trkpt lat="41.46261" lon="-122.38671" />
      <trkpt lat="41.46253" lon="-122.38663" />
      <trkpt lat="41.46235" lon="-122.38639" />
      <trkpt lat="41.46227" lon="-122.38625" />
      <trkpt lat="41.4621" lon="-122.38604" />
      <trkpt lat="41.46188" lon="-122.38566" />
      <trkpt lat="41.46174" lon="-122.38546" />
      <trkpt lat="41.46157" lon="-122.38519" />
      <trkpt lat="41.46151" lon="-122.38504" />
      <trkpt lat="41.46148" lon="-122.38492" />
      <trkpt lat="41.46144" lon="-122.38422" />
      <trkpt lat="41.46141" lon="-122.38403" />
      <trkpt lat="41.46136" lon="-122.38392" />
      <trkpt lat="41.46133" lon="-122.38388" />
      <trkpt lat="41.46124" lon="-122.38382" />
      <trkpt lat="41.46119" lon="-122.3838" />
      <trkpt lat="41.46108" lon="-122.3838" />
      <trkpt lat="41.46091" lon="-122.38383" />
      <trkpt lat="41.45909" lon="-122.38434" />
      <trkpt lat="41.45815" lon="-122.38462" />
      <trkpt lat="41.45801" lon="-122.3847" />
      <trkpt lat="41.45789" lon="-122.38481" />
      <trkpt lat="41.45769" lon="-122.38508" />
      <trkpt lat="41.45756" lon="-122.38531" />
      <trkpt lat="41.45748" lon="-122.38541" />
      <trkpt lat="41.45743" lon="-122.38545" />
      <trkpt lat="41.45737" lon="-122.38546" />
      <trkpt lat="41.4573" lon="-122.38545" />
      <trkpt lat="41.45719" lon="-122.38538" />
      <trkpt lat="41.45614" lon="-122.38449" />
      <trkpt lat="41.45566" lon="-122.38405" />
      <trkpt lat="41.45548" lon="-122.38393" />
      <trkpt lat="41.45535" lon="-122.38387" />
      <trkpt lat="41.45522" lon="-122.38383" />
      <trkpt lat="41.45446" lon="-122.3837" />
      <trkpt lat="41.45422" lon="-122.38363" />
      <trkpt lat="41.4535" lon="-122.38337" />
      <trkpt lat="41.45305" lon="-122.38315" />
      <trkpt lat="41.45276" lon="-122.38298" />
      <trkpt lat="41.45241" lon="-122.38273" />
      <trkpt lat="41.45215" lon="-122.38258" />
      <trkpt lat="41.45085" lon="-122.38168" />
      <trkpt lat="41.45022" lon="-122.38126" />
      <trkpt lat="41.44998" lon="-122.38108" />
      <trkpt lat="41.44981" lon="-122.38091" />
      <trkpt lat="41.44968" lon="-122.38076" />
      <trkpt lat="41.44915" lon="-122.37993" />
      <trkpt lat="41.44892" lon="-122.37967" />
      <trkpt lat="41.44866" lon="-122.3795" />
      <trkpt lat="41.44827" lon="-122.37928" />
      <trkpt lat="41.44806" lon="-122.37919" />
      <trkpt lat="41.44789" lon="-122.37915" />
      <trkpt lat="41.44777" lon="-122.37917" />
      <trkpt lat="41.44766" lon="-122.37923" />
      <trkpt lat="41.44732" lon="-122.37947" />
      <trkpt lat="41.4471" lon="-122.37966" />
      <trkpt lat="41.44687" lon="-122.3799" />
      <trkpt lat="41.44648" lon="-122.38045" />
      <trkpt lat="41.44559" lon="-122.38186" />
      <trkpt lat="41.44511" lon="-122.38269" />
      <trkpt lat="41.44463" lon="-122.38363" />
      <trkpt lat="41.44413" lon="-122.3848" />
      <trkpt lat="41.44387" lon="-122.38538" />
      <trkpt lat="41.44375" lon="-122.3856" />
      <trkpt lat="41.44339" lon="-122.38604" />
      <trkpt lat="41.44318" lon="-122.38626" />
      <trkpt lat="41.44301" lon="-122.3864" />
      <trkpt lat="41.44275" lon="-122.38657" />
    </trkseg>
  </trk>
</gpx>