<?xml version="1.0" encoding="UTF-8"?>
<gpx version="1.1" creator="strava-segment-scraper" xmlns="http://www.topografix.com/GPX/1/1">
  <trk>
    <name>Mattole Road West</name>
    <trkseg>
      <trkpt lat="40.24501" lon="-124.12289" />
      <trkpt lat="40.24507" lon="-124.12295" />
      <trkpt lat="40.24513" lon="-124.12303" />
      <trkpt lat="40.24524" lon="-124.12324" />
      <trkpt lat="40.24524" lon="-124.12342" />
      <trkpt lat="40.24539" lon="-124.12386" />
      <trkpt lat="40.24552" lon="-124.12414" />
      <trkpt lat="40.2456" lon="-124.12426" />
      <trkpt lat="40.2457" lon="-124.12435" />
      <trkpt lat="40.24579" lon="-124.12439" />
      <trkpt lat="40.24585" lon="-124.1244" />
      <trkpt lat="40.24592" lon="-124.12438" />
      <trkpt lat="40.24599" lon="-124.12435" />
      <trkpt lat="40.24608" lon="-124.12424" />
      <trkpt lat="40.24618" lon="-124.12401" />
      <trkpt lat="40.24625" lon="-124.12374" />
      <trkpt lat="40.24625" lon="-124.12367" />
      <trkpt lat="40.24622" lon="-124.12353" />
      <trkpt lat="40.24602" lon="-124.12323" />
      <trkpt lat="40.24591" lon="-124.12302" />
      <trkpt lat="40.24589" lon="-124.12293" />
      <trkpt lat="40.24589" lon="-124.12285" />
      <trkpt lat="40.24592" lon="-124.12278" />
      <trkpt lat="40.246" lon="-124.1227" />
      <trkpt lat="40.24631" lon="-124.12254" />
      <trkpt lat="40.24684" lon="-124.12222" />
      <trkpt lat="40.24697" lon="-124.12217" />
      <trkpt lat="40.2471" lon="-124.12215" />
      <trkpt lat="40.24717" lon="-124.12216" />
      <trkpt lat="40.24725" lon="-124.12221" />
      <trkpt lat="40.2473" lon="-124.12227" />
      <trkpt lat="40.24752" lon="-124.12264" />
      <trkpt lat="40.24764" lon="-124.12275" />
      <trkpt lat="40.24774" lon="-124.12279" />
      <trkpt lat="40.24779" lon="-124.12279" />
      <trkpt lat="40.24784" lon="-124.12277" />
      <trkpt lat="40.24789" lon="-124.12273" />
      <trkpt lat="40.24792" lon="-124.12263" />
      <trkpt lat="40.24788" lon="-124.1225" />
      <trkpt lat="40.24757" lon="-124.12204" />
      <trkpt lat="40.24747" lon="-124.12195" />
      <trkpt lat="40.24736" lon="-124.1218" />
      <trkpt lat="40.24701" lon="-124.12112" />
      <trkpt lat="40.247" lon="-124.12096" />
      <trkpt lat="40.24705" lon="-124.12086" />
      <trkpt lat="40.24711" lon="-124.12081" />
      <trkpt lat="40.24717" lon="-124.12079" />
      <trkpt lat="40.24729" lon="-124.12079" />
      <trkpt lat="40.24752" lon="-124.12087" />
      <trkpt lat="40.24774" lon="-124.121" />
      <trkpt lat="40.24782" lon="-124.12112" />
      <trkpt lat="40.24801" lon="-124.12154" />
      <trkpt lat="40.24813" lon="-124.12169" />
      <trkpt lat="40.24831" lon="-124.12185" />
      <trkpt lat="40.24851" lon="-124.12193" />
      <trkpt lat="40.24895" lon="-124.12191" />
      <trkpt lat="40.24927" lon="-124.12192" />
      <trkpt lat="40.24948" lon="-124.12206" />
      <trkpt lat="40.24967" lon="-124.12226" />
      <trkpt lat="40.24973" lon="-124.12238" />
      <trkpt lat="40.24977" lon="-124.12252" />
      <trkpt lat="40.24978" lon="-124.12272" />
      <trkpt lat="40.24972" lon="-124.12291" />
      <trkpt lat="40.24954" lon="-124.1233" />
      <trkpt lat="40.24945" lon="-124.12357" />
      <trkpt lat="40.24939" lon="-124.1239" />
      <trkpt lat="40.2494" lon="-124.12412" />
      <trkpt lat="40.24951" lon="-124.1243" />
      <trkpt lat="40.2496" lon="-124.1244" />
      <trkpt lat="40.25009" lon="-124.12472" />
      <trkpt lat="40.25028" lon="-124.12487" />
      <trkpt lat="40.2505" lon="-124.12501" />
      <trkpt lat="40.25085" lon="-124.12516" />
      <trkpt lat="40.25099" lon="-124.12519" />
      <trkpt lat="40.25125" lon="-124.1252" />
      <trkpt lat="40.25146" lon="-124.12514" />
      <trkpt lat="40.25157" lon="-124.12507" />
      <trkpt lat="40.25182" lon="-124.12473" />
      <trkpt lat="40.2521" lon="-124.12441" />
      <trkpt lat="40.25224" lon="-124.12431" />
      <trkpt lat="40.25236" lon="-124.12427" />
      <trkpt lat="40.25248" lon="-124.12427" />
      <trkpt lat="40.25261" lon="-124.1243" />
      <trkpt lat="40.25312" lon="-124.12447" />
      <trkpt lat="40.25352" lon="-124.12455" />
      <trkpt lat="40.25364" lon="-124.12454" />
      <trkpt lat="40.2539" lon="-124.12445" />
      <trkpt lat="40.25395" lon="-124.12441" />
      <trkpt lat="40.25399" lon="-124.12436" />
      <trkpt lat="40.25402" lon="-124.12429" />
      <trkpt lat="40.25405" lon="-124.12413" />
      <trkpt lat="40.25403" lon="-124.12403" />
      <trkpt lat="40.25393" lon="-124.12391" />
      <trkpt lat="40.25383" lon="-124.12387" />
      <trkpt lat="40.25359" lon="-124.12384" />
      <trkpt lat="40.25349" lon="-124.12387" />
      <trkpt lat="40.25333" lon="-124.12399" />
      <trkpt lat="40.25321" lon="-124.12404" />
      <trkpt lat="40.25314" lon="-124.12404" />
      <trkpt lat="40.25301" lon="-124.12401" />
      <trkpt lat="40.25295" lon="-124.12398" />
      <trkpt lat="40.25284" lon="-124.1239" />
      <trkpt lat="40.25245" lon="-124.12354" />
      <trkpt lat="40.25232" lon="-124.12349" />
      <trkpt lat="40.25225" lon="-124.12348" />
      <trkpt lat="40.252" lon="-124.1235" />
      <trkpt lat="40.25187" lon="-124.12347" />
      <trkpt lat="40.25182" lon="-124.12343" />
      <trkpt lat="40.25177" lon="-124.1233" />
      <trkpt lat="40.25177" lon="-124.12322" />
      <trkpt lat="40.25181" lon="-124.12315" />
      <trkpt lat="40.25187" lon="-124.1231" />
      <trkpt lat="40.25191" lon="-124.12309" />
      <trkpt lat="40.2521" lon="-124.12309" />
      <trkpt lat="40.25242" lon="-124.12317" />
      <trkpt lat="40.2528" lon="-124.12336" />
      <trkpt lat="40.25293" lon="-124.12338" />
      <trkpt lat="40.25307" lon="-124.12335" />
      <trkpt lat="40.25319" lon="-124.12326" />
      <trkpt lat="40.25339" lon="-124.12302" />
      <trkpt lat="40.25348" lon="-124.12295" />
      <trkpt lat="40.25371" lon="-124.12284" />
      <trkpt lat="40.25385" lon="-124.12275" />
      <trkpt lat="40.25408" lon="-124.12251" />
      <trkpt lat="40.25443" lon="-124.12226" />
      <trkpt lat="40.25449" lon="-124.12216" />
      <trkpt lat="40.25451" lon="-124.12211" />
      <trkpt lat="40.2545" lon="-124.12207" />
      <trkpt lat="40.25446" lon="-124.12204" />
      <trkpt lat="40.25433" lon="-124.122" />
      <trkpt lat="40.25412" lon="-124.12197" />
      <trkpt lat="40.254" lon="-124.12199" />
      <trkpt lat="40.25389" lon="-124.12203" />
      <trkpt lat="40.25382" lon="-124.12207" />
      <trkpt lat="40.2537" lon="-124.1222" />
      <trkpt lat="40.25365" lon="-124.12222" />
      <trkpt lat="40.2536" lon="-124.12222" />
      <trkpt lat="40.25355" lon="-124.1222" />
      <trkpt lat="40.25352" lon="-124.12215" />
      <trkpt lat="40.2535" lon="-124.12206" />
      <trkpt lat="40.25353" lon="-124.12194" />
      <trkpt lat="40.25361" lon="-124.12171" />
      <trkpt lat="40.25378" lon="-124.12146" />
      <trkpt lat="40.25396" lon="-124.12128" />
      <trkpt lat="40.25415" lon="-124.1212" />
      <trkpt lat="40.25438" lon="-124.12115" />
      <trkpt lat="40.25447" lon="-124.12114" />
      <trkpt lat="40.25474" lon="-124.12118" />
      <trkpt lat="40.25482" lon="-124.12121" />
      <trkpt lat="40.25494" lon="-124.12128" />
      <trkpt lat="40.25505" lon="-124.12129" />
      <trkpt lat="40.25514" lon="-124.12121" />
      <trkpt lat="40.25532" lon="-124.121" />
      <trkpt lat="40.25577" lon="-124.12057" />
      <trkpt lat="40.25603" lon="-124.12041" />
      <trkpt lat="40.25632" lon="-124.12016" />
      <trkpt lat="40.25647" lon="-124.12009" />
      <trkpt lat="40.25661" lon="-124.12007" />
      <trkpt lat="40.25667" lon="-124.12011" />
      <trkpt lat="40.25679" lon="-124.1202" />
      <trkpt lat="40.25694" lon="-124.12039" />
      <trkpt lat="40.25704" lon="-124.12044" />
      <trkpt lat="40.25709" lon="-124.12042" />
      <trkpt lat="40.25712" lon="-124.12038" />
      <trkpt lat="40.25713" lon="-124.12029" />
      <trkpt lat="40.25687" lon="-124.11961" />
      <trkpt lat="40.25681" lon="-124.11954" />
      <trkpt lat="40.25669" lon="-124.11946" />
      <trkpt lat="40.25653" lon="-124.11943" />
      <trkpt lat="40.25613" lon="-124.11941" />
      <trkpt lat="40.25574" lon="-124.1194" />
      <trkpt lat="40.25506" lon="-124.11946" />
      <trkpt lat="40.25485" lon="-124.11941" />
      <trkpt lat="40.25466" lon="-124.11933" />
      <trkpt lat="40.25441" lon="-124.11925" />
      <trkpt lat="40.25413" lon="-124.11925" />
      <trkpt lat="40.25386" lon="-124.11931" />
      <trkpt lat="40.25378" lon="-124.11931" />
      <trkpt lat="40.25369" lon="-124.11931" />
      <trkpt lat="40.25355" lon="-124.11926" />
      <trkpt lat="40.25346" lon="-124.1192" />
      <trkpt lat="40.25338" lon="-124.11911" />
      <trkpt lat="40.25327" lon="-124.11894" />
      <trkpt lat="40.25316" lon="-124.11868" />
      <trkpt lat="40.25287" lon="-124.11832" />
      <trkpt lat="40.25279" lon="-124.11826" />
      <trkpt lat="40.25257" lon="-124.11821" />
      <trkpt lat="40.25253" lon="-124.11818" />
      <trkpt lat="40.25249" lon="-124.1181" />
      <trkpt lat="40.25249" lon="-124.11801" />
      <trkpt lat="40.25251" lon="-124.11796" />
      <trkpt lat="40.25256" lon="-124.11791" />
      <trkpt lat="40.25269" lon="-124.11785" />
      <trkpt lat="40.25281" lon="-124.11784" />
      <trkpt lat="40.25294" lon="-124.11786" />
      <trkpt lat="40.25303" lon="-124.1179" />
      <trkpt lat="40.25317" lon="-124.11802" />
      <trkpt lat="40.25339" lon="-124.11816" />
      <trkpt lat="40.25343" lon="-124.11819" />
      <trkpt lat="40.25363" lon="-124.11823" />
      <trkpt lat="40.25373" lon="-124.1182" />
      <trkpt lat="40.25399" lon="-124.11795" />
      <trkpt lat="40.2541" lon="-124.1179" />
      <trkpt lat="40.25453" lon="-124.11786" />
      <trkpt lat="40.25473" lon="-124.11787" />
      <trkpt lat="40.25488" lon="-124.11791" />
      <trkpt lat="40.25521" lon="-124.11788" />
      <trkpt lat="40.25537" lon="-124.1179" />
      <trkpt lat="40.25601" lon="-124.11795" />
      <trkpt lat="40.25619" lon="-124.11793" />
      <trkpt lat="40.25633" lon="-124.11788" />
      <trkpt lat="40.25652" lon="-124.11778" />
      <trkpt lat="40.2567" lon="-124.11765" />
      <trkpt lat="40.25687" lon="-124.11749" />
      <trkpt lat="40.25744" lon="-124.11705" />
      <trkpt lat="40.25759" lon="-124.11687" />
      <trkpt lat="40.25773" lon="-124.11663" />
      <trkpt lat="40.2582" lon="-124.11609" />
      <trkpt lat="40.25852" lon="-124.11583" />
      <trkpt lat="40.25863" lon="-124.11571" />
      <trkpt lat="40.25876" lon="-124.11551" />
      <trkpt lat="40.25883" lon="-124.11542" />
      <trkpt lat="40.25906" lon="-124.11528" />
      <trkpt lat="40.25946" lon="-124.11512" />
      <trkpt lat="40.25964" lon="-124.11513" />
      <trkpt lat="40.25977" lon="-124.1152" />
      <trkpt lat="40.25993" lon="-124.11534" />
      <trkpt lat="40.26016" lon="-124.1155" />
      <trkpt lat="40.26035" lon="-124.11561" />
      <trkpt lat="40.26045" lon="-124.11562" />
      <trkpt lat="40.26061" lon="-124.11562" />
      <trkpt lat="40.26106" lon="-124.11556" />
      <trkpt lat="40.26117" lon="-124.11553" />
      <trkpt lat="40.26125" lon="-124.11548" />
      <trkpt lat="40.26134" lon="-124.11538" />
      <trkpt lat="40.26161" lon="-124.11491" />
      <trkpt lat="40.2617" lon="-124.11467" />
      <trkpt lat="40.26187" lon="-124.11411" />
      <trkpt lat="40.26195" lon="-124.11392" />
      <trkpt lat="40.26202" lon="-124.1138" />
      <trkpt lat="40.26217" lon="-124.11359" />
      <trkpt lat="40.26283" lon="-124.11303" />
      <trkpt lat="40.2629" lon="-124.11294" />
      <trkpt lat="40.263" lon="-124.11264" />
      <trkpt lat="40.26313" lon="-124.11207" />
      <trkpt lat="40.26328" lon="-124.11158" />
      <trkpt lat="40.26336" lon="-124.1113" />
      <trkpt lat="40.26355" lon="-124.11082" />
      <trkpt lat="40.26363" lon="-124.11051" />
      <trkpt lat="40.26365" lon="-124.11025" />
      <trkpt lat="40.26362" lon="-124.10976" />
      <trkpt lat="40.26364" lon="-124.10935" />
      <trkpt lat="40.26356" lon="-124.10918" />
      <trkpt lat="40.26347" lon="-124.10903" />
      <trkpt lat="40.26323" lon="-124.10847" />
      <trkpt lat="40.26318" lon="-124.10805" />
      <trkpt lat="40.26318" lon="-124.10784" />
      <trkpt lat="40.26315" lon="-124.10768" />
      <trkpt lat="40.26309" lon="-124.10751" />
      <trkpt lat="40.26305" lon="-124.10717" />
      <trkpt lat="40.26305" lon="-124.10695" />
      <trkpt lat="40.26309" lon="-124.10676" />
      <trkpt lat="40.2631" lon="-124.10663" />
      <trkpt lat="40.26306" lon="-124.10632" />
      <trkpt lat="40.26305" lon="-124.10609" />
      <trkpt lat="40.26299" lon="-124.10597" />
      <trkpt lat="40.26272" lon="-124.1057" />
      <trkpt lat="40.26267" lon="-124.10556" />
      <trkpt lat="40.26265" lon="-124.10539" />
      <trkpt lat="40.2626" lon="-124.10517" />
      <trkpt lat="40.26259" lon="-124.10501" />
      <trkpt lat="40.26255" lon="-124.10477" />
      <trkpt lat="40.26255" lon="-124.10457" />
      <trkpt lat="40.26248" lon="-124.10423" />
      <trkpt lat="40.26239" lon="-124.10402" />
      <trkpt lat="40.2623" lon="-124.10389" />
      <trkpt lat="40.26227" lon="-124.10382" />
      <trkpt lat="40.26224" lon="-124.10369" />
      <trkpt lat="40.2622" lon="-124.10341" />
      <trkpt lat="40.26212" lon="-124.10311" />
      <trkpt lat="40.26192" lon="-124.10282" />
      <trkpt lat="40.26173" lon="-124.1025" />
      <trkpt lat="40.26151" lon="-124.10223" />
      <trkpt lat="40.26136" lon="-124.1021" />
      <trkpt lat="40.2613" lon="-124.10201" />
      <trkpt lat="40.26128" lon="-124.10194" />
      <trkpt lat="40.26126" lon="-124.10179" />
      <trkpt lat="40.26129" lon="-124.10156" />
      <trkpt lat="40.26129" lon="-124.1014" />
      <trkpt lat="40.26127" lon="-124.1011" />
      <trkpt lat="40.2613" lon="-124.10094" />
      <trkpt lat="40.26131" lon="-124.10063" />
      <trkpt lat="40.26138" lon="-124.10027" />
      <trkpt lat="40.26137" lon="-124.09981" />
      <trkpt lat="40.26134" lon="-124.09954" />
      <trkpt lat="40.26141" lon="-124.0988" />
      <trkpt lat="40.26142" lon="-124.0986" />
      <trkpt lat="40.26139" lon="-124.09846" />
      <trkpt lat="40.26139" lon="-124.09823" />
      <trkpt lat="40.26141" lon="-124.09786" />
      <trkpt lat="40.26151" lon="-124.09745" />
      <trkpt lat="40.26153" lon="-124.09725" />
      <trkpt lat="40.26165" lon="-124.09667" />
      <trkpt lat="40.26178" lon="-124.0963" />
      <trkpt lat="40.26186" lon="-124.09589" />
      <trkpt lat="40.262" lon="-124.09553" />
      <trkpt lat="40.26217" lon="-124.09527" />
      <trkpt lat="40.26231" lon="-124.09509" />
      <trkpt lat="40.26257" lon="-124.09484" />
      <trkpt lat="40.26275" lon="-124.09474" />
      <trkpt lat="40.26308" lon="-124.09462" />
      <trkpt lat="40.26331" lon="-124.09449" />
      <trkpt lat="40.26341" lon="-124.0944" />
      <trkpt lat="40.26357" lon="-124.09421" />
      <trkpt lat="40.26373" lon="-124.09408" />
      <trkpt lat="40.26387" lon="-124.09404" />
      <trkpt lat="40.26392" lon="-124.09401" />
      <trkpt lat="40.26406" lon="-124.09388" />
      <trkpt lat="40.26432" lon="-124.09372" />
      <trkpt lat="40.26448" lon="-124.09352" />
      <trkpt lat="40.26463" lon="-124.09315" />
      <trkpt lat="40.26466" lon="-124.09293" />
      <trkpt lat="40.26461" lon="-124.09274" />
      <trkpt lat="40.26448" lon="-124.09253" />
      <trkpt lat="40.26439" lon="-124.09223" />
      <trkpt lat="40.26441" lon="-124.09203" />
      <trkpt lat="40.26447" lon="-124.09176" />
      <trkpt lat="40.26451" lon="-124.09134" />
      <trkpt lat="40.2646" lon="-124.09087" />
      <trkpt lat="40.26468" lon="-124.09075" />
      <trkpt lat="40.26477" lon="-124.09066" />
      <trkpt lat="40.26488" lon="-124.09061" />
      <trkpt lat="40.26501" lon="-124.09051" />
      <trkpt lat="40.26516" lon="-124.09028" />
      <trkpt lat="40.26527" lon="-124.09007" />
      <trkpt lat="40.26538" lon="-124.08995" />
      <trkpt lat="40.26557" lon="-124.0896" />
      <trkpt lat="40.26568" lon="-124.08945" />
      <trkpt lat="40.26594" lon="-124.08916" />
      <trkpt lat="40.26604" lon="-124.08903" />
      <trkpt lat="40.26615" lon="-124.08878" />
      <trkpt lat="40.26622" lon="-124.08866" />
      <trkpt lat="40.26674" lon="-124.08795" />
      <trkpt lat="40.26712" lon="-124.0873" />
      <trkpt lat="40.26744" lon="-124.0869" />
      <trkpt lat="40.26772" lon="-124.08623" />
      <trkpt lat="40.26798" lon="-124.08574" />
      <trkpt lat="40.26801" lon="-124.08559" />
      <trkpt lat="40.26801" lon="-124.08542" />
      <trkpt lat="40.26792" lon="-124.08481" />
      <trkpt lat="40.26794" lon="-124.08459" />
      <trkpt lat="40.26798" lon="-124.08452" />
      <trkpt lat="40.26812" lon="-124.08432" />
      <trkpt lat="40.26831" lon="-124.08418" />
      <trkpt lat="40.26843" lon="-124.08401" />
      <trkpt lat="40.26844" lon="-124.08388" />
      <trkpt lat="40.26843" lon="-124.08353" />
      <trkpt lat="40.26848" lon="-124.08326" />
      <trkpt lat="40.26858" lon="-124.08298" />
      <trkpt lat="40.26878" lon="-124.08273" />
      <trkpt lat="40.26885" lon="-124.08257" />
      <trkpt lat="40.26898" lon="-124.08214" />
      <trkpt lat="40.26899" lon="-124.08205" />
      <trkpt lat="40.26899" lon="-124.08196" />
      <trkpt lat="40.26897" lon="-124.08187" />
      <trkpt lat="40.26891" lon="-124.08181" />
      <trkpt lat="40.26885" lon="-124.08178" />
      <trkpt lat="40.26868" lon="-124.0818" />
      <trkpt lat="40.26846" lon="-124.08179" />
      <trkpt lat="40.26838" lon="-124.08176" />
      <trkpt lat="40.26829" lon="-124.0817" />
      <trkpt lat="40.26822" lon="-124.08161" />
      <trkpt lat="40.26816" lon="-124.08141" />
      <trkpt lat="40.26822" lon="-124.08085" />
      <trkpt lat="40.2682" lon="-124.08051" />
      <trkpt lat="40.26817" lon="-124.08033" />
      <trkpt lat="40.26814" lon="-124.08025" />
      <trkpt lat="40.26806" lon="-124.08014" />
      <trkpt lat="40.26787" lon="-124.07994" />
      <trkpt lat="40.2676" lon="-124.07971" />
      <trkpt lat="40.2675" lon="-124.0796" />
      <trkpt lat="40.26744" lon="-124.07945" />
      <trkpt lat="40.2674" lon="-124.07919" />
      <trkpt lat="40.2674" lon="-124.07906" />
      <trkpt lat="40.26756" lon="-124.07844" />
      <trkpt lat="40.26756" lon="-124.0782" />
      <trkpt lat="40.2675" lon="-124.07784" />
      <trkpt lat="40.26749" lon="-124.07728" />
      <trkpt lat="40.26752" lon="-124.07719" />
      <trkpt lat="40.26776" lon="-124.0768" />
      <trkpt lat="40.26781" lon="-124.07676" />
      <trkpt lat="40.2679" lon="-124.07675" />
      <trkpt lat="40.26816" lon="-124.07683" />
      <trkpt lat="40.26833" lon="-124.07684" />
      <trkpt lat="40.2684" lon="-124.07688" />
      <trkpt lat="40.26862" lon="-124.07715" />
      <trkpt lat="40.269" lon="-124.07751" />
      <trkpt lat="40.2693" lon="-124.07772" />
      <trkpt lat="40.26953" lon="-124.07791" />
      <trkpt lat="40.26975" lon="-124.07805" />
      <trkpt lat="40.26991" lon="-124.07812" />
      <trkpt lat="40.27026" lon="-124.07815" />
      <trkpt lat="40.27064" lon="-124.07825" />
      <trkpt lat="40.27078" lon="-124.0783" />
      <trkpt lat="40.27084" lon="-124.07829" />
      <trkpt lat="40.271" lon="-124.07824" />
      <trkpt lat="40.27123" lon="-124.0782" />
      <trkpt lat="40.27139" lon="-124.07824" />
      <trkpt lat="40.27161" lon="-124.07841" />
      <trkpt lat="40.27178" lon="-124.07862" />
      <trkpt lat="40.27206" lon="-124.07879" />
      <trkpt lat="40.27216" lon="-124.07894" />
      <trkpt lat="40.27237" lon="-124.07898" />
      <trkpt lat="40.27257" lon="-124.07895" />
      <trkpt lat="40.27284" lon="-124.07888" />
      <trkpt lat="40.2731" lon="-124.07892" />
      <trkpt lat="40.27347" lon="-124.07881" />
      <trkpt lat="40.27361" lon="-124.07874" />
      <trkpt lat="40.27395" lon="-124.07846" />
      <trkpt lat="40.27404" lon="-124.07844" />
      <trkpt lat="40.27409" lon="-124.07844" />
      <trkpt lat="40.27427" lon="-124.07849" />
      <trkpt lat="40.27466" lon="-124.07849" />
      <trkpt lat="40.27489" lon="-124.07842" />
      <trkpt lat="40.27513" lon="-124.07823" />
      <trkpt lat="40.27536" lon="-124.07813" />
      <trkpt lat="40.27557" lon="-124.07813" />
      <trkpt lat="40.27563" lon="-124.0781" />
      <trkpt lat="40.27572" lon="-124.07809" />
      <trkpt lat="40.27602" lon="-124.07807" />
      <trkpt lat="40.27609" lon="-124.07803" />
      <trkpt lat="40.27621" lon="-124.07788" />
      <trkpt lat="40.2767" lon="-124.07752" />
      <trkpt lat="40.2769" lon="-124.07741" />
      <trkpt lat="40.27715" lon="-124.0773" />
      <trkpt lat="40.27741" lon="-124.07714" />
      <trkpt lat="40.2775" lon="-124.07702" />
      <trkpt lat="40.27755" lon="-124.07686" />
      <trkpt lat="40.27757" lon="-124.07672" />
      <trkpt lat="40.27754" lon="-124.07648" />
      <trkpt lat="40.27756" lon="-124.07617" />
      <trkpt lat="40.27761" lon="-124.07598" />
      <trkpt lat="40.27771" lon="-124.07576" />
      <trkpt lat="40.27783" lon="-124.07556" />
      <trkpt lat="40.27803" lon="-124.07532" />
      <trkpt lat="40.27808" lon="-124.07521" />
      <trkpt lat="40.27812" lon="-124.07509" />
      <trkpt lat="40.27814" lon="-124.07497" />
      <trkpt lat="40.27813" lon="-124.07482" />
      <trkpt lat="40.2781" lon="-124.07471" />
      <trkpt lat="40.27802" lon="-124.07459" />
      <trkpt lat="40.27793" lon="-124.07449" />
      <trkpt lat="40.27768" lon="-124.0743" />
      <trkpt lat="40.27747" lon="-124.07407" />
      <trkpt lat="40.27737" lon="-124.07378" />
      <trkpt lat="40.27732" lon="-124.07372" />
      <trkpt lat="40.27724" lon="-124.07367" />
      <trkpt lat="40.27682" lon="-124.07361" />
      <trkpt lat="40.27673" lon="-124.07357" />
      <trkpt lat="40.27654" lon="-124.07342" />
      <trkpt lat="40.27639" lon="-124.07319" />
      <trkpt lat="40.27633" lon="-124.07302" />
      <trkpt lat="40.27629" lon="-124.07279" />
      <trkpt lat="40.27626" lon="-124.07191" />
      <trkpt lat="40.27622" lon="-124.07178" />
      <trkpt lat="40.2762" lon="-124.07159" />
      <trkpt lat="40.27618" lon="-124.07123" />
      <trkpt lat="40.27613" lon="-124.07105" />
      <trkpt lat="40.27611" lon="-124.07092" />
      <trkpt lat="40.27612" lon="-124.07069" />
      <trkpt lat="40.27633" lon="-124.07052" />
      <trkpt lat="40.27653" lon="-124.0704" />
      <trkpt lat="40.27682" lon="-124.07018" />
      <trkpt lat="40.27706" lon="-124.07009" />
      <trkpt lat="40.27726" lon="-124.07009" />
      <trkpt lat="40.27738" lon="-124.07005" />
      <trkpt lat="40.27777" lon="-124.06986" />
      <trkpt lat="40.2781" lon="-124.06983" />
      <trkpt lat="40.27833" lon="-124.06979" />
      <trkpt lat="40.27868" lon="-124.06987" />
      <trkpt lat="40.27883" lon="-124.06996" />
      <trkpt lat="40.27889" lon="-124.07003" />
      <trkpt lat="40.27895" lon="-124.07006" />
      <trkpt lat="40.27901" lon="-124.07007" />
      <trkpt lat="40.27909" lon="-124.07004" />
      <trkpt lat="40.27912" lon="-124.06971" />
      <trkpt lat="40.27911" lon="-124.06957" />
      <trkpt lat="40.27905" lon="-124.06934" />
      <trkpt lat="40.27903" lon="-124.06883" />
      <trkpt lat="40.27897" lon="-124.06864" />
      <trkpt lat="40.27898" lon="-124.06845" />
      <trkpt lat="40.27907" lon="-124.06822" />
      <trkpt lat="40.27935" lon="-124.06777" />
      <trkpt lat="40.27943" lon="-124.06767" />
      <trkpt lat="40.27953" lon="-124.06752" />
      <trkpt lat="40.27961" lon="-124.06743" />
      <trkpt lat="40.2798" lon="-124.0673" />
      <trkpt lat="40.27997" lon="-124.06714" />
      <trkpt lat="40.2801" lon="-124.06708" />
      <trkpt lat="40.28025" lon="-124.06698" />
      <trkpt lat="40.28054" lon="-124.0667" />
      <trkpt lat="40.28074" lon="-124.06658" />
      <trkpt lat="40.28089" lon="-124.06647" />
      <trkpt lat="40.28104" lon="-124.06626" />
      <trkpt lat="40.28121" lon="-124.06582" />
    </trkseg>
  </trk>
</gpx>