<?xml version="1.0" encoding="UTF-8"?>
<gpx version="1.1" creator="strava-segment-scraper" xmlns="http://www.topografix.com/GPX/1/1">
  <trk>
    <name>Sonoma Mtn Complete</name>
    <trkseg>
      <trkpt lat="38.36899" lon="-122.53989" />
      <trkpt lat="38.36854" lon="-122.53997" />
      <trkpt lat="38.36829" lon="-122.54004" />
      <trkpt lat="38.3678" lon="-122.54" />
      <trkpt lat="38.36765" lon="-122.54009" />
      <trkpt lat="38.36759" lon="-122.54028" />
      <trkpt lat="38.36755" lon="-122.54056" />
      <trkpt lat="38.36728" lon="-122.54133" />
      <trkpt lat="38.36701" lon="-122.54187" />
      <trkpt lat="38.36688" lon="-122.54205" />
      <trkpt lat="38.36667" lon="-122.5422" />
      <trkpt lat="38.36643" lon="-122.54231" />
      <trkpt lat="38.36614" lon="-122.54241" />
      <trkpt lat="38.36591" lon="-122.54247" />
      <trkpt lat="38.36576" lon="-122.54253" />
      <trkpt lat="38.36557" lon="-122.54268" />
      <trkpt lat="38.3654" lon="-122.54286" />
      <trkpt lat="38.36529" lon="-122.54302" />
      <trkpt lat="38.36525" lon="-122.54313" />
      <trkpt lat="38.36516" lon="-122.54354" />
      <trkpt lat="38.36517" lon="-122.54371" />
      <trkpt lat="38.3652" lon="-122.54395" />
      <trkpt lat="38.36534" lon="-122.54443" />
      <trkpt lat="38.36538" lon="-122.54474" />
      <trkpt lat="38.36541" lon="-122.54526" />
      <trkpt lat="38.36539" lon="-122.54582" />
      <trkpt lat="38.36535" lon="-122.54628" />
      <trkpt lat="38.3653" lon="-122.54653" />
      <trkpt lat="38.36529" lon="-122.54698" />
      <trkpt lat="38.36524" lon="-122.5474" />
      <trkpt lat="38.36524" lon="-122.54819" />
      <trkpt lat="38.36527" lon="-122.54859" />
      <trkpt lat="38.36527" lon="-122.54982" />
      <trkpt lat="38.36527" lon="-122.55033" />
      <trkpt lat="38.36522" lon="-122.55083" />
      <trkpt lat="38.36521" lon="-122.55106" />
      <trkpt lat="38.36514" lon="-122.5512" />
      <trkpt lat="38.36497" lon="-122.55129" />
      <trkpt lat="38.36478" lon="-122.55137" />
      <trkpt lat="38.3643" lon="-122.55149" />
      <trkpt lat="38.36341" lon="-122.55167" />
      <trkpt lat="38.36325" lon="-122.55181" />
      <trkpt lat="38.36318" lon="-122.55309" />
      <trkpt lat="38.36314" lon="-122.55341" />
      <trkpt lat="38.36318" lon="-122.55385" />
      <trkpt lat="38.36319" lon="-122.5542" />
      <trkpt lat="38.36312" lon="-122.55478" />
      <trkpt lat="38.36307" lon="-122.55491" />
      <trkpt lat="38.36292" lon="-122.55508" />
      <trkpt lat="38.36255" lon="-122.55541" />
      <trkpt lat="38.36243" lon="-122.55555" />
      <trkpt lat="38.36234" lon="-122.55572" />
      <trkpt lat="38.36219" lon="-122.55611" />
      <trkpt lat="38.36215" lon="-122.55628" />
      <trkpt lat="38.36214" lon="-122.5566" />
      <trkpt lat="38.36238" lon="-122.55707" />
      <trkpt lat="38.3624" lon="-122.55718" />
      <trkpt lat="38.36257" lon="-122.55764" />
      <trkpt lat="38.36268" lon="-122.55798" />
      <trkpt lat="38.36281" lon="-122.55825" />
      <trkpt lat="38.36302" lon="-122.55857" />
      <trkpt lat="38.36311" lon="-122.55877" />
      <trkpt lat="38.36323" lon="-122.55903" />
      <trkpt lat="38.36334" lon="-122.55936" />
      <trkpt lat="38.36346" lon="-122.55961" />
      <trkpt lat="38.36364" lon="-122.56008" />
      <trkpt lat="38.36396" lon="-122.56075" />
      <trkpt lat="38.36424" lon="-122.56121" />
      <trkpt lat="38.36447" lon="-122.56166" />
      <trkpt lat="38.36511" lon="-122.56278" />
      <trkpt lat="38.36556" lon="-122.56336" />
      <trkpt lat="38.36584" lon="-122.56368" />
      <trkpt lat="38.36609" lon="-122.56406" />
      <trkpt lat="38.36624" lon="-122.56475" />
      <trkpt lat="38.36619" lon="-122.5652" />
      <trkpt lat="38.36621" lon="-122.56545" />
      <trkpt lat="38.36629" lon="-122.56569" />
      <trkpt lat="38.36632" lon="-122.56592" />
      <trkpt lat="38.36633" lon="-122.56624" />
      <trkpt lat="38.36636" lon="-122.56642" />
      <trkpt lat="38.36649" lon="-122.56666" />
      <trkpt lat="38.36659" lon="-122.56692" />
      <trkpt lat="38.36663" lon="-122.56707" />
      <trkpt lat="38.36663" lon="-122.56717" />
      <trkpt lat="38.3666" lon="-122.56734" />
      <trkpt lat="38.36659" lon="-122.56752" />
      <trkpt lat="38.36644" lon="-122.56793" />
      <trkpt lat="38.36643" lon="-122.56809" />
      <trkpt lat="38.36638" lon="-122.5683" />
      <trkpt lat="38.36627" lon="-122.56868" />
      <trkpt lat="38.36608" lon="-122.56887" />
      <trkpt lat="38.36593" lon="-122.56894" />
      <trkpt lat="38.36553" lon="-122.569" />
      <trkpt lat="38.36543" lon="-122.56905" />
      <trkpt lat="38.36532" lon="-122.56923" />
      <trkpt lat="38.36526" lon="-122.56955" />
      <trkpt lat="38.36524" lon="-122.56991" />
      <trkpt lat="38.36526" lon="-122.57007" />
      <trkpt lat="38.36523" lon="-122.5703" />
      <trkpt lat="38.36525" lon="-122.57046" />
      <trkpt lat="38.36529" lon="-122.57065" />
      <trkpt lat="38.36527" lon="-122.57098" />
      <trkpt lat="38.36529" lon="-122.57134" />
      <trkpt lat="38.36546" lon="-122.57172" />
      <trkpt lat="38.36539" lon="-122.57201" />
      <trkpt lat="38.36542" lon="-122.57213" />
      <trkpt lat="38.36567" lon="-122.57264" />
      <trkpt lat="38.36578" lon="-122.57289" />
      <trkpt lat="38.36589" lon="-122.57318" />
      <trkpt lat="38.36596" lon="-122.57344" />
      <trkpt lat="38.36597" lon="-122.5737" />
      <trkpt lat="38.36595" lon="-122.57386" />
      <trkpt lat="38.36599" lon="-122.57413" />
      <trkpt lat="38.36612" lon="-122.57425" />
      <trkpt lat="38.36616" lon="-122.57428" />
      <trkpt lat="38.36638" lon="-122.57445" />
      <trkpt lat="38.36653" lon="-122.57475" />
      <trkpt lat="38.36664" lon="-122.57515" />
      <trkpt lat="38.36657" lon="-122.57545" />
      <trkpt lat="38.36641" lon="-122.57586" />
      <trkpt lat="38.36619" lon="-122.57623" />
      <trkpt lat="38.36589" lon="-122.57659" />
      <trkpt lat="38.36574" lon="-122.57679" />
      <trkpt lat="38.36554" lon="-122.57691" />
      <trkpt lat="38.36524" lon="-122.5769" />
      <trkpt lat="38.36501" lon="-122.57701" />
      <trkpt lat="38.36496" lon="-122.57728" />
      <trkpt lat="38.36525" lon="-122.57747" />
      <trkpt lat="38.36536" lon="-122.57771" />
      <trkpt lat="38.36532" lon="-122.5783" />
      <trkpt lat="38.36532" lon="-122.57847" />
      <trkpt lat="38.36537" lon="-122.57884" />
      <trkpt lat="38.36549" lon="-122.57911" />
      <trkpt lat="38.36558" lon="-122.57926" />
      <trkpt lat="38.36576" lon="-122.57968" />
      <trkpt lat="38.36631" lon="-122.5812" />
      <trkpt lat="38.36665" lon="-122.58206" />
      <trkpt lat="38.36669" lon="-122.58231" />
      <trkpt lat="38.36674" lon="-122.583" />
      <trkpt lat="38.36665" lon="-122.58333" />
      <trkpt lat="38.36646" lon="-122.58384" />
      <trkpt lat="38.36645" lon="-122.58396" />
      <trkpt lat="38.36647" lon="-122.58413" />
      <trkpt lat="38.36704" lon="-122.58608" />
      <trkpt lat="38.36715" lon="-122.58661" />
      <trkpt lat="38.36719" lon="-122.58697" />
      <trkpt lat="38.36725" lon="-122.58727" />
      <trkpt lat="38.36729" lon="-122.5876" />
      <trkpt lat="38.36723" lon="-122.58837" />
      <trkpt lat="38.36712" lon="-122.58885" />
      <trkpt lat="38.36699" lon="-122.5891" />
      <trkpt lat="38.36684" lon="-122.58929" />
      <trkpt lat="38.36671" lon="-122.58949" />
      <trkpt lat="38.36643" lon="-122.58978" />
    </trkseg>
  </trk>
</gpx>