<?xml version="1.0" encoding="UTF-8"?>
<gpx version="1.1" creator="strava-segment-scraper" xmlns="http://www.topografix.com/GPX/1/1">
  <trk>
    <name>Oat Hill Mine Rd Climb</name>
    <trkseg>
      <trkpt lat="38.58942" lon="-122.57747" />
      <trkpt lat="38.58949" lon="-122.57747" />
      <trkpt lat="38.58961" lon="-122.57759" />
      <trkpt lat="38.58984" lon="-122.57774" />
      <trkpt lat="38.58992" lon="-122.57774" />
      <trkpt lat="38.59013" lon="-122.57786" />
      <trkpt lat="38.59024" lon="-122.57789" />
      <trkpt lat="38.59031" lon="-122.57792" />
      <trkpt lat="38.59038" lon="-122.57792" />
      <trkpt lat="38.59064" lon="-122.57782" />
      <trkpt lat="38.59066" lon="-122.57779" />
      <trkpt lat="38.59107" lon="-122.57748" />
      <trkpt lat="38.59126" lon="-122.57726" />
      <trkpt lat="38.59142" lon="-122.57713" />
      <trkpt lat="38.59181" lon="-122.57702" />
      <trkpt lat="38.592" lon="-122.57706" />
      <trkpt lat="38.59207" lon="-122.57705" />
      <trkpt lat="38.59222" lon="-122.57712" />
      <trkpt lat="38.59228" lon="-122.57718" />
      <trkpt lat="38.5923" lon="-122.57732" />
      <trkpt lat="38.59243" lon="-122.5775" />
      <trkpt lat="38.59261" lon="-122.5775" />
      <trkpt lat="38.59277" lon="-122.57755" />
      <trkpt lat="38.5928" lon="-122.57757" />
      <trkpt lat="38.59286" lon="-122.57775" />
      <trkpt lat="38.59287" lon="-122.57788" />
      <trkpt lat="38.59279" lon="-122.57818" />
      <trkpt lat="38.59279" lon="-122.57832" />
      <trkpt lat="38.59284" lon="-122.57839" />
      <trkpt lat="38.59289" lon="-122.57842" />
      <trkpt lat="38.59297" lon="-122.57839" />
      <trkpt lat="38.59299" lon="-122.57837" />
      <trkpt lat="38.59305" lon="-122.5782" />
      <trkpt lat="38.59303" lon="-122.57811" />
      <trkpt lat="38.59305" lon="-122.57791" />
      <trkpt lat="38.59302" lon="-122.57768" />
      <trkpt lat="38.59305" lon="-122.57752" />
      <trkpt lat="38.59305" lon="-122.57741" />
      <trkpt lat="38.59284" lon="-122.57733" />
      <trkpt lat="38.59263" lon="-122.57718" />
      <trkpt lat="38.59245" lon="-122.5769" />
      <trkpt lat="38.5924" lon="-122.5767" />
      <trkpt lat="38.59229" lon="-122.57661" />
      <trkpt lat="38.59226" lon="-122.5765" />
      <trkpt lat="38.59226" lon="-122.57647" />
      <trkpt lat="38.59241" lon="-122.57629" />
      <trkpt lat="38.59245" lon="-122.57626" />
      <trkpt lat="38.59264" lon="-122.57631" />
      <trkpt lat="38.59276" lon="-122.57624" />
      <trkpt lat="38.59284" lon="-122.57616" />
      <trkpt lat="38.5929" lon="-122.57614" />
      <trkpt lat="38.593" lon="-122.57619" />
      <trkpt lat="38.5932" lon="-122.5765" />
      <trkpt lat="38.5933" lon="-122.57657" />
      <trkpt lat="38.59349" lon="-122.57668" />
      <trkpt lat="38.59365" lon="-122.57674" />
      <trkpt lat="38.59374" lon="-122.5767" />
      <trkpt lat="38.59381" lon="-122.57645" />
      <trkpt lat="38.59384" lon="-122.5764" />
      <trkpt lat="38.59391" lon="-122.57636" />
      <trkpt lat="38.59402" lon="-122.57637" />
      <trkpt lat="38.59408" lon="-122.5764" />
      <trkpt lat="38.59421" lon="-122.57643" />
      <trkpt lat="38.59432" lon="-122.57638" />
      <trkpt lat="38.59437" lon="-122.57633" />
      <trkpt lat="38.59441" lon="-122.57631" />
      <trkpt lat="38.59454" lon="-122.57637" />
      <trkpt lat="38.59486" lon="-122.57642" />
      <trkpt lat="38.59492" lon="-122.57641" />
      <trkpt lat="38.59497" lon="-122.57643" />
      <trkpt lat="38.5951" lon="-122.57637" />
      <trkpt lat="38.59516" lon="-122.57631" />
      <trkpt lat="38.59516" lon="-122.57625" />
      <trkpt lat="38.59527" lon="-122.57603" />
      <trkpt lat="38.59534" lon="-122.57595" />
      <trkpt lat="38.59536" lon="-122.57587" />
      <trkpt lat="38.59531" lon="-122.57565" />
      <trkpt lat="38.59531" lon="-122.57554" />
      <trkpt lat="38.59536" lon="-122.57539" />
      <trkpt lat="38.59545" lon="-122.57526" />
      <trkpt lat="38.59563" lon="-122.57515" />
      <trkpt lat="38.59582" lon="-122.5749" />
      <trkpt lat="38.59591" lon="-122.57462" />
      <trkpt lat="38.59591" lon="-122.57455" />
      <trkpt lat="38.59589" lon="-122.57452" />
      <trkpt lat="38.59588" lon="-122.57427" />
      <trkpt lat="38.59585" lon="-122.57417" />
      <trkpt lat="38.59585" lon="-122.57395" />
      <trkpt lat="38.59586" lon="-122.57388" />
      <trkpt lat="38.59584" lon="-122.57373" />
      <trkpt lat="38.59582" lon="-122.57368" />
      <trkpt lat="38.59574" lon="-122.57356" />
      <trkpt lat="38.59567" lon="-122.5734" />
      <trkpt lat="38.59558" lon="-122.57331" />
      <trkpt lat="38.59545" lon="-122.57321" />
      <trkpt lat="38.59542" lon="-122.57316" />
      <trkpt lat="38.59541" lon="-122.57306" />
      <trkpt lat="38.59544" lon="-122.5729" />
      <trkpt lat="38.59548" lon="-122.57287" />
      <trkpt lat="38.59557" lon="-122.57275" />
      <trkpt lat="38.5956" lon="-122.57274" />
      <trkpt lat="38.59568" lon="-122.57264" />
      <trkpt lat="38.59577" lon="-122.5726" />
      <trkpt lat="38.59591" lon="-122.5726" />
      <trkpt lat="38.59602" lon="-122.57258" />
      <trkpt lat="38.59609" lon="-122.5726" />
      <trkpt lat="38.5961" lon="-122.57258" />
      <trkpt lat="38.59603" lon="-122.57212" />
      <trkpt lat="38.59589" lon="-122.57159" />
      <trkpt lat="38.59587" lon="-122.57138" />
      <trkpt lat="38.59589" lon="-122.57133" />
      <trkpt lat="38.59588" lon="-122.57128" />
      <trkpt lat="38.59593" lon="-122.5712" />
      <trkpt lat="38.59605" lon="-122.5711" />
      <trkpt lat="38.59605" lon="-122.57106" />
      <trkpt lat="38.59606" lon="-122.57072" />
      <trkpt lat="38.59604" lon="-122.57056" />
      <trkpt lat="38.59597" lon="-122.5703" />
      <trkpt lat="38.59597" lon="-122.57011" />
      <trkpt lat="38.59599" lon="-122.57007" />
      <trkpt lat="38.59615" lon="-122.56988" />
      <trkpt lat="38.59623" lon="-122.56984" />
      <trkpt lat="38.59628" lon="-122.56985" />
      <trkpt lat="38.59636" lon="-122.56984" />
      <trkpt lat="38.59661" lon="-122.56988" />
      <trkpt lat="38.59662" lon="-122.56986" />
      <trkpt lat="38.59675" lon="-122.56984" />
      <trkpt lat="38.59677" lon="-122.56986" />
      <trkpt lat="38.59697" lon="-122.5699" />
      <trkpt lat="38.59704" lon="-122.56994" />
      <trkpt lat="38.59713" lon="-122.56986" />
      <trkpt lat="38.59713" lon="-122.56961" />
      <trkpt lat="38.59719" lon="-122.56954" />
      <trkpt lat="38.59724" lon="-122.5695" />
      <trkpt lat="38.59732" lon="-122.56953" />
      <trkpt lat="38.59743" lon="-122.56966" />
      <trkpt lat="38.59751" lon="-122.56971" />
      <trkpt lat="38.59757" lon="-122.56981" />
      <trkpt lat="38.59769" lon="-122.56991" />
      <trkpt lat="38.5978" lon="-122.57012" />
      <trkpt lat="38.59789" lon="-122.57025" />
      <trkpt lat="38.59797" lon="-122.57028" />
      <trkpt lat="38.59807" lon="-122.57026" />
      <trkpt lat="38.59813" lon="-122.57028" />
      <trkpt lat="38.59818" lon="-122.57033" />
      <trkpt lat="38.59834" lon="-122.57041" />
      <trkpt lat="38.59843" lon="-122.57035" />
      <trkpt lat="38.59843" lon="-122.57027" />
      <trkpt lat="38.59849" lon="-122.57014" />
      <trkpt lat="38.59859" lon="-122.57001" />
      <trkpt lat="38.59868" lon="-122.56996" />
      <trkpt lat="38.59885" lon="-122.56998" />
      <trkpt lat="38.59889" lon="-122.56988" />
      <trkpt lat="38.5989" lon="-122.5697" />
      <trkpt lat="38.59876" lon="-122.56943" />
      <trkpt lat="38.59879" lon="-122.5693" />
      <trkpt lat="38.59887" lon="-122.56928" />
      <trkpt lat="38.59902" lon="-122.56929" />
      <trkpt lat="38.59906" lon="-122.56926" />
      <trkpt lat="38.59918" lon="-122.56897" />
      <trkpt lat="38.59938" lon="-122.5687" />
      <trkpt lat="38.59961" lon="-122.56851" />
      <trkpt lat="38.59966" lon="-122.56845" />
      <trkpt lat="38.59967" lon="-122.5684" />
      <trkpt lat="38.5999" lon="-122.56822" />
      <trkpt lat="38.59994" lon="-122.56814" />
      <trkpt lat="38.60001" lon="-122.5681" />
      <trkpt lat="38.60005" lon="-122.56811" />
      <trkpt lat="38.60015" lon="-122.56807" />
      <trkpt lat="38.60017" lon="-122.56808" />
      <trkpt lat="38.6002" lon="-122.56805" />
      <trkpt lat="38.60029" lon="-122.56802" />
      <trkpt lat="38.60058" lon="-122.56797" />
      <trkpt lat="38.60064" lon="-122.56794" />
      <trkpt lat="38.60074" lon="-122.56797" />
      <trkpt lat="38.60084" lon="-122.56788" />
      <trkpt lat="38.60074" lon="-122.56762" />
      <trkpt lat="38.60072" lon="-122.5675" />
      <trkpt lat="38.60077" lon="-122.56687" />
      <trkpt lat="38.60091" lon="-122.5666" />
      <trkpt lat="38.60096" lon="-122.56654" />
      <trkpt lat="38.60096" lon="-122.56655" />
      <trkpt lat="38.601" lon="-122.56636" />
      <trkpt lat="38.60105" lon="-122.5662" />
      <trkpt lat="38.60101" lon="-122.56609" />
      <trkpt lat="38.6009" lon="-122.56603" />
      <trkpt lat="38.60076" lon="-122.56588" />
      <trkpt lat="38.60068" lon="-122.56577" />
      <trkpt lat="38.60068" lon="-122.56566" />
      <trkpt lat="38.60072" lon="-122.56557" />
      <trkpt lat="38.6007" lon="-122.56543" />
      <trkpt lat="38.60058" lon="-122.56532" />
      <trkpt lat="38.60051" lon="-122.5652" />
      <trkpt lat="38.60048" lon="-122.56508" />
      <trkpt lat="38.60055" lon="-122.56476" />
      <trkpt lat="38.60049" lon="-122.56454" />
      <trkpt lat="38.60047" lon="-122.56439" />
      <trkpt lat="38.60051" lon="-122.56429" />
      <trkpt lat="38.60064" lon="-122.56416" />
      <trkpt lat="38.60067" lon="-122.5641" />
      <trkpt lat="38.60073" lon="-122.56404" />
      <trkpt lat="38.60098" lon="-122.56388" />
      <trkpt lat="38.60113" lon="-122.56371" />
      <trkpt lat="38.60118" lon="-122.56371" />
      <trkpt lat="38.6015" lon="-122.56377" />
      <trkpt lat="38.60158" lon="-122.56373" />
      <trkpt lat="38.60182" lon="-122.56346" />
      <trkpt lat="38.60192" lon="-122.56343" />
      <trkpt lat="38.60196" lon="-122.56341" />
      <trkpt lat="38.60202" lon="-122.56333" />
      <trkpt lat="38.60209" lon="-122.5633" />
      <trkpt lat="38.60224" lon="-122.5633" />
      <trkpt lat="38.60237" lon="-122.56336" />
      <trkpt lat="38.60273" lon="-122.56368" />
      <trkpt lat="38.60293" lon="-122.56365" />
      <trkpt lat="38.60303" lon="-122.5635" />
      <trkpt lat="38.60302" lon="-122.56328" />
      <trkpt lat="38.60305" lon="-122.56315" />
      <trkpt lat="38.6031" lon="-122.56308" />
      <trkpt lat="38.60322" lon="-122.56303" />
      <trkpt lat="38.60337" lon="-122.56303" />
      <trkpt lat="38.6036" lon="-122.56311" />
      <trkpt lat="38.60363" lon="-122.5631" />
      <trkpt lat="38.60372" lon="-122.56294" />
      <trkpt lat="38.60374" lon="-122.56277" />
      <trkpt lat="38.60377" lon="-122.56274" />
      <trkpt lat="38.60385" lon="-122.56273" />
      <trkpt lat="38.60387" lon="-122.56274" />
      <trkpt lat="38.6041" lon="-122.56302" />
      <trkpt lat="38.60416" lon="-122.56315" />
      <trkpt lat="38.6043" lon="-122.56336" />
      <trkpt lat="38.60445" lon="-122.56352" />
      <trkpt lat="38.60449" lon="-122.56367" />
      <trkpt lat="38.60448" lon="-122.56383" />
      <trkpt lat="38.60452" lon="-122.56396" />
      <trkpt lat="38.60464" lon="-122.56403" />
      <trkpt lat="38.60494" lon="-122.56428" />
      <trkpt lat="38.60508" lon="-122.56436" />
      <trkpt lat="38.60516" lon="-122.56434" />
      <trkpt lat="38.60531" lon="-122.56418" />
      <trkpt lat="38.60535" lon="-122.56409" />
      <trkpt lat="38.60548" lon="-122.564" />
      <trkpt lat="38.60553" lon="-122.56387" />
      <trkpt lat="38.60558" lon="-122.56379" />
      <trkpt lat="38.60562" lon="-122.56365" />
      <trkpt lat="38.60556" lon="-122.56339" />
      <trkpt lat="38.60559" lon="-122.56324" />
      <trkpt lat="38.60571" lon="-122.56306" />
      <trkpt lat="38.60586" lon="-122.56293" />
      <trkpt lat="38.60595" lon="-122.56282" />
      <trkpt lat="38.606" lon="-122.56278" />
      <trkpt lat="38.60614" lon="-122.56273" />
      <trkpt lat="38.60618" lon="-122.56268" />
      <trkpt lat="38.60632" lon="-122.5626" />
      <trkpt lat="38.60646" lon="-122.56248" />
      <trkpt lat="38.60659" lon="-122.56242" />
      <trkpt lat="38.60661" lon="-122.56231" />
      <trkpt lat="38.6066" lon="-122.56206" />
      <trkpt lat="38.60663" lon="-122.5619" />
      <trkpt lat="38.60662" lon="-122.5618" />
      <trkpt lat="38.60667" lon="-122.5615" />
      <trkpt lat="38.60669" lon="-122.56124" />
      <trkpt lat="38.60673" lon="-122.56118" />
      <trkpt lat="38.60681" lon="-122.56117" />
      <trkpt lat="38.60699" lon="-122.56104" />
      <trkpt lat="38.60709" lon="-122.56095" />
      <trkpt lat="38.60724" lon="-122.56065" />
      <trkpt lat="38.60744" lon="-122.56031" />
      <trkpt lat="38.60747" lon="-122.56017" />
      <trkpt lat="38.60743" lon="-122.56002" />
      <trkpt lat="38.60743" lon="-122.55994" />
      <trkpt lat="38.60749" lon="-122.55974" />
      <trkpt lat="38.60747" lon="-122.55933" />
      <trkpt lat="38.60751" lon="-122.55923" />
      <trkpt lat="38.60773" lon="-122.55897" />
      <trkpt lat="38.60777" lon="-122.5589" />
      <trkpt lat="38.60783" lon="-122.55854" />
      <trkpt lat="38.60788" lon="-122.55845" />
      <trkpt lat="38.60806" lon="-122.55826" />
      <trkpt lat="38.60808" lon="-122.55822" />
      <trkpt lat="38.60809" lon="-122.55817" />
      <trkpt lat="38.60805" lon="-122.55799" />
      <trkpt lat="38.60802" lon="-122.55794" />
      <trkpt lat="38.60797" lon="-122.55791" />
      <trkpt lat="38.60784" lon="-122.55772" />
      <trkpt lat="38.60776" lon="-122.5576" />
      <trkpt lat="38.60775" lon="-122.55755" />
      <trkpt lat="38.60771" lon="-122.55747" />
      <trkpt lat="38.60769" lon="-122.55715" />
      <trkpt lat="38.60763" lon="-122.557" />
      <trkpt lat="38.60755" lon="-122.55669" />
      <trkpt lat="38.6075" lon="-122.55641" />
      <trkpt lat="38.60751" lon="-122.5563" />
      <trkpt lat="38.60746" lon="-122.5562" />
      <trkpt lat="38.60733" lon="-122.55601" />
      <trkpt lat="38.60732" lon="-122.55596" />
      <trkpt lat="38.60732" lon="-122.55592" />
      <trkpt lat="38.60736" lon="-122.55581" />
      <trkpt lat="38.60736" lon="-122.55568" />
      <trkpt lat="38.60732" lon="-122.55544" />
      <trkpt lat="38.60732" lon="-122.5553" />
      <trkpt lat="38.60738" lon="-122.55526" />
      <trkpt lat="38.60748" lon="-122.55527" />
      <trkpt lat="38.60775" lon="-122.55537" />
      <trkpt lat="38.60794" lon="-122.55542" />
      <trkpt lat="38.60806" lon="-122.55542" />
      <trkpt lat="38.60811" lon="-122.55545" />
      <trkpt lat="38.60827" lon="-122.5556" />
      <trkpt lat="38.6084" lon="-122.55574" />
      <trkpt lat="38.60846" lon="-122.55587" />
      <trkpt lat="38.60849" lon="-122.55602" />
      <trkpt lat="38.60858" lon="-122.55615" />
      <trkpt lat="38.60862" lon="-122.55626" />
      <trkpt lat="38.60877" lon="-122.55655" />
      <trkpt lat="38.60879" lon="-122.55664" />
      <trkpt lat="38.60876" lon="-122.55681" />
      <trkpt lat="38.60879" lon="-122.55701" />
      <trkpt lat="38.60882" lon="-122.55707" />
      <trkpt lat="38.60896" lon="-122.5572" />
      <trkpt lat="38.60903" lon="-122.55724" />
      <trkpt lat="38.60931" lon="-122.5573" />
      <trkpt lat="38.60945" lon="-122.55736" />
      <trkpt lat="38.60962" lon="-122.55747" />
      <trkpt lat="38.60979" lon="-122.5578" />
      <trkpt lat="38.60989" lon="-122.55786" />
      <trkpt lat="38.61003" lon="-122.55791" />
      <trkpt lat="38.61017" lon="-122.55788" />
      <trkpt lat="38.61032" lon="-122.55779" />
      <trkpt lat="38.61042" lon="-122.55776" />
      <trkpt lat="38.61051" lon="-122.55774" />
      <trkpt lat="38.61063" lon="-122.55775" />
      <trkpt lat="38.61075" lon="-122.55772" />
      <trkpt lat="38.61076" lon="-122.55742" />
      <trkpt lat="38.61082" lon="-122.5572" />
      <trkpt lat="38.61086" lon="-122.55712" />
      <trkpt lat="38.61093" lon="-122.55705" />
      <trkpt lat="38.61113" lon="-122.55692" />
      <trkpt lat="38.61122" lon="-122.55683" />
      <trkpt lat="38.61134" lon="-122.55658" />
      <trkpt lat="38.61139" lon="-122.55652" />
      <trkpt lat="38.61146" lon="-122.55636" />
      <trkpt lat="38.61146" lon="-122.55622" />
      <trkpt lat="38.61124" lon="-122.55595" />
      <trkpt lat="38.61117" lon="-122.55577" />
      <trkpt lat="38.61121" lon="-122.55546" />
      <trkpt lat="38.61119" lon="-122.55509" />
      <trkpt lat="38.6112" lon="-122.55502" />
      <trkpt lat="38.6113" lon="-122.55476" />
      <trkpt lat="38.61138" lon="-122.55467" />
      <trkpt lat="38.61142" lon="-122.55452" />
      <trkpt lat="38.61139" lon="-122.55425" />
      <trkpt lat="38.61144" lon="-122.55388" />
      <trkpt lat="38.6115" lon="-122.55375" />
      <trkpt lat="38.61158" lon="-122.5537" />
      <trkpt lat="38.61173" lon="-122.55376" />
      <trkpt lat="38.61194" lon="-122.5538" />
      <trkpt lat="38.61209" lon="-122.55369" />
      <trkpt lat="38.61219" lon="-122.55354" />
      <trkpt lat="38.61227" lon="-122.55348" />
      <trkpt lat="38.61229" lon="-122.55344" />
      <trkpt lat="38.61226" lon="-122.55317" />
      <trkpt lat="38.61237" lon="-122.55298" />
      <trkpt lat="38.61245" lon="-122.55296" />
      <trkpt lat="38.6126" lon="-122.55299" />
      <trkpt lat="38.61276" lon="-122.55296" />
      <trkpt lat="38.61285" lon="-122.55275" />
      <trkpt lat="38.61285" lon="-122.55271" />
      <trkpt lat="38.61289" lon="-122.55266" />
      <trkpt lat="38.61305" lon="-122.55257" />
      <trkpt lat="38.61322" lon="-122.55252" />
      <trkpt lat="38.61333" lon="-122.55246" />
      <trkpt lat="38.61353" lon="-122.55241" />
      <trkpt lat="38.61376" lon="-122.55231" />
      <trkpt lat="38.61388" lon="-122.55224" />
      <trkpt lat="38.61394" lon="-122.55223" />
      <trkpt lat="38.61403" lon="-122.55229" />
      <trkpt lat="38.6141" lon="-122.55239" />
      <trkpt lat="38.61423" lon="-122.55257" />
      <trkpt lat="38.61445" lon="-122.55268" />
      <trkpt lat="38.61457" lon="-122.55278" />
      <trkpt lat="38.6146" lon="-122.55279" />
      <trkpt lat="38.61472" lon="-122.55275" />
      <trkpt lat="38.61484" lon="-122.55283" />
      <trkpt lat="38.61495" lon="-122.55285" />
      <trkpt lat="38.61505" lon="-122.55291" />
      <trkpt lat="38.61513" lon="-122.55293" />
      <trkpt lat="38.6152" lon="-122.5529" />
      <trkpt lat="38.61534" lon="-122.5529" />
      <trkpt lat="38.61551" lon="-122.55307" />
      <trkpt lat="38.61557" lon="-122.55322" />
      <trkpt lat="38.61591" lon="-122.55342" />
      <trkpt lat="38.61602" lon="-122.5535" />
      <trkpt lat="38.61619" lon="-122.55352" />
      <trkpt lat="38.61628" lon="-122.55357" />
      <trkpt lat="38.61639" lon="-122.55367" />
      <trkpt lat="38.61642" lon="-122.55368" />
      <trkpt lat="38.61655" lon="-122.55359" />
      <trkpt lat="38.61666" lon="-122.55348" />
      <trkpt lat="38.61671" lon="-122.55337" />
      <trkpt lat="38.61676" lon="-122.55317" />
      <trkpt lat="38.61684" lon="-122.55302" />
      <trkpt lat="38.61688" lon="-122.55298" />
      <trkpt lat="38.61695" lon="-122.55285" />
      <trkpt lat="38.61699" lon="-122.5527" />
      <trkpt lat="38.61706" lon="-122.55261" />
      <trkpt lat="38.6171" lon="-122.55241" />
      <trkpt lat="38.61713" lon="-122.55236" />
      <trkpt lat="38.61718" lon="-122.55231" />
      <trkpt lat="38.61727" lon="-122.55229" />
      <trkpt lat="38.61739" lon="-122.55222" />
      <trkpt lat="38.61752" lon="-122.55211" />
      <trkpt lat="38.61758" lon="-122.55203" />
      <trkpt lat="38.61771" lon="-122.55171" />
      <trkpt lat="38.61781" lon="-122.55162" />
      <trkpt lat="38.61787" lon="-122.5516" />
      <trkpt lat="38.61799" lon="-122.55149" />
      <trkpt lat="38.61803" lon="-122.55146" />
      <trkpt lat="38.61806" lon="-122.55147" />
      <trkpt lat="38.61814" lon="-122.55154" />
      <trkpt lat="38.61821" lon="-122.55176" />
      <trkpt lat="38.61828" lon="-122.55183" />
      <trkpt lat="38.6183" lon="-122.55188" />
      <trkpt lat="38.61839" lon="-122.55199" />
      <trkpt lat="38.61846" lon="-122.55202" />
      <trkpt lat="38.61854" lon="-122.552" />
      <trkpt lat="38.61863" lon="-122.55201" />
      <trkpt lat="38.61871" lon="-122.55197" />
      <trkpt lat="38.61896" lon="-122.55173" />
      <trkpt lat="38.61911" lon="-122.55161" />
      <trkpt lat="38.61915" lon="-122.55159" />
      <trkpt lat="38.6193" lon="-122.5516" />
      <trkpt lat="38.61939" lon="-122.55143" />
      <trkpt lat="38.61946" lon="-122.55134" />
      <trkpt lat="38.61951" lon="-122.55131" />
      <trkpt lat="38.61963" lon="-122.55132" />
      <trkpt lat="38.61969" lon="-122.55135" />
      <trkpt lat="38.61978" lon="-122.55143" />
      <trkpt lat="38.61989" lon="-122.55137" />
      <trkpt lat="38.61999" lon="-122.55124" />
      <trkpt lat="38.62006" lon="-122.55101" />
      <trkpt lat="38.62012" lon="-122.55089" />
      <trkpt lat="38.62013" lon="-122.55088" />
      <trkpt lat="38.62027" lon="-122.55082" />
      <trkpt lat="38.62032" lon="-122.55071" />
      <trkpt lat="38.62033" lon="-122.55059" />
      <trkpt lat="38.62029" lon="-122.5505" />
      <trkpt lat="38.62021" lon="-122.55037" />
      <trkpt lat="38.62019" lon="-122.55032" />
      <trkpt lat="38.62023" lon="-122.5502" />
      <trkpt lat="38.62024" lon="-122.55001" />
      <trkpt lat="38.62027" lon="-122.5499" />
      <trkpt lat="38.62042" lon="-122.54973" />
      <trkpt lat="38.62051" lon="-122.54973" />
      <trkpt lat="38.62073" lon="-122.54981" />
      <trkpt lat="38.62086" lon="-122.54973" />
      <trkpt lat="38.62097" lon="-122.54971" />
      <trkpt lat="38.62105" lon="-122.54967" />
      <trkpt lat="38.6211" lon="-122.54963" />
      <trkpt lat="38.62113" lon="-122.54959" />
      <trkpt lat="38.62119" lon="-122.54941" />
      <trkpt lat="38.6212" lon="-122.54921" />
      <trkpt lat="38.62128" lon="-122.54914" />
      <trkpt lat="38.62136" lon="-122.54914" />
      <trkpt lat="38.62143" lon="-122.54905" />
      <trkpt lat="38.62141" lon="-122.54888" />
    </trkseg>
  </trk>
</gpx>