<?xml version="1.0" encoding="UTF-8"?>
<gpx version="1.1" creator="strava-segment-scraper" xmlns="http://www.topografix.com/GPX/1/1">
  <trk>
    <name>2012 - Early Bird steep section</name>
    <trkseg>
      <trkpt lat="37.40908" lon="-121.40906" />
      <trkpt lat="37.40868" lon="-121.40945" />
      <trkpt lat="37.40855" lon="-121.40974" />
      <trkpt lat="37.40857" lon="-121.41039" />
      <trkpt lat="37.40853" lon="-121.41097" />
      <trkpt lat="37.40845" lon="-121.41145" />
      <trkpt lat="37.40848" lon="-121.41181" />
      <trkpt lat="37.4085" lon="-121.4119" />
      <trkpt lat="37.40866" lon="-121.41228" />
      <trkpt lat="37.40887" lon="-121.41267" />
      <trkpt lat="37.40894" lon="-121.41288" />
      <trkpt lat="37.40894" lon="-121.41327" />
      <trkpt lat="37.40884" lon="-121.41383" />
      <trkpt lat="37.40892" lon="-121.41496" />
      <trkpt lat="37.40878" lon="-121.41606" />
      <trkpt lat="37.40878" lon="-121.41628" />
      <trkpt lat="37.40886" lon="-121.41679" />
      <trkpt lat="37.409" lon="-121.41735" />
      <trkpt lat="37.40918" lon="-121.41785" />
      <trkpt lat="37.40925" lon="-121.41798" />
      <trkpt lat="37.40958" lon="-121.41842" />
      <trkpt lat="37.40971" lon="-121.41868" />
      <trkpt lat="37.40975" lon="-121.41912" />
      <trkpt lat="37.40971" lon="-121.41998" />
      <trkpt lat="37.40962" lon="-121.42086" />
      <trkpt lat="37.40961" lon="-121.42111" />
      <trkpt lat="37.40967" lon="-121.42187" />
      <trkpt lat="37.41" lon="-121.42292" />
      <trkpt lat="37.41006" lon="-121.42337" />
      <trkpt lat="37.41029" lon="-121.42456" />
      <trkpt lat="37.41031" lon="-121.42517" />
      <trkpt lat="37.41029" lon="-121.42557" />
      <trkpt lat="37.41029" lon="-121.42608" />
      <trkpt lat="37.41026" lon="-121.42654" />
      <trkpt lat="37.4103" lon="-121.42701" />
      <trkpt lat="37.41039" lon="-121.42748" />
      <trkpt lat="37.41041" lon="-121.42782" />
      <trkpt lat="37.41029" lon="-121.42822" />
      <trkpt lat="37.41021" lon="-121.42834" />
      <trkpt lat="37.40977" lon="-121.4287" />
      <trkpt lat="37.40923" lon="-121.42901" />
      <trkpt lat="37.40888" lon="-121.42919" />
      <trkpt lat="37.40861" lon="-121.42927" />
      <trkpt lat="37.40843" lon="-121.42938" />
      <trkpt lat="37.40812" lon="-121.42961" />
      <trkpt lat="37.40782" lon="-121.42975" />
      <trkpt lat="37.40766" lon="-121.4298" />
      <trkpt lat="37.40686" lon="-121.43037" />
      <trkpt lat="37.40669" lon="-121.43063" />
      <trkpt lat="37.40648" lon="-121.43079" />
      <trkpt lat="37.40602" lon="-121.43083" />
      <trkpt lat="37.4059" lon="-121.43086" />
      <trkpt lat="37.40544" lon="-121.43113" />
      <trkpt lat="37.40507" lon="-121.43123" />
      <trkpt lat="37.40488" lon="-121.43137" />
      <trkpt lat="37.40486" lon="-121.43154" />
      <trkpt lat="37.40503" lon="-121.43195" />
      <trkpt lat="37.40509" lon="-121.43223" />
      <trkpt lat="37.40527" lon="-121.43339" />
      <trkpt lat="37.40521" lon="-121.43367" />
      <trkpt lat="37.40498" lon="-121.43414" />
      <trkpt lat="37.40497" lon="-121.43424" />
      <trkpt lat="37.40488" lon="-121.43454" />
      <trkpt lat="37.40471" lon="-121.43482" />
      <trkpt lat="37.40445" lon="-121.43594" />
      <trkpt lat="37.40434" lon="-121.43621" />
      <trkpt lat="37.40417" lon="-121.43652" />
      <trkpt lat="37.40401" lon="-121.4367" />
      <trkpt lat="37.40393" lon="-121.43675" />
      <trkpt lat="37.40355" lon="-121.43692" />
      <trkpt lat="37.40337" lon="-121.43706" />
      <trkpt lat="37.40278" lon="-121.4376" />
      <trkpt lat="37.40249" lon="-121.43779" />
      <trkpt lat="37.40216" lon="-121.43785" />
      <trkpt lat="37.40199" lon="-121.43798" />
      <trkpt lat="37.40184" lon="-121.43819" />
      <trkpt lat="37.40177" lon="-121.43857" />
      <trkpt lat="37.40173" lon="-121.43922" />
      <trkpt lat="37.40165" lon="-121.43948" />
      <trkpt lat="37.40146" lon="-121.43983" />
      <trkpt lat="37.4013" lon="-121.44016" />
      <trkpt lat="37.40115" lon="-121.4404" />
      <trkpt lat="37.40102" lon="-121.44063" />
      <trkpt lat="37.40088" lon="-121.44108" />
      <trkpt lat="37.40086" lon="-121.44119" />
      <trkpt lat="37.40088" lon="-121.4416" />
      <trkpt lat="37.40087" lon="-121.44183" />
      <trkpt lat="37.40082" lon="-121.44199" />
      <trkpt lat="37.40066" lon="-121.44233" />
      <trkpt lat="37.40047" lon="-121.4429" />
      <trkpt lat="37.40029" lon="-121.44316" />
      <trkpt lat="37.39971" lon="-121.4439" />
      <trkpt lat="37.39955" lon="-121.44439" />
      <trkpt lat="37.39939" lon="-121.44458" />
      <trkpt lat="37.39914" lon="-121.44478" />
      <trkpt lat="37.39891" lon="-121.44487" />
      <trkpt lat="37.39866" lon="-121.44503" />
      <trkpt lat="37.3985" lon="-121.4452" />
      <trkpt lat="37.39827" lon="-121.44535" />
      <trkpt lat="37.39803" lon="-121.44541" />
      <trkpt lat="37.39777" lon="-121.44545" />
      <trkpt lat="37.3972" lon="-121.4457" />
      <trkpt lat="37.39671" lon="-121.44599" />
      <trkpt lat="37.39656" lon="-121.44613" />
      <trkpt lat="37.39645" lon="-121.4464" />
      <trkpt lat="37.39637" lon="-121.44723" />
      <trkpt lat="37.39633" lon="-121.44741" />
      <trkpt lat="37.39612" lon="-121.44768" />
      <trkpt lat="37.396" lon="-121.44775" />
      <trkpt lat="37.39577" lon="-121.44781" />
      <trkpt lat="37.39566" lon="-121.44788" />
      <trkpt lat="37.39556" lon="-121.44797" />
      <trkpt lat="37.39541" lon="-121.44836" />
      <trkpt lat="37.39527" lon="-121.44866" />
      <trkpt lat="37.39504" lon="-121.44887" />
      <trkpt lat="37.39472" lon="-121.44914" />
      <trkpt lat="37.39446" lon="-121.44927" />
      <trkpt lat="37.39418" lon="-121.44922" />
      <trkpt lat="37.39403" lon="-121.44921" />
      <trkpt lat="37.39374" lon="-121.44929" />
    </trkseg>
  </trk>
</gpx>