<?xml version="1.0" encoding="UTF-8"?>
<gpx version="1.1" creator="strava-segment-scraper" xmlns="http://www.topografix.com/GPX/1/1">
  <trk>
    <name>Wildlife Overlook: East to West</name>
    <trkseg>
      <trkpt lat="41.83154" lon="-121.44037" />
      <trkpt lat="41.8316" lon="-121.44114" />
      <trkpt lat="41.83166" lon="-121.44158" />
      <trkpt lat="41.83191" lon="-121.44289" />
      <trkpt lat="41.83195" lon="-121.44319" />
      <trkpt lat="41.83197" lon="-121.4436" />
      <trkpt lat="41.83197" lon="-121.44588" />
      <trkpt lat="41.83203" lon="-121.44646" />
      <trkpt lat="41.83215" lon="-121.44717" />
      <trkpt lat="41.83246" lon="-121.44854" />
      <trkpt lat="41.83258" lon="-121.44921" />
      <trkpt lat="41.83268" lon="-121.44993" />
      <trkpt lat="41.83282" lon="-121.45124" />
      <trkpt lat="41.83292" lon="-121.45177" />
      <trkpt lat="41.83301" lon="-121.45203" />
      <trkpt lat="41.83316" lon="-121.45243" />
      <trkpt lat="41.8335" lon="-121.45326" />
      <trkpt lat="41.83376" lon="-121.45411" />
      <trkpt lat="41.83377" lon="-121.45407" />
      <trkpt lat="41.83378" lon="-121.45425" />
      <trkpt lat="41.83386" lon="-121.45458" />
      <trkpt lat="41.83433" lon="-121.45765" />
      <trkpt lat="41.83448" lon="-121.4585" />
      <trkpt lat="41.83461" lon="-121.45909" />
      <trkpt lat="41.83476" lon="-121.45966" />
      <trkpt lat="41.83495" lon="-121.46027" />
      <trkpt lat="41.83508" lon="-121.4608" />
      <trkpt lat="41.83515" lon="-121.46128" />
      <trkpt lat="41.83518" lon="-121.46186" />
      <trkpt lat="41.83518" lon="-121.46234" />
      <trkpt lat="41.83514" lon="-121.46274" />
      <trkpt lat="41.83505" lon="-121.46322" />
      <trkpt lat="41.83496" lon="-121.46355" />
      <trkpt lat="41.8348" lon="-121.46391" />
      <trkpt lat="41.83465" lon="-121.46419" />
      <trkpt lat="41.83425" lon="-121.46476" />
      <trkpt lat="41.83411" lon="-121.46499" />
      <trkpt lat="41.834" lon="-121.46524" />
      <trkpt lat="41.83391" lon="-121.46552" />
      <trkpt lat="41.83384" lon="-121.46588" />
      <trkpt lat="41.83371" lon="-121.46716" />
      <trkpt lat="41.83364" lon="-121.46763" />
      <trkpt lat="41.83352" lon="-121.46827" />
      <trkpt lat="41.83334" lon="-121.46897" />
      <trkpt lat="41.83299" lon="-121.47016" />
      <trkpt lat="41.83281" lon="-121.47069" />
      <trkpt lat="41.83262" lon="-121.4711" />
      <trkpt lat="41.83238" lon="-121.47152" />
      <trkpt lat="41.832" lon="-121.47215" />
      <trkpt lat="41.83185" lon="-121.47245" />
      <trkpt lat="41.83168" lon="-121.47284" />
      <trkpt lat="41.8315" lon="-121.47338" />
      <trkpt lat="41.83063" lon="-121.477" />
      <trkpt lat="41.83055" lon="-121.47739" />
      <trkpt lat="41.83052" lon="-121.47765" />
      <trkpt lat="41.83051" lon="-121.47801" />
      <trkpt lat="41.83053" lon="-121.47824" />
      <trkpt lat="41.83058" lon="-121.47856" />
      <trkpt lat="41.83071" lon="-121.47894" />
      <trkpt lat="41.83084" lon="-121.47922" />
      <trkpt lat="41.83131" lon="-121.47995" />
      <trkpt lat="41.83157" lon="-121.48039" />
      <trkpt lat="41.83195" lon="-121.48114" />
      <trkpt lat="41.83216" lon="-121.48161" />
      <trkpt lat="41.83231" lon="-121.48202" />
      <trkpt lat="41.83246" lon="-121.48245" />
      <trkpt lat="41.83262" lon="-121.48301" />
      <trkpt lat="41.83283" lon="-121.4839" />
      <trkpt lat="41.83294" lon="-121.4845" />
      <trkpt lat="41.83307" lon="-121.485" />
      <trkpt lat="41.83342" lon="-121.48606" />
      <trkpt lat="41.83353" lon="-121.48657" />
      <trkpt lat="41.83357" lon="-121.48709" />
      <trkpt lat="41.83357" lon="-121.48748" />
      <trkpt lat="41.83347" lon="-121.48839" />
    </trkseg>
  </trk>
</gpx>