<?xml version="1.0" encoding="UTF-8"?>
<gpx version="1.1" creator="strava-segment-scraper" xmlns="http://www.topografix.com/GPX/1/1">
  <trk>
    <name>King Rd to Cavitt Stallman</name>
    <trkseg>
      <trkpt lat="38.82529" lon="-121.1251" />
      <trkpt lat="38.82519" lon="-121.12507" />
      <trkpt lat="38.82474" lon="-121.12503" />
      <trkpt lat="38.82412" lon="-121.12494" />
      <trkpt lat="38.82394" lon="-121.12493" />
      <trkpt lat="38.82375" lon="-121.12495" />
      <trkpt lat="38.82356" lon="-121.12499" />
      <trkpt lat="38.82338" lon="-121.12506" />
      <trkpt lat="38.82311" lon="-121.12519" />
      <trkpt lat="38.82259" lon="-121.12553" />
      <trkpt lat="38.82217" lon="-121.12584" />
      <trkpt lat="38.82164" lon="-121.12616" />
      <trkpt lat="38.82135" lon="-121.12627" />
      <trkpt lat="38.82115" lon="-121.12632" />
      <trkpt lat="38.82076" lon="-121.12637" />
      <trkpt lat="38.81916" lon="-121.12637" />
      <trkpt lat="38.81786" lon="-121.12642" />
      <trkpt lat="38.81728" lon="-121.1265" />
      <trkpt lat="38.8163" lon="-121.12661" />
      <trkpt lat="38.81567" lon="-121.12651" />
      <trkpt lat="38.81506" lon="-121.12627" />
      <trkpt lat="38.81486" lon="-121.1262" />
      <trkpt lat="38.81466" lon="-121.12616" />
      <trkpt lat="38.81444" lon="-121.12614" />
      <trkpt lat="38.81422" lon="-121.12614" />
      <trkpt lat="38.8139" lon="-121.1262" />
      <trkpt lat="38.81329" lon="-121.12638" />
      <trkpt lat="38.8128" lon="-121.12655" />
      <trkpt lat="38.8117" lon="-121.12701" />
      <trkpt lat="38.81107" lon="-121.1273" />
      <trkpt lat="38.81048" lon="-121.12753" />
      <trkpt lat="38.80967" lon="-121.12793" />
      <trkpt lat="38.80914" lon="-121.12821" />
      <trkpt lat="38.8088" lon="-121.12848" />
      <trkpt lat="38.80858" lon="-121.12876" />
      <trkpt lat="38.80846" lon="-121.12897" />
      <trkpt lat="38.80836" lon="-121.1292" />
      <trkpt lat="38.80828" lon="-121.12945" />
      <trkpt lat="38.80797" lon="-121.13068" />
      <trkpt lat="38.80786" lon="-121.13102" />
      <trkpt lat="38.80761" lon="-121.13149" />
      <trkpt lat="38.80753" lon="-121.1316" />
      <trkpt lat="38.80725" lon="-121.13186" />
      <trkpt lat="38.80705" lon="-121.13198" />
      <trkpt lat="38.80673" lon="-121.13208" />
      <trkpt lat="38.80661" lon="-121.1321" />
      <trkpt lat="38.80475" lon="-121.13208" />
      <trkpt lat="38.80272" lon="-121.13197" />
      <trkpt lat="38.80114" lon="-121.13184" />
      <trkpt lat="38.80072" lon="-121.13182" />
      <trkpt lat="38.80061" lon="-121.13183" />
      <trkpt lat="38.79951" lon="-121.13222" />
      <trkpt lat="38.79853" lon="-121.13252" />
      <trkpt lat="38.79796" lon="-121.13272" />
      <trkpt lat="38.79771" lon="-121.13285" />
      <trkpt lat="38.79717" lon="-121.13329" />
      <trkpt lat="38.79677" lon="-121.13374" />
      <trkpt lat="38.79597" lon="-121.1347" />
      <trkpt lat="38.79555" lon="-121.13518" />
      <trkpt lat="38.79473" lon="-121.13608" />
      <trkpt lat="38.79372" lon="-121.13726" />
      <trkpt lat="38.79298" lon="-121.13806" />
      <trkpt lat="38.79251" lon="-121.13848" />
      <trkpt lat="38.792" lon="-121.13885" />
      <trkpt lat="38.79017" lon="-121.13992" />
      <trkpt lat="38.78969" lon="-121.14035" />
      <trkpt lat="38.78926" lon="-121.14071" />
      <trkpt lat="38.78893" lon="-121.14091" />
      <trkpt lat="38.78831" lon="-121.14116" />
      <trkpt lat="38.7872" lon="-121.14151" />
      <trkpt lat="38.78679" lon="-121.14162" />
      <trkpt lat="38.78621" lon="-121.14186" />
      <trkpt lat="38.78425" lon="-121.14245" />
      <trkpt lat="38.78376" lon="-121.14262" />
      <trkpt lat="38.78358" lon="-121.14272" />
      <trkpt lat="38.7834" lon="-121.14285" />
      <trkpt lat="38.78322" lon="-121.14304" />
      <trkpt lat="38.78299" lon="-121.14338" />
      <trkpt lat="38.78228" lon="-121.14495" />
      <trkpt lat="38.78213" lon="-121.14522" />
      <trkpt lat="38.78192" lon="-121.14551" />
      <trkpt lat="38.78181" lon="-121.14564" />
      <trkpt lat="38.78125" lon="-121.14614" />
      <trkpt lat="38.78098" lon="-121.14651" />
      <trkpt lat="38.7799" lon="-121.14833" />
      <trkpt lat="38.77979" lon="-121.14849" />
      <trkpt lat="38.77939" lon="-121.14887" />
      <trkpt lat="38.77899" lon="-121.1491" />
      <trkpt lat="38.77846" lon="-121.14934" />
      <trkpt lat="38.77794" lon="-121.14963" />
      <trkpt lat="38.77714" lon="-121.15026" />
      <trkpt lat="38.77658" lon="-121.15062" />
      <trkpt lat="38.77639" lon="-121.15071" />
      <trkpt lat="38.77511" lon="-121.15122" />
      <trkpt lat="38.77485" lon="-121.15134" />
      <trkpt lat="38.77469" lon="-121.15143" />
      <trkpt lat="38.77349" lon="-121.15227" />
      <trkpt lat="38.77203" lon="-121.15327" />
      <trkpt lat="38.77031" lon="-121.15461" />
      <trkpt lat="38.76955" lon="-121.15516" />
      <trkpt lat="38.76903" lon="-121.15551" />
      <trkpt lat="38.7685" lon="-121.15591" />
      <trkpt lat="38.76797" lon="-121.15635" />
      <trkpt lat="38.76755" lon="-121.15691" />
      <trkpt lat="38.76742" lon="-121.15711" />
      <trkpt lat="38.76731" lon="-121.15734" />
      <trkpt lat="38.76715" lon="-121.15779" />
      <trkpt lat="38.76702" lon="-121.15843" />
      <trkpt lat="38.76699" lon="-121.15896" />
      <trkpt lat="38.76701" lon="-121.16068" />
      <trkpt lat="38.76699" lon="-121.16102" />
      <trkpt lat="38.76695" lon="-121.16145" />
      <trkpt lat="38.76685" lon="-121.16187" />
      <trkpt lat="38.76655" lon="-121.16271" />
    </trkseg>
  </trk>
</gpx>