<?xml version="1.0" encoding="UTF-8"?>
<gpx version="1.1" creator="strava-segment-scraper" xmlns="http://www.topografix.com/GPX/1/1">
  <trk>
    <name>DHS 3 mile course</name>
    <trkseg>
      <trkpt lat="37.72021" lon="-121.9214" />
      <trkpt lat="37.7204" lon="-121.92175" />
      <trkpt lat="37.72066" lon="-121.92238" />
      <trkpt lat="37.72087" lon="-121.92277" />
      <trkpt lat="37.72091" lon="-121.92289" />
      <trkpt lat="37.72092" lon="-121.92296" />
      <trkpt lat="37.72089" lon="-121.92309" />
      <trkpt lat="37.7208" lon="-121.9234" />
      <trkpt lat="37.72053" lon="-121.92397" />
      <trkpt lat="37.7205" lon="-121.92406" />
      <trkpt lat="37.7205" lon="-121.92411" />
      <trkpt lat="37.72055" lon="-121.9242" />
      <trkpt lat="37.72083" lon="-121.92448" />
      <trkpt lat="37.721" lon="-121.92474" />
      <trkpt lat="37.72113" lon="-121.92488" />
      <trkpt lat="37.72117" lon="-121.9249" />
      <trkpt lat="37.72126" lon="-121.92493" />
      <trkpt lat="37.72151" lon="-121.92493" />
      <trkpt lat="37.72165" lon="-121.92496" />
      <trkpt lat="37.72174" lon="-121.92499" />
      <trkpt lat="37.72189" lon="-121.92509" />
      <trkpt lat="37.72209" lon="-121.92528" />
      <trkpt lat="37.72216" lon="-121.9253" />
      <trkpt lat="37.7222" lon="-121.92529" />
      <trkpt lat="37.72227" lon="-121.92524" />
      <trkpt lat="37.7225" lon="-121.92489" />
      <trkpt lat="37.72266" lon="-121.92469" />
      <trkpt lat="37.72289" lon="-121.92432" />
      <trkpt lat="37.72315" lon="-121.92382" />
      <trkpt lat="37.72314" lon="-121.92374" />
      <trkpt lat="37.72307" lon="-121.92363" />
      <trkpt lat="37.72275" lon="-121.92332" />
      <trkpt lat="37.72254" lon="-121.9231" />
      <trkpt lat="37.72208" lon="-121.92268" />
      <trkpt lat="37.72159" lon="-121.92227" />
      <trkpt lat="37.72151" lon="-121.92223" />
      <trkpt lat="37.72148" lon="-121.92225" />
      <trkpt lat="37.72139" lon="-121.92235" />
      <trkpt lat="37.72109" lon="-121.9229" />
      <trkpt lat="37.72091" lon="-121.92328" />
      <trkpt lat="37.72088" lon="-121.92344" />
      <trkpt lat="37.72092" lon="-121.92351" />
      <trkpt lat="37.72103" lon="-121.92361" />
      <trkpt lat="37.72172" lon="-121.92419" />
      <trkpt lat="37.7219" lon="-121.92432" />
      <trkpt lat="37.72196" lon="-121.92439" />
      <trkpt lat="37.72197" lon="-121.92443" />
      <trkpt lat="37.72196" lon="-121.92448" />
      <trkpt lat="37.72171" lon="-121.92495" />
      <trkpt lat="37.72163" lon="-121.925" />
      <trkpt lat="37.72137" lon="-121.925" />
      <trkpt lat="37.72104" lon="-121.92494" />
      <trkpt lat="37.72098" lon="-121.92494" />
      <trkpt lat="37.7209" lon="-121.92527" />
      <trkpt lat="37.72087" lon="-121.92538" />
      <trkpt lat="37.72081" lon="-121.92547" />
      <trkpt lat="37.72072" lon="-121.92549" />
      <trkpt lat="37.72054" lon="-121.92545" />
      <trkpt lat="37.72018" lon="-121.92546" />
      <trkpt lat="37.72001" lon="-121.92552" />
      <trkpt lat="37.71978" lon="-121.92567" />
      <trkpt lat="37.71965" lon="-121.92571" />
      <trkpt lat="37.71952" lon="-121.9257" />
      <trkpt lat="37.7194" lon="-121.92565" />
      <trkpt lat="37.71924" lon="-121.92547" />
      <trkpt lat="37.71918" lon="-121.92533" />
      <trkpt lat="37.71915" lon="-121.92516" />
      <trkpt lat="37.71917" lon="-121.92488" />
      <trkpt lat="37.71923" lon="-121.92473" />
      <trkpt lat="37.71935" lon="-121.92464" />
      <trkpt lat="37.71943" lon="-121.9246" />
      <trkpt lat="37.71961" lon="-121.92459" />
      <trkpt lat="37.7197" lon="-121.92462" />
      <trkpt lat="37.71998" lon="-121.92478" />
      <trkpt lat="37.72012" lon="-121.9248" />
      <trkpt lat="37.72021" lon="-121.92478" />
      <trkpt lat="37.72029" lon="-121.92473" />
      <trkpt lat="37.72045" lon="-121.92455" />
      <trkpt lat="37.72062" lon="-121.92432" />
      <trkpt lat="37.72053" lon="-121.92405" />
      <trkpt lat="37.72055" lon="-121.92394" />
      <trkpt lat="37.72066" lon="-121.92367" />
      <trkpt lat="37.72081" lon="-121.92339" />
      <trkpt lat="37.72089" lon="-121.92319" />
      <trkpt lat="37.72123" lon="-121.92264" />
      <trkpt lat="37.72135" lon="-121.92242" />
      <trkpt lat="37.72143" lon="-121.92229" />
      <trkpt lat="37.72147" lon="-121.92226" />
      <trkpt lat="37.72151" lon="-121.92224" />
      <trkpt lat="37.72159" lon="-121.92228" />
      <trkpt lat="37.72226" lon="-121.92278" />
      <trkpt lat="37.7226" lon="-121.92309" />
      <trkpt lat="37.72284" lon="-121.92336" />
      <trkpt lat="37.72301" lon="-121.92349" />
      <trkpt lat="37.72307" lon="-121.92356" />
      <trkpt lat="37.72311" lon="-121.92365" />
      <trkpt lat="37.72312" lon="-121.9238" />
      <trkpt lat="37.72303" lon="-121.92399" />
      <trkpt lat="37.72277" lon="-121.92451" />
      <trkpt lat="37.72253" lon="-121.92487" />
      <trkpt lat="37.72242" lon="-121.92509" />
      <trkpt lat="37.72231" lon="-121.92526" />
      <trkpt lat="37.72228" lon="-121.92529" />
      <trkpt lat="37.72223" lon="-121.92531" />
      <trkpt lat="37.72214" lon="-121.92529" />
      <trkpt lat="37.72168" lon="-121.92501" />
      <trkpt lat="37.72152" lon="-121.92498" />
      <trkpt lat="37.72131" lon="-121.92497" />
      <trkpt lat="37.72102" lon="-121.92491" />
      <trkpt lat="37.72095" lon="-121.92493" />
      <trkpt lat="37.72092" lon="-121.92496" />
      <trkpt lat="37.72085" lon="-121.92531" />
      <trkpt lat="37.72081" lon="-121.92541" />
      <trkpt lat="37.72074" lon="-121.92548" />
      <trkpt lat="37.7207" lon="-121.92549" />
      <trkpt lat="37.72052" lon="-121.92545" />
      <trkpt lat="37.72016" lon="-121.92546" />
      <trkpt lat="37.72001" lon="-121.92551" />
      <trkpt lat="37.71978" lon="-121.92565" />
      <trkpt lat="37.71969" lon="-121.92569" />
      <trkpt lat="37.71952" lon="-121.9257" />
      <trkpt lat="37.71944" lon="-121.92568" />
      <trkpt lat="37.71933" lon="-121.9256" />
      <trkpt lat="37.71923" lon="-121.92548" />
      <trkpt lat="37.71916" lon="-121.92534" />
      <trkpt lat="37.71913" lon="-121.92511" />
      <trkpt lat="37.71916" lon="-121.92488" />
      <trkpt lat="37.71924" lon="-121.92474" />
      <trkpt lat="37.71936" lon="-121.92465" />
      <trkpt lat="37.7195" lon="-121.92461" />
      <trkpt lat="37.71959" lon="-121.92461" />
      <trkpt lat="37.72" lon="-121.92478" />
      <trkpt lat="37.72014" lon="-121.9248" />
      <trkpt lat="37.72023" lon="-121.92477" />
      <trkpt lat="37.72031" lon="-121.92473" />
      <trkpt lat="37.72054" lon="-121.92448" />
      <trkpt lat="37.72064" lon="-121.92432" />
      <trkpt lat="37.72064" lon="-121.92428" />
      <trkpt lat="37.72053" lon="-121.92406" />
      <trkpt lat="37.72054" lon="-121.92394" />
      <trkpt lat="37.72058" lon="-121.92384" />
      <trkpt lat="37.72106" lon="-121.92292" />
      <trkpt lat="37.72143" lon="-121.92229" />
      <trkpt lat="37.72151" lon="-121.92223" />
      <trkpt lat="37.72155" lon="-121.92224" />
      <trkpt lat="37.72162" lon="-121.92228" />
      <trkpt lat="37.72194" lon="-121.92256" />
      <trkpt lat="37.72222" lon="-121.92274" />
      <trkpt lat="37.72232" lon="-121.92283" />
      <trkpt lat="37.72267" lon="-121.92318" />
      <trkpt lat="37.72281" lon="-121.92334" />
      <trkpt lat="37.723" lon="-121.9235" />
      <trkpt lat="37.72306" lon="-121.92357" />
      <trkpt lat="37.7231" lon="-121.92365" />
      <trkpt lat="37.72311" lon="-121.92376" />
      <trkpt lat="37.7231" lon="-121.9238" />
      <trkpt lat="37.7228" lon="-121.92445" />
      <trkpt lat="37.72269" lon="-121.92468" />
      <trkpt lat="37.72257" lon="-121.92487" />
      <trkpt lat="37.72235" lon="-121.92528" />
      <trkpt lat="37.72228" lon="-121.92533" />
      <trkpt lat="37.72219" lon="-121.92533" />
      <trkpt lat="37.7221" lon="-121.92528" />
      <trkpt lat="37.72183" lon="-121.92507" />
      <trkpt lat="37.72163" lon="-121.92499" />
      <trkpt lat="37.72154" lon="-121.92497" />
      <trkpt lat="37.72132" lon="-121.92496" />
      <trkpt lat="37.72115" lon="-121.92492" />
      <trkpt lat="37.72098" lon="-121.92492" />
      <trkpt lat="37.72094" lon="-121.92497" />
      <trkpt lat="37.72081" lon="-121.9254" />
      <trkpt lat="37.72074" lon="-121.92547" />
      <trkpt lat="37.72047" lon="-121.92544" />
      <trkpt lat="37.72015" lon="-121.92546" />
      <trkpt lat="37.72003" lon="-121.9255" />
      <trkpt lat="37.7198" lon="-121.92564" />
      <trkpt lat="37.71968" lon="-121.92569" />
      <trkpt lat="37.71951" lon="-121.9257" />
      <trkpt lat="37.71942" lon="-121.92568" />
      <trkpt lat="37.71936" lon="-121.92563" />
      <trkpt lat="37.71927" lon="-121.92552" />
      <trkpt lat="37.71919" lon="-121.92538" />
      <trkpt lat="37.71916" lon="-121.92528" />
      <trkpt lat="37.71915" lon="-121.92505" />
      <trkpt lat="37.71918" lon="-121.92489" />
      <trkpt lat="37.71922" lon="-121.92479" />
      <trkpt lat="37.71935" lon="-121.92465" />
      <trkpt lat="37.71952" lon="-121.9246" />
      <trkpt lat="37.71969" lon="-121.92461" />
      <trkpt lat="37.71999" lon="-121.92473" />
      <trkpt lat="37.72012" lon="-121.92476" />
      <trkpt lat="37.72026" lon="-121.92474" />
      <trkpt lat="37.72037" lon="-121.92465" />
      <trkpt lat="37.72049" lon="-121.92451" />
      <trkpt lat="37.72062" lon="-121.92431" />
      <trkpt lat="37.72063" lon="-121.92423" />
      <trkpt lat="37.72055" lon="-121.92404" />
      <trkpt lat="37.72055" lon="-121.92393" />
      <trkpt lat="37.7208" lon="-121.92332" />
      <trkpt lat="37.72091" lon="-121.92295" />
      <trkpt lat="37.72091" lon="-121.92284" />
      <trkpt lat="37.72085" lon="-121.92276" />
      <trkpt lat="37.72005" lon="-121.92208" />
      <trkpt lat="37.71987" lon="-121.92189" />
      <trkpt lat="37.71982" lon="-121.92178" />
      <trkpt lat="37.71982" lon="-121.92159" />
      <trkpt lat="37.71988" lon="-121.92142" />
      <trkpt lat="37.71995" lon="-121.92133" />
      <trkpt lat="37.72003" lon="-121.92127" />
      <trkpt lat="37.72013" lon="-121.92122" />
      <trkpt lat="37.72017" lon="-121.92122" />
      <trkpt lat="37.72027" lon="-121.92123" />
      <trkpt lat="37.72045" lon="-121.92137" />
      <trkpt lat="37.72105" lon="-121.92188" />
      <trkpt lat="37.72114" lon="-121.92201" />
      <trkpt lat="37.72118" lon="-121.92212" />
      <trkpt lat="37.72118" lon="-121.92231" />
      <trkpt lat="37.72112" lon="-121.92249" />
    </trkseg>
  </trk>
</gpx>