<?xml version="1.0" encoding="UTF-8"?>
<gpx version="1.1" creator="strava-segment-scraper" xmlns="http://www.topografix.com/GPX/1/1">
  <trk>
    <name>Orr Springs</name>
    <trkseg>
      <trkpt lat="39.18146" lon="-123.23558" />
      <trkpt lat="39.18157" lon="-123.23578" />
      <trkpt lat="39.18165" lon="-123.23596" />
      <trkpt lat="39.18176" lon="-123.23642" />
      <trkpt lat="39.1818" lon="-123.23689" />
      <trkpt lat="39.18171" lon="-123.23724" />
      <trkpt lat="39.18166" lon="-123.23738" />
      <trkpt lat="39.18162" lon="-123.23744" />
      <trkpt lat="39.18142" lon="-123.23764" />
      <trkpt lat="39.18122" lon="-123.23792" />
      <trkpt lat="39.18108" lon="-123.23824" />
      <trkpt lat="39.18094" lon="-123.23843" />
      <trkpt lat="39.18075" lon="-123.23857" />
      <trkpt lat="39.18066" lon="-123.2386" />
      <trkpt lat="39.18054" lon="-123.23862" />
      <trkpt lat="39.18035" lon="-123.23858" />
      <trkpt lat="39.1803" lon="-123.2386" />
      <trkpt lat="39.18012" lon="-123.23875" />
      <trkpt lat="39.17993" lon="-123.23894" />
      <trkpt lat="39.17975" lon="-123.2392" />
      <trkpt lat="39.17949" lon="-123.23973" />
      <trkpt lat="39.1792" lon="-123.24023" />
      <trkpt lat="39.179" lon="-123.24066" />
      <trkpt lat="39.17897" lon="-123.24078" />
      <trkpt lat="39.17895" lon="-123.241" />
      <trkpt lat="39.17899" lon="-123.24124" />
      <trkpt lat="39.1791" lon="-123.24151" />
      <trkpt lat="39.17917" lon="-123.24176" />
      <trkpt lat="39.17916" lon="-123.24189" />
      <trkpt lat="39.17913" lon="-123.24201" />
      <trkpt lat="39.17903" lon="-123.24213" />
      <trkpt lat="39.17888" lon="-123.24238" />
      <trkpt lat="39.17879" lon="-123.24256" />
      <trkpt lat="39.17859" lon="-123.24286" />
      <trkpt lat="39.17855" lon="-123.24297" />
      <trkpt lat="39.17858" lon="-123.24317" />
      <trkpt lat="39.17868" lon="-123.24334" />
      <trkpt lat="39.17872" lon="-123.24339" />
      <trkpt lat="39.17882" lon="-123.24349" />
      <trkpt lat="39.17894" lon="-123.24356" />
      <trkpt lat="39.17901" lon="-123.24357" />
      <trkpt lat="39.17945" lon="-123.24357" />
      <trkpt lat="39.17966" lon="-123.24359" />
      <trkpt lat="39.17976" lon="-123.24362" />
      <trkpt lat="39.17988" lon="-123.24369" />
      <trkpt lat="39.17996" lon="-123.24382" />
      <trkpt lat="39.17998" lon="-123.2439" />
      <trkpt lat="39.17999" lon="-123.24407" />
      <trkpt lat="39.17996" lon="-123.2444" />
      <trkpt lat="39.17997" lon="-123.24448" />
      <trkpt lat="39.18001" lon="-123.24462" />
      <trkpt lat="39.18009" lon="-123.24472" />
      <trkpt lat="39.18022" lon="-123.24482" />
      <trkpt lat="39.18039" lon="-123.24489" />
      <trkpt lat="39.18063" lon="-123.24495" />
      <trkpt lat="39.18082" lon="-123.24496" />
      <trkpt lat="39.181" lon="-123.24503" />
      <trkpt lat="39.18128" lon="-123.24523" />
      <trkpt lat="39.18143" lon="-123.24538" />
      <trkpt lat="39.18169" lon="-123.2457" />
      <trkpt lat="39.18175" lon="-123.24583" />
      <trkpt lat="39.18193" lon="-123.24648" />
      <trkpt lat="39.18228" lon="-123.24738" />
      <trkpt lat="39.18231" lon="-123.24761" />
      <trkpt lat="39.18226" lon="-123.248" />
      <trkpt lat="39.18229" lon="-123.24815" />
      <trkpt lat="39.18234" lon="-123.24827" />
      <trkpt lat="39.18247" lon="-123.24841" />
      <trkpt lat="39.18262" lon="-123.24852" />
      <trkpt lat="39.18286" lon="-123.24863" />
      <trkpt lat="39.18317" lon="-123.24872" />
      <trkpt lat="39.18334" lon="-123.24883" />
      <trkpt lat="39.18358" lon="-123.24901" />
      <trkpt lat="39.18371" lon="-123.24915" />
      <trkpt lat="39.18379" lon="-123.24928" />
      <trkpt lat="39.18386" lon="-123.24942" />
      <trkpt lat="39.18391" lon="-123.2496" />
      <trkpt lat="39.18392" lon="-123.24972" />
      <trkpt lat="39.1839" lon="-123.24983" />
      <trkpt lat="39.1838" lon="-123.25004" />
      <trkpt lat="39.18362" lon="-123.25032" />
      <trkpt lat="39.18347" lon="-123.25076" />
      <trkpt lat="39.1835" lon="-123.25103" />
      <trkpt lat="39.18354" lon="-123.25114" />
      <trkpt lat="39.1836" lon="-123.25124" />
      <trkpt lat="39.18367" lon="-123.25132" />
      <trkpt lat="39.18387" lon="-123.25148" />
      <trkpt lat="39.18421" lon="-123.25184" />
      <trkpt lat="39.18442" lon="-123.25201" />
      <trkpt lat="39.18458" lon="-123.25209" />
      <trkpt lat="39.18474" lon="-123.2522" />
      <trkpt lat="39.18487" lon="-123.25234" />
      <trkpt lat="39.1849" lon="-123.25248" />
      <trkpt lat="39.18488" lon="-123.25293" />
      <trkpt lat="39.18495" lon="-123.25317" />
      <trkpt lat="39.18505" lon="-123.25329" />
      <trkpt lat="39.18514" lon="-123.25335" />
      <trkpt lat="39.18527" lon="-123.25341" />
      <trkpt lat="39.18541" lon="-123.25342" />
      <trkpt lat="39.18559" lon="-123.25336" />
      <trkpt lat="39.18584" lon="-123.25318" />
      <trkpt lat="39.18593" lon="-123.25315" />
      <trkpt lat="39.18598" lon="-123.25315" />
      <trkpt lat="39.18613" lon="-123.2532" />
      <trkpt lat="39.18623" lon="-123.25329" />
      <trkpt lat="39.18634" lon="-123.25342" />
      <trkpt lat="39.1864" lon="-123.25353" />
      <trkpt lat="39.18645" lon="-123.25366" />
      <trkpt lat="39.18648" lon="-123.25381" />
      <trkpt lat="39.18649" lon="-123.25401" />
      <trkpt lat="39.1865" lon="-123.25407" />
      <trkpt lat="39.18655" lon="-123.25418" />
      <trkpt lat="39.18665" lon="-123.25427" />
      <trkpt lat="39.18693" lon="-123.25439" />
      <trkpt lat="39.18703" lon="-123.25447" />
      <trkpt lat="39.18753" lon="-123.25519" />
      <trkpt lat="39.18763" lon="-123.25541" />
      <trkpt lat="39.18767" lon="-123.25561" />
      <trkpt lat="39.18767" lon="-123.25592" />
      <trkpt lat="39.18751" lon="-123.25656" />
      <trkpt lat="39.18748" lon="-123.25672" />
      <trkpt lat="39.18751" lon="-123.25685" />
      <trkpt lat="39.18759" lon="-123.257" />
      <trkpt lat="39.18766" lon="-123.25705" />
      <trkpt lat="39.18777" lon="-123.25705" />
      <trkpt lat="39.18787" lon="-123.257" />
      <trkpt lat="39.18813" lon="-123.25682" />
      <trkpt lat="39.18822" lon="-123.25678" />
      <trkpt lat="39.18836" lon="-123.25674" />
      <trkpt lat="39.18853" lon="-123.25674" />
      <trkpt lat="39.18868" lon="-123.25682" />
      <trkpt lat="39.18882" lon="-123.25696" />
      <trkpt lat="39.18892" lon="-123.2571" />
      <trkpt lat="39.18938" lon="-123.25795" />
      <trkpt lat="39.1895" lon="-123.25813" />
      <trkpt lat="39.18974" lon="-123.25837" />
      <trkpt lat="39.1901" lon="-123.25861" />
      <trkpt lat="39.19025" lon="-123.25877" />
      <trkpt lat="39.19036" lon="-123.25897" />
      <trkpt lat="39.19051" lon="-123.25939" />
      <trkpt lat="39.19058" lon="-123.25952" />
      <trkpt lat="39.19069" lon="-123.25962" />
      <trkpt lat="39.19077" lon="-123.25967" />
      <trkpt lat="39.19145" lon="-123.26004" />
      <trkpt lat="39.19187" lon="-123.26035" />
      <trkpt lat="39.19205" lon="-123.26053" />
      <trkpt lat="39.19235" lon="-123.26089" />
      <trkpt lat="39.19249" lon="-123.26108" />
      <trkpt lat="39.1926" lon="-123.26129" />
      <trkpt lat="39.1927" lon="-123.26154" />
      <trkpt lat="39.19273" lon="-123.26168" />
      <trkpt lat="39.19272" lon="-123.26211" />
      <trkpt lat="39.1927" lon="-123.26236" />
      <trkpt lat="39.19266" lon="-123.26248" />
      <trkpt lat="39.19253" lon="-123.26281" />
      <trkpt lat="39.19239" lon="-123.26306" />
      <trkpt lat="39.19231" lon="-123.26342" />
      <trkpt lat="39.19232" lon="-123.26358" />
      <trkpt lat="39.19246" lon="-123.26408" />
      <trkpt lat="39.19254" lon="-123.26459" />
      <trkpt lat="39.19253" lon="-123.26478" />
      <trkpt lat="39.19249" lon="-123.26505" />
      <trkpt lat="39.19248" lon="-123.26565" />
      <trkpt lat="39.19244" lon="-123.26582" />
      <trkpt lat="39.19229" lon="-123.26622" />
      <trkpt lat="39.19228" lon="-123.26646" />
      <trkpt lat="39.19231" lon="-123.26656" />
      <trkpt lat="39.19234" lon="-123.26665" />
      <trkpt lat="39.19247" lon="-123.26688" />
      <trkpt lat="39.19275" lon="-123.26749" />
      <trkpt lat="39.19291" lon="-123.26773" />
      <trkpt lat="39.19304" lon="-123.26786" />
      <trkpt lat="39.19317" lon="-123.26791" />
      <trkpt lat="39.19349" lon="-123.26797" />
      <trkpt lat="39.19373" lon="-123.26809" />
      <trkpt lat="39.19381" lon="-123.26819" />
      <trkpt lat="39.19394" lon="-123.2684" />
      <trkpt lat="39.19404" lon="-123.2685" />
      <trkpt lat="39.19413" lon="-123.2687" />
      <trkpt lat="39.19429" lon="-123.26888" />
      <trkpt lat="39.19436" lon="-123.26907" />
      <trkpt lat="39.19441" lon="-123.26958" />
      <trkpt lat="39.19439" lon="-123.26981" />
      <trkpt lat="39.1944" lon="-123.26988" />
      <trkpt lat="39.1945" lon="-123.27015" />
      <trkpt lat="39.19455" lon="-123.27073" />
      <trkpt lat="39.19466" lon="-123.27095" />
      <trkpt lat="39.19471" lon="-123.27115" />
      <trkpt lat="39.19475" lon="-123.27123" />
      <trkpt lat="39.19482" lon="-123.27129" />
      <trkpt lat="39.19503" lon="-123.27138" />
      <trkpt lat="39.1952" lon="-123.27149" />
      <trkpt lat="39.19531" lon="-123.27164" />
      <trkpt lat="39.19544" lon="-123.27202" />
      <trkpt lat="39.19554" lon="-123.27268" />
      <trkpt lat="39.19576" lon="-123.27306" />
      <trkpt lat="39.19586" lon="-123.27327" />
      <trkpt lat="39.19599" lon="-123.27347" />
      <trkpt lat="39.19612" lon="-123.27358" />
      <trkpt lat="39.1962" lon="-123.27368" />
      <trkpt lat="39.19629" lon="-123.27387" />
      <trkpt lat="39.19639" lon="-123.27404" />
      <trkpt lat="39.19644" lon="-123.27417" />
      <trkpt lat="39.19651" lon="-123.2744" />
      <trkpt lat="39.19654" lon="-123.27466" />
      <trkpt lat="39.19649" lon="-123.27509" />
      <trkpt lat="39.19636" lon="-123.27541" />
      <trkpt lat="39.19634" lon="-123.27553" />
      <trkpt lat="39.19647" lon="-123.2759" />
      <trkpt lat="39.19651" lon="-123.27607" />
      <trkpt lat="39.19654" lon="-123.27624" />
      <trkpt lat="39.1965" lon="-123.27637" />
      <trkpt lat="39.19635" lon="-123.2766" />
      <trkpt lat="39.19627" lon="-123.27668" />
      <trkpt lat="39.19611" lon="-123.27681" />
      <trkpt lat="39.19585" lon="-123.2771" />
      <trkpt lat="39.19583" lon="-123.27719" />
      <trkpt lat="39.1958" lon="-123.27767" />
      <trkpt lat="39.19583" lon="-123.27786" />
      <trkpt lat="39.19589" lon="-123.27801" />
      <trkpt lat="39.19598" lon="-123.27839" />
      <trkpt lat="39.19607" lon="-123.27861" />
      <trkpt lat="39.19611" lon="-123.27868" />
      <trkpt lat="39.19623" lon="-123.27912" />
      <trkpt lat="39.19636" lon="-123.27927" />
      <trkpt lat="39.19644" lon="-123.2793" />
      <trkpt lat="39.19683" lon="-123.27939" />
      <trkpt lat="39.19698" lon="-123.27953" />
      <trkpt lat="39.19707" lon="-123.27965" />
      <trkpt lat="39.19729" lon="-123.27989" />
      <trkpt lat="39.19748" lon="-123.28018" />
      <trkpt lat="39.1975" lon="-123.2803" />
      <trkpt lat="39.19749" lon="-123.28057" />
      <trkpt lat="39.19756" lon="-123.28082" />
      <trkpt lat="39.19759" lon="-123.28088" />
      <trkpt lat="39.19765" lon="-123.28094" />
      <trkpt lat="39.19777" lon="-123.28097" />
      <trkpt lat="39.19789" lon="-123.28106" />
      <trkpt lat="39.198" lon="-123.2812" />
      <trkpt lat="39.19809" lon="-123.28137" />
      <trkpt lat="39.19811" lon="-123.28156" />
      <trkpt lat="39.19817" lon="-123.2818" />
      <trkpt lat="39.19818" lon="-123.28201" />
      <trkpt lat="39.19821" lon="-123.28217" />
      <trkpt lat="39.19825" lon="-123.28274" />
      <trkpt lat="39.19829" lon="-123.28283" />
      <trkpt lat="39.19844" lon="-123.28309" />
      <trkpt lat="39.19852" lon="-123.28322" />
      <trkpt lat="39.19873" lon="-123.28349" />
      <trkpt lat="39.19882" lon="-123.28374" />
      <trkpt lat="39.19881" lon="-123.28384" />
      <trkpt lat="39.1987" lon="-123.28408" />
      <trkpt lat="39.1987" lon="-123.28417" />
      <trkpt lat="39.19873" lon="-123.28426" />
      <trkpt lat="39.19886" lon="-123.28449" />
      <trkpt lat="39.19914" lon="-123.28473" />
      <trkpt lat="39.19926" lon="-123.28481" />
      <trkpt lat="39.19937" lon="-123.28492" />
      <trkpt lat="39.19963" lon="-123.28523" />
      <trkpt lat="39.19969" lon="-123.28539" />
      <trkpt lat="39.19975" lon="-123.28569" />
      <trkpt lat="39.19972" lon="-123.28605" />
      <trkpt lat="39.19968" lon="-123.28622" />
      <trkpt lat="39.19961" lon="-123.28669" />
      <trkpt lat="39.19966" lon="-123.28701" />
      <trkpt lat="39.19975" lon="-123.28731" />
    </trkseg>
  </trk>
</gpx>