<?xml version="1.0" encoding="UTF-8"?>
<gpx version="1.1" creator="strava-segment-scraper" xmlns="http://www.topografix.com/GPX/1/1">
  <trk>
    <name>East Valley Time Trial</name>
    <trkseg>
      <trkpt lat="38.93883" lon="-119.70036" />
      <trkpt lat="38.93912" lon="-119.70042" />
      <trkpt lat="38.93973" lon="-119.70044" />
      <trkpt lat="38.9401" lon="-119.70041" />
      <trkpt lat="38.94108" lon="-119.70042" />
      <trkpt lat="38.94226" lon="-119.7004" />
      <trkpt lat="38.94288" lon="-119.70041" />
      <trkpt lat="38.94308" lon="-119.7004" />
      <trkpt lat="38.94483" lon="-119.70043" />
      <trkpt lat="38.94533" lon="-119.70042" />
      <trkpt lat="38.94595" lon="-119.70043" />
      <trkpt lat="38.94612" lon="-119.70041" />
      <trkpt lat="38.94638" lon="-119.70043" />
      <trkpt lat="38.94674" lon="-119.70049" />
      <trkpt lat="38.94715" lon="-119.70064" />
      <trkpt lat="38.94807" lon="-119.7012" />
      <trkpt lat="38.94842" lon="-119.70144" />
      <trkpt lat="38.94899" lon="-119.70177" />
      <trkpt lat="38.95014" lon="-119.70258" />
      <trkpt lat="38.95034" lon="-119.70269" />
      <trkpt lat="38.95061" lon="-119.70289" />
      <trkpt lat="38.95079" lon="-119.70298" />
      <trkpt lat="38.95088" lon="-119.70306" />
      <trkpt lat="38.95142" lon="-119.70338" />
      <trkpt lat="38.95185" lon="-119.7037" />
      <trkpt lat="38.95204" lon="-119.70381" />
      <trkpt lat="38.95221" lon="-119.70393" />
      <trkpt lat="38.95317" lon="-119.7045" />
      <trkpt lat="38.95346" lon="-119.70459" />
      <trkpt lat="38.95356" lon="-119.70461" />
      <trkpt lat="38.95407" lon="-119.70465" />
      <trkpt lat="38.95426" lon="-119.70468" />
      <trkpt lat="38.95456" lon="-119.7048" />
      <trkpt lat="38.95485" lon="-119.70493" />
      <trkpt lat="38.95523" lon="-119.70505" />
      <trkpt lat="38.95575" lon="-119.70508" />
      <trkpt lat="38.95647" lon="-119.70508" />
      <trkpt lat="38.95722" lon="-119.7051" />
      <trkpt lat="38.95756" lon="-119.7051" />
      <trkpt lat="38.95781" lon="-119.70508" />
      <trkpt lat="38.95814" lon="-119.70508" />
      <trkpt lat="38.95968" lon="-119.70508" />
      <trkpt lat="38.96059" lon="-119.70506" />
      <trkpt lat="38.96124" lon="-119.70508" />
      <trkpt lat="38.96152" lon="-119.7051" />
      <trkpt lat="38.96398" lon="-119.7051" />
      <trkpt lat="38.96497" lon="-119.70507" />
      <trkpt lat="38.96563" lon="-119.7051" />
      <trkpt lat="38.96732" lon="-119.7051" />
      <trkpt lat="38.96881" lon="-119.70508" />
      <trkpt lat="38.96982" lon="-119.705" />
      <trkpt lat="38.97011" lon="-119.705" />
      <trkpt lat="38.97029" lon="-119.70498" />
      <trkpt lat="38.97049" lon="-119.70496" />
      <trkpt lat="38.97084" lon="-119.70487" />
      <trkpt lat="38.97134" lon="-119.70469" />
      <trkpt lat="38.97198" lon="-119.70439" />
      <trkpt lat="38.97249" lon="-119.70405" />
      <trkpt lat="38.97298" lon="-119.70366" />
      <trkpt lat="38.97318" lon="-119.70352" />
      <trkpt lat="38.97363" lon="-119.70329" />
      <trkpt lat="38.97385" lon="-119.70319" />
      <trkpt lat="38.97417" lon="-119.70311" />
      <trkpt lat="38.97448" lon="-119.70306" />
      <trkpt lat="38.97472" lon="-119.70304" />
      <trkpt lat="38.97496" lon="-119.70304" />
      <trkpt lat="38.97528" lon="-119.70309" />
      <trkpt lat="38.9756" lon="-119.70316" />
      <trkpt lat="38.97584" lon="-119.70325" />
      <trkpt lat="38.97615" lon="-119.70341" />
      <trkpt lat="38.97652" lon="-119.70365" />
      <trkpt lat="38.97682" lon="-119.70387" />
      <trkpt lat="38.97717" lon="-119.7042" />
      <trkpt lat="38.97763" lon="-119.70456" />
      <trkpt lat="38.97777" lon="-119.70469" />
      <trkpt lat="38.97809" lon="-119.70484" />
      <trkpt lat="38.97851" lon="-119.705" />
      <trkpt lat="38.97868" lon="-119.70504" />
      <trkpt lat="38.97919" lon="-119.70513" />
      <trkpt lat="38.97953" lon="-119.70514" />
      <trkpt lat="38.98023" lon="-119.70514" />
      <trkpt lat="38.98045" lon="-119.70516" />
      <trkpt lat="38.9811" lon="-119.70515" />
      <trkpt lat="38.98119" lon="-119.70516" />
      <trkpt lat="38.98163" lon="-119.70517" />
      <trkpt lat="38.98208" lon="-119.70515" />
      <trkpt lat="38.98224" lon="-119.70518" />
      <trkpt lat="38.9824" lon="-119.70516" />
      <trkpt lat="38.98274" lon="-119.70517" />
      <trkpt lat="38.98297" lon="-119.70516" />
      <trkpt lat="38.98377" lon="-119.70517" />
      <trkpt lat="38.98483" lon="-119.70522" />
      <trkpt lat="38.98544" lon="-119.70521" />
      <trkpt lat="38.98551" lon="-119.70523" />
      <trkpt lat="38.98585" lon="-119.70522" />
      <trkpt lat="38.98683" lon="-119.70527" />
      <trkpt lat="38.98708" lon="-119.70526" />
      <trkpt lat="38.98724" lon="-119.70529" />
      <trkpt lat="38.98839" lon="-119.7053" />
      <trkpt lat="38.9888" lon="-119.70532" />
      <trkpt lat="38.98896" lon="-119.70531" />
      <trkpt lat="38.98913" lon="-119.70534" />
      <trkpt lat="38.99022" lon="-119.70533" />
      <trkpt lat="38.99064" lon="-119.70531" />
      <trkpt lat="38.99246" lon="-119.70531" />
      <trkpt lat="38.99283" lon="-119.70529" />
      <trkpt lat="38.99308" lon="-119.7053" />
      <trkpt lat="38.99323" lon="-119.70528" />
      <trkpt lat="38.99355" lon="-119.70531" />
      <trkpt lat="38.99398" lon="-119.70531" />
      <trkpt lat="38.99421" lon="-119.70533" />
      <trkpt lat="38.99435" lon="-119.70533" />
      <trkpt lat="38.99465" lon="-119.70535" />
      <trkpt lat="38.99498" lon="-119.70536" />
      <trkpt lat="38.9953" lon="-119.70534" />
      <trkpt lat="38.99591" lon="-119.70535" />
      <trkpt lat="38.99637" lon="-119.70533" />
      <trkpt lat="38.99674" lon="-119.70534" />
      <trkpt lat="38.99682" lon="-119.70532" />
      <trkpt lat="38.99712" lon="-119.70535" />
      <trkpt lat="38.99772" lon="-119.70535" />
      <trkpt lat="38.9984" lon="-119.70542" />
      <trkpt lat="38.99876" lon="-119.70556" />
      <trkpt lat="38.99926" lon="-119.70584" />
      <trkpt lat="38.99944" lon="-119.70601" />
      <trkpt lat="38.99948" lon="-119.70606" />
      <trkpt lat="38.9996" lon="-119.70616" />
      <trkpt lat="38.99998" lon="-119.70667" />
      <trkpt lat="39.00013" lon="-119.70692" />
      <trkpt lat="39.00026" lon="-119.70706" />
      <trkpt lat="39.0005" lon="-119.7073" />
      <trkpt lat="39.00069" lon="-119.70752" />
      <trkpt lat="39.00133" lon="-119.70804" />
      <trkpt lat="39.00147" lon="-119.70811" />
      <trkpt lat="39.0017" lon="-119.70828" />
      <trkpt lat="39.00204" lon="-119.70847" />
      <trkpt lat="39.00212" lon="-119.70853" />
      <trkpt lat="39.00234" lon="-119.70865" />
      <trkpt lat="39.00267" lon="-119.70887" />
      <trkpt lat="39.00313" lon="-119.70912" />
      <trkpt lat="39.00337" lon="-119.70927" />
      <trkpt lat="39.00352" lon="-119.70939" />
      <trkpt lat="39.00396" lon="-119.70968" />
      <trkpt lat="39.00434" lon="-119.70988" />
      <trkpt lat="39.00451" lon="-119.70993" />
      <trkpt lat="39.00468" lon="-119.70997" />
      <trkpt lat="39.00517" lon="-119.71001" />
      <trkpt lat="39.00558" lon="-119.71002" />
      <trkpt lat="39.00566" lon="-119.71001" />
      <trkpt lat="39.00617" lon="-119.71003" />
      <trkpt lat="39.00667" lon="-119.71001" />
      <trkpt lat="39.00738" lon="-119.71004" />
      <trkpt lat="39.0079" lon="-119.71003" />
      <trkpt lat="39.00893" lon="-119.71006" />
      <trkpt lat="39.00987" lon="-119.71004" />
      <trkpt lat="39.0103" lon="-119.71006" />
      <trkpt lat="39.0105" lon="-119.71009" />
      <trkpt lat="39.01095" lon="-119.71008" />
      <trkpt lat="39.01126" lon="-119.71006" />
      <trkpt lat="39.01158" lon="-119.71007" />
      <trkpt lat="39.0119" lon="-119.71002" />
      <trkpt lat="39.01276" lon="-119.71004" />
      <trkpt lat="39.01366" lon="-119.71003" />
      <trkpt lat="39.01382" lon="-119.71005" />
      <trkpt lat="39.01432" lon="-119.71002" />
      <trkpt lat="39.01447" lon="-119.71004" />
      <trkpt lat="39.01479" lon="-119.71003" />
      <trkpt lat="39.01512" lon="-119.71005" />
      <trkpt lat="39.01561" lon="-119.71003" />
      <trkpt lat="39.0157" lon="-119.71" />
      <trkpt lat="39.01611" lon="-119.71001" />
      <trkpt lat="39.01619" lon="-119.71" />
      <trkpt lat="39.01677" lon="-119.71002" />
      <trkpt lat="39.0174" lon="-119.71002" />
      <trkpt lat="39.01757" lon="-119.71005" />
      <trkpt lat="39.01773" lon="-119.71002" />
      <trkpt lat="39.01814" lon="-119.70999" />
      <trkpt lat="39.01924" lon="-119.70999" />
      <trkpt lat="39.02056" lon="-119.71003" />
      <trkpt lat="39.02077" lon="-119.71" />
      <trkpt lat="39.02098" lon="-119.70999" />
      <trkpt lat="39.02131" lon="-119.71" />
      <trkpt lat="39.02178" lon="-119.70999" />
      <trkpt lat="39.02196" lon="-119.71001" />
      <trkpt lat="39.02228" lon="-119.70998" />
      <trkpt lat="39.02363" lon="-119.70999" />
      <trkpt lat="39.02383" lon="-119.70997" />
      <trkpt lat="39.0243" lon="-119.71" />
      <trkpt lat="39.02457" lon="-119.70999" />
      <trkpt lat="39.0249" lon="-119.70996" />
      <trkpt lat="39.02508" lon="-119.70999" />
      <trkpt lat="39.02524" lon="-119.70998" />
      <trkpt lat="39.02528" lon="-119.70999" />
      <trkpt lat="39.0253" lon="-119.71002" />
      <trkpt lat="39.02525" lon="-119.71005" />
      <trkpt lat="39.02511" lon="-119.71006" />
      <trkpt lat="39.02489" lon="-119.71004" />
      <trkpt lat="39.02475" lon="-119.71007" />
      <trkpt lat="39.02454" lon="-119.71005" />
      <trkpt lat="39.02393" lon="-119.71008" />
      <trkpt lat="39.02364" lon="-119.71007" />
      <trkpt lat="39.02326" lon="-119.71009" />
      <trkpt lat="39.02276" lon="-119.71007" />
      <trkpt lat="39.02209" lon="-119.7101" />
      <trkpt lat="39.0214" lon="-119.71009" />
      <trkpt lat="39.02127" lon="-119.71011" />
      <trkpt lat="39.02087" lon="-119.71011" />
      <trkpt lat="39.02033" lon="-119.71009" />
      <trkpt lat="39.02008" lon="-119.71011" />
      <trkpt lat="39.01939" lon="-119.71006" />
      <trkpt lat="39.01884" lon="-119.71009" />
      <trkpt lat="39.01793" lon="-119.71011" />
      <trkpt lat="39.01701" lon="-119.71008" />
      <trkpt lat="39.01676" lon="-119.7101" />
      <trkpt lat="39.0165" lon="-119.71008" />
      <trkpt lat="39.01636" lon="-119.71011" />
      <trkpt lat="39.0161" lon="-119.71009" />
      <trkpt lat="39.01598" lon="-119.7101" />
      <trkpt lat="39.01587" lon="-119.71009" />
      <trkpt lat="39.01537" lon="-119.71013" />
      <trkpt lat="39.01444" lon="-119.71013" />
      <trkpt lat="39.01408" lon="-119.7101" />
      <trkpt lat="39.01289" lon="-119.71014" />
      <trkpt lat="39.01266" lon="-119.71013" />
      <trkpt lat="39.01245" lon="-119.71017" />
      <trkpt lat="39.01167" lon="-119.7101" />
      <trkpt lat="39.01109" lon="-119.71009" />
      <trkpt lat="39.01055" lon="-119.71012" />
      <trkpt lat="39.01044" lon="-119.71011" />
      <trkpt lat="39.00996" lon="-119.71012" />
      <trkpt lat="39.00974" lon="-119.7101" />
      <trkpt lat="39.00939" lon="-119.7101" />
      <trkpt lat="39.00886" lon="-119.71012" />
      <trkpt lat="39.00874" lon="-119.71012" />
      <trkpt lat="39.00864" lon="-119.7101" />
      <trkpt lat="39.00829" lon="-119.71008" />
      <trkpt lat="39.00758" lon="-119.71011" />
      <trkpt lat="39.00734" lon="-119.7101" />
      <trkpt lat="39.00722" lon="-119.7101" />
      <trkpt lat="39.00687" lon="-119.71006" />
      <trkpt lat="39.00663" lon="-119.71009" />
      <trkpt lat="39.00591" lon="-119.71007" />
      <trkpt lat="39.00533" lon="-119.7101" />
      <trkpt lat="39.00489" lon="-119.71007" />
      <trkpt lat="39.00433" lon="-119.70996" />
      <trkpt lat="39.00421" lon="-119.7099" />
      <trkpt lat="39.00369" lon="-119.70959" />
      <trkpt lat="39.00358" lon="-119.70949" />
      <trkpt lat="39.00278" lon="-119.70902" />
      <trkpt lat="39.00217" lon="-119.7086" />
      <trkpt lat="39.00208" lon="-119.70856" />
      <trkpt lat="39.00139" lon="-119.70815" />
      <trkpt lat="39.00111" lon="-119.70793" />
      <trkpt lat="39.00104" lon="-119.70789" />
      <trkpt lat="39.00061" lon="-119.70749" />
      <trkpt lat="39.00053" lon="-119.70743" />
      <trkpt lat="38.99981" lon="-119.70655" />
      <trkpt lat="38.99962" lon="-119.70628" />
      <trkpt lat="38.99932" lon="-119.70595" />
      <trkpt lat="38.99905" lon="-119.70579" />
      <trkpt lat="38.99875" lon="-119.70564" />
      <trkpt lat="38.99864" lon="-119.70556" />
      <trkpt lat="38.99844" lon="-119.7055" />
      <trkpt lat="38.99809" lon="-119.70548" />
      <trkpt lat="38.99786" lon="-119.70545" />
      <trkpt lat="38.99753" lon="-119.70544" />
      <trkpt lat="38.99708" lon="-119.70547" />
      <trkpt lat="38.99687" lon="-119.70545" />
      <trkpt lat="38.99652" lon="-119.70545" />
      <trkpt lat="38.99628" lon="-119.70542" />
      <trkpt lat="38.99594" lon="-119.70544" />
      <trkpt lat="38.99537" lon="-119.70542" />
      <trkpt lat="38.99502" lon="-119.70545" />
      <trkpt lat="38.99492" lon="-119.70544" />
      <trkpt lat="38.99468" lon="-119.70544" />
      <trkpt lat="38.99347" lon="-119.70539" />
      <trkpt lat="38.992" lon="-119.70542" />
      <trkpt lat="38.9915" lon="-119.70537" />
      <trkpt lat="38.9914" lon="-119.70538" />
      <trkpt lat="38.99105" lon="-119.70534" />
      <trkpt lat="38.99083" lon="-119.70537" />
      <trkpt lat="38.99052" lon="-119.70537" />
      <trkpt lat="38.98999" lon="-119.70542" />
      <trkpt lat="38.98978" lon="-119.70542" />
      <trkpt lat="38.98967" lon="-119.70543" />
      <trkpt lat="38.98932" lon="-119.70541" />
      <trkpt lat="38.98919" lon="-119.70542" />
      <trkpt lat="38.98873" lon="-119.70542" />
      <trkpt lat="38.9886" lon="-119.70541" />
      <trkpt lat="38.98848" lon="-119.70538" />
      <trkpt lat="38.98799" lon="-119.70538" />
      <trkpt lat="38.98779" lon="-119.7054" />
      <trkpt lat="38.98756" lon="-119.70537" />
      <trkpt lat="38.98744" lon="-119.70537" />
      <trkpt lat="38.9872" lon="-119.70533" />
      <trkpt lat="38.98685" lon="-119.70532" />
      <trkpt lat="38.98662" lon="-119.70534" />
      <trkpt lat="38.9859" lon="-119.70528" />
      <trkpt lat="38.98535" lon="-119.70528" />
      <trkpt lat="38.9844" lon="-119.70522" />
      <trkpt lat="38.984" lon="-119.70525" />
      <trkpt lat="38.98382" lon="-119.70527" />
      <trkpt lat="38.98342" lon="-119.70526" />
      <trkpt lat="38.98258" lon="-119.70529" />
      <trkpt lat="38.98234" lon="-119.70526" />
      <trkpt lat="38.98215" lon="-119.70527" />
      <trkpt lat="38.98205" lon="-119.70525" />
      <trkpt lat="38.98186" lon="-119.70525" />
      <trkpt lat="38.98144" lon="-119.70527" />
      <trkpt lat="38.98113" lon="-119.70524" />
      <trkpt lat="38.98056" lon="-119.70525" />
      <trkpt lat="38.98045" lon="-119.70523" />
      <trkpt lat="38.97926" lon="-119.70521" />
      <trkpt lat="38.97917" lon="-119.70522" />
      <trkpt lat="38.97884" lon="-119.70517" />
      <trkpt lat="38.97853" lon="-119.70509" />
      <trkpt lat="38.97813" lon="-119.70496" />
      <trkpt lat="38.97803" lon="-119.70491" />
      <trkpt lat="38.97736" lon="-119.70445" />
      <trkpt lat="38.97717" lon="-119.7043" />
      <trkpt lat="38.97681" lon="-119.70396" />
      <trkpt lat="38.97652" lon="-119.70372" />
      <trkpt lat="38.97622" lon="-119.70352" />
      <trkpt lat="38.97576" lon="-119.70328" />
      <trkpt lat="38.97554" lon="-119.70322" />
      <trkpt lat="38.97508" lon="-119.70314" />
      <trkpt lat="38.97466" lon="-119.70312" />
      <trkpt lat="38.97443" lon="-119.70314" />
      <trkpt lat="38.97425" lon="-119.70317" />
      <trkpt lat="38.97393" lon="-119.70327" />
      <trkpt lat="38.97364" lon="-119.70334" />
      <trkpt lat="38.97326" lon="-119.70354" />
      <trkpt lat="38.97299" lon="-119.70375" />
      <trkpt lat="38.9729" lon="-119.70385" />
      <trkpt lat="38.97232" lon="-119.70425" />
      <trkpt lat="38.97191" lon="-119.70448" />
      <trkpt lat="38.97181" lon="-119.70456" />
      <trkpt lat="38.97127" lon="-119.70479" />
      <trkpt lat="38.97108" lon="-119.70484" />
      <trkpt lat="38.97054" lon="-119.70503" />
      <trkpt lat="38.97043" lon="-119.70504" />
      <trkpt lat="38.97021" lon="-119.7051" />
      <trkpt lat="38.9701" lon="-119.70512" />
      <trkpt lat="38.96969" lon="-119.7051" />
      <trkpt lat="38.96958" lon="-119.70508" />
      <trkpt lat="38.96924" lon="-119.70511" />
      <trkpt lat="38.96903" lon="-119.70511" />
      <trkpt lat="38.96871" lon="-119.70515" />
      <trkpt lat="38.96812" lon="-119.70517" />
      <trkpt lat="38.96793" lon="-119.70517" />
      <trkpt lat="38.96782" lon="-119.70515" />
      <trkpt lat="38.96748" lon="-119.70517" />
      <trkpt lat="38.96737" lon="-119.70516" />
      <trkpt lat="38.96645" lon="-119.70519" />
      <trkpt lat="38.96598" lon="-119.70519" />
      <trkpt lat="38.96587" lon="-119.70517" />
      <trkpt lat="38.9654" lon="-119.70516" />
      <trkpt lat="38.96469" lon="-119.70519" />
      <trkpt lat="38.964" lon="-119.70514" />
      <trkpt lat="38.9636" lon="-119.70516" />
      <trkpt lat="38.9634" lon="-119.70519" />
      <trkpt lat="38.96317" lon="-119.70516" />
      <trkpt lat="38.96307" lon="-119.70518" />
      <trkpt lat="38.96297" lon="-119.70517" />
      <trkpt lat="38.96279" lon="-119.70519" />
      <trkpt lat="38.96248" lon="-119.70521" />
      <trkpt lat="38.96216" lon="-119.70517" />
      <trkpt lat="38.96205" lon="-119.70519" />
      <trkpt lat="38.96176" lon="-119.70517" />
      <trkpt lat="38.96165" lon="-119.70518" />
      <trkpt lat="38.96133" lon="-119.70517" />
      <trkpt lat="38.96123" lon="-119.70518" />
      <trkpt lat="38.9605" lon="-119.70517" />
      <trkpt lat="38.96012" lon="-119.70514" />
      <trkpt lat="38.95981" lon="-119.70517" />
      <trkpt lat="38.95962" lon="-119.70516" />
      <trkpt lat="38.95932" lon="-119.70519" />
      <trkpt lat="38.95863" lon="-119.70517" />
      <trkpt lat="38.95835" lon="-119.70519" />
      <trkpt lat="38.95824" lon="-119.70517" />
      <trkpt lat="38.95814" lon="-119.70519" />
      <trkpt lat="38.95804" lon="-119.70517" />
      <trkpt lat="38.95795" lon="-119.70519" />
      <trkpt lat="38.95768" lon="-119.70516" />
      <trkpt lat="38.95749" lon="-119.7052" />
      <trkpt lat="38.95729" lon="-119.70518" />
      <trkpt lat="38.95699" lon="-119.7052" />
      <trkpt lat="38.95681" lon="-119.70518" />
      <trkpt lat="38.95662" lon="-119.7052" />
      <trkpt lat="38.95644" lon="-119.70519" />
      <trkpt lat="38.95613" lon="-119.70515" />
      <trkpt lat="38.95571" lon="-119.70515" />
      <trkpt lat="38.9556" lon="-119.70513" />
      <trkpt lat="38.95538" lon="-119.70513" />
      <trkpt lat="38.95518" lon="-119.70508" />
      <trkpt lat="38.95495" lon="-119.705" />
      <trkpt lat="38.95485" lon="-119.70498" />
      <trkpt lat="38.95433" lon="-119.70475" />
      <trkpt lat="38.95422" lon="-119.70472" />
      <trkpt lat="38.95347" lon="-119.70466" />
      <trkpt lat="38.95317" lon="-119.70459" />
      <trkpt lat="38.95289" lon="-119.70443" />
      <trkpt lat="38.95221" lon="-119.70399" />
      <trkpt lat="38.95192" lon="-119.70383" />
      <trkpt lat="38.95176" lon="-119.7037" />
      <trkpt lat="38.95094" lon="-119.70318" />
      <trkpt lat="38.95049" lon="-119.70292" />
      <trkpt lat="38.95041" lon="-119.70285" />
      <trkpt lat="38.95023" lon="-119.70275" />
      <trkpt lat="38.94988" lon="-119.70249" />
      <trkpt lat="38.9497" lon="-119.70239" />
      <trkpt lat="38.94945" lon="-119.70221" />
      <trkpt lat="38.94927" lon="-119.70211" />
      <trkpt lat="38.9492" lon="-119.70205" />
      <trkpt lat="38.94888" lon="-119.70186" />
      <trkpt lat="38.9488" lon="-119.70178" />
      <trkpt lat="38.94854" lon="-119.70163" />
      <trkpt lat="38.94838" lon="-119.7015" />
      <trkpt lat="38.94821" lon="-119.70142" />
      <trkpt lat="38.94793" lon="-119.70123" />
      <trkpt lat="38.94784" lon="-119.70116" />
      <trkpt lat="38.94769" lon="-119.70106" />
      <trkpt lat="38.94741" lon="-119.70086" />
      <trkpt lat="38.94692" lon="-119.70061" />
      <trkpt lat="38.9467" lon="-119.70053" />
      <trkpt lat="38.94623" lon="-119.70047" />
      <trkpt lat="38.94582" lon="-119.70051" />
      <trkpt lat="38.94549" lon="-119.70051" />
      <trkpt lat="38.94538" lon="-119.70049" />
      <trkpt lat="38.94484" lon="-119.70051" />
      <trkpt lat="38.94463" lon="-119.70049" />
      <trkpt lat="38.94397" lon="-119.7005" />
      <trkpt lat="38.94385" lon="-119.70052" />
      <trkpt lat="38.94312" lon="-119.70051" />
      <trkpt lat="38.94276" lon="-119.70048" />
      <trkpt lat="38.94234" lon="-119.70052" />
      <trkpt lat="38.9414" lon="-119.70048" />
      <trkpt lat="38.94087" lon="-119.70051" />
      <trkpt lat="38.94055" lon="-119.70049" />
      <trkpt lat="38.94035" lon="-119.70051" />
      <trkpt lat="38.94001" lon="-119.70052" />
      <trkpt lat="38.93969" lon="-119.70051" />
      <trkpt lat="38.93938" lon="-119.70053" />
      <trkpt lat="38.93896" lon="-119.70049" />
    </trkseg>
  </trk>
</gpx>