<?xml version="1.0" encoding="UTF-8"?>
<gpx version="1.1" creator="strava-segment-scraper" xmlns="http://www.topografix.com/GPX/1/1">
  <trk>
    <name>Pyramid Tri Run</name>
    <trkseg>
      <trkpt lat="39.95428" lon="-119.60086" />
      <trkpt lat="39.95396" lon="-119.60054" />
      <trkpt lat="39.95389" lon="-119.60051" />
      <trkpt lat="39.95383" lon="-119.60052" />
      <trkpt lat="39.95375" lon="-119.60057" />
      <trkpt lat="39.95349" lon="-119.60079" />
      <trkpt lat="39.95329" lon="-119.60103" />
      <trkpt lat="39.95297" lon="-119.60145" />
      <trkpt lat="39.95291" lon="-119.60149" />
      <trkpt lat="39.95285" lon="-119.60148" />
      <trkpt lat="39.95261" lon="-119.60127" />
      <trkpt lat="39.95256" lon="-119.60121" />
      <trkpt lat="39.9522" lon="-119.60057" />
      <trkpt lat="39.95206" lon="-119.60037" />
      <trkpt lat="39.95187" lon="-119.60016" />
      <trkpt lat="39.95166" lon="-119.59999" />
      <trkpt lat="39.95145" lon="-119.59985" />
      <trkpt lat="39.95115" lon="-119.59968" />
      <trkpt lat="39.95052" lon="-119.59945" />
      <trkpt lat="39.95021" lon="-119.59936" />
      <trkpt lat="39.94989" lon="-119.59934" />
      <trkpt lat="39.94882" lon="-119.59935" />
      <trkpt lat="39.94853" lon="-119.59934" />
      <trkpt lat="39.94747" lon="-119.59934" />
      <trkpt lat="39.94639" lon="-119.59935" />
      <trkpt lat="39.94584" lon="-119.59934" />
      <trkpt lat="39.9456" lon="-119.59936" />
      <trkpt lat="39.94547" lon="-119.5994" />
      <trkpt lat="39.94514" lon="-119.59954" />
      <trkpt lat="39.94493" lon="-119.5997" />
      <trkpt lat="39.94475" lon="-119.59988" />
      <trkpt lat="39.94449" lon="-119.60027" />
      <trkpt lat="39.9443" lon="-119.60068" />
      <trkpt lat="39.9442" lon="-119.60079" />
      <trkpt lat="39.94413" lon="-119.60082" />
      <trkpt lat="39.9438" lon="-119.60077" />
      <trkpt lat="39.94353" lon="-119.60077" />
      <trkpt lat="39.94332" lon="-119.60074" />
      <trkpt lat="39.94228" lon="-119.60068" />
      <trkpt lat="39.9418" lon="-119.60062" />
      <trkpt lat="39.94133" lon="-119.60051" />
      <trkpt lat="39.94087" lon="-119.60034" />
      <trkpt lat="39.94036" lon="-119.60007" />
      <trkpt lat="39.93973" lon="-119.59961" />
      <trkpt lat="39.93953" lon="-119.59944" />
      <trkpt lat="39.9383" lon="-119.59833" />
      <trkpt lat="39.93793" lon="-119.59802" />
      <trkpt lat="39.93777" lon="-119.59791" />
      <trkpt lat="39.93695" lon="-119.59717" />
      <trkpt lat="39.93644" lon="-119.59675" />
      <trkpt lat="39.93528" lon="-119.5957" />
      <trkpt lat="39.93668" lon="-119.59697" />
      <trkpt lat="39.93724" lon="-119.59744" />
      <trkpt lat="39.93774" lon="-119.5979" />
      <trkpt lat="39.93798" lon="-119.5981" />
      <trkpt lat="39.93816" lon="-119.59827" />
      <trkpt lat="39.93875" lon="-119.59881" />
      <trkpt lat="39.93968" lon="-119.59962" />
      <trkpt lat="39.94005" lon="-119.59987" />
      <trkpt lat="39.94023" lon="-119.60001" />
      <trkpt lat="39.94052" lon="-119.60019" />
      <trkpt lat="39.94102" lon="-119.60041" />
      <trkpt lat="39.94143" lon="-119.60055" />
      <trkpt lat="39.9418" lon="-119.60063" />
      <trkpt lat="39.94229" lon="-119.60071" />
      <trkpt lat="39.94324" lon="-119.60077" />
      <trkpt lat="39.9437" lon="-119.60078" />
      <trkpt lat="39.9439" lon="-119.6008" />
      <trkpt lat="39.944" lon="-119.6008" />
      <trkpt lat="39.94416" lon="-119.60083" />
      <trkpt lat="39.94427" lon="-119.60077" />
      <trkpt lat="39.94438" lon="-119.60064" />
      <trkpt lat="39.94457" lon="-119.60023" />
      <trkpt lat="39.94468" lon="-119.60005" />
      <trkpt lat="39.94478" lon="-119.59992" />
      <trkpt lat="39.94514" lon="-119.59958" />
      <trkpt lat="39.94536" lon="-119.59945" />
      <trkpt lat="39.9455" lon="-119.59941" />
      <trkpt lat="39.94567" lon="-119.59938" />
      <trkpt lat="39.94617" lon="-119.59937" />
      <trkpt lat="39.94749" lon="-119.59938" />
      <trkpt lat="39.94793" lon="-119.59936" />
      <trkpt lat="39.94823" lon="-119.59938" />
      <trkpt lat="39.94882" lon="-119.59937" />
      <trkpt lat="39.94925" lon="-119.59938" />
      <trkpt lat="39.94977" lon="-119.59936" />
      <trkpt lat="39.95017" lon="-119.5994" />
      <trkpt lat="39.95047" lon="-119.59947" />
      <trkpt lat="39.95093" lon="-119.59966" />
      <trkpt lat="39.95145" lon="-119.59994" />
      <trkpt lat="39.95182" lon="-119.60022" />
      <trkpt lat="39.95201" lon="-119.60043" />
      <trkpt lat="39.95218" lon="-119.60066" />
      <trkpt lat="39.95252" lon="-119.60122" />
      <trkpt lat="39.95268" lon="-119.60139" />
      <trkpt lat="39.95287" lon="-119.60154" />
      <trkpt lat="39.95295" lon="-119.60153" />
      <trkpt lat="39.95308" lon="-119.6014" />
      <trkpt lat="39.95339" lon="-119.601" />
      <trkpt lat="39.95368" lon="-119.60067" />
      <trkpt lat="39.95381" lon="-119.60057" />
      <trkpt lat="39.95385" lon="-119.60055" />
      <trkpt lat="39.95392" lon="-119.60055" />
      <trkpt lat="39.95399" lon="-119.60059" />
      <trkpt lat="39.95415" lon="-119.60078" />
      <trkpt lat="39.95425" lon="-119.60086" />
      <trkpt lat="39.95432" lon="-119.60087" />
      <trkpt lat="39.95451" lon="-119.6008" />
    </trkseg>
  </trk>
</gpx>