<?xml version="1.0" encoding="UTF-8"?>
<gpx version="1.1" creator="strava-segment-scraper" xmlns="http://www.topografix.com/GPX/1/1">
  <trk>
    <name>Bagby Bridge to Top</name>
    <trkseg>
      <trkpt lat="37.61199" lon="-120.13797" />
      <trkpt lat="37.61259" lon="-120.13845" />
      <trkpt lat="37.6128" lon="-120.13863" />
      <trkpt lat="37.61316" lon="-120.13909" />
      <trkpt lat="37.61347" lon="-120.13959" />
      <trkpt lat="37.61361" lon="-120.13976" />
      <trkpt lat="37.61381" lon="-120.13999" />
      <trkpt lat="37.61406" lon="-120.14017" />
      <trkpt lat="37.61456" lon="-120.14044" />
      <trkpt lat="37.61502" lon="-120.14064" />
      <trkpt lat="37.61525" lon="-120.14072" />
      <trkpt lat="37.61574" lon="-120.14094" />
      <trkpt lat="37.61646" lon="-120.14121" />
      <trkpt lat="37.61681" lon="-120.14128" />
      <trkpt lat="37.61722" lon="-120.1413" />
      <trkpt lat="37.61732" lon="-120.14129" />
      <trkpt lat="37.61754" lon="-120.14131" />
      <trkpt lat="37.61792" lon="-120.14129" />
      <trkpt lat="37.6182" lon="-120.14126" />
      <trkpt lat="37.61851" lon="-120.14118" />
      <trkpt lat="37.61882" lon="-120.14115" />
      <trkpt lat="37.61913" lon="-120.1412" />
      <trkpt lat="37.61926" lon="-120.14124" />
      <trkpt lat="37.61951" lon="-120.14137" />
      <trkpt lat="37.61971" lon="-120.14151" />
      <trkpt lat="37.61992" lon="-120.14172" />
      <trkpt lat="37.62013" lon="-120.14202" />
      <trkpt lat="37.62048" lon="-120.14266" />
      <trkpt lat="37.62058" lon="-120.14286" />
      <trkpt lat="37.62095" lon="-120.1435" />
      <trkpt lat="37.62113" lon="-120.14379" />
      <trkpt lat="37.62131" lon="-120.144" />
      <trkpt lat="37.62149" lon="-120.14412" />
      <trkpt lat="37.62181" lon="-120.14429" />
      <trkpt lat="37.62219" lon="-120.14465" />
      <trkpt lat="37.62244" lon="-120.14485" />
      <trkpt lat="37.62257" lon="-120.14493" />
      <trkpt lat="37.62289" lon="-120.14506" />
      <trkpt lat="37.6232" lon="-120.14526" />
      <trkpt lat="37.62343" lon="-120.14547" />
      <trkpt lat="37.62355" lon="-120.14563" />
      <trkpt lat="37.62381" lon="-120.14616" />
      <trkpt lat="37.62388" lon="-120.14624" />
      <trkpt lat="37.62401" lon="-120.14633" />
      <trkpt lat="37.62413" lon="-120.14639" />
      <trkpt lat="37.62436" lon="-120.14644" />
      <trkpt lat="37.62473" lon="-120.14644" />
      <trkpt lat="37.62481" lon="-120.14646" />
      <trkpt lat="37.62491" lon="-120.14653" />
      <trkpt lat="37.62501" lon="-120.14664" />
      <trkpt lat="37.6251" lon="-120.14684" />
      <trkpt lat="37.62527" lon="-120.14711" />
      <trkpt lat="37.6254" lon="-120.14721" />
      <trkpt lat="37.62561" lon="-120.1473" />
      <trkpt lat="37.62573" lon="-120.14742" />
      <trkpt lat="37.62584" lon="-120.14761" />
      <trkpt lat="37.62594" lon="-120.14785" />
      <trkpt lat="37.62607" lon="-120.148" />
      <trkpt lat="37.62617" lon="-120.14806" />
      <trkpt lat="37.62635" lon="-120.14814" />
      <trkpt lat="37.62653" lon="-120.14825" />
      <trkpt lat="37.62659" lon="-120.1483" />
      <trkpt lat="37.6268" lon="-120.14854" />
      <trkpt lat="37.62694" lon="-120.14864" />
      <trkpt lat="37.62779" lon="-120.14892" />
      <trkpt lat="37.6281" lon="-120.14907" />
      <trkpt lat="37.62823" lon="-120.14917" />
      <trkpt lat="37.62833" lon="-120.14938" />
      <trkpt lat="37.62843" lon="-120.14972" />
      <trkpt lat="37.62852" lon="-120.15011" />
      <trkpt lat="37.62854" lon="-120.15028" />
      <trkpt lat="37.62854" lon="-120.15039" />
      <trkpt lat="37.62851" lon="-120.1505" />
      <trkpt lat="37.62838" lon="-120.15074" />
      <trkpt lat="37.62836" lon="-120.1508" />
      <trkpt lat="37.62834" lon="-120.151" />
      <trkpt lat="37.62835" lon="-120.15109" />
      <trkpt lat="37.6284" lon="-120.1512" />
      <trkpt lat="37.62863" lon="-120.15143" />
      <trkpt lat="37.62874" lon="-120.15159" />
      <trkpt lat="37.62883" lon="-120.15168" />
      <trkpt lat="37.62892" lon="-120.15174" />
      <trkpt lat="37.62905" lon="-120.15178" />
      <trkpt lat="37.62925" lon="-120.15176" />
      <trkpt lat="37.62933" lon="-120.15174" />
      <trkpt lat="37.62953" lon="-120.15175" />
      <trkpt lat="37.62957" lon="-120.15176" />
      <trkpt lat="37.62977" lon="-120.15187" />
      <trkpt lat="37.62992" lon="-120.15199" />
      <trkpt lat="37.63014" lon="-120.15212" />
      <trkpt lat="37.63085" lon="-120.1525" />
      <trkpt lat="37.63112" lon="-120.15272" />
      <trkpt lat="37.6312" lon="-120.15281" />
      <trkpt lat="37.63149" lon="-120.15326" />
      <trkpt lat="37.6319" lon="-120.15362" />
      <trkpt lat="37.63228" lon="-120.154" />
      <trkpt lat="37.63252" lon="-120.15417" />
      <trkpt lat="37.63268" lon="-120.15422" />
      <trkpt lat="37.63277" lon="-120.15423" />
      <trkpt lat="37.63292" lon="-120.1542" />
      <trkpt lat="37.63307" lon="-120.15413" />
      <trkpt lat="37.6332" lon="-120.15401" />
      <trkpt lat="37.63327" lon="-120.15383" />
      <trkpt lat="37.63333" lon="-120.15364" />
      <trkpt lat="37.63334" lon="-120.15328" />
      <trkpt lat="37.63337" lon="-120.15312" />
      <trkpt lat="37.63347" lon="-120.15292" />
      <trkpt lat="37.63361" lon="-120.15273" />
      <trkpt lat="37.63377" lon="-120.15263" />
      <trkpt lat="37.63388" lon="-120.15258" />
      <trkpt lat="37.63408" lon="-120.15243" />
      <trkpt lat="37.63417" lon="-120.15239" />
      <trkpt lat="37.63453" lon="-120.15216" />
      <trkpt lat="37.63477" lon="-120.15208" />
      <trkpt lat="37.63503" lon="-120.15203" />
      <trkpt lat="37.63536" lon="-120.15207" />
      <trkpt lat="37.63555" lon="-120.15207" />
      <trkpt lat="37.63574" lon="-120.15203" />
      <trkpt lat="37.63599" lon="-120.15201" />
      <trkpt lat="37.63628" lon="-120.15195" />
      <trkpt lat="37.63658" lon="-120.15179" />
      <trkpt lat="37.63685" lon="-120.15156" />
      <trkpt lat="37.63704" lon="-120.15148" />
      <trkpt lat="37.63711" lon="-120.15147" />
      <trkpt lat="37.63744" lon="-120.15152" />
      <trkpt lat="37.63788" lon="-120.15171" />
      <trkpt lat="37.63812" lon="-120.15186" />
      <trkpt lat="37.63846" lon="-120.15222" />
      <trkpt lat="37.6386" lon="-120.15232" />
      <trkpt lat="37.63889" lon="-120.15246" />
      <trkpt lat="37.63907" lon="-120.15251" />
      <trkpt lat="37.63934" lon="-120.15255" />
      <trkpt lat="37.63943" lon="-120.15253" />
      <trkpt lat="37.6396" lon="-120.15245" />
      <trkpt lat="37.6397" lon="-120.15234" />
      <trkpt lat="37.63976" lon="-120.15222" />
      <trkpt lat="37.6398" lon="-120.15213" />
      <trkpt lat="37.63984" lon="-120.1519" />
      <trkpt lat="37.63988" lon="-120.15154" />
      <trkpt lat="37.63988" lon="-120.15133" />
      <trkpt lat="37.63994" lon="-120.151" />
      <trkpt lat="37.63997" lon="-120.15056" />
      <trkpt lat="37.64003" lon="-120.15006" />
      <trkpt lat="37.64003" lon="-120.14994" />
      <trkpt lat="37.64008" lon="-120.14957" />
      <trkpt lat="37.64011" lon="-120.14944" />
      <trkpt lat="37.64021" lon="-120.14935" />
      <trkpt lat="37.64026" lon="-120.14932" />
      <trkpt lat="37.64033" lon="-120.14932" />
      <trkpt lat="37.64052" lon="-120.14936" />
      <trkpt lat="37.64069" lon="-120.14943" />
      <trkpt lat="37.64097" lon="-120.14947" />
      <trkpt lat="37.64108" lon="-120.14947" />
      <trkpt lat="37.64128" lon="-120.14942" />
      <trkpt lat="37.64154" lon="-120.14923" />
      <trkpt lat="37.64165" lon="-120.14911" />
      <trkpt lat="37.64171" lon="-120.149" />
      <trkpt lat="37.64173" lon="-120.14837" />
      <trkpt lat="37.64177" lon="-120.14821" />
      <trkpt lat="37.64183" lon="-120.14806" />
      <trkpt lat="37.64188" lon="-120.148" />
      <trkpt lat="37.64192" lon="-120.14794" />
      <trkpt lat="37.64204" lon="-120.14786" />
      <trkpt lat="37.64211" lon="-120.1478" />
      <trkpt lat="37.64225" lon="-120.1476" />
      <trkpt lat="37.64236" lon="-120.14739" />
      <trkpt lat="37.64251" lon="-120.14723" />
      <trkpt lat="37.64262" lon="-120.14715" />
      <trkpt lat="37.64284" lon="-120.14706" />
      <trkpt lat="37.64291" lon="-120.14701" />
      <trkpt lat="37.64305" lon="-120.14689" />
      <trkpt lat="37.64336" lon="-120.14654" />
      <trkpt lat="37.64357" lon="-120.14639" />
      <trkpt lat="37.64365" lon="-120.14636" />
      <trkpt lat="37.64381" lon="-120.14634" />
      <trkpt lat="37.64395" lon="-120.14638" />
      <trkpt lat="37.6443" lon="-120.14658" />
      <trkpt lat="37.645" lon="-120.14683" />
      <trkpt lat="37.64515" lon="-120.14691" />
      <trkpt lat="37.6453" lon="-120.14704" />
      <trkpt lat="37.64549" lon="-120.14732" />
      <trkpt lat="37.64568" lon="-120.14762" />
      <trkpt lat="37.64582" lon="-120.14776" />
      <trkpt lat="37.64588" lon="-120.14779" />
      <trkpt lat="37.6461" lon="-120.14774" />
      <trkpt lat="37.64625" lon="-120.14767" />
      <trkpt lat="37.64644" lon="-120.14761" />
      <trkpt lat="37.64651" lon="-120.14757" />
      <trkpt lat="37.64659" lon="-120.14754" />
      <trkpt lat="37.64664" lon="-120.1475" />
      <trkpt lat="37.64676" lon="-120.14744" />
      <trkpt lat="37.64691" lon="-120.14744" />
      <trkpt lat="37.64716" lon="-120.14748" />
      <trkpt lat="37.6473" lon="-120.14744" />
      <trkpt lat="37.64739" lon="-120.14738" />
      <trkpt lat="37.64753" lon="-120.1472" />
      <trkpt lat="37.64775" lon="-120.147" />
      <trkpt lat="37.64779" lon="-120.14697" />
      <trkpt lat="37.64794" lon="-120.14691" />
      <trkpt lat="37.64805" lon="-120.14689" />
      <trkpt lat="37.64854" lon="-120.14696" />
      <trkpt lat="37.64871" lon="-120.14693" />
      <trkpt lat="37.6492" lon="-120.14663" />
      <trkpt lat="37.64966" lon="-120.14645" />
      <trkpt lat="37.64978" lon="-120.14638" />
      <trkpt lat="37.65014" lon="-120.14592" />
      <trkpt lat="37.6503" lon="-120.14577" />
      <trkpt lat="37.65036" lon="-120.14573" />
      <trkpt lat="37.65055" lon="-120.14565" />
      <trkpt lat="37.65063" lon="-120.14566" />
      <trkpt lat="37.6507" lon="-120.14569" />
      <trkpt lat="37.65093" lon="-120.1459" />
      <trkpt lat="37.65103" lon="-120.146" />
      <trkpt lat="37.65115" lon="-120.14616" />
      <trkpt lat="37.65124" lon="-120.14633" />
      <trkpt lat="37.65132" lon="-120.14658" />
      <trkpt lat="37.65139" lon="-120.14684" />
      <trkpt lat="37.65145" lon="-120.14696" />
      <trkpt lat="37.65188" lon="-120.14766" />
      <trkpt lat="37.65236" lon="-120.14858" />
      <trkpt lat="37.65249" lon="-120.14891" />
      <trkpt lat="37.65297" lon="-120.14995" />
      <trkpt lat="37.65308" lon="-120.15012" />
      <trkpt lat="37.65334" lon="-120.15041" />
      <trkpt lat="37.65348" lon="-120.15049" />
      <trkpt lat="37.65358" lon="-120.1505" />
      <trkpt lat="37.65368" lon="-120.15045" />
      <trkpt lat="37.65398" lon="-120.15009" />
      <trkpt lat="37.65467" lon="-120.14949" />
      <trkpt lat="37.65478" lon="-120.14945" />
      <trkpt lat="37.65551" lon="-120.1495" />
      <trkpt lat="37.65577" lon="-120.14949" />
      <trkpt lat="37.65591" lon="-120.14946" />
      <trkpt lat="37.65616" lon="-120.14937" />
      <trkpt lat="37.65627" lon="-120.14929" />
      <trkpt lat="37.65647" lon="-120.1491" />
      <trkpt lat="37.65664" lon="-120.14889" />
      <trkpt lat="37.65678" lon="-120.14867" />
      <trkpt lat="37.65682" lon="-120.14855" />
      <trkpt lat="37.65697" lon="-120.14811" />
      <trkpt lat="37.65703" lon="-120.14789" />
      <trkpt lat="37.65704" lon="-120.14778" />
      <trkpt lat="37.65703" lon="-120.14755" />
      <trkpt lat="37.65693" lon="-120.14723" />
      <trkpt lat="37.65689" lon="-120.14702" />
      <trkpt lat="37.65682" lon="-120.14653" />
      <trkpt lat="37.65684" lon="-120.14644" />
      <trkpt lat="37.65689" lon="-120.14636" />
      <trkpt lat="37.65694" lon="-120.14629" />
      <trkpt lat="37.65702" lon="-120.14624" />
      <trkpt lat="37.65709" lon="-120.14621" />
      <trkpt lat="37.65717" lon="-120.14621" />
      <trkpt lat="37.65725" lon="-120.14623" />
      <trkpt lat="37.65741" lon="-120.14632" />
      <trkpt lat="37.65769" lon="-120.14653" />
      <trkpt lat="37.65776" lon="-120.14656" />
      <trkpt lat="37.65795" lon="-120.14659" />
      <trkpt lat="37.65849" lon="-120.1466" />
      <trkpt lat="37.6587" lon="-120.14657" />
      <trkpt lat="37.65883" lon="-120.14651" />
      <trkpt lat="37.65896" lon="-120.1464" />
      <trkpt lat="37.65925" lon="-120.1461" />
      <trkpt lat="37.65935" lon="-120.14603" />
      <trkpt lat="37.65948" lon="-120.14598" />
      <trkpt lat="37.65981" lon="-120.14594" />
      <trkpt lat="37.66078" lon="-120.14592" />
      <trkpt lat="37.66087" lon="-120.14592" />
      <trkpt lat="37.66106" lon="-120.14596" />
      <trkpt lat="37.66115" lon="-120.146" />
      <trkpt lat="37.66133" lon="-120.14612" />
      <trkpt lat="37.66147" lon="-120.14627" />
      <trkpt lat="37.66154" lon="-120.14636" />
      <trkpt lat="37.66161" lon="-120.14657" />
      <trkpt lat="37.66169" lon="-120.14709" />
      <trkpt lat="37.66176" lon="-120.14724" />
      <trkpt lat="37.66186" lon="-120.14736" />
      <trkpt lat="37.66191" lon="-120.14741" />
      <trkpt lat="37.66203" lon="-120.14748" />
      <trkpt lat="37.66224" lon="-120.14758" />
      <trkpt lat="37.66248" lon="-120.14765" />
      <trkpt lat="37.66283" lon="-120.14779" />
      <trkpt lat="37.66301" lon="-120.14789" />
      <trkpt lat="37.66317" lon="-120.14804" />
      <trkpt lat="37.66324" lon="-120.14813" />
      <trkpt lat="37.66332" lon="-120.14834" />
      <trkpt lat="37.66334" lon="-120.14845" />
      <trkpt lat="37.66333" lon="-120.14866" />
      <trkpt lat="37.66325" lon="-120.14914" />
      <trkpt lat="37.66316" lon="-120.1496" />
      <trkpt lat="37.66314" lon="-120.15013" />
      <trkpt lat="37.66316" lon="-120.1503" />
      <trkpt lat="37.6634" lon="-120.15085" />
      <trkpt lat="37.66343" lon="-120.15107" />
      <trkpt lat="37.66342" lon="-120.1518" />
      <trkpt lat="37.66338" lon="-120.15262" />
      <trkpt lat="37.6633" lon="-120.15328" />
      <trkpt lat="37.66331" lon="-120.15358" />
      <trkpt lat="37.66334" lon="-120.15379" />
      <trkpt lat="37.6634" lon="-120.15397" />
      <trkpt lat="37.6635" lon="-120.15413" />
      <trkpt lat="37.66368" lon="-120.15435" />
      <trkpt lat="37.66386" lon="-120.15462" />
      <trkpt lat="37.66397" lon="-120.15492" />
      <trkpt lat="37.664" lon="-120.15516" />
      <trkpt lat="37.66398" lon="-120.1563" />
      <trkpt lat="37.66402" lon="-120.15661" />
      <trkpt lat="37.66408" lon="-120.15685" />
      <trkpt lat="37.66424" lon="-120.15723" />
      <trkpt lat="37.66439" lon="-120.15749" />
      <trkpt lat="37.66445" lon="-120.15757" />
      <trkpt lat="37.66463" lon="-120.15773" />
      <trkpt lat="37.66475" lon="-120.15781" />
      <trkpt lat="37.66506" lon="-120.15795" />
      <trkpt lat="37.66525" lon="-120.15802" />
      <trkpt lat="37.66565" lon="-120.15821" />
      <trkpt lat="37.66604" lon="-120.15834" />
      <trkpt lat="37.6665" lon="-120.15843" />
      <trkpt lat="37.66704" lon="-120.15863" />
      <trkpt lat="37.66719" lon="-120.15872" />
      <trkpt lat="37.66759" lon="-120.15909" />
      <trkpt lat="37.66774" lon="-120.15918" />
      <trkpt lat="37.66789" lon="-120.15924" />
    </trkseg>
  </trk>
</gpx>