<?xml version="1.0" encoding="UTF-8"?>
<gpx version="1.1" creator="strava-segment-scraper" xmlns="http://www.topografix.com/GPX/1/1">
  <trk>
    <name>Leesville Road</name>
    <trkseg>
      <trkpt lat="39.15398" lon="-122.38786" />
      <trkpt lat="39.15519" lon="-122.38897" />
      <trkpt lat="39.15657" lon="-122.39015" />
      <trkpt lat="39.15691" lon="-122.39046" />
      <trkpt lat="39.15732" lon="-122.39079" />
      <trkpt lat="39.15775" lon="-122.39109" />
      <trkpt lat="39.15801" lon="-122.39118" />
      <trkpt lat="39.15864" lon="-122.39131" />
      <trkpt lat="39.1589" lon="-122.39134" />
      <trkpt lat="39.16067" lon="-122.39137" />
      <trkpt lat="39.16087" lon="-122.39139" />
      <trkpt lat="39.16106" lon="-122.39145" />
      <trkpt lat="39.16123" lon="-122.39159" />
      <trkpt lat="39.16136" lon="-122.39183" />
      <trkpt lat="39.16167" lon="-122.39302" />
      <trkpt lat="39.16179" lon="-122.39323" />
      <trkpt lat="39.16199" lon="-122.39313" />
      <trkpt lat="39.16227" lon="-122.39254" />
      <trkpt lat="39.16237" lon="-122.39238" />
      <trkpt lat="39.16249" lon="-122.3923" />
      <trkpt lat="39.16262" lon="-122.3923" />
      <trkpt lat="39.16275" lon="-122.39233" />
      <trkpt lat="39.16324" lon="-122.39246" />
      <trkpt lat="39.16341" lon="-122.39253" />
      <trkpt lat="39.164" lon="-122.39288" />
      <trkpt lat="39.16425" lon="-122.39308" />
      <trkpt lat="39.16434" lon="-122.39323" />
      <trkpt lat="39.1643" lon="-122.3934" />
      <trkpt lat="39.16405" lon="-122.39364" />
      <trkpt lat="39.16398" lon="-122.39384" />
      <trkpt lat="39.16402" lon="-122.39401" />
      <trkpt lat="39.16414" lon="-122.39418" />
      <trkpt lat="39.1644" lon="-122.39445" />
      <trkpt lat="39.16447" lon="-122.39456" />
      <trkpt lat="39.16441" lon="-122.39466" />
      <trkpt lat="39.16428" lon="-122.39463" />
      <trkpt lat="39.16394" lon="-122.39439" />
      <trkpt lat="39.16377" lon="-122.39429" />
      <trkpt lat="39.16364" lon="-122.39424" />
      <trkpt lat="39.16351" lon="-122.39422" />
      <trkpt lat="39.16337" lon="-122.39423" />
      <trkpt lat="39.16324" lon="-122.39427" />
      <trkpt lat="39.16311" lon="-122.39434" />
      <trkpt lat="39.16282" lon="-122.39457" />
      <trkpt lat="39.16271" lon="-122.39468" />
      <trkpt lat="39.16263" lon="-122.39482" />
      <trkpt lat="39.16262" lon="-122.39499" />
      <trkpt lat="39.16266" lon="-122.39521" />
      <trkpt lat="39.16277" lon="-122.39557" />
      <trkpt lat="39.16293" lon="-122.39591" />
      <trkpt lat="39.16305" lon="-122.39626" />
      <trkpt lat="39.16316" lon="-122.39641" />
      <trkpt lat="39.16329" lon="-122.39653" />
      <trkpt lat="39.16344" lon="-122.3966" />
      <trkpt lat="39.16374" lon="-122.39666" />
      <trkpt lat="39.16388" lon="-122.3968" />
      <trkpt lat="39.16405" lon="-122.39709" />
      <trkpt lat="39.16414" lon="-122.39722" />
      <trkpt lat="39.16427" lon="-122.39732" />
      <trkpt lat="39.16438" lon="-122.39736" />
      <trkpt lat="39.16449" lon="-122.39735" />
      <trkpt lat="39.1646" lon="-122.39729" />
      <trkpt lat="39.16469" lon="-122.39719" />
      <trkpt lat="39.16484" lon="-122.39711" />
      <trkpt lat="39.165" lon="-122.39719" />
      <trkpt lat="39.16509" lon="-122.39727" />
      <trkpt lat="39.16541" lon="-122.39773" />
      <trkpt lat="39.16552" lon="-122.39784" />
      <trkpt lat="39.16578" lon="-122.39804" />
      <trkpt lat="39.16585" lon="-122.39815" />
      <trkpt lat="39.16589" lon="-122.39836" />
      <trkpt lat="39.16583" lon="-122.39854" />
      <trkpt lat="39.16574" lon="-122.39869" />
      <trkpt lat="39.16562" lon="-122.39885" />
      <trkpt lat="39.16554" lon="-122.39916" />
      <trkpt lat="39.16556" lon="-122.39949" />
      <trkpt lat="39.16548" lon="-122.39967" />
      <trkpt lat="39.1654" lon="-122.39995" />
      <trkpt lat="39.1654" lon="-122.40022" />
      <trkpt lat="39.16557" lon="-122.40084" />
      <trkpt lat="39.16565" lon="-122.40095" />
      <trkpt lat="39.16576" lon="-122.40107" />
      <trkpt lat="39.16583" lon="-122.40124" />
      <trkpt lat="39.16577" lon="-122.40166" />
      <trkpt lat="39.16586" lon="-122.40207" />
      <trkpt lat="39.16602" lon="-122.40264" />
      <trkpt lat="39.16608" lon="-122.40282" />
      <trkpt lat="39.16616" lon="-122.40293" />
      <trkpt lat="39.16627" lon="-122.403" />
      <trkpt lat="39.16639" lon="-122.40298" />
      <trkpt lat="39.16656" lon="-122.40298" />
      <trkpt lat="39.16664" lon="-122.40305" />
      <trkpt lat="39.16666" lon="-122.40322" />
      <trkpt lat="39.16661" lon="-122.40354" />
      <trkpt lat="39.1666" lon="-122.40376" />
      <trkpt lat="39.16663" lon="-122.40395" />
      <trkpt lat="39.16674" lon="-122.40435" />
      <trkpt lat="39.16688" lon="-122.40473" />
      <trkpt lat="39.16697" lon="-122.40488" />
      <trkpt lat="39.16709" lon="-122.405" />
      <trkpt lat="39.16721" lon="-122.40504" />
      <trkpt lat="39.16737" lon="-122.40502" />
      <trkpt lat="39.16751" lon="-122.40511" />
      <trkpt lat="39.16777" lon="-122.40551" />
      <trkpt lat="39.16803" lon="-122.40579" />
      <trkpt lat="39.16816" lon="-122.40586" />
      <trkpt lat="39.1683" lon="-122.40591" />
      <trkpt lat="39.16841" lon="-122.40592" />
      <trkpt lat="39.16855" lon="-122.40598" />
      <trkpt lat="39.1687" lon="-122.40616" />
      <trkpt lat="39.16883" lon="-122.40638" />
      <trkpt lat="39.16897" lon="-122.40652" />
      <trkpt lat="39.16904" lon="-122.40649" />
      <trkpt lat="39.16906" lon="-122.40633" />
      <trkpt lat="39.16886" lon="-122.40612" />
      <trkpt lat="39.16878" lon="-122.40599" />
      <trkpt lat="39.1687" lon="-122.40579" />
      <trkpt lat="39.16855" lon="-122.40561" />
      <trkpt lat="39.16836" lon="-122.40555" />
      <trkpt lat="39.1682" lon="-122.40544" />
      <trkpt lat="39.16807" lon="-122.40528" />
      <trkpt lat="39.16798" lon="-122.40509" />
      <trkpt lat="39.16793" lon="-122.40488" />
      <trkpt lat="39.16791" lon="-122.40453" />
      <trkpt lat="39.16789" lon="-122.40436" />
      <trkpt lat="39.16779" lon="-122.40422" />
      <trkpt lat="39.16766" lon="-122.40417" />
      <trkpt lat="39.16749" lon="-122.40417" />
      <trkpt lat="39.16743" lon="-122.40414" />
      <trkpt lat="39.16732" lon="-122.40398" />
      <trkpt lat="39.1673" lon="-122.40371" />
      <trkpt lat="39.16735" lon="-122.40339" />
      <trkpt lat="39.16758" lon="-122.40285" />
      <trkpt lat="39.16772" lon="-122.40256" />
      <trkpt lat="39.16773" lon="-122.40239" />
      <trkpt lat="39.16766" lon="-122.40223" />
      <trkpt lat="39.16749" lon="-122.40211" />
      <trkpt lat="39.16707" lon="-122.40193" />
      <trkpt lat="39.16695" lon="-122.40186" />
      <trkpt lat="39.16688" lon="-122.40172" />
      <trkpt lat="39.16688" lon="-122.40154" />
      <trkpt lat="39.16693" lon="-122.40105" />
      <trkpt lat="39.16686" lon="-122.40046" />
      <trkpt lat="39.16687" lon="-122.40028" />
      <trkpt lat="39.16697" lon="-122.40017" />
      <trkpt lat="39.16712" lon="-122.40026" />
      <trkpt lat="39.1672" lon="-122.40041" />
      <trkpt lat="39.16733" lon="-122.40076" />
      <trkpt lat="39.16782" lon="-122.40166" />
      <trkpt lat="39.1681" lon="-122.40221" />
      <trkpt lat="39.16812" lon="-122.40246" />
      <trkpt lat="39.16795" lon="-122.40329" />
      <trkpt lat="39.16801" lon="-122.40363" />
      <trkpt lat="39.16833" lon="-122.40385" />
      <trkpt lat="39.16841" lon="-122.40402" />
      <trkpt lat="39.16845" lon="-122.40417" />
      <trkpt lat="39.16869" lon="-122.40442" />
      <trkpt lat="39.16909" lon="-122.40444" />
      <trkpt lat="39.1693" lon="-122.40456" />
      <trkpt lat="39.16946" lon="-122.4048" />
      <trkpt lat="39.16959" lon="-122.40504" />
      <trkpt lat="39.16983" lon="-122.40526" />
      <trkpt lat="39.17035" lon="-122.40595" />
      <trkpt lat="39.17053" lon="-122.40611" />
      <trkpt lat="39.17095" lon="-122.40637" />
      <trkpt lat="39.1712" lon="-122.40639" />
      <trkpt lat="39.1714" lon="-122.40639" />
      <trkpt lat="39.17158" lon="-122.40646" />
      <trkpt lat="39.17166" lon="-122.40662" />
      <trkpt lat="39.17166" lon="-122.40686" />
      <trkpt lat="39.17156" lon="-122.40708" />
      <trkpt lat="39.17127" lon="-122.40755" />
      <trkpt lat="39.17116" lon="-122.40777" />
      <trkpt lat="39.17113" lon="-122.40802" />
      <trkpt lat="39.17122" lon="-122.40842" />
      <trkpt lat="39.17126" lon="-122.40877" />
      <trkpt lat="39.17106" lon="-122.40899" />
      <trkpt lat="39.17076" lon="-122.40901" />
      <trkpt lat="39.1706" lon="-122.40907" />
      <trkpt lat="39.17049" lon="-122.40914" />
      <trkpt lat="39.17026" lon="-122.40906" />
      <trkpt lat="39.17012" lon="-122.40885" />
      <trkpt lat="39.16995" lon="-122.40871" />
      <trkpt lat="39.16984" lon="-122.40869" />
      <trkpt lat="39.1694" lon="-122.40881" />
      <trkpt lat="39.16902" lon="-122.40885" />
      <trkpt lat="39.16886" lon="-122.40891" />
      <trkpt lat="39.16877" lon="-122.40904" />
      <trkpt lat="39.16873" lon="-122.40929" />
      <trkpt lat="39.16875" lon="-122.41001" />
      <trkpt lat="39.16869" lon="-122.41023" />
      <trkpt lat="39.16858" lon="-122.41038" />
      <trkpt lat="39.16847" lon="-122.41042" />
      <trkpt lat="39.16831" lon="-122.41042" />
      <trkpt lat="39.16812" lon="-122.41038" />
      <trkpt lat="39.16794" lon="-122.41045" />
      <trkpt lat="39.16766" lon="-122.41074" />
      <trkpt lat="39.16753" lon="-122.41085" />
      <trkpt lat="39.16728" lon="-122.41098" />
      <trkpt lat="39.16714" lon="-122.41102" />
      <trkpt lat="39.16677" lon="-122.41106" />
      <trkpt lat="39.16653" lon="-122.41111" />
      <trkpt lat="39.16628" lon="-122.41111" />
      <trkpt lat="39.16617" lon="-122.41114" />
      <trkpt lat="39.16604" lon="-122.41115" />
      <trkpt lat="39.16579" lon="-122.41121" />
      <trkpt lat="39.16567" lon="-122.41131" />
      <trkpt lat="39.16574" lon="-122.41157" />
      <trkpt lat="39.16584" lon="-122.41166" />
    </trkseg>
  </trk>
</gpx>