<?xml version="1.0" encoding="UTF-8"?>
<gpx version="1.1" creator="strava-segment-scraper" xmlns="http://www.topografix.com/GPX/1/1">
  <trk>
    <name>Big Hill Road</name>
    <trkseg>
      <trkpt lat="38.0384" lon="-120.37785" />
      <trkpt lat="38.03843" lon="-120.37691" />
      <trkpt lat="38.03853" lon="-120.37565" />
      <trkpt lat="38.03852" lon="-120.37526" />
      <trkpt lat="38.03841" lon="-120.37507" />
      <trkpt lat="38.03754" lon="-120.3742" />
      <trkpt lat="38.03701" lon="-120.37348" />
      <trkpt lat="38.03689" lon="-120.37323" />
      <trkpt lat="38.03675" lon="-120.37278" />
      <trkpt lat="38.03667" lon="-120.37262" />
      <trkpt lat="38.03648" lon="-120.37237" />
      <trkpt lat="38.03606" lon="-120.37203" />
      <trkpt lat="38.0359" lon="-120.37184" />
      <trkpt lat="38.03587" lon="-120.37151" />
      <trkpt lat="38.03585" lon="-120.37109" />
      <trkpt lat="38.03574" lon="-120.37041" />
      <trkpt lat="38.03579" lon="-120.37003" />
      <trkpt lat="38.03609" lon="-120.3698" />
      <trkpt lat="38.03622" lon="-120.36972" />
      <trkpt lat="38.03625" lon="-120.36965" />
      <trkpt lat="38.03625" lon="-120.36939" />
      <trkpt lat="38.03627" lon="-120.36919" />
      <trkpt lat="38.03636" lon="-120.36893" />
      <trkpt lat="38.03652" lon="-120.36869" />
      <trkpt lat="38.0366" lon="-120.36849" />
      <trkpt lat="38.03658" lon="-120.36834" />
      <trkpt lat="38.03647" lon="-120.3681" />
      <trkpt lat="38.03651" lon="-120.3679" />
      <trkpt lat="38.03658" lon="-120.36787" />
      <trkpt lat="38.03669" lon="-120.36786" />
      <trkpt lat="38.03705" lon="-120.36818" />
      <trkpt lat="38.0373" lon="-120.36834" />
      <trkpt lat="38.03755" lon="-120.36839" />
      <trkpt lat="38.03775" lon="-120.36848" />
      <trkpt lat="38.03799" lon="-120.36868" />
      <trkpt lat="38.03826" lon="-120.36913" />
      <trkpt lat="38.03839" lon="-120.36919" />
      <trkpt lat="38.03851" lon="-120.36914" />
      <trkpt lat="38.03878" lon="-120.36882" />
      <trkpt lat="38.03888" lon="-120.36866" />
      <trkpt lat="38.03887" lon="-120.36844" />
      <trkpt lat="38.03883" lon="-120.36822" />
      <trkpt lat="38.03883" lon="-120.36777" />
      <trkpt lat="38.03877" lon="-120.36754" />
      <trkpt lat="38.03866" lon="-120.36741" />
      <trkpt lat="38.03846" lon="-120.3674" />
      <trkpt lat="38.03826" lon="-120.36731" />
      <trkpt lat="38.03815" lon="-120.36714" />
      <trkpt lat="38.03811" lon="-120.36691" />
      <trkpt lat="38.03818" lon="-120.36666" />
      <trkpt lat="38.03829" lon="-120.3665" />
      <trkpt lat="38.03902" lon="-120.36569" />
      <trkpt lat="38.03923" lon="-120.36547" />
      <trkpt lat="38.03958" lon="-120.36516" />
      <trkpt lat="38.03969" lon="-120.36494" />
      <trkpt lat="38.0398" lon="-120.3648" />
      <trkpt lat="38.04021" lon="-120.36458" />
      <trkpt lat="38.04029" lon="-120.36449" />
      <trkpt lat="38.04032" lon="-120.36433" />
      <trkpt lat="38.04029" lon="-120.36379" />
      <trkpt lat="38.04037" lon="-120.36363" />
      <trkpt lat="38.04053" lon="-120.36345" />
      <trkpt lat="38.04065" lon="-120.36325" />
      <trkpt lat="38.04066" lon="-120.36309" />
      <trkpt lat="38.04059" lon="-120.36274" />
      <trkpt lat="38.04055" lon="-120.36246" />
      <trkpt lat="38.04063" lon="-120.3618" />
      <trkpt lat="38.04047" lon="-120.36157" />
      <trkpt lat="38.04014" lon="-120.3613" />
      <trkpt lat="38.03999" lon="-120.36103" />
      <trkpt lat="38.03986" lon="-120.36072" />
      <trkpt lat="38.03996" lon="-120.36024" />
      <trkpt lat="38.04005" lon="-120.36001" />
      <trkpt lat="38.04005" lon="-120.35988" />
      <trkpt lat="38.03995" lon="-120.35967" />
      <trkpt lat="38.03994" lon="-120.35943" />
      <trkpt lat="38.04002" lon="-120.35916" />
      <trkpt lat="38.04011" lon="-120.35896" />
      <trkpt lat="38.04014" lon="-120.3586" />
      <trkpt lat="38.03988" lon="-120.35823" />
      <trkpt lat="38.03977" lon="-120.35792" />
      <trkpt lat="38.03974" lon="-120.35765" />
      <trkpt lat="38.04" lon="-120.35715" />
      <trkpt lat="38.04014" lon="-120.35703" />
      <trkpt lat="38.04026" lon="-120.35682" />
      <trkpt lat="38.0403" lon="-120.35657" />
      <trkpt lat="38.0404" lon="-120.35618" />
      <trkpt lat="38.04027" lon="-120.35606" />
      <trkpt lat="38.04022" lon="-120.35605" />
      <trkpt lat="38.04011" lon="-120.35608" />
      <trkpt lat="38.04005" lon="-120.35612" />
      <trkpt lat="38.03982" lon="-120.35647" />
      <trkpt lat="38.03955" lon="-120.35665" />
      <trkpt lat="38.03907" lon="-120.35671" />
      <trkpt lat="38.03859" lon="-120.35718" />
      <trkpt lat="38.03843" lon="-120.3572" />
      <trkpt lat="38.03827" lon="-120.35716" />
      <trkpt lat="38.03807" lon="-120.35704" />
      <trkpt lat="38.03768" lon="-120.35653" />
      <trkpt lat="38.03757" lon="-120.35634" />
      <trkpt lat="38.0375" lon="-120.35607" />
      <trkpt lat="38.03758" lon="-120.3559" />
      <trkpt lat="38.03773" lon="-120.35576" />
      <trkpt lat="38.03806" lon="-120.35551" />
      <trkpt lat="38.0382" lon="-120.35545" />
      <trkpt lat="38.0384" lon="-120.3554" />
      <trkpt lat="38.03876" lon="-120.35537" />
      <trkpt lat="38.03898" lon="-120.35526" />
      <trkpt lat="38.039" lon="-120.35503" />
      <trkpt lat="38.03899" lon="-120.35482" />
      <trkpt lat="38.03896" lon="-120.3546" />
      <trkpt lat="38.03896" lon="-120.35407" />
      <trkpt lat="38.03923" lon="-120.35371" />
      <trkpt lat="38.03938" lon="-120.35343" />
      <trkpt lat="38.03956" lon="-120.35343" />
      <trkpt lat="38.0397" lon="-120.35357" />
      <trkpt lat="38.03984" lon="-120.35379" />
      <trkpt lat="38.04001" lon="-120.35397" />
      <trkpt lat="38.04017" lon="-120.35404" />
      <trkpt lat="38.04036" lon="-120.354" />
      <trkpt lat="38.04092" lon="-120.35295" />
      <trkpt lat="38.04123" lon="-120.35248" />
      <trkpt lat="38.04197" lon="-120.35201" />
      <trkpt lat="38.04212" lon="-120.35201" />
      <trkpt lat="38.04224" lon="-120.35205" />
      <trkpt lat="38.04232" lon="-120.35227" />
      <trkpt lat="38.04243" lon="-120.353" />
      <trkpt lat="38.04235" lon="-120.35332" />
      <trkpt lat="38.04231" lon="-120.35371" />
      <trkpt lat="38.04238" lon="-120.35393" />
      <trkpt lat="38.04249" lon="-120.35422" />
      <trkpt lat="38.04306" lon="-120.35522" />
      <trkpt lat="38.04324" lon="-120.3554" />
      <trkpt lat="38.04343" lon="-120.35549" />
      <trkpt lat="38.04402" lon="-120.35549" />
      <trkpt lat="38.04414" lon="-120.35547" />
      <trkpt lat="38.04441" lon="-120.35536" />
      <trkpt lat="38.04456" lon="-120.35516" />
      <trkpt lat="38.04454" lon="-120.35491" />
      <trkpt lat="38.04419" lon="-120.35363" />
      <trkpt lat="38.04419" lon="-120.35257" />
      <trkpt lat="38.04413" lon="-120.35237" />
      <trkpt lat="38.04341" lon="-120.35097" />
      <trkpt lat="38.04267" lon="-120.35019" />
      <trkpt lat="38.04254" lon="-120.35002" />
      <trkpt lat="38.04227" lon="-120.34938" />
      <trkpt lat="38.04221" lon="-120.34915" />
      <trkpt lat="38.04212" lon="-120.34799" />
    </trkseg>
  </trk>
</gpx>