<?xml version="1.0" encoding="UTF-8"?>
<gpx version="1.1" creator="strava-segment-scraper" xmlns="http://www.topografix.com/GPX/1/1">
  <trk>
    <name>Natz TT Westbound</name>
    <trkseg>
      <trkpt lat="39.76247" lon="-120.24926" />
      <trkpt lat="39.7625" lon="-120.24937" />
      <trkpt lat="39.76251" lon="-120.24961" />
      <trkpt lat="39.76251" lon="-120.2598" />
      <trkpt lat="39.76254" lon="-120.26548" />
      <trkpt lat="39.76253" lon="-120.26702" />
      <trkpt lat="39.76247" lon="-120.26743" />
      <trkpt lat="39.76232" lon="-120.26794" />
      <trkpt lat="39.76041" lon="-120.27336" />
      <trkpt lat="39.75995" lon="-120.27463" />
      <trkpt lat="39.75956" lon="-120.27578" />
      <trkpt lat="39.75915" lon="-120.27692" />
      <trkpt lat="39.75809" lon="-120.27974" />
      <trkpt lat="39.75698" lon="-120.28262" />
      <trkpt lat="39.75665" lon="-120.28353" />
      <trkpt lat="39.75514" lon="-120.28742" />
      <trkpt lat="39.75201" lon="-120.29567" />
      <trkpt lat="39.75179" lon="-120.2963" />
      <trkpt lat="39.75173" lon="-120.29657" />
      <trkpt lat="39.75171" lon="-120.29712" />
      <trkpt lat="39.75173" lon="-120.29927" />
      <trkpt lat="39.75174" lon="-120.30304" />
      <trkpt lat="39.75181" lon="-120.30801" />
      <trkpt lat="39.75184" lon="-120.31384" />
      <trkpt lat="39.75185" lon="-120.31411" />
      <trkpt lat="39.75188" lon="-120.31438" />
    </trkseg>
  </trk>
</gpx>