<?xml version="1.0" encoding="UTF-8"?>
<gpx version="1.1" creator="strava-segment-scraper" xmlns="http://www.topografix.com/GPX/1/1">
  <trk>
    <name>Strawberry to Pyramid</name>
    <trkseg>
      <trkpt lat="38.80932" lon="-120.13602" />
      <trkpt lat="38.80937" lon="-120.13613" />
      <trkpt lat="38.80947" lon="-120.13612" />
      <trkpt lat="38.80967" lon="-120.13602" />
      <trkpt lat="38.80972" lon="-120.13627" />
      <trkpt lat="38.80982" lon="-120.13623" />
      <trkpt lat="38.8099" lon="-120.1363" />
      <trkpt lat="38.81004" lon="-120.1365" />
      <trkpt lat="38.81013" lon="-120.13655" />
      <trkpt lat="38.81023" lon="-120.13648" />
      <trkpt lat="38.81043" lon="-120.13645" />
      <trkpt lat="38.81052" lon="-120.13652" />
      <trkpt lat="38.81082" lon="-120.1364" />
      <trkpt lat="38.81088" lon="-120.1365" />
      <trkpt lat="38.81118" lon="-120.13652" />
      <trkpt lat="38.81149" lon="-120.13657" />
      <trkpt lat="38.81167" lon="-120.13668" />
      <trkpt lat="38.81178" lon="-120.13668" />
      <trkpt lat="38.81193" lon="-120.13686" />
      <trkpt lat="38.81203" lon="-120.13691" />
      <trkpt lat="38.81213" lon="-120.13691" />
      <trkpt lat="38.81231" lon="-120.13702" />
      <trkpt lat="38.8127" lon="-120.13716" />
      <trkpt lat="38.81291" lon="-120.13716" />
      <trkpt lat="38.81312" lon="-120.13721" />
      <trkpt lat="38.8132" lon="-120.13728" />
      <trkpt lat="38.81331" lon="-120.13729" />
      <trkpt lat="38.8134" lon="-120.13725" />
      <trkpt lat="38.81351" lon="-120.13724" />
      <trkpt lat="38.81389" lon="-120.13706" />
      <trkpt lat="38.8141" lon="-120.13705" />
      <trkpt lat="38.8143" lon="-120.13701" />
      <trkpt lat="38.81451" lon="-120.13704" />
      <trkpt lat="38.81457" lon="-120.13714" />
      <trkpt lat="38.81477" lon="-120.13723" />
      <trkpt lat="38.81486" lon="-120.1373" />
      <trkpt lat="38.81502" lon="-120.13748" />
      <trkpt lat="38.81512" lon="-120.13753" />
      <trkpt lat="38.8152" lon="-120.13762" />
      <trkpt lat="38.8154" lon="-120.1377" />
      <trkpt lat="38.8155" lon="-120.13771" />
      <trkpt lat="38.81559" lon="-120.13774" />
      <trkpt lat="38.81569" lon="-120.13771" />
      <trkpt lat="38.8158" lon="-120.13771" />
      <trkpt lat="38.8159" lon="-120.13774" />
      <trkpt lat="38.816" lon="-120.1378" />
      <trkpt lat="38.8161" lon="-120.13778" />
      <trkpt lat="38.81629" lon="-120.13787" />
      <trkpt lat="38.81637" lon="-120.13795" />
      <trkpt lat="38.81651" lon="-120.13814" />
      <trkpt lat="38.81661" lon="-120.13818" />
      <trkpt lat="38.8168" lon="-120.13829" />
      <trkpt lat="38.8171" lon="-120.13832" />
      <trkpt lat="38.8172" lon="-120.13836" />
      <trkpt lat="38.81729" lon="-120.13843" />
      <trkpt lat="38.81738" lon="-120.13849" />
      <trkpt lat="38.81741" lon="-120.13861" />
      <trkpt lat="38.81748" lon="-120.13871" />
      <trkpt lat="38.81757" lon="-120.13876" />
      <trkpt lat="38.81788" lon="-120.13882" />
      <trkpt lat="38.81796" lon="-120.13875" />
      <trkpt lat="38.81815" lon="-120.13886" />
      <trkpt lat="38.81824" lon="-120.13888" />
      <trkpt lat="38.81844" lon="-120.139" />
      <trkpt lat="38.81863" lon="-120.13891" />
      <trkpt lat="38.81872" lon="-120.13895" />
      <trkpt lat="38.81893" lon="-120.13895" />
      <trkpt lat="38.81902" lon="-120.13899" />
      <trkpt lat="38.81911" lon="-120.13905" />
      <trkpt lat="38.81921" lon="-120.13907" />
      <trkpt lat="38.8193" lon="-120.13915" />
      <trkpt lat="38.81951" lon="-120.1391" />
      <trkpt lat="38.81959" lon="-120.13903" />
      <trkpt lat="38.81965" lon="-120.13892" />
      <trkpt lat="38.81982" lon="-120.13905" />
      <trkpt lat="38.82003" lon="-120.13908" />
      <trkpt lat="38.82013" lon="-120.13912" />
      <trkpt lat="38.82023" lon="-120.13917" />
      <trkpt lat="38.82032" lon="-120.13924" />
      <trkpt lat="38.82042" lon="-120.13928" />
      <trkpt lat="38.82053" lon="-120.13927" />
      <trkpt lat="38.82064" lon="-120.1393" />
      <trkpt lat="38.82092" lon="-120.13947" />
      <trkpt lat="38.82106" lon="-120.1398" />
      <trkpt lat="38.82122" lon="-120.13999" />
      <trkpt lat="38.82128" lon="-120.14009" />
      <trkpt lat="38.82137" lon="-120.14033" />
      <trkpt lat="38.8215" lon="-120.14047" />
      <trkpt lat="38.82166" lon="-120.14057" />
      <trkpt lat="38.82173" lon="-120.14081" />
      <trkpt lat="38.82184" lon="-120.14104" />
      <trkpt lat="38.82194" lon="-120.14122" />
      <trkpt lat="38.82197" lon="-120.14134" />
      <trkpt lat="38.82203" lon="-120.14146" />
      <trkpt lat="38.82213" lon="-120.14152" />
      <trkpt lat="38.82221" lon="-120.14161" />
      <trkpt lat="38.82228" lon="-120.14165" />
      <trkpt lat="38.82236" lon="-120.14172" />
      <trkpt lat="38.82255" lon="-120.1418" />
      <trkpt lat="38.82267" lon="-120.14195" />
      <trkpt lat="38.82283" lon="-120.14203" />
      <trkpt lat="38.82312" lon="-120.14207" />
      <trkpt lat="38.82322" lon="-120.14204" />
      <trkpt lat="38.82333" lon="-120.14207" />
      <trkpt lat="38.82365" lon="-120.14223" />
      <trkpt lat="38.82375" lon="-120.14225" />
      <trkpt lat="38.82391" lon="-120.14242" />
      <trkpt lat="38.82398" lon="-120.14252" />
      <trkpt lat="38.82402" lon="-120.14263" />
      <trkpt lat="38.82403" lon="-120.14275" />
      <trkpt lat="38.8241" lon="-120.14282" />
      <trkpt lat="38.82418" lon="-120.143" />
      <trkpt lat="38.82431" lon="-120.14311" />
      <trkpt lat="38.8244" lon="-120.14315" />
      <trkpt lat="38.82447" lon="-120.14322" />
      <trkpt lat="38.82454" lon="-120.1433" />
      <trkpt lat="38.82476" lon="-120.14373" />
      <trkpt lat="38.82484" lon="-120.14376" />
      <trkpt lat="38.82486" lon="-120.14386" />
      <trkpt lat="38.82514" lon="-120.14439" />
      <trkpt lat="38.82538" lon="-120.14463" />
      <trkpt lat="38.8254" lon="-120.14489" />
      <trkpt lat="38.82544" lon="-120.14501" />
      <trkpt lat="38.8255" lon="-120.1451" />
      <trkpt lat="38.82555" lon="-120.14523" />
      <trkpt lat="38.82574" lon="-120.14539" />
      <trkpt lat="38.8258" lon="-120.14548" />
      <trkpt lat="38.82596" lon="-120.14566" />
      <trkpt lat="38.82604" lon="-120.14588" />
      <trkpt lat="38.82628" lon="-120.14614" />
      <trkpt lat="38.82637" lon="-120.14637" />
      <trkpt lat="38.82645" lon="-120.14645" />
      <trkpt lat="38.82664" lon="-120.14643" />
      <trkpt lat="38.82673" lon="-120.14645" />
      <trkpt lat="38.82677" lon="-120.14658" />
      <trkpt lat="38.82687" lon="-120.14661" />
      <trkpt lat="38.82695" lon="-120.14667" />
      <trkpt lat="38.82709" lon="-120.14688" />
      <trkpt lat="38.82712" lon="-120.14701" />
      <trkpt lat="38.8273" lon="-120.14732" />
      <trkpt lat="38.82733" lon="-120.14743" />
      <trkpt lat="38.82733" lon="-120.14755" />
      <trkpt lat="38.82757" lon="-120.14796" />
      <trkpt lat="38.82758" lon="-120.14809" />
      <trkpt lat="38.82755" lon="-120.1482" />
      <trkpt lat="38.82768" lon="-120.14839" />
      <trkpt lat="38.82776" lon="-120.14848" />
      <trkpt lat="38.82782" lon="-120.14858" />
      <trkpt lat="38.82785" lon="-120.14871" />
      <trkpt lat="38.82797" lon="-120.14901" />
      <trkpt lat="38.82808" lon="-120.14967" />
      <trkpt lat="38.82815" lon="-120.14983" />
      <trkpt lat="38.82824" lon="-120.1501" />
      <trkpt lat="38.82843" lon="-120.15053" />
      <trkpt lat="38.82844" lon="-120.15075" />
      <trkpt lat="38.82853" lon="-120.15111" />
      <trkpt lat="38.82864" lon="-120.15133" />
      <trkpt lat="38.82878" lon="-120.15152" />
      <trkpt lat="38.82887" lon="-120.15158" />
      <trkpt lat="38.82896" lon="-120.15157" />
      <trkpt lat="38.82906" lon="-120.15175" />
      <trkpt lat="38.82913" lon="-120.15183" />
      <trkpt lat="38.82925" lon="-120.15204" />
      <trkpt lat="38.82939" lon="-120.15233" />
      <trkpt lat="38.82942" lon="-120.15245" />
      <trkpt lat="38.8294" lon="-120.1529" />
      <trkpt lat="38.8295" lon="-120.15324" />
      <trkpt lat="38.82967" lon="-120.15331" />
      <trkpt lat="38.82973" lon="-120.15339" />
      <trkpt lat="38.82975" lon="-120.1535" />
      <trkpt lat="38.8299" lon="-120.15367" />
      <trkpt lat="38.82997" lon="-120.15374" />
      <trkpt lat="38.82998" lon="-120.15385" />
      <trkpt lat="38.8302" lon="-120.15427" />
      <trkpt lat="38.83034" lon="-120.15448" />
      <trkpt lat="38.83043" lon="-120.15453" />
      <trkpt lat="38.83049" lon="-120.15461" />
      <trkpt lat="38.83057" lon="-120.15468" />
      <trkpt lat="38.83065" lon="-120.15471" />
      <trkpt lat="38.83074" lon="-120.15477" />
      <trkpt lat="38.83082" lon="-120.15485" />
      <trkpt lat="38.83102" lon="-120.15493" />
      <trkpt lat="38.83125" lon="-120.15507" />
      <trkpt lat="38.83141" lon="-120.15512" />
      <trkpt lat="38.83154" lon="-120.15526" />
      <trkpt lat="38.83163" lon="-120.15531" />
      <trkpt lat="38.83178" lon="-120.15535" />
      <trkpt lat="38.83202" lon="-120.15525" />
      <trkpt lat="38.83234" lon="-120.15543" />
      <trkpt lat="38.83255" lon="-120.15545" />
      <trkpt lat="38.83272" lon="-120.15544" />
      <trkpt lat="38.8328" lon="-120.15547" />
      <trkpt lat="38.83288" lon="-120.15548" />
      <trkpt lat="38.83296" lon="-120.15552" />
      <trkpt lat="38.83306" lon="-120.15553" />
      <trkpt lat="38.83317" lon="-120.15552" />
      <trkpt lat="38.83327" lon="-120.15553" />
      <trkpt lat="38.83337" lon="-120.15558" />
      <trkpt lat="38.83347" lon="-120.15558" />
      <trkpt lat="38.83353" lon="-120.15568" />
      <trkpt lat="38.83357" lon="-120.15579" />
      <trkpt lat="38.83357" lon="-120.15592" />
      <trkpt lat="38.83359" lon="-120.15605" />
      <trkpt lat="38.83386" lon="-120.15644" />
      <trkpt lat="38.8339" lon="-120.15655" />
      <trkpt lat="38.83397" lon="-120.15665" />
      <trkpt lat="38.83405" lon="-120.15701" />
      <trkpt lat="38.8342" lon="-120.15715" />
      <trkpt lat="38.83448" lon="-120.15728" />
      <trkpt lat="38.83457" lon="-120.15727" />
      <trkpt lat="38.83466" lon="-120.15732" />
      <trkpt lat="38.83475" lon="-120.15733" />
      <trkpt lat="38.83478" lon="-120.15744" />
      <trkpt lat="38.83488" lon="-120.15746" />
      <trkpt lat="38.83506" lon="-120.15757" />
      <trkpt lat="38.83519" lon="-120.15773" />
      <trkpt lat="38.83525" lon="-120.15774" />
      <trkpt lat="38.8353" lon="-120.15772" />
      <trkpt lat="38.8354" lon="-120.1576" />
      <trkpt lat="38.83546" lon="-120.15758" />
      <trkpt lat="38.83552" lon="-120.1576" />
      <trkpt lat="38.83567" lon="-120.15758" />
      <trkpt lat="38.83576" lon="-120.15761" />
      <trkpt lat="38.83585" lon="-120.1576" />
      <trkpt lat="38.83592" lon="-120.15764" />
      <trkpt lat="38.83598" lon="-120.15761" />
      <trkpt lat="38.83604" lon="-120.15764" />
      <trkpt lat="38.8361" lon="-120.1576" />
      <trkpt lat="38.83619" lon="-120.15759" />
      <trkpt lat="38.83628" lon="-120.1576" />
      <trkpt lat="38.83635" lon="-120.15756" />
      <trkpt lat="38.83643" lon="-120.15755" />
      <trkpt lat="38.83649" lon="-120.15759" />
      <trkpt lat="38.83661" lon="-120.15762" />
      <trkpt lat="38.83668" lon="-120.15787" />
      <trkpt lat="38.83695" lon="-120.15778" />
      <trkpt lat="38.83706" lon="-120.1577" />
      <trkpt lat="38.83721" lon="-120.15771" />
      <trkpt lat="38.83728" lon="-120.15768" />
      <trkpt lat="38.83735" lon="-120.15769" />
      <trkpt lat="38.83749" lon="-120.15767" />
      <trkpt lat="38.83762" lon="-120.15762" />
      <trkpt lat="38.83782" lon="-120.15757" />
      <trkpt lat="38.83808" lon="-120.15761" />
      <trkpt lat="38.83813" lon="-120.15765" />
      <trkpt lat="38.83826" lon="-120.15759" />
      <trkpt lat="38.83833" lon="-120.15759" />
      <trkpt lat="38.83851" lon="-120.15763" />
      <trkpt lat="38.83861" lon="-120.15768" />
      <trkpt lat="38.83869" lon="-120.15767" />
      <trkpt lat="38.83889" lon="-120.1576" />
      <trkpt lat="38.83896" lon="-120.1577" />
      <trkpt lat="38.83906" lon="-120.15771" />
      <trkpt lat="38.83914" lon="-120.15766" />
      <trkpt lat="38.83921" lon="-120.15772" />
      <trkpt lat="38.83931" lon="-120.15773" />
      <trkpt lat="38.8394" lon="-120.15766" />
      <trkpt lat="38.83945" lon="-120.15775" />
      <trkpt lat="38.83964" lon="-120.15777" />
      <trkpt lat="38.83973" lon="-120.15771" />
      <trkpt lat="38.83979" lon="-120.15781" />
      <trkpt lat="38.83988" lon="-120.15775" />
      <trkpt lat="38.83998" lon="-120.15772" />
      <trkpt lat="38.84037" lon="-120.15778" />
      <trkpt lat="38.84039" lon="-120.1579" />
      <trkpt lat="38.84055" lon="-120.15809" />
      <trkpt lat="38.8406" lon="-120.1582" />
      <trkpt lat="38.84077" lon="-120.1583" />
      <trkpt lat="38.8408" lon="-120.1584" />
      <trkpt lat="38.8409" lon="-120.15837" />
      <trkpt lat="38.84097" lon="-120.15848" />
      <trkpt lat="38.84109" lon="-120.15847" />
      <trkpt lat="38.84119" lon="-120.1585" />
      <trkpt lat="38.84129" lon="-120.15849" />
      <trkpt lat="38.84148" lon="-120.15841" />
      <trkpt lat="38.84156" lon="-120.15836" />
      <trkpt lat="38.84166" lon="-120.15834" />
      <trkpt lat="38.84186" lon="-120.15834" />
      <trkpt lat="38.84194" lon="-120.15829" />
      <trkpt lat="38.84218" lon="-120.15841" />
      <trkpt lat="38.84231" lon="-120.15838" />
      <trkpt lat="38.84239" lon="-120.15844" />
      <trkpt lat="38.84249" lon="-120.15843" />
      <trkpt lat="38.84258" lon="-120.15838" />
      <trkpt lat="38.84283" lon="-120.15819" />
      <trkpt lat="38.84294" lon="-120.15821" />
      <trkpt lat="38.84355" lon="-120.15795" />
      <trkpt lat="38.84365" lon="-120.15794" />
      <trkpt lat="38.84416" lon="-120.15792" />
      <trkpt lat="38.84424" lon="-120.1579" />
      <trkpt lat="38.84445" lon="-120.15789" />
      <trkpt lat="38.84474" lon="-120.15794" />
      <trkpt lat="38.84484" lon="-120.15793" />
    </trkseg>
  </trk>
</gpx>