<?xml version="1.0" encoding="UTF-8"?>
<gpx version="1.1" creator="strava-segment-scraper" xmlns="http://www.topografix.com/GPX/1/1">
  <trk>
    <name>Long Canyon TH to Top of Canyon/Start of Bee Tree Gap</name>
    <trkseg>
      <trkpt lat="40.92291" lon="-122.81352" />
      <trkpt lat="40.92295" lon="-122.81367" />
      <trkpt lat="40.92299" lon="-122.81375" />
      <trkpt lat="40.92303" lon="-122.81387" />
      <trkpt lat="40.92308" lon="-122.81392" />
      <trkpt lat="40.92317" lon="-122.81411" />
      <trkpt lat="40.92322" lon="-122.81435" />
      <trkpt lat="40.92328" lon="-122.81447" />
      <trkpt lat="40.92331" lon="-122.81463" />
      <trkpt lat="40.92338" lon="-122.81479" />
      <trkpt lat="40.92347" lon="-122.81488" />
      <trkpt lat="40.92354" lon="-122.8149" />
      <trkpt lat="40.92359" lon="-122.81496" />
      <trkpt lat="40.92361" lon="-122.81503" />
      <trkpt lat="40.92371" lon="-122.81514" />
      <trkpt lat="40.92377" lon="-122.81515" />
      <trkpt lat="40.92384" lon="-122.81519" />
      <trkpt lat="40.92384" lon="-122.81544" />
      <trkpt lat="40.9239" lon="-122.81551" />
      <trkpt lat="40.92397" lon="-122.81569" />
      <trkpt lat="40.92405" lon="-122.81584" />
      <trkpt lat="40.92406" lon="-122.81596" />
      <trkpt lat="40.92409" lon="-122.81601" />
      <trkpt lat="40.92414" lon="-122.81606" />
      <trkpt lat="40.92416" lon="-122.81611" />
      <trkpt lat="40.92418" lon="-122.81618" />
      <trkpt lat="40.92415" lon="-122.81628" />
      <trkpt lat="40.92413" lon="-122.81648" />
      <trkpt lat="40.92414" lon="-122.8166" />
      <trkpt lat="40.92419" lon="-122.81669" />
      <trkpt lat="40.9243" lon="-122.81675" />
      <trkpt lat="40.92434" lon="-122.81683" />
      <trkpt lat="40.92439" lon="-122.81685" />
      <trkpt lat="40.92442" lon="-122.81689" />
      <trkpt lat="40.92447" lon="-122.81701" />
      <trkpt lat="40.9245" lon="-122.81705" />
      <trkpt lat="40.92452" lon="-122.81712" />
      <trkpt lat="40.92455" lon="-122.81717" />
      <trkpt lat="40.92456" lon="-122.81722" />
      <trkpt lat="40.92455" lon="-122.81729" />
      <trkpt lat="40.92447" lon="-122.81744" />
      <trkpt lat="40.92445" lon="-122.81767" />
      <trkpt lat="40.92455" lon="-122.81828" />
      <trkpt lat="40.92458" lon="-122.81839" />
      <trkpt lat="40.92466" lon="-122.81853" />
      <trkpt lat="40.92471" lon="-122.81869" />
      <trkpt lat="40.92476" lon="-122.81875" />
      <trkpt lat="40.92479" lon="-122.81884" />
      <trkpt lat="40.92486" lon="-122.8189" />
      <trkpt lat="40.92491" lon="-122.81899" />
      <trkpt lat="40.92494" lon="-122.81903" />
      <trkpt lat="40.92502" lon="-122.81908" />
      <trkpt lat="40.9251" lon="-122.81928" />
      <trkpt lat="40.92509" lon="-122.81935" />
      <trkpt lat="40.92512" lon="-122.81945" />
      <trkpt lat="40.92524" lon="-122.81958" />
      <trkpt lat="40.92534" lon="-122.81966" />
      <trkpt lat="40.92538" lon="-122.81972" />
      <trkpt lat="40.9254" lon="-122.81976" />
      <trkpt lat="40.9254" lon="-122.81986" />
      <trkpt lat="40.92542" lon="-122.81999" />
      <trkpt lat="40.92553" lon="-122.82022" />
      <trkpt lat="40.92566" lon="-122.8203" />
      <trkpt lat="40.92572" lon="-122.8203" />
      <trkpt lat="40.92575" lon="-122.82034" />
      <trkpt lat="40.92578" lon="-122.82034" />
      <trkpt lat="40.92582" lon="-122.82039" />
      <trkpt lat="40.92585" lon="-122.82068" />
      <trkpt lat="40.92592" lon="-122.82087" />
      <trkpt lat="40.92605" lon="-122.82104" />
      <trkpt lat="40.92612" lon="-122.82123" />
      <trkpt lat="40.92621" lon="-122.82133" />
      <trkpt lat="40.92634" lon="-122.82155" />
      <trkpt lat="40.92658" lon="-122.82215" />
      <trkpt lat="40.92659" lon="-122.82219" />
      <trkpt lat="40.92655" lon="-122.82232" />
      <trkpt lat="40.92653" lon="-122.82281" />
      <trkpt lat="40.92663" lon="-122.82306" />
      <trkpt lat="40.92665" lon="-122.8234" />
      <trkpt lat="40.92669" lon="-122.82349" />
      <trkpt lat="40.92676" lon="-122.82355" />
      <trkpt lat="40.92678" lon="-122.82361" />
      <trkpt lat="40.92671" lon="-122.82372" />
      <trkpt lat="40.92667" lon="-122.82385" />
      <trkpt lat="40.92656" lon="-122.824" />
      <trkpt lat="40.92649" lon="-122.82415" />
      <trkpt lat="40.92648" lon="-122.82424" />
      <trkpt lat="40.9265" lon="-122.8244" />
      <trkpt lat="40.92653" lon="-122.82449" />
      <trkpt lat="40.92659" lon="-122.82462" />
      <trkpt lat="40.92661" lon="-122.82474" />
      <trkpt lat="40.92657" lon="-122.82497" />
      <trkpt lat="40.92656" lon="-122.82521" />
      <trkpt lat="40.92652" lon="-122.82544" />
      <trkpt lat="40.92653" lon="-122.82571" />
      <trkpt lat="40.92662" lon="-122.826" />
      <trkpt lat="40.92665" lon="-122.8263" />
      <trkpt lat="40.9267" lon="-122.82632" />
      <trkpt lat="40.92676" lon="-122.82646" />
      <trkpt lat="40.92681" lon="-122.82668" />
      <trkpt lat="40.92689" lon="-122.82676" />
      <trkpt lat="40.92694" lon="-122.82678" />
      <trkpt lat="40.92704" lon="-122.82689" />
      <trkpt lat="40.92715" lon="-122.82691" />
      <trkpt lat="40.9273" lon="-122.82704" />
      <trkpt lat="40.92745" lon="-122.82706" />
      <trkpt lat="40.92749" lon="-122.8271" />
      <trkpt lat="40.92743" lon="-122.82713" />
      <trkpt lat="40.92734" lon="-122.82703" />
      <trkpt lat="40.92728" lon="-122.82703" />
      <trkpt lat="40.92723" lon="-122.82709" />
      <trkpt lat="40.9272" lon="-122.82709" />
      <trkpt lat="40.92712" lon="-122.82718" />
      <trkpt lat="40.92712" lon="-122.82731" />
      <trkpt lat="40.92711" lon="-122.82742" />
      <trkpt lat="40.92705" lon="-122.82757" />
      <trkpt lat="40.92706" lon="-122.82774" />
      <trkpt lat="40.92702" lon="-122.82799" />
      <trkpt lat="40.92702" lon="-122.82816" />
      <trkpt lat="40.92704" lon="-122.82829" />
      <trkpt lat="40.92703" lon="-122.82853" />
      <trkpt lat="40.92693" lon="-122.8288" />
      <trkpt lat="40.92687" lon="-122.82912" />
      <trkpt lat="40.92682" lon="-122.82925" />
      <trkpt lat="40.92674" lon="-122.82937" />
      <trkpt lat="40.92668" lon="-122.82951" />
      <trkpt lat="40.92666" lon="-122.82954" />
      <trkpt lat="40.92659" lon="-122.82954" />
      <trkpt lat="40.92657" lon="-122.82956" />
      <trkpt lat="40.92656" lon="-122.82989" />
      <trkpt lat="40.92657" lon="-122.82993" />
      <trkpt lat="40.92665" lon="-122.82992" />
      <trkpt lat="40.92666" lon="-122.82996" />
      <trkpt lat="40.92667" lon="-122.83012" />
      <trkpt lat="40.92665" lon="-122.83035" />
      <trkpt lat="40.92668" lon="-122.83044" />
      <trkpt lat="40.9267" lon="-122.83065" />
      <trkpt lat="40.92676" lon="-122.8308" />
      <trkpt lat="40.92676" lon="-122.83089" />
      <trkpt lat="40.9268" lon="-122.83103" />
      <trkpt lat="40.92681" lon="-122.83123" />
      <trkpt lat="40.92683" lon="-122.83128" />
      <trkpt lat="40.92683" lon="-122.83141" />
      <trkpt lat="40.92685" lon="-122.8315" />
      <trkpt lat="40.92681" lon="-122.8317" />
      <trkpt lat="40.92682" lon="-122.83182" />
      <trkpt lat="40.92686" lon="-122.8318" />
      <trkpt lat="40.92691" lon="-122.83173" />
      <trkpt lat="40.92702" lon="-122.83163" />
      <trkpt lat="40.92711" lon="-122.83152" />
      <trkpt lat="40.92715" lon="-122.83143" />
      <trkpt lat="40.92719" lon="-122.83142" />
      <trkpt lat="40.92725" lon="-122.83128" />
      <trkpt lat="40.92741" lon="-122.83107" />
      <trkpt lat="40.92741" lon="-122.83112" />
      <trkpt lat="40.92736" lon="-122.8312" />
      <trkpt lat="40.92732" lon="-122.83142" />
      <trkpt lat="40.92738" lon="-122.83169" />
      <trkpt lat="40.92741" lon="-122.83224" />
      <trkpt lat="40.92738" lon="-122.83244" />
      <trkpt lat="40.92738" lon="-122.83258" />
      <trkpt lat="40.92742" lon="-122.83269" />
      <trkpt lat="40.92742" lon="-122.83289" />
      <trkpt lat="40.92736" lon="-122.8332" />
      <trkpt lat="40.92738" lon="-122.83362" />
      <trkpt lat="40.92735" lon="-122.83377" />
      <trkpt lat="40.92737" lon="-122.83386" />
      <trkpt lat="40.92742" lon="-122.83394" />
      <trkpt lat="40.92741" lon="-122.83403" />
      <trkpt lat="40.92738" lon="-122.83417" />
      <trkpt lat="40.92738" lon="-122.83437" />
      <trkpt lat="40.92735" lon="-122.83446" />
      <trkpt lat="40.92736" lon="-122.83456" />
      <trkpt lat="40.92741" lon="-122.83458" />
      <trkpt lat="40.92741" lon="-122.8346" />
      <trkpt lat="40.92742" lon="-122.83472" />
      <trkpt lat="40.92728" lon="-122.83514" />
      <trkpt lat="40.92724" lon="-122.83522" />
      <trkpt lat="40.92719" lon="-122.83548" />
      <trkpt lat="40.92718" lon="-122.83567" />
      <trkpt lat="40.92722" lon="-122.83575" />
      <trkpt lat="40.92724" lon="-122.836" />
      <trkpt lat="40.92727" lon="-122.83603" />
      <trkpt lat="40.92741" lon="-122.83584" />
      <trkpt lat="40.92747" lon="-122.83572" />
      <trkpt lat="40.92752" lon="-122.83572" />
      <trkpt lat="40.92751" lon="-122.83578" />
      <trkpt lat="40.92754" lon="-122.83588" />
      <trkpt lat="40.92753" lon="-122.83605" />
      <trkpt lat="40.92754" lon="-122.83618" />
      <trkpt lat="40.92762" lon="-122.8363" />
      <trkpt lat="40.92762" lon="-122.83639" />
      <trkpt lat="40.92768" lon="-122.83645" />
      <trkpt lat="40.92767" lon="-122.83652" />
      <trkpt lat="40.9277" lon="-122.83669" />
      <trkpt lat="40.92775" lon="-122.83665" />
      <trkpt lat="40.92779" lon="-122.83665" />
      <trkpt lat="40.92781" lon="-122.83663" />
      <trkpt lat="40.9278" lon="-122.83675" />
      <trkpt lat="40.92781" lon="-122.83683" />
      <trkpt lat="40.92778" lon="-122.83691" />
      <trkpt lat="40.92778" lon="-122.83703" />
      <trkpt lat="40.92781" lon="-122.83711" />
      <trkpt lat="40.92782" lon="-122.8372" />
      <trkpt lat="40.92776" lon="-122.83741" />
      <trkpt lat="40.92776" lon="-122.8375" />
      <trkpt lat="40.92783" lon="-122.83756" />
      <trkpt lat="40.9279" lon="-122.83765" />
      <trkpt lat="40.92794" lon="-122.83766" />
      <trkpt lat="40.92798" lon="-122.83766" />
      <trkpt lat="40.92803" lon="-122.83764" />
      <trkpt lat="40.92809" lon="-122.83758" />
      <trkpt lat="40.92814" lon="-122.83758" />
      <trkpt lat="40.92814" lon="-122.83777" />
      <trkpt lat="40.92822" lon="-122.83806" />
      <trkpt lat="40.92822" lon="-122.83818" />
      <trkpt lat="40.92818" lon="-122.83826" />
      <trkpt lat="40.92818" lon="-122.83833" />
      <trkpt lat="40.9282" lon="-122.83837" />
      <trkpt lat="40.92823" lon="-122.83841" />
      <trkpt lat="40.92836" lon="-122.83841" />
      <trkpt lat="40.92832" lon="-122.83851" />
      <trkpt lat="40.9283" lon="-122.83862" />
      <trkpt lat="40.92832" lon="-122.83866" />
      <trkpt lat="40.92834" lon="-122.83866" />
      <trkpt lat="40.92836" lon="-122.83868" />
      <trkpt lat="40.92843" lon="-122.83868" />
      <trkpt lat="40.92846" lon="-122.83865" />
      <trkpt lat="40.92851" lon="-122.83855" />
      <trkpt lat="40.92853" lon="-122.83855" />
      <trkpt lat="40.92851" lon="-122.83878" />
      <trkpt lat="40.92854" lon="-122.83881" />
      <trkpt lat="40.92857" lon="-122.83894" />
      <trkpt lat="40.92849" lon="-122.8391" />
      <trkpt lat="40.9285" lon="-122.8392" />
      <trkpt lat="40.92847" lon="-122.83923" />
      <trkpt lat="40.9284" lon="-122.83923" />
      <trkpt lat="40.92837" lon="-122.83925" />
      <trkpt lat="40.92835" lon="-122.83933" />
      <trkpt lat="40.92828" lon="-122.83939" />
      <trkpt lat="40.92822" lon="-122.83942" />
      <trkpt lat="40.92813" lon="-122.83955" />
      <trkpt lat="40.92814" lon="-122.83961" />
      <trkpt lat="40.92817" lon="-122.83962" />
      <trkpt lat="40.92824" lon="-122.83962" />
      <trkpt lat="40.92831" lon="-122.83968" />
      <trkpt lat="40.9283" lon="-122.83973" />
      <trkpt lat="40.92825" lon="-122.83977" />
      <trkpt lat="40.9282" lon="-122.83987" />
      <trkpt lat="40.92819" lon="-122.83996" />
      <trkpt lat="40.92826" lon="-122.84009" />
      <trkpt lat="40.92832" lon="-122.84013" />
      <trkpt lat="40.92837" lon="-122.8402" />
      <trkpt lat="40.92843" lon="-122.84021" />
      <trkpt lat="40.92846" lon="-122.84019" />
      <trkpt lat="40.92849" lon="-122.84019" />
      <trkpt lat="40.92847" lon="-122.84032" />
      <trkpt lat="40.92847" lon="-122.8404" />
      <trkpt lat="40.9285" lon="-122.84043" />
      <trkpt lat="40.92855" lon="-122.84043" />
      <trkpt lat="40.92857" lon="-122.8404" />
      <trkpt lat="40.92859" lon="-122.8404" />
      <trkpt lat="40.92868" lon="-122.84026" />
      <trkpt lat="40.9287" lon="-122.84026" />
      <trkpt lat="40.92879" lon="-122.84019" />
      <trkpt lat="40.92886" lon="-122.84007" />
      <trkpt lat="40.92889" lon="-122.84005" />
      <trkpt lat="40.92891" lon="-122.84002" />
      <trkpt lat="40.92896" lon="-122.84" />
      <trkpt lat="40.92894" lon="-122.84011" />
      <trkpt lat="40.92891" lon="-122.84017" />
      <trkpt lat="40.92891" lon="-122.84024" />
      <trkpt lat="40.9288" lon="-122.84053" />
      <trkpt lat="40.92879" lon="-122.84062" />
      <trkpt lat="40.92881" lon="-122.84071" />
      <trkpt lat="40.92881" lon="-122.84077" />
      <trkpt lat="40.92884" lon="-122.84064" />
      <trkpt lat="40.92889" lon="-122.84057" />
      <trkpt lat="40.92896" lon="-122.84056" />
      <trkpt lat="40.92899" lon="-122.84053" />
      <trkpt lat="40.92907" lon="-122.84051" />
      <trkpt lat="40.92917" lon="-122.8404" />
      <trkpt lat="40.9292" lon="-122.84039" />
      <trkpt lat="40.92925" lon="-122.84034" />
      <trkpt lat="40.92932" lon="-122.84024" />
      <trkpt lat="40.92936" lon="-122.84013" />
      <trkpt lat="40.9294" lon="-122.84013" />
      <trkpt lat="40.92942" lon="-122.84019" />
      <trkpt lat="40.92939" lon="-122.84032" />
      <trkpt lat="40.92939" lon="-122.8404" />
      <trkpt lat="40.92943" lon="-122.84046" />
      <trkpt lat="40.92962" lon="-122.84136" />
      <trkpt lat="40.92959" lon="-122.84143" />
      <trkpt lat="40.92959" lon="-122.84148" />
      <trkpt lat="40.92964" lon="-122.84162" />
      <trkpt lat="40.92962" lon="-122.84175" />
      <trkpt lat="40.92966" lon="-122.8418" />
      <trkpt lat="40.92967" lon="-122.84194" />
      <trkpt lat="40.92971" lon="-122.84204" />
      <trkpt lat="40.92972" lon="-122.84219" />
      <trkpt lat="40.92971" lon="-122.84223" />
      <trkpt lat="40.92968" lon="-122.84223" />
      <trkpt lat="40.92968" lon="-122.84226" />
      <trkpt lat="40.92972" lon="-122.84239" />
      <trkpt lat="40.92978" lon="-122.84249" />
      <trkpt lat="40.92982" lon="-122.8428" />
      <trkpt lat="40.92984" lon="-122.8429" />
      <trkpt lat="40.92988" lon="-122.84295" />
      <trkpt lat="40.92989" lon="-122.84302" />
      <trkpt lat="40.92986" lon="-122.84319" />
      <trkpt lat="40.92987" lon="-122.84322" />
      <trkpt lat="40.92991" lon="-122.84323" />
      <trkpt lat="40.92994" lon="-122.84327" />
      <trkpt lat="40.92998" lon="-122.84338" />
      <trkpt lat="40.92999" lon="-122.8435" />
      <trkpt lat="40.93004" lon="-122.84349" />
      <trkpt lat="40.93004" lon="-122.84344" />
      <trkpt lat="40.9301" lon="-122.84334" />
      <trkpt lat="40.93016" lon="-122.8433" />
      <trkpt lat="40.93021" lon="-122.84315" />
      <trkpt lat="40.93026" lon="-122.84309" />
      <trkpt lat="40.93032" lon="-122.84298" />
      <trkpt lat="40.93034" lon="-122.84294" />
      <trkpt lat="40.93033" lon="-122.84275" />
      <trkpt lat="40.93036" lon="-122.84263" />
      <trkpt lat="40.93043" lon="-122.84249" />
      <trkpt lat="40.93045" lon="-122.84238" />
      <trkpt lat="40.93058" lon="-122.84228" />
      <trkpt lat="40.93073" lon="-122.84228" />
      <trkpt lat="40.93079" lon="-122.84225" />
      <trkpt lat="40.93082" lon="-122.84225" />
      <trkpt lat="40.93085" lon="-122.84227" />
      <trkpt lat="40.93092" lon="-122.84226" />
      <trkpt lat="40.93096" lon="-122.84228" />
      <trkpt lat="40.93103" lon="-122.84228" />
      <trkpt lat="40.9311" lon="-122.84232" />
      <trkpt lat="40.93118" lon="-122.84232" />
      <trkpt lat="40.9313" lon="-122.84243" />
      <trkpt lat="40.93138" lon="-122.84244" />
      <trkpt lat="40.93141" lon="-122.84247" />
      <trkpt lat="40.93144" lon="-122.84248" />
      <trkpt lat="40.93158" lon="-122.84261" />
      <trkpt lat="40.93163" lon="-122.84261" />
      <trkpt lat="40.93168" lon="-122.84268" />
      <trkpt lat="40.93174" lon="-122.84283" />
      <trkpt lat="40.93173" lon="-122.84289" />
      <trkpt lat="40.93176" lon="-122.84298" />
      <trkpt lat="40.93179" lon="-122.84302" />
      <trkpt lat="40.93182" lon="-122.84315" />
      <trkpt lat="40.9318" lon="-122.84344" />
      <trkpt lat="40.93184" lon="-122.84358" />
      <trkpt lat="40.93178" lon="-122.84373" />
      <trkpt lat="40.93181" lon="-122.84404" />
      <trkpt lat="40.93185" lon="-122.84413" />
      <trkpt lat="40.93192" lon="-122.84415" />
      <trkpt lat="40.93193" lon="-122.84418" />
      <trkpt lat="40.93193" lon="-122.8443" />
      <trkpt lat="40.93196" lon="-122.8444" />
      <trkpt lat="40.93196" lon="-122.84449" />
      <trkpt lat="40.93206" lon="-122.84477" />
      <trkpt lat="40.93203" lon="-122.84491" />
      <trkpt lat="40.93205" lon="-122.84496" />
      <trkpt lat="40.93209" lon="-122.84497" />
      <trkpt lat="40.9321" lon="-122.845" />
      <trkpt lat="40.93203" lon="-122.84527" />
      <trkpt lat="40.93202" lon="-122.8454" />
      <trkpt lat="40.93199" lon="-122.84546" />
      <trkpt lat="40.932" lon="-122.84554" />
      <trkpt lat="40.93206" lon="-122.84563" />
      <trkpt lat="40.93209" lon="-122.84573" />
      <trkpt lat="40.93209" lon="-122.84612" />
      <trkpt lat="40.93211" lon="-122.84619" />
      <trkpt lat="40.9322" lon="-122.84631" />
      <trkpt lat="40.93221" lon="-122.84652" />
      <trkpt lat="40.93225" lon="-122.84666" />
      <trkpt lat="40.93233" lon="-122.84672" />
      <trkpt lat="40.93233" lon="-122.84678" />
      <trkpt lat="40.9324" lon="-122.84689" />
      <trkpt lat="40.9324" lon="-122.847" />
      <trkpt lat="40.93247" lon="-122.84727" />
      <trkpt lat="40.93251" lon="-122.84755" />
      <trkpt lat="40.93257" lon="-122.84769" />
      <trkpt lat="40.93267" lon="-122.84784" />
      <trkpt lat="40.93269" lon="-122.84791" />
      <trkpt lat="40.93272" lon="-122.84797" />
      <trkpt lat="40.9328" lon="-122.84803" />
      <trkpt lat="40.9329" lon="-122.84827" />
      <trkpt lat="40.93296" lon="-122.84835" />
      <trkpt lat="40.93303" lon="-122.84863" />
      <trkpt lat="40.93303" lon="-122.84872" />
      <trkpt lat="40.93305" lon="-122.84882" />
      <trkpt lat="40.93302" lon="-122.84893" />
      <trkpt lat="40.93308" lon="-122.84902" />
      <trkpt lat="40.93314" lon="-122.84917" />
      <trkpt lat="40.93316" lon="-122.84935" />
      <trkpt lat="40.93307" lon="-122.84949" />
      <trkpt lat="40.93304" lon="-122.84962" />
      <trkpt lat="40.93304" lon="-122.84989" />
      <trkpt lat="40.93307" lon="-122.85014" />
      <trkpt lat="40.93305" lon="-122.85033" />
      <trkpt lat="40.93316" lon="-122.85052" />
      <trkpt lat="40.93317" lon="-122.85059" />
      <trkpt lat="40.9332" lon="-122.85063" />
      <trkpt lat="40.93319" lon="-122.85075" />
      <trkpt lat="40.9332" lon="-122.85078" />
      <trkpt lat="40.93323" lon="-122.85081" />
      <trkpt lat="40.93331" lon="-122.85097" />
      <trkpt lat="40.93333" lon="-122.85097" />
      <trkpt lat="40.93333" lon="-122.85101" />
      <trkpt lat="40.93338" lon="-122.85107" />
      <trkpt lat="40.93338" lon="-122.85114" />
      <trkpt lat="40.93345" lon="-122.85133" />
      <trkpt lat="40.93354" lon="-122.85152" />
      <trkpt lat="40.93366" lon="-122.85165" />
      <trkpt lat="40.9337" lon="-122.85178" />
      <trkpt lat="40.93372" lon="-122.85181" />
      <trkpt lat="40.93372" lon="-122.85195" />
      <trkpt lat="40.93375" lon="-122.85201" />
      <trkpt lat="40.93377" lon="-122.8521" />
      <trkpt lat="40.93381" lon="-122.85216" />
      <trkpt lat="40.93383" lon="-122.85232" />
      <trkpt lat="40.93387" lon="-122.85241" />
      <trkpt lat="40.93388" lon="-122.85269" />
      <trkpt lat="40.93392" lon="-122.85287" />
      <trkpt lat="40.93393" lon="-122.8531" />
      <trkpt lat="40.93396" lon="-122.8532" />
      <trkpt lat="40.93404" lon="-122.85327" />
      <trkpt lat="40.93407" lon="-122.85324" />
      <trkpt lat="40.93417" lon="-122.85323" />
      <trkpt lat="40.93422" lon="-122.8532" />
      <trkpt lat="40.93421" lon="-122.85323" />
      <trkpt lat="40.93415" lon="-122.85327" />
      <trkpt lat="40.93413" lon="-122.85335" />
      <trkpt lat="40.93414" lon="-122.85341" />
      <trkpt lat="40.93417" lon="-122.85343" />
      <trkpt lat="40.93421" lon="-122.85342" />
      <trkpt lat="40.93427" lon="-122.85348" />
      <trkpt lat="40.93427" lon="-122.85359" />
      <trkpt lat="40.93423" lon="-122.85368" />
      <trkpt lat="40.93424" lon="-122.85377" />
      <trkpt lat="40.9343" lon="-122.85382" />
      <trkpt lat="40.93436" lon="-122.85383" />
      <trkpt lat="40.93437" lon="-122.85386" />
      <trkpt lat="40.93436" lon="-122.85395" />
      <trkpt lat="40.9344" lon="-122.85406" />
      <trkpt lat="40.93447" lon="-122.85414" />
      <trkpt lat="40.93456" lon="-122.85415" />
      <trkpt lat="40.93461" lon="-122.85422" />
      <trkpt lat="40.93459" lon="-122.85435" />
      <trkpt lat="40.93461" lon="-122.85452" />
      <trkpt lat="40.93466" lon="-122.85466" />
      <trkpt lat="40.93468" lon="-122.85482" />
      <trkpt lat="40.93472" lon="-122.8549" />
      <trkpt lat="40.93479" lon="-122.85515" />
      <trkpt lat="40.93485" lon="-122.85526" />
      <trkpt lat="40.93487" lon="-122.85541" />
      <trkpt lat="40.93496" lon="-122.85558" />
      <trkpt lat="40.93496" lon="-122.85566" />
      <trkpt lat="40.93494" lon="-122.85577" />
      <trkpt lat="40.93501" lon="-122.85583" />
      <trkpt lat="40.93505" lon="-122.85583" />
      <trkpt lat="40.93506" lon="-122.85581" />
      <trkpt lat="40.93511" lon="-122.85594" />
      <trkpt lat="40.93513" lon="-122.85609" />
      <trkpt lat="40.93513" lon="-122.85612" />
      <trkpt lat="40.93515" lon="-122.85613" />
      <trkpt lat="40.93517" lon="-122.85621" />
      <trkpt lat="40.9352" lon="-122.8562" />
      <trkpt lat="40.93522" lon="-122.85617" />
      <trkpt lat="40.93522" lon="-122.85632" />
      <trkpt lat="40.93525" lon="-122.85658" />
      <trkpt lat="40.93531" lon="-122.85684" />
      <trkpt lat="40.93536" lon="-122.85696" />
      <trkpt lat="40.93536" lon="-122.85705" />
      <trkpt lat="40.93533" lon="-122.85711" />
      <trkpt lat="40.93528" lon="-122.85735" />
      <trkpt lat="40.93533" lon="-122.85743" />
      <trkpt lat="40.93535" lon="-122.85756" />
      <trkpt lat="40.93541" lon="-122.8577" />
      <trkpt lat="40.93542" lon="-122.85789" />
      <trkpt lat="40.93545" lon="-122.85796" />
      <trkpt lat="40.93547" lon="-122.85796" />
      <trkpt lat="40.93549" lon="-122.85813" />
      <trkpt lat="40.93554" lon="-122.8582" />
      <trkpt lat="40.93561" lon="-122.85822" />
      <trkpt lat="40.93566" lon="-122.85828" />
      <trkpt lat="40.9357" lon="-122.85828" />
      <trkpt lat="40.93581" lon="-122.85817" />
      <trkpt lat="40.93584" lon="-122.85817" />
      <trkpt lat="40.93588" lon="-122.85828" />
      <trkpt lat="40.93591" lon="-122.8582" />
      <trkpt lat="40.93597" lon="-122.85828" />
      <trkpt lat="40.936" lon="-122.85838" />
      <trkpt lat="40.93601" lon="-122.85883" />
      <trkpt lat="40.93598" lon="-122.8589" />
      <trkpt lat="40.93592" lon="-122.859" />
      <trkpt lat="40.93588" lon="-122.85913" />
      <trkpt lat="40.93586" lon="-122.85932" />
      <trkpt lat="40.93586" lon="-122.85937" />
      <trkpt lat="40.93592" lon="-122.85945" />
      <trkpt lat="40.93597" lon="-122.85947" />
      <trkpt lat="40.93609" lon="-122.85964" />
      <trkpt lat="40.93616" lon="-122.85968" />
      <trkpt lat="40.93618" lon="-122.86005" />
      <trkpt lat="40.93623" lon="-122.86032" />
      <trkpt lat="40.9363" lon="-122.86054" />
      <trkpt lat="40.93641" lon="-122.8607" />
      <trkpt lat="40.93643" lon="-122.86079" />
      <trkpt lat="40.93642" lon="-122.86083" />
      <trkpt lat="40.93644" lon="-122.86079" />
      <trkpt lat="40.93642" lon="-122.86083" />
      <trkpt lat="40.93643" lon="-122.86094" />
      <trkpt lat="40.93641" lon="-122.86109" />
      <trkpt lat="40.93643" lon="-122.86119" />
      <trkpt lat="40.93642" lon="-122.86132" />
      <trkpt lat="40.93645" lon="-122.8614" />
      <trkpt lat="40.93647" lon="-122.8615" />
      <trkpt lat="40.93643" lon="-122.86168" />
      <trkpt lat="40.93644" lon="-122.86166" />
      <trkpt lat="40.93645" lon="-122.8617" />
      <trkpt lat="40.93648" lon="-122.86189" />
      <trkpt lat="40.93645" lon="-122.86196" />
      <trkpt lat="40.93638" lon="-122.86206" />
      <trkpt lat="40.9363" lon="-122.86225" />
      <trkpt lat="40.93629" lon="-122.86232" />
      <trkpt lat="40.93632" lon="-122.86245" />
      <trkpt lat="40.93641" lon="-122.86269" />
      <trkpt lat="40.93641" lon="-122.86304" />
      <trkpt lat="40.93639" lon="-122.86314" />
      <trkpt lat="40.93641" lon="-122.86311" />
      <trkpt lat="40.93643" lon="-122.86324" />
      <trkpt lat="40.93652" lon="-122.8634" />
      <trkpt lat="40.93655" lon="-122.86351" />
      <trkpt lat="40.93656" lon="-122.86378" />
      <trkpt lat="40.93659" lon="-122.86393" />
      <trkpt lat="40.93658" lon="-122.86404" />
      <trkpt lat="40.93659" lon="-122.86427" />
      <trkpt lat="40.93661" lon="-122.86436" />
      <trkpt lat="40.93662" lon="-122.86491" />
      <trkpt lat="40.93665" lon="-122.86503" />
      <trkpt lat="40.93668" lon="-122.86527" />
      <trkpt lat="40.93671" lon="-122.86542" />
      <trkpt lat="40.93675" lon="-122.86567" />
      <trkpt lat="40.93681" lon="-122.86586" />
      <trkpt lat="40.9368" lon="-122.86594" />
      <trkpt lat="40.93683" lon="-122.86606" />
      <trkpt lat="40.93679" lon="-122.86613" />
      <trkpt lat="40.93678" lon="-122.86633" />
      <trkpt lat="40.93686" lon="-122.86657" />
      <trkpt lat="40.93687" lon="-122.86674" />
      <trkpt lat="40.93696" lon="-122.86697" />
      <trkpt lat="40.937" lon="-122.86712" />
      <trkpt lat="40.93706" lon="-122.86721" />
      <trkpt lat="40.9371" lon="-122.86722" />
      <trkpt lat="40.93712" lon="-122.86725" />
      <trkpt lat="40.93715" lon="-122.86726" />
      <trkpt lat="40.93718" lon="-122.86732" />
      <trkpt lat="40.93718" lon="-122.86749" />
      <trkpt lat="40.93711" lon="-122.86769" />
      <trkpt lat="40.93711" lon="-122.86778" />
      <trkpt lat="40.93717" lon="-122.86813" />
      <trkpt lat="40.93711" lon="-122.86832" />
      <trkpt lat="40.93707" lon="-122.86833" />
      <trkpt lat="40.93703" lon="-122.86845" />
      <trkpt lat="40.93696" lon="-122.86855" />
      <trkpt lat="40.93698" lon="-122.86861" />
      <trkpt lat="40.93705" lon="-122.86867" />
      <trkpt lat="40.93709" lon="-122.86873" />
      <trkpt lat="40.9371" lon="-122.86878" />
      <trkpt lat="40.93711" lon="-122.8689" />
      <trkpt lat="40.93705" lon="-122.86901" />
      <trkpt lat="40.93704" lon="-122.86908" />
      <trkpt lat="40.9371" lon="-122.86925" />
      <trkpt lat="40.93721" lon="-122.86935" />
      <trkpt lat="40.93725" lon="-122.86944" />
      <trkpt lat="40.93732" lon="-122.86946" />
      <trkpt lat="40.93742" lon="-122.86971" />
      <trkpt lat="40.9375" lon="-122.86971" />
      <trkpt lat="40.93755" lon="-122.86967" />
      <trkpt lat="40.93758" lon="-122.86969" />
      <trkpt lat="40.93762" lon="-122.86978" />
      <trkpt lat="40.93763" lon="-122.86993" />
      <trkpt lat="40.93771" lon="-122.87003" />
      <trkpt lat="40.93779" lon="-122.87027" />
      <trkpt lat="40.93783" lon="-122.87031" />
      <trkpt lat="40.93786" lon="-122.87032" />
      <trkpt lat="40.93791" lon="-122.87052" />
      <trkpt lat="40.93796" lon="-122.87056" />
      <trkpt lat="40.93797" lon="-122.8706" />
      <trkpt lat="40.93797" lon="-122.87069" />
      <trkpt lat="40.93801" lon="-122.87082" />
      <trkpt lat="40.93799" lon="-122.87099" />
      <trkpt lat="40.938" lon="-122.87112" />
      <trkpt lat="40.93803" lon="-122.87122" />
      <trkpt lat="40.93804" lon="-122.87122" />
      <trkpt lat="40.93808" lon="-122.87131" />
      <trkpt lat="40.93809" lon="-122.87143" />
      <trkpt lat="40.93812" lon="-122.8715" />
      <trkpt lat="40.93814" lon="-122.87152" />
      <trkpt lat="40.93819" lon="-122.87176" />
      <trkpt lat="40.93817" lon="-122.87186" />
      <trkpt lat="40.93811" lon="-122.87198" />
      <trkpt lat="40.93807" lon="-122.87216" />
      <trkpt lat="40.93804" lon="-122.8722" />
      <trkpt lat="40.93799" lon="-122.87222" />
      <trkpt lat="40.93796" lon="-122.87218" />
      <trkpt lat="40.93787" lon="-122.87216" />
      <trkpt lat="40.93786" lon="-122.87218" />
      <trkpt lat="40.93781" lon="-122.87218" />
      <trkpt lat="40.93778" lon="-122.87222" />
      <trkpt lat="40.93774" lon="-122.87231" />
      <trkpt lat="40.93769" lon="-122.87254" />
      <trkpt lat="40.93766" lon="-122.87261" />
      <trkpt lat="40.93765" lon="-122.87283" />
      <trkpt lat="40.93751" lon="-122.87308" />
      <trkpt lat="40.9374" lon="-122.87322" />
      <trkpt lat="40.93729" lon="-122.87325" />
      <trkpt lat="40.93712" lon="-122.87317" />
      <trkpt lat="40.93703" lon="-122.87317" />
      <trkpt lat="40.937" lon="-122.8732" />
      <trkpt lat="40.93684" lon="-122.8732" />
      <trkpt lat="40.93682" lon="-122.87333" />
      <trkpt lat="40.93679" lon="-122.87333" />
      <trkpt lat="40.93677" lon="-122.87337" />
      <trkpt lat="40.93679" lon="-122.87349" />
      <trkpt lat="40.93678" lon="-122.87353" />
      <trkpt lat="40.9367" lon="-122.87343" />
      <trkpt lat="40.93668" lon="-122.87344" />
      <trkpt lat="40.93665" lon="-122.87343" />
      <trkpt lat="40.93659" lon="-122.8733" />
      <trkpt lat="40.93655" lon="-122.87326" />
      <trkpt lat="40.93652" lon="-122.87325" />
      <trkpt lat="40.93647" lon="-122.87315" />
      <trkpt lat="40.93645" lon="-122.87315" />
      <trkpt lat="40.93641" lon="-122.87325" />
      <trkpt lat="40.9364" lon="-122.87325" />
      <trkpt lat="40.93638" lon="-122.87317" />
      <trkpt lat="40.93636" lon="-122.87317" />
      <trkpt lat="40.93633" lon="-122.87322" />
      <trkpt lat="40.93628" lon="-122.8732" />
      <trkpt lat="40.93626" lon="-122.87322" />
      <trkpt lat="40.93625" lon="-122.87329" />
      <trkpt lat="40.93623" lon="-122.8733" />
      <trkpt lat="40.93621" lon="-122.87321" />
      <trkpt lat="40.93619" lon="-122.87318" />
      <trkpt lat="40.93614" lon="-122.87321" />
      <trkpt lat="40.93612" lon="-122.87317" />
      <trkpt lat="40.93608" lon="-122.87315" />
      <trkpt lat="40.93596" lon="-122.87315" />
      <trkpt lat="40.93584" lon="-122.87298" />
      <trkpt lat="40.93572" lon="-122.87298" />
      <trkpt lat="40.93568" lon="-122.87299" />
      <trkpt lat="40.93561" lon="-122.87305" />
      <trkpt lat="40.93557" lon="-122.8732" />
      <trkpt lat="40.93551" lon="-122.87334" />
      <trkpt lat="40.9355" lon="-122.87341" />
      <trkpt lat="40.93552" lon="-122.87358" />
      <trkpt lat="40.93555" lon="-122.87362" />
      <trkpt lat="40.9356" lon="-122.87362" />
      <trkpt lat="40.93564" lon="-122.87365" />
      <trkpt lat="40.93569" lon="-122.87366" />
      <trkpt lat="40.93587" lon="-122.87394" />
      <trkpt lat="40.93596" lon="-122.87405" />
      <trkpt lat="40.93602" lon="-122.87422" />
      <trkpt lat="40.93608" lon="-122.87452" />
      <trkpt lat="40.93613" lon="-122.8746" />
      <trkpt lat="40.93618" lon="-122.87481" />
      <trkpt lat="40.93626" lon="-122.87499" />
      <trkpt lat="40.93634" lon="-122.87507" />
      <trkpt lat="40.93649" lon="-122.87508" />
      <trkpt lat="40.9366" lon="-122.87521" />
      <trkpt lat="40.93672" lon="-122.87521" />
      <trkpt lat="40.93679" lon="-122.87528" />
      <trkpt lat="40.9368" lon="-122.87531" />
      <trkpt lat="40.93684" lon="-122.87534" />
      <trkpt lat="40.93687" lon="-122.87535" />
      <trkpt lat="40.93697" lon="-122.87535" />
      <trkpt lat="40.93701" lon="-122.87532" />
      <trkpt lat="40.93706" lon="-122.87531" />
      <trkpt lat="40.93715" lon="-122.87521" />
      <trkpt lat="40.93721" lon="-122.87518" />
      <trkpt lat="40.93729" lon="-122.87521" />
      <trkpt lat="40.93739" lon="-122.87527" />
      <trkpt lat="40.93747" lon="-122.87528" />
      <trkpt lat="40.93757" lon="-122.87528" />
      <trkpt lat="40.93761" lon="-122.87527" />
      <trkpt lat="40.93767" lon="-122.87524" />
      <trkpt lat="40.93773" lon="-122.87524" />
      <trkpt lat="40.93779" lon="-122.87527" />
      <trkpt lat="40.93799" lon="-122.8753" />
      <trkpt lat="40.93804" lon="-122.87526" />
      <trkpt lat="40.93825" lon="-122.87526" />
      <trkpt lat="40.93825" lon="-122.87524" />
      <trkpt lat="40.93833" lon="-122.87524" />
      <trkpt lat="40.93837" lon="-122.87522" />
      <trkpt lat="40.93835" lon="-122.87531" />
      <trkpt lat="40.93845" lon="-122.87532" />
      <trkpt lat="40.93847" lon="-122.87535" />
      <trkpt lat="40.93857" lon="-122.87534" />
      <trkpt lat="40.9386" lon="-122.87531" />
      <trkpt lat="40.93864" lon="-122.87524" />
      <trkpt lat="40.93866" lon="-122.87524" />
      <trkpt lat="40.93868" lon="-122.87528" />
      <trkpt lat="40.93882" lon="-122.87556" />
      <trkpt lat="40.93888" lon="-122.87611" />
      <trkpt lat="40.93884" lon="-122.87646" />
      <trkpt lat="40.93885" lon="-122.8766" />
      <trkpt lat="40.93886" lon="-122.87666" />
      <trkpt lat="40.939" lon="-122.87685" />
      <trkpt lat="40.939" lon="-122.87686" />
      <trkpt lat="40.93892" lon="-122.87687" />
      <trkpt lat="40.9389" lon="-122.87692" />
      <trkpt lat="40.93891" lon="-122.87698" />
      <trkpt lat="40.93895" lon="-122.87702" />
      <trkpt lat="40.939" lon="-122.87714" />
      <trkpt lat="40.93898" lon="-122.87724" />
      <trkpt lat="40.93892" lon="-122.87727" />
      <trkpt lat="40.93892" lon="-122.87736" />
      <trkpt lat="40.93897" lon="-122.87753" />
      <trkpt lat="40.93897" lon="-122.87756" />
      <trkpt lat="40.93895" lon="-122.87759" />
      <trkpt lat="40.939" lon="-122.87768" />
      <trkpt lat="40.93907" lon="-122.87774" />
      <trkpt lat="40.9391" lon="-122.87781" />
      <trkpt lat="40.93913" lon="-122.87782" />
      <trkpt lat="40.93919" lon="-122.87794" />
      <trkpt lat="40.93917" lon="-122.87813" />
      <trkpt lat="40.93914" lon="-122.87819" />
      <trkpt lat="40.93916" lon="-122.8783" />
      <trkpt lat="40.93914" lon="-122.87837" />
      <trkpt lat="40.93898" lon="-122.8783" />
      <trkpt lat="40.93889" lon="-122.87817" />
      <trkpt lat="40.93887" lon="-122.87826" />
      <trkpt lat="40.9389" lon="-122.87849" />
      <trkpt lat="40.93888" lon="-122.87853" />
      <trkpt lat="40.93885" lon="-122.87856" />
      <trkpt lat="40.9388" lon="-122.87849" />
      <trkpt lat="40.93876" lon="-122.87846" />
      <trkpt lat="40.93873" lon="-122.87846" />
      <trkpt lat="40.93874" lon="-122.87864" />
      <trkpt lat="40.93866" lon="-122.87855" />
      <trkpt lat="40.93864" lon="-122.87855" />
      <trkpt lat="40.93864" lon="-122.87881" />
      <trkpt lat="40.93868" lon="-122.87906" />
      <trkpt lat="40.93871" lon="-122.87921" />
      <trkpt lat="40.93871" lon="-122.87932" />
      <trkpt lat="40.93876" lon="-122.87949" />
      <trkpt lat="40.93881" lon="-122.87953" />
      <trkpt lat="40.939" lon="-122.87988" />
      <trkpt lat="40.93915" lon="-122.88006" />
      <trkpt lat="40.93927" lon="-122.88008" />
      <trkpt lat="40.93943" lon="-122.8802" />
      <trkpt lat="40.93961" lon="-122.88024" />
      <trkpt lat="40.93964" lon="-122.88028" />
      <trkpt lat="40.93979" lon="-122.88038" />
      <trkpt lat="40.93996" lon="-122.88036" />
      <trkpt lat="40.94001" lon="-122.88038" />
      <trkpt lat="40.94006" lon="-122.88034" />
      <trkpt lat="40.94008" lon="-122.88036" />
      <trkpt lat="40.94007" lon="-122.88049" />
      <trkpt lat="40.94003" lon="-122.88066" />
      <trkpt lat="40.93989" lon="-122.88085" />
      <trkpt lat="40.93981" lon="-122.88091" />
      <trkpt lat="40.93974" lon="-122.881" />
      <trkpt lat="40.93966" lon="-122.88123" />
      <trkpt lat="40.93965" lon="-122.88126" />
      <trkpt lat="40.93969" lon="-122.88132" />
      <trkpt lat="40.93972" lon="-122.88143" />
      <trkpt lat="40.93976" lon="-122.88149" />
    </trkseg>
  </trk>
</gpx>