<?xml version="1.0" encoding="UTF-8"?>
<gpx version="1.1" creator="strava-segment-scraper" xmlns="http://www.topografix.com/GPX/1/1">
  <trk>
    <name>Kingsbury - Parking lot to Top</name>
    <trkseg>
      <trkpt lat="38.92987" lon="-119.84278" />
      <trkpt lat="38.93009" lon="-119.84307" />
      <trkpt lat="38.93137" lon="-119.84464" />
      <trkpt lat="38.93268" lon="-119.84632" />
      <trkpt lat="38.933" lon="-119.84667" />
      <trkpt lat="38.93324" lon="-119.84688" />
      <trkpt lat="38.93365" lon="-119.84716" />
      <trkpt lat="38.93422" lon="-119.84739" />
      <trkpt lat="38.9346" lon="-119.84747" />
      <trkpt lat="38.93504" lon="-119.8475" />
      <trkpt lat="38.93595" lon="-119.84747" />
      <trkpt lat="38.93632" lon="-119.8475" />
      <trkpt lat="38.93723" lon="-119.84776" />
      <trkpt lat="38.93757" lon="-119.8478" />
      <trkpt lat="38.93775" lon="-119.84781" />
      <trkpt lat="38.93805" lon="-119.84777" />
      <trkpt lat="38.939" lon="-119.84753" />
      <trkpt lat="38.93936" lon="-119.8475" />
      <trkpt lat="38.93958" lon="-119.84749" />
      <trkpt lat="38.9397" lon="-119.8475" />
      <trkpt lat="38.94004" lon="-119.84757" />
      <trkpt lat="38.94112" lon="-119.84787" />
      <trkpt lat="38.94168" lon="-119.848" />
      <trkpt lat="38.9422" lon="-119.84805" />
      <trkpt lat="38.94285" lon="-119.84806" />
      <trkpt lat="38.94321" lon="-119.84801" />
      <trkpt lat="38.94345" lon="-119.84797" />
      <trkpt lat="38.94374" lon="-119.84789" />
      <trkpt lat="38.94409" lon="-119.84778" />
      <trkpt lat="38.94464" lon="-119.84754" />
      <trkpt lat="38.94607" lon="-119.84684" />
      <trkpt lat="38.94621" lon="-119.84679" />
      <trkpt lat="38.9464" lon="-119.84674" />
      <trkpt lat="38.94678" lon="-119.84675" />
      <trkpt lat="38.94698" lon="-119.8468" />
      <trkpt lat="38.9472" lon="-119.8469" />
      <trkpt lat="38.9474" lon="-119.84705" />
      <trkpt lat="38.9476" lon="-119.84724" />
      <trkpt lat="38.9479" lon="-119.84771" />
      <trkpt lat="38.94832" lon="-119.84856" />
      <trkpt lat="38.94863" lon="-119.84896" />
      <trkpt lat="38.94883" lon="-119.84912" />
      <trkpt lat="38.94905" lon="-119.84923" />
      <trkpt lat="38.94922" lon="-119.84928" />
      <trkpt lat="38.94963" lon="-119.84932" />
      <trkpt lat="38.95004" lon="-119.84919" />
      <trkpt lat="38.9502" lon="-119.84909" />
      <trkpt lat="38.95149" lon="-119.84811" />
      <trkpt lat="38.95166" lon="-119.84803" />
      <trkpt lat="38.95192" lon="-119.84794" />
      <trkpt lat="38.95205" lon="-119.84792" />
      <trkpt lat="38.95224" lon="-119.84792" />
      <trkpt lat="38.95247" lon="-119.84795" />
      <trkpt lat="38.95312" lon="-119.84822" />
      <trkpt lat="38.95348" lon="-119.84839" />
      <trkpt lat="38.95358" lon="-119.84843" />
      <trkpt lat="38.95375" lon="-119.84846" />
      <trkpt lat="38.95411" lon="-119.84846" />
      <trkpt lat="38.95446" lon="-119.84834" />
      <trkpt lat="38.95529" lon="-119.84793" />
      <trkpt lat="38.95565" lon="-119.8478" />
      <trkpt lat="38.95601" lon="-119.84781" />
      <trkpt lat="38.95704" lon="-119.84802" />
      <trkpt lat="38.95723" lon="-119.84802" />
      <trkpt lat="38.95741" lon="-119.84798" />
      <trkpt lat="38.9575" lon="-119.84795" />
      <trkpt lat="38.95781" lon="-119.84779" />
      <trkpt lat="38.95911" lon="-119.84664" />
      <trkpt lat="38.95933" lon="-119.84652" />
      <trkpt lat="38.95963" lon="-119.84644" />
      <trkpt lat="38.95998" lon="-119.84646" />
      <trkpt lat="38.96013" lon="-119.8465" />
      <trkpt lat="38.96089" lon="-119.84673" />
      <trkpt lat="38.9611" lon="-119.84682" />
      <trkpt lat="38.96171" lon="-119.84702" />
      <trkpt lat="38.96204" lon="-119.84716" />
      <trkpt lat="38.96223" lon="-119.8473" />
      <trkpt lat="38.96247" lon="-119.84757" />
      <trkpt lat="38.96268" lon="-119.84795" />
      <trkpt lat="38.96279" lon="-119.84837" />
      <trkpt lat="38.96282" lon="-119.84887" />
      <trkpt lat="38.96275" lon="-119.84974" />
      <trkpt lat="38.96276" lon="-119.85009" />
      <trkpt lat="38.96274" lon="-119.85087" />
      <trkpt lat="38.96268" lon="-119.85118" />
      <trkpt lat="38.9626" lon="-119.85147" />
      <trkpt lat="38.96234" lon="-119.85216" />
      <trkpt lat="38.96219" lon="-119.85269" />
      <trkpt lat="38.96215" lon="-119.85318" />
      <trkpt lat="38.96216" lon="-119.85333" />
      <trkpt lat="38.96229" lon="-119.85384" />
      <trkpt lat="38.96235" lon="-119.85399" />
      <trkpt lat="38.96251" lon="-119.85428" />
      <trkpt lat="38.9633" lon="-119.85531" />
      <trkpt lat="38.96346" lon="-119.85564" />
      <trkpt lat="38.96356" lon="-119.85595" />
      <trkpt lat="38.9636" lon="-119.85645" />
      <trkpt lat="38.96358" lon="-119.85674" />
      <trkpt lat="38.96359" lon="-119.85706" />
      <trkpt lat="38.96356" lon="-119.85748" />
      <trkpt lat="38.96356" lon="-119.85807" />
      <trkpt lat="38.96354" lon="-119.85829" />
      <trkpt lat="38.96329" lon="-119.85922" />
      <trkpt lat="38.96325" lon="-119.85952" />
      <trkpt lat="38.96325" lon="-119.85965" />
      <trkpt lat="38.9634" lon="-119.86027" />
      <trkpt lat="38.96354" lon="-119.8606" />
      <trkpt lat="38.96359" lon="-119.86067" />
      <trkpt lat="38.96379" lon="-119.86089" />
      <trkpt lat="38.96404" lon="-119.86102" />
      <trkpt lat="38.96422" lon="-119.86106" />
      <trkpt lat="38.9647" lon="-119.86109" />
      <trkpt lat="38.96533" lon="-119.86122" />
      <trkpt lat="38.96577" lon="-119.86134" />
      <trkpt lat="38.96589" lon="-119.86135" />
      <trkpt lat="38.96603" lon="-119.86135" />
      <trkpt lat="38.96625" lon="-119.86128" />
      <trkpt lat="38.96646" lon="-119.86115" />
      <trkpt lat="38.96661" lon="-119.86101" />
      <trkpt lat="38.96674" lon="-119.86083" />
      <trkpt lat="38.96686" lon="-119.86058" />
      <trkpt lat="38.96692" lon="-119.86037" />
      <trkpt lat="38.96694" lon="-119.86022" />
      <trkpt lat="38.96697" lon="-119.85993" />
      <trkpt lat="38.96697" lon="-119.85969" />
      <trkpt lat="38.96694" lon="-119.85925" />
      <trkpt lat="38.96692" lon="-119.85911" />
      <trkpt lat="38.96693" lon="-119.85869" />
      <trkpt lat="38.96705" lon="-119.85826" />
      <trkpt lat="38.96721" lon="-119.85796" />
      <trkpt lat="38.96773" lon="-119.85733" />
      <trkpt lat="38.96792" lon="-119.85705" />
      <trkpt lat="38.96803" lon="-119.8568" />
      <trkpt lat="38.96813" lon="-119.85649" />
      <trkpt lat="38.96817" lon="-119.85626" />
      <trkpt lat="38.96819" lon="-119.85592" />
      <trkpt lat="38.96817" lon="-119.855" />
      <trkpt lat="38.9682" lon="-119.85473" />
      <trkpt lat="38.96826" lon="-119.85442" />
      <trkpt lat="38.96839" lon="-119.85412" />
      <trkpt lat="38.9686" lon="-119.85372" />
      <trkpt lat="38.96879" lon="-119.85339" />
      <trkpt lat="38.96889" lon="-119.85324" />
      <trkpt lat="38.96909" lon="-119.85303" />
      <trkpt lat="38.96928" lon="-119.85288" />
      <trkpt lat="38.96942" lon="-119.85279" />
      <trkpt lat="38.9696" lon="-119.85272" />
      <trkpt lat="38.96977" lon="-119.85269" />
      <trkpt lat="38.96994" lon="-119.85269" />
      <trkpt lat="38.97012" lon="-119.85272" />
      <trkpt lat="38.97037" lon="-119.8528" />
      <trkpt lat="38.97054" lon="-119.85288" />
      <trkpt lat="38.9707" lon="-119.85301" />
      <trkpt lat="38.971" lon="-119.85336" />
      <trkpt lat="38.97166" lon="-119.85427" />
      <trkpt lat="38.97211" lon="-119.85496" />
      <trkpt lat="38.97232" lon="-119.85535" />
      <trkpt lat="38.97258" lon="-119.85598" />
      <trkpt lat="38.97272" lon="-119.85622" />
      <trkpt lat="38.97292" lon="-119.85651" />
      <trkpt lat="38.97322" lon="-119.85681" />
      <trkpt lat="38.97339" lon="-119.85693" />
      <trkpt lat="38.97365" lon="-119.85717" />
      <trkpt lat="38.9739" lon="-119.85743" />
      <trkpt lat="38.97408" lon="-119.85767" />
      <trkpt lat="38.97432" lon="-119.85796" />
      <trkpt lat="38.97457" lon="-119.85831" />
      <trkpt lat="38.97479" lon="-119.85859" />
      <trkpt lat="38.97497" lon="-119.85878" />
      <trkpt lat="38.975" lon="-119.85883" />
      <trkpt lat="38.97519" lon="-119.85908" />
      <trkpt lat="38.97536" lon="-119.85928" />
      <trkpt lat="38.97577" lon="-119.85982" />
      <trkpt lat="38.97601" lon="-119.86003" />
      <trkpt lat="38.97624" lon="-119.86012" />
      <trkpt lat="38.97653" lon="-119.86013" />
      <trkpt lat="38.97672" lon="-119.86008" />
      <trkpt lat="38.97683" lon="-119.86003" />
      <trkpt lat="38.97714" lon="-119.85985" />
      <trkpt lat="38.97729" lon="-119.85965" />
      <trkpt lat="38.97738" lon="-119.85947" />
      <trkpt lat="38.97742" lon="-119.85933" />
      <trkpt lat="38.97746" lon="-119.85906" />
      <trkpt lat="38.97748" lon="-119.85865" />
      <trkpt lat="38.97746" lon="-119.85845" />
      <trkpt lat="38.9774" lon="-119.85821" />
      <trkpt lat="38.9772" lon="-119.85782" />
      <trkpt lat="38.97711" lon="-119.85768" />
      <trkpt lat="38.97687" lon="-119.85736" />
      <trkpt lat="38.97668" lon="-119.85707" />
      <trkpt lat="38.97652" lon="-119.85671" />
      <trkpt lat="38.97646" lon="-119.85635" />
      <trkpt lat="38.97645" lon="-119.85621" />
      <trkpt lat="38.97647" lon="-119.85594" />
      <trkpt lat="38.97652" lon="-119.85568" />
      <trkpt lat="38.9767" lon="-119.85531" />
      <trkpt lat="38.97686" lon="-119.85509" />
      <trkpt lat="38.97696" lon="-119.85499" />
      <trkpt lat="38.97713" lon="-119.85488" />
      <trkpt lat="38.97728" lon="-119.85481" />
      <trkpt lat="38.97744" lon="-119.85478" />
      <trkpt lat="38.97765" lon="-119.85476" />
      <trkpt lat="38.97778" lon="-119.85478" />
      <trkpt lat="38.97809" lon="-119.85489" />
      <trkpt lat="38.9783" lon="-119.85506" />
      <trkpt lat="38.97838" lon="-119.85514" />
      <trkpt lat="38.97858" lon="-119.85548" />
      <trkpt lat="38.97867" lon="-119.85569" />
      <trkpt lat="38.97873" lon="-119.85596" />
      <trkpt lat="38.97875" lon="-119.85635" />
      <trkpt lat="38.97869" lon="-119.8568" />
      <trkpt lat="38.97864" lon="-119.85701" />
      <trkpt lat="38.97861" lon="-119.85742" />
      <trkpt lat="38.97862" lon="-119.85785" />
      <trkpt lat="38.97869" lon="-119.85826" />
      <trkpt lat="38.97923" lon="-119.85961" />
      <trkpt lat="38.97936" lon="-119.85989" />
      <trkpt lat="38.97945" lon="-119.8602" />
      <trkpt lat="38.97957" lon="-119.8604" />
      <trkpt lat="38.97965" lon="-119.86068" />
      <trkpt lat="38.97973" lon="-119.86085" />
      <trkpt lat="38.98003" lon="-119.86158" />
      <trkpt lat="38.98019" lon="-119.86186" />
      <trkpt lat="38.98039" lon="-119.86214" />
      <trkpt lat="38.98109" lon="-119.86296" />
      <trkpt lat="38.98138" lon="-119.86344" />
      <trkpt lat="38.98159" lon="-119.86383" />
      <trkpt lat="38.98172" lon="-119.86415" />
      <trkpt lat="38.98179" lon="-119.86447" />
      <trkpt lat="38.98187" lon="-119.86506" />
      <trkpt lat="38.9819" lon="-119.86547" />
      <trkpt lat="38.98185" lon="-119.86609" />
      <trkpt lat="38.98169" lon="-119.86706" />
      <trkpt lat="38.98162" lon="-119.86739" />
      <trkpt lat="38.9815" lon="-119.8678" />
      <trkpt lat="38.98127" lon="-119.86819" />
      <trkpt lat="38.98093" lon="-119.86852" />
      <trkpt lat="38.98075" lon="-119.86863" />
      <trkpt lat="38.98047" lon="-119.86875" />
      <trkpt lat="38.98017" lon="-119.86881" />
      <trkpt lat="38.97953" lon="-119.86892" />
      <trkpt lat="38.97935" lon="-119.86893" />
      <trkpt lat="38.97858" lon="-119.8691" />
      <trkpt lat="38.97828" lon="-119.86915" />
      <trkpt lat="38.97814" lon="-119.86915" />
      <trkpt lat="38.97774" lon="-119.86912" />
      <trkpt lat="38.97746" lon="-119.86906" />
      <trkpt lat="38.97678" lon="-119.86882" />
      <trkpt lat="38.97638" lon="-119.86871" />
      <trkpt lat="38.97619" lon="-119.86868" />
      <trkpt lat="38.97602" lon="-119.86865" />
      <trkpt lat="38.97492" lon="-119.8687" />
      <trkpt lat="38.9746" lon="-119.8688" />
      <trkpt lat="38.97445" lon="-119.86887" />
      <trkpt lat="38.97436" lon="-119.86895" />
      <trkpt lat="38.97427" lon="-119.86904" />
      <trkpt lat="38.97414" lon="-119.86925" />
      <trkpt lat="38.97404" lon="-119.86945" />
      <trkpt lat="38.97399" lon="-119.86961" />
      <trkpt lat="38.97394" lon="-119.86988" />
      <trkpt lat="38.97392" lon="-119.87006" />
      <trkpt lat="38.97397" lon="-119.87055" />
      <trkpt lat="38.97428" lon="-119.87154" />
      <trkpt lat="38.97438" lon="-119.87194" />
      <trkpt lat="38.97447" lon="-119.87246" />
      <trkpt lat="38.97447" lon="-119.87286" />
      <trkpt lat="38.97426" lon="-119.8741" />
      <trkpt lat="38.97422" lon="-119.87442" />
      <trkpt lat="38.97422" lon="-119.87467" />
      <trkpt lat="38.97424" lon="-119.8749" />
      <trkpt lat="38.97442" lon="-119.87572" />
      <trkpt lat="38.97446" lon="-119.87613" />
      <trkpt lat="38.97441" lon="-119.87673" />
      <trkpt lat="38.97442" lon="-119.87724" />
      <trkpt lat="38.97451" lon="-119.8789" />
      <trkpt lat="38.97456" lon="-119.87928" />
      <trkpt lat="38.97464" lon="-119.87955" />
      <trkpt lat="38.97471" lon="-119.87971" />
      <trkpt lat="38.97492" lon="-119.88006" />
      <trkpt lat="38.9753" lon="-119.88061" />
      <trkpt lat="38.97564" lon="-119.88103" />
      <trkpt lat="38.97582" lon="-119.88133" />
      <trkpt lat="38.97596" lon="-119.8817" />
      <trkpt lat="38.97601" lon="-119.88192" />
      <trkpt lat="38.97623" lon="-119.88293" />
      <trkpt lat="38.97624" lon="-119.88306" />
      <trkpt lat="38.97633" lon="-119.8834" />
      <trkpt lat="38.97643" lon="-119.88366" />
      <trkpt lat="38.97659" lon="-119.88391" />
      <trkpt lat="38.97682" lon="-119.88414" />
      <trkpt lat="38.97699" lon="-119.88424" />
      <trkpt lat="38.97728" lon="-119.88435" />
      <trkpt lat="38.97738" lon="-119.88436" />
      <trkpt lat="38.97767" lon="-119.88445" />
      <trkpt lat="38.97799" lon="-119.88458" />
      <trkpt lat="38.97829" lon="-119.88468" />
      <trkpt lat="38.97845" lon="-119.88472" />
      <trkpt lat="38.97863" lon="-119.88479" />
      <trkpt lat="38.97872" lon="-119.88485" />
      <trkpt lat="38.97889" lon="-119.885" />
      <trkpt lat="38.97907" lon="-119.88523" />
      <trkpt lat="38.97921" lon="-119.88548" />
      <trkpt lat="38.97925" lon="-119.88562" />
      <trkpt lat="38.9793" lon="-119.88582" />
      <trkpt lat="38.97931" lon="-119.88629" />
      <trkpt lat="38.97928" lon="-119.88652" />
      <trkpt lat="38.97922" lon="-119.88671" />
      <trkpt lat="38.97913" lon="-119.88689" />
      <trkpt lat="38.97905" lon="-119.88704" />
      <trkpt lat="38.97892" lon="-119.88719" />
      <trkpt lat="38.97877" lon="-119.88733" />
      <trkpt lat="38.9785" lon="-119.88749" />
      <trkpt lat="38.97811" lon="-119.8876" />
      <trkpt lat="38.97802" lon="-119.88765" />
      <trkpt lat="38.97779" lon="-119.88774" />
      <trkpt lat="38.9776" lon="-119.88784" />
      <trkpt lat="38.97728" lon="-119.88795" />
      <trkpt lat="38.97714" lon="-119.88804" />
      <trkpt lat="38.97699" lon="-119.88816" />
      <trkpt lat="38.97676" lon="-119.88843" />
      <trkpt lat="38.97662" lon="-119.88867" />
      <trkpt lat="38.97655" lon="-119.88885" />
    </trkseg>
  </trk>
</gpx>