<?xml version="1.0" encoding="UTF-8"?>
<gpx version="1.1" creator="strava-segment-scraper" xmlns="http://www.topografix.com/GPX/1/1">
  <trk>
    <name>Black Butte TH to old forest lookout. (summit)</name>
    <trkseg>
      <trkpt lat="41.37277" lon="-122.34072" />
      <trkpt lat="41.37259" lon="-122.34101" />
      <trkpt lat="41.3726" lon="-122.34105" />
      <trkpt lat="41.3727" lon="-122.34121" />
      <trkpt lat="41.37275" lon="-122.34138" />
      <trkpt lat="41.37269" lon="-122.3417" />
      <trkpt lat="41.37264" lon="-122.34181" />
      <trkpt lat="41.37264" lon="-122.34193" />
      <trkpt lat="41.3727" lon="-122.34205" />
      <trkpt lat="41.37275" lon="-122.34248" />
      <trkpt lat="41.37273" lon="-122.34254" />
      <trkpt lat="41.37268" lon="-122.34263" />
      <trkpt lat="41.37263" lon="-122.34274" />
      <trkpt lat="41.37265" lon="-122.34302" />
      <trkpt lat="41.37268" lon="-122.34313" />
      <trkpt lat="41.37268" lon="-122.34331" />
      <trkpt lat="41.37278" lon="-122.34387" />
      <trkpt lat="41.37275" lon="-122.34396" />
      <trkpt lat="41.37264" lon="-122.34412" />
      <trkpt lat="41.37254" lon="-122.34437" />
      <trkpt lat="41.37252" lon="-122.34453" />
      <trkpt lat="41.37254" lon="-122.34468" />
      <trkpt lat="41.37254" lon="-122.34488" />
      <trkpt lat="41.37262" lon="-122.34524" />
      <trkpt lat="41.37281" lon="-122.34581" />
      <trkpt lat="41.37288" lon="-122.34611" />
      <trkpt lat="41.37306" lon="-122.34653" />
      <trkpt lat="41.37329" lon="-122.34689" />
      <trkpt lat="41.3733" lon="-122.34692" />
      <trkpt lat="41.37339" lon="-122.34704" />
      <trkpt lat="41.37345" lon="-122.3472" />
      <trkpt lat="41.37351" lon="-122.34728" />
      <trkpt lat="41.37358" lon="-122.3475" />
      <trkpt lat="41.37365" lon="-122.34795" />
      <trkpt lat="41.37368" lon="-122.34803" />
      <trkpt lat="41.37366" lon="-122.3481" />
      <trkpt lat="41.37369" lon="-122.34825" />
      <trkpt lat="41.37374" lon="-122.34866" />
      <trkpt lat="41.37373" lon="-122.34871" />
      <trkpt lat="41.3738" lon="-122.34915" />
      <trkpt lat="41.37384" lon="-122.34924" />
      <trkpt lat="41.37386" lon="-122.34941" />
      <trkpt lat="41.37387" lon="-122.34964" />
      <trkpt lat="41.37389" lon="-122.34969" />
      <trkpt lat="41.37392" lon="-122.34992" />
      <trkpt lat="41.37391" lon="-122.35" />
      <trkpt lat="41.37392" lon="-122.35012" />
      <trkpt lat="41.37393" lon="-122.35044" />
      <trkpt lat="41.37395" lon="-122.35054" />
      <trkpt lat="41.37394" lon="-122.35059" />
      <trkpt lat="41.37399" lon="-122.35088" />
      <trkpt lat="41.37398" lon="-122.35104" />
      <trkpt lat="41.37401" lon="-122.35119" />
      <trkpt lat="41.37402" lon="-122.35133" />
      <trkpt lat="41.37401" lon="-122.35158" />
      <trkpt lat="41.37398" lon="-122.35169" />
      <trkpt lat="41.37397" lon="-122.35193" />
      <trkpt lat="41.37393" lon="-122.35216" />
      <trkpt lat="41.37394" lon="-122.35225" />
      <trkpt lat="41.37392" lon="-122.35233" />
      <trkpt lat="41.37393" lon="-122.3525" />
      <trkpt lat="41.37392" lon="-122.35275" />
      <trkpt lat="41.37388" lon="-122.3528" />
      <trkpt lat="41.37385" lon="-122.35293" />
      <trkpt lat="41.37385" lon="-122.35297" />
      <trkpt lat="41.3739" lon="-122.35314" />
      <trkpt lat="41.37389" lon="-122.35322" />
      <trkpt lat="41.37386" lon="-122.35331" />
      <trkpt lat="41.37384" lon="-122.35354" />
      <trkpt lat="41.37377" lon="-122.35371" />
      <trkpt lat="41.37376" lon="-122.3539" />
      <trkpt lat="41.37373" lon="-122.35394" />
      <trkpt lat="41.37365" lon="-122.35429" />
      <trkpt lat="41.37358" lon="-122.35444" />
      <trkpt lat="41.37355" lon="-122.35455" />
      <trkpt lat="41.37346" lon="-122.35472" />
      <trkpt lat="41.37342" lon="-122.35489" />
      <trkpt lat="41.37336" lon="-122.35505" />
      <trkpt lat="41.37322" lon="-122.35525" />
      <trkpt lat="41.37303" lon="-122.35545" />
      <trkpt lat="41.37299" lon="-122.35572" />
      <trkpt lat="41.37279" lon="-122.35607" />
      <trkpt lat="41.37273" lon="-122.35613" />
      <trkpt lat="41.37264" lon="-122.35628" />
      <trkpt lat="41.37257" lon="-122.35635" />
      <trkpt lat="41.37246" lon="-122.35649" />
      <trkpt lat="41.3724" lon="-122.35654" />
      <trkpt lat="41.37222" lon="-122.35664" />
      <trkpt lat="41.37217" lon="-122.35672" />
      <trkpt lat="41.37201" lon="-122.35687" />
      <trkpt lat="41.37194" lon="-122.3569" />
      <trkpt lat="41.37188" lon="-122.35696" />
      <trkpt lat="41.37176" lon="-122.35704" />
      <trkpt lat="41.37155" lon="-122.35711" />
      <trkpt lat="41.37142" lon="-122.35717" />
      <trkpt lat="41.37136" lon="-122.35724" />
      <trkpt lat="41.37103" lon="-122.35741" />
      <trkpt lat="41.371" lon="-122.35746" />
      <trkpt lat="41.37097" lon="-122.35748" />
      <trkpt lat="41.37038" lon="-122.35762" />
      <trkpt lat="41.37029" lon="-122.35761" />
      <trkpt lat="41.37014" lon="-122.35764" />
      <trkpt lat="41.3699" lon="-122.35762" />
      <trkpt lat="41.36986" lon="-122.35759" />
      <trkpt lat="41.36977" lon="-122.35758" />
      <trkpt lat="41.36951" lon="-122.35749" />
      <trkpt lat="41.36941" lon="-122.3575" />
      <trkpt lat="41.3694" lon="-122.35748" />
      <trkpt lat="41.36901" lon="-122.35752" />
      <trkpt lat="41.36892" lon="-122.35749" />
      <trkpt lat="41.36875" lon="-122.35736" />
      <trkpt lat="41.36846" lon="-122.35722" />
      <trkpt lat="41.36839" lon="-122.35718" />
      <trkpt lat="41.36805" lon="-122.35685" />
      <trkpt lat="41.36809" lon="-122.35678" />
      <trkpt lat="41.36817" lon="-122.35674" />
      <trkpt lat="41.36831" lon="-122.35661" />
      <trkpt lat="41.36842" lon="-122.35634" />
      <trkpt lat="41.36846" lon="-122.35632" />
      <trkpt lat="41.36856" lon="-122.35632" />
      <trkpt lat="41.36865" lon="-122.35624" />
      <trkpt lat="41.3687" lon="-122.35612" />
      <trkpt lat="41.36879" lon="-122.35604" />
      <trkpt lat="41.36908" lon="-122.35569" />
      <trkpt lat="41.36923" lon="-122.35549" />
      <trkpt lat="41.36943" lon="-122.35531" />
      <trkpt lat="41.36954" lon="-122.35515" />
      <trkpt lat="41.36957" lon="-122.35506" />
      <trkpt lat="41.36964" lon="-122.35496" />
      <trkpt lat="41.36967" lon="-122.35486" />
      <trkpt lat="41.36986" lon="-122.35466" />
      <trkpt lat="41.36991" lon="-122.35456" />
      <trkpt lat="41.36995" lon="-122.35442" />
      <trkpt lat="41.36998" lon="-122.35439" />
      <trkpt lat="41.37006" lon="-122.35419" />
      <trkpt lat="41.3701" lon="-122.35411" />
      <trkpt lat="41.37013" lon="-122.35398" />
      <trkpt lat="41.37012" lon="-122.35387" />
      <trkpt lat="41.37019" lon="-122.35368" />
      <trkpt lat="41.37023" lon="-122.35347" />
      <trkpt lat="41.37028" lon="-122.35334" />
      <trkpt lat="41.37033" lon="-122.35298" />
      <trkpt lat="41.37043" lon="-122.35275" />
      <trkpt lat="41.37041" lon="-122.35267" />
      <trkpt lat="41.37046" lon="-122.3524" />
      <trkpt lat="41.37048" lon="-122.35239" />
      <trkpt lat="41.3705" lon="-122.35227" />
      <trkpt lat="41.37057" lon="-122.35204" />
      <trkpt lat="41.37061" lon="-122.35199" />
      <trkpt lat="41.3706" lon="-122.35196" />
      <trkpt lat="41.37064" lon="-122.35185" />
      <trkpt lat="41.37065" lon="-122.35178" />
      <trkpt lat="41.37063" lon="-122.35152" />
      <trkpt lat="41.37064" lon="-122.35144" />
      <trkpt lat="41.37066" lon="-122.35137" />
      <trkpt lat="41.37065" lon="-122.35123" />
      <trkpt lat="41.37063" lon="-122.3512" />
      <trkpt lat="41.37062" lon="-122.35104" />
      <trkpt lat="41.37054" lon="-122.35082" />
      <trkpt lat="41.37049" lon="-122.35054" />
      <trkpt lat="41.37049" lon="-122.35047" />
      <trkpt lat="41.37045" lon="-122.35036" />
      <trkpt lat="41.37041" lon="-122.35031" />
      <trkpt lat="41.37032" lon="-122.34993" />
      <trkpt lat="41.37028" lon="-122.34985" />
      <trkpt lat="41.37021" lon="-122.34977" />
      <trkpt lat="41.37011" lon="-122.34955" />
      <trkpt lat="41.37004" lon="-122.34942" />
      <trkpt lat="41.36981" lon="-122.34917" />
      <trkpt lat="41.36948" lon="-122.34873" />
      <trkpt lat="41.3694" lon="-122.34867" />
      <trkpt lat="41.36912" lon="-122.34872" />
      <trkpt lat="41.36902" lon="-122.34864" />
      <trkpt lat="41.36887" lon="-122.34819" />
      <trkpt lat="41.36884" lon="-122.34806" />
      <trkpt lat="41.36874" lon="-122.34786" />
      <trkpt lat="41.36855" lon="-122.34773" />
      <trkpt lat="41.36836" lon="-122.3475" />
      <trkpt lat="41.36831" lon="-122.34745" />
      <trkpt lat="41.36823" lon="-122.34742" />
      <trkpt lat="41.368" lon="-122.34724" />
      <trkpt lat="41.36782" lon="-122.34704" />
      <trkpt lat="41.36776" lon="-122.347" />
      <trkpt lat="41.36772" lon="-122.34693" />
      <trkpt lat="41.36759" lon="-122.34689" />
      <trkpt lat="41.36757" lon="-122.34686" />
      <trkpt lat="41.36742" lon="-122.34679" />
      <trkpt lat="41.36733" lon="-122.34672" />
      <trkpt lat="41.36723" lon="-122.34669" />
      <trkpt lat="41.3671" lon="-122.3466" />
      <trkpt lat="41.36697" lon="-122.34647" />
      <trkpt lat="41.36691" lon="-122.34644" />
      <trkpt lat="41.36679" lon="-122.34634" />
      <trkpt lat="41.36675" lon="-122.34633" />
      <trkpt lat="41.36672" lon="-122.34627" />
      <trkpt lat="41.36665" lon="-122.3462" />
      <trkpt lat="41.3666" lon="-122.34617" />
      <trkpt lat="41.36652" lon="-122.34617" />
      <trkpt lat="41.36648" lon="-122.34615" />
      <trkpt lat="41.36646" lon="-122.34616" />
      <trkpt lat="41.36651" lon="-122.34618" />
      <trkpt lat="41.36652" lon="-122.34621" />
      <trkpt lat="41.3666" lon="-122.34622" />
      <trkpt lat="41.36663" lon="-122.34624" />
      <trkpt lat="41.36665" lon="-122.34628" />
      <trkpt lat="41.36663" lon="-122.34631" />
      <trkpt lat="41.36672" lon="-122.34651" />
      <trkpt lat="41.36684" lon="-122.34668" />
      <trkpt lat="41.36693" lon="-122.34678" />
      <trkpt lat="41.36705" lon="-122.34696" />
      <trkpt lat="41.3671" lon="-122.34699" />
      <trkpt lat="41.3672" lon="-122.34718" />
      <trkpt lat="41.36722" lon="-122.34727" />
      <trkpt lat="41.36729" lon="-122.34735" />
      <trkpt lat="41.36737" lon="-122.34751" />
      <trkpt lat="41.36742" lon="-122.34758" />
      <trkpt lat="41.36759" lon="-122.3477" />
      <trkpt lat="41.36769" lon="-122.34786" />
      <trkpt lat="41.36768" lon="-122.34796" />
      <trkpt lat="41.36776" lon="-122.34806" />
      <trkpt lat="41.36779" lon="-122.34825" />
      <trkpt lat="41.36791" lon="-122.34846" />
      <trkpt lat="41.36792" lon="-122.34852" />
      <trkpt lat="41.36799" lon="-122.34863" />
      <trkpt lat="41.36796" lon="-122.34877" />
      <trkpt lat="41.36794" lon="-122.34879" />
      <trkpt lat="41.36795" lon="-122.34889" />
      <trkpt lat="41.36792" lon="-122.34896" />
      <trkpt lat="41.36796" lon="-122.34915" />
      <trkpt lat="41.36799" lon="-122.34918" />
      <trkpt lat="41.36791" lon="-122.34935" />
      <trkpt lat="41.3678" lon="-122.34949" />
      <trkpt lat="41.36769" lon="-122.34955" />
      <trkpt lat="41.36763" lon="-122.34962" />
      <trkpt lat="41.36754" lon="-122.34962" />
      <trkpt lat="41.36753" lon="-122.34961" />
      <trkpt lat="41.36752" lon="-122.34962" />
      <trkpt lat="41.36749" lon="-122.3496" />
      <trkpt lat="41.36743" lon="-122.34961" />
      <trkpt lat="41.36724" lon="-122.34955" />
      <trkpt lat="41.36706" lon="-122.34937" />
      <trkpt lat="41.3669" lon="-122.34918" />
      <trkpt lat="41.36683" lon="-122.34911" />
      <trkpt lat="41.36682" lon="-122.34909" />
      <trkpt lat="41.36685" lon="-122.34908" />
      <trkpt lat="41.36701" lon="-122.34909" />
      <trkpt lat="41.36719" lon="-122.34915" />
      <trkpt lat="41.36734" lon="-122.34911" />
      <trkpt lat="41.36741" lon="-122.34912" />
      <trkpt lat="41.36748" lon="-122.34914" />
      <trkpt lat="41.36752" lon="-122.34914" />
      <trkpt lat="41.36755" lon="-122.34918" />
      <trkpt lat="41.36758" lon="-122.34915" />
      <trkpt lat="41.36762" lon="-122.34898" />
      <trkpt lat="41.36759" lon="-122.34897" />
      <trkpt lat="41.36756" lon="-122.34899" />
      <trkpt lat="41.36746" lon="-122.34908" />
      <trkpt lat="41.36737" lon="-122.34912" />
      <trkpt lat="41.36731" lon="-122.3491" />
      <trkpt lat="41.36731" lon="-122.34907" />
      <trkpt lat="41.36737" lon="-122.34897" />
      <trkpt lat="41.36735" lon="-122.34892" />
      <trkpt lat="41.36725" lon="-122.34891" />
      <trkpt lat="41.36717" lon="-122.34893" />
      <trkpt lat="41.36712" lon="-122.3489" />
      <trkpt lat="41.36717" lon="-122.34876" />
      <trkpt lat="41.36722" lon="-122.34871" />
      <trkpt lat="41.36721" lon="-122.34866" />
      <trkpt lat="41.36699" lon="-122.34868" />
      <trkpt lat="41.36691" lon="-122.34861" />
      <trkpt lat="41.36689" lon="-122.34848" />
      <trkpt lat="41.36684" lon="-122.34841" />
      <trkpt lat="41.36675" lon="-122.34835" />
      <trkpt lat="41.36661" lon="-122.3482" />
    </trkseg>
  </trk>
</gpx>