<?xml version="1.0" encoding="UTF-8"?>
<gpx version="1.1" creator="strava-segment-scraper" xmlns="http://www.topografix.com/GPX/1/1">
  <trk>
    <name>Yosemite Falls Descent</name>
    <trkseg>
      <trkpt lat="37.75914" lon="-119.59827" />
      <trkpt lat="37.75932" lon="-119.59835" />
      <trkpt lat="37.75948" lon="-119.59847" />
      <trkpt lat="37.75941" lon="-119.59857" />
      <trkpt lat="37.75937" lon="-119.59857" />
      <trkpt lat="37.75936" lon="-119.59861" />
      <trkpt lat="37.75926" lon="-119.5987" />
      <trkpt lat="37.75906" lon="-119.59865" />
      <trkpt lat="37.75898" lon="-119.59862" />
      <trkpt lat="37.75897" lon="-119.59859" />
      <trkpt lat="37.75892" lon="-119.59861" />
      <trkpt lat="37.75904" lon="-119.59864" />
      <trkpt lat="37.7591" lon="-119.59869" />
      <trkpt lat="37.75919" lon="-119.59869" />
      <trkpt lat="37.75936" lon="-119.59876" />
      <trkpt lat="37.75942" lon="-119.59875" />
      <trkpt lat="37.75959" lon="-119.59878" />
      <trkpt lat="37.75962" lon="-119.59892" />
      <trkpt lat="37.75968" lon="-119.59896" />
      <trkpt lat="37.75965" lon="-119.59915" />
      <trkpt lat="37.75966" lon="-119.59917" />
      <trkpt lat="37.75957" lon="-119.59924" />
      <trkpt lat="37.75949" lon="-119.59924" />
      <trkpt lat="37.7593" lon="-119.59936" />
      <trkpt lat="37.75924" lon="-119.59941" />
      <trkpt lat="37.75921" lon="-119.59942" />
      <trkpt lat="37.75921" lon="-119.59937" />
      <trkpt lat="37.75919" lon="-119.59936" />
      <trkpt lat="37.75908" lon="-119.59942" />
      <trkpt lat="37.75902" lon="-119.59953" />
      <trkpt lat="37.75892" lon="-119.59961" />
      <trkpt lat="37.75889" lon="-119.59969" />
      <trkpt lat="37.7588" lon="-119.59983" />
      <trkpt lat="37.75875" lon="-119.59973" />
      <trkpt lat="37.75875" lon="-119.59965" />
      <trkpt lat="37.75872" lon="-119.59963" />
      <trkpt lat="37.75858" lon="-119.59986" />
      <trkpt lat="37.75857" lon="-119.59988" />
      <trkpt lat="37.75849" lon="-119.59986" />
      <trkpt lat="37.75847" lon="-119.59992" />
      <trkpt lat="37.7585" lon="-119.60009" />
      <trkpt lat="37.75852" lon="-119.60034" />
      <trkpt lat="37.7585" lon="-119.60033" />
      <trkpt lat="37.75847" lon="-119.60025" />
      <trkpt lat="37.75838" lon="-119.60014" />
      <trkpt lat="37.75835" lon="-119.60023" />
      <trkpt lat="37.75837" lon="-119.60028" />
      <trkpt lat="37.75835" lon="-119.60044" />
      <trkpt lat="37.75833" lon="-119.60044" />
      <trkpt lat="37.75818" lon="-119.60012" />
      <trkpt lat="37.75815" lon="-119.60013" />
      <trkpt lat="37.75814" lon="-119.60035" />
      <trkpt lat="37.75811" lon="-119.60041" />
      <trkpt lat="37.7581" lon="-119.60039" />
      <trkpt lat="37.75808" lon="-119.6004" />
      <trkpt lat="37.75808" lon="-119.60061" />
      <trkpt lat="37.75802" lon="-119.60083" />
      <trkpt lat="37.75801" lon="-119.60093" />
      <trkpt lat="37.75803" lon="-119.60111" />
      <trkpt lat="37.75798" lon="-119.60103" />
      <trkpt lat="37.75788" lon="-119.60072" />
      <trkpt lat="37.75781" lon="-119.60087" />
      <trkpt lat="37.75783" lon="-119.6011" />
      <trkpt lat="37.75781" lon="-119.60109" />
      <trkpt lat="37.75771" lon="-119.60081" />
      <trkpt lat="37.75758" lon="-119.60063" />
      <trkpt lat="37.75752" lon="-119.60076" />
      <trkpt lat="37.75755" lon="-119.60085" />
      <trkpt lat="37.75754" lon="-119.6009" />
      <trkpt lat="37.75754" lon="-119.60118" />
      <trkpt lat="37.75751" lon="-119.60134" />
      <trkpt lat="37.75746" lon="-119.60148" />
      <trkpt lat="37.75747" lon="-119.6015" />
      <trkpt lat="37.75746" lon="-119.60154" />
      <trkpt lat="37.7574" lon="-119.60171" />
      <trkpt lat="37.75736" lon="-119.60174" />
      <trkpt lat="37.75732" lon="-119.6016" />
      <trkpt lat="37.75721" lon="-119.60142" />
      <trkpt lat="37.75714" lon="-119.60119" />
      <trkpt lat="37.75712" lon="-119.6011" />
      <trkpt lat="37.75705" lon="-119.601" />
      <trkpt lat="37.75699" lon="-119.60121" />
      <trkpt lat="37.75701" lon="-119.60135" />
      <trkpt lat="37.75698" lon="-119.60145" />
      <trkpt lat="37.7569" lon="-119.60149" />
      <trkpt lat="37.7569" lon="-119.60152" />
      <trkpt lat="37.75673" lon="-119.60173" />
      <trkpt lat="37.75674" lon="-119.60181" />
      <trkpt lat="37.75673" lon="-119.60186" />
      <trkpt lat="37.75665" lon="-119.60196" />
      <trkpt lat="37.75663" lon="-119.6017" />
      <trkpt lat="37.75657" lon="-119.60144" />
      <trkpt lat="37.75652" lon="-119.60153" />
      <trkpt lat="37.7565" lon="-119.60167" />
      <trkpt lat="37.75645" lon="-119.60171" />
      <trkpt lat="37.75641" lon="-119.60154" />
      <trkpt lat="37.75639" lon="-119.60169" />
      <trkpt lat="37.75628" lon="-119.60173" />
      <trkpt lat="37.7562" lon="-119.60194" />
      <trkpt lat="37.75619" lon="-119.60218" />
      <trkpt lat="37.75617" lon="-119.6022" />
      <trkpt lat="37.75609" lon="-119.60211" />
      <trkpt lat="37.75601" lon="-119.60208" />
      <trkpt lat="37.756" lon="-119.60203" />
      <trkpt lat="37.75597" lon="-119.602" />
      <trkpt lat="37.75595" lon="-119.602" />
      <trkpt lat="37.75595" lon="-119.60205" />
      <trkpt lat="37.75592" lon="-119.6021" />
      <trkpt lat="37.75571" lon="-119.60228" />
      <trkpt lat="37.75571" lon="-119.60238" />
      <trkpt lat="37.75569" lon="-119.60245" />
      <trkpt lat="37.75555" lon="-119.60239" />
      <trkpt lat="37.75543" lon="-119.60238" />
      <trkpt lat="37.75542" lon="-119.60236" />
      <trkpt lat="37.75545" lon="-119.60225" />
      <trkpt lat="37.75547" lon="-119.60224" />
      <trkpt lat="37.7555" lon="-119.60219" />
      <trkpt lat="37.75557" lon="-119.60213" />
      <trkpt lat="37.75563" lon="-119.602" />
      <trkpt lat="37.75566" lon="-119.60189" />
      <trkpt lat="37.75552" lon="-119.60193" />
      <trkpt lat="37.75541" lon="-119.60199" />
      <trkpt lat="37.75538" lon="-119.60198" />
      <trkpt lat="37.75538" lon="-119.60201" />
      <trkpt lat="37.75535" lon="-119.60202" />
      <trkpt lat="37.75532" lon="-119.60201" />
      <trkpt lat="37.75518" lon="-119.60195" />
      <trkpt lat="37.75529" lon="-119.60177" />
      <trkpt lat="37.7553" lon="-119.60178" />
      <trkpt lat="37.75533" lon="-119.60168" />
      <trkpt lat="37.75528" lon="-119.6017" />
      <trkpt lat="37.75515" lon="-119.60172" />
      <trkpt lat="37.75519" lon="-119.60172" />
      <trkpt lat="37.75521" lon="-119.60166" />
      <trkpt lat="37.75523" lon="-119.60169" />
      <trkpt lat="37.75512" lon="-119.60165" />
      <trkpt lat="37.75503" lon="-119.60159" />
      <trkpt lat="37.75488" lon="-119.60163" />
      <trkpt lat="37.75485" lon="-119.60162" />
      <trkpt lat="37.75477" lon="-119.60166" />
      <trkpt lat="37.75481" lon="-119.60166" />
      <trkpt lat="37.75492" lon="-119.60161" />
      <trkpt lat="37.75493" lon="-119.60158" />
      <trkpt lat="37.75497" lon="-119.60159" />
      <trkpt lat="37.75503" lon="-119.60148" />
      <trkpt lat="37.75505" lon="-119.60138" />
      <trkpt lat="37.755" lon="-119.60137" />
      <trkpt lat="37.75489" lon="-119.60145" />
      <trkpt lat="37.75486" lon="-119.60138" />
      <trkpt lat="37.75468" lon="-119.60127" />
      <trkpt lat="37.7547" lon="-119.60121" />
      <trkpt lat="37.75475" lon="-119.6012" />
      <trkpt lat="37.75477" lon="-119.60115" />
      <trkpt lat="37.75469" lon="-119.60116" />
      <trkpt lat="37.75472" lon="-119.60111" />
      <trkpt lat="37.75481" lon="-119.60109" />
      <trkpt lat="37.75486" lon="-119.60105" />
      <trkpt lat="37.75485" lon="-119.60094" />
      <trkpt lat="37.75473" lon="-119.60094" />
      <trkpt lat="37.75469" lon="-119.60091" />
      <trkpt lat="37.75449" lon="-119.60085" />
      <trkpt lat="37.75454" lon="-119.60083" />
      <trkpt lat="37.75456" lon="-119.60085" />
      <trkpt lat="37.75461" lon="-119.60079" />
      <trkpt lat="37.75476" lon="-119.60067" />
      <trkpt lat="37.75486" lon="-119.60065" />
      <trkpt lat="37.75488" lon="-119.60058" />
      <trkpt lat="37.755" lon="-119.60042" />
      <trkpt lat="37.75516" lon="-119.6007" />
      <trkpt lat="37.75516" lon="-119.60068" />
      <trkpt lat="37.75503" lon="-119.60046" />
      <trkpt lat="37.755" lon="-119.60037" />
      <trkpt lat="37.75493" lon="-119.60033" />
      <trkpt lat="37.75491" lon="-119.60024" />
      <trkpt lat="37.75497" lon="-119.60031" />
      <trkpt lat="37.755" lon="-119.60029" />
      <trkpt lat="37.75499" lon="-119.60019" />
      <trkpt lat="37.75505" lon="-119.60031" />
      <trkpt lat="37.75517" lon="-119.60045" />
      <trkpt lat="37.75518" lon="-119.60037" />
      <trkpt lat="37.7551" lon="-119.60023" />
      <trkpt lat="37.75503" lon="-119.60008" />
      <trkpt lat="37.755" lon="-119.60004" />
      <trkpt lat="37.75499" lon="-119.60006" />
      <trkpt lat="37.75487" lon="-119.60004" />
      <trkpt lat="37.75484" lon="-119.60006" />
      <trkpt lat="37.75475" lon="-119.60006" />
      <trkpt lat="37.75471" lon="-119.60002" />
      <trkpt lat="37.75458" lon="-119.59997" />
      <trkpt lat="37.75445" lon="-119.60001" />
      <trkpt lat="37.75444" lon="-119.59999" />
      <trkpt lat="37.75464" lon="-119.59997" />
      <trkpt lat="37.75449" lon="-119.59989" />
      <trkpt lat="37.75448" lon="-119.59995" />
      <trkpt lat="37.75443" lon="-119.5999" />
      <trkpt lat="37.75435" lon="-119.59993" />
      <trkpt lat="37.75435" lon="-119.59981" />
      <trkpt lat="37.75437" lon="-119.5998" />
      <trkpt lat="37.75437" lon="-119.59976" />
      <trkpt lat="37.75429" lon="-119.59966" />
      <trkpt lat="37.75405" lon="-119.59992" />
      <trkpt lat="37.75405" lon="-119.59984" />
      <trkpt lat="37.75407" lon="-119.59975" />
      <trkpt lat="37.75412" lon="-119.59976" />
      <trkpt lat="37.75415" lon="-119.5997" />
      <trkpt lat="37.75422" lon="-119.59966" />
      <trkpt lat="37.75421" lon="-119.59957" />
      <trkpt lat="37.75418" lon="-119.59953" />
      <trkpt lat="37.75412" lon="-119.59932" />
      <trkpt lat="37.75403" lon="-119.59934" />
      <trkpt lat="37.75398" lon="-119.59938" />
      <trkpt lat="37.75388" lon="-119.59927" />
      <trkpt lat="37.75397" lon="-119.59932" />
      <trkpt lat="37.75391" lon="-119.59929" />
      <trkpt lat="37.75395" lon="-119.59926" />
      <trkpt lat="37.75397" lon="-119.5992" />
      <trkpt lat="37.75395" lon="-119.59908" />
      <trkpt lat="37.75389" lon="-119.59918" />
      <trkpt lat="37.75384" lon="-119.59923" />
      <trkpt lat="37.75372" lon="-119.59928" />
      <trkpt lat="37.75368" lon="-119.59922" />
      <trkpt lat="37.75367" lon="-119.59918" />
      <trkpt lat="37.7537" lon="-119.59909" />
      <trkpt lat="37.75369" lon="-119.59909" />
      <trkpt lat="37.75363" lon="-119.59918" />
      <trkpt lat="37.75357" lon="-119.59923" />
      <trkpt lat="37.75355" lon="-119.59923" />
      <trkpt lat="37.75343" lon="-119.59909" />
      <trkpt lat="37.75334" lon="-119.59905" />
      <trkpt lat="37.75326" lon="-119.59909" />
      <trkpt lat="37.75324" lon="-119.59905" />
      <trkpt lat="37.7532" lon="-119.59904" />
      <trkpt lat="37.75309" lon="-119.59904" />
      <trkpt lat="37.7529" lon="-119.59893" />
      <trkpt lat="37.75274" lon="-119.59896" />
      <trkpt lat="37.75247" lon="-119.59907" />
      <trkpt lat="37.75238" lon="-119.599" />
      <trkpt lat="37.75224" lon="-119.59898" />
      <trkpt lat="37.75215" lon="-119.5989" />
      <trkpt lat="37.75201" lon="-119.59888" />
      <trkpt lat="37.75154" lon="-119.5989" />
      <trkpt lat="37.75145" lon="-119.59889" />
      <trkpt lat="37.75138" lon="-119.59885" />
      <trkpt lat="37.75129" lon="-119.59872" />
      <trkpt lat="37.75112" lon="-119.59868" />
      <trkpt lat="37.75103" lon="-119.59873" />
      <trkpt lat="37.75103" lon="-119.59856" />
      <trkpt lat="37.75074" lon="-119.59844" />
      <trkpt lat="37.75074" lon="-119.59851" />
      <trkpt lat="37.75075" lon="-119.59855" />
      <trkpt lat="37.75072" lon="-119.59853" />
      <trkpt lat="37.75066" lon="-119.59853" />
      <trkpt lat="37.75059" lon="-119.59857" />
      <trkpt lat="37.75056" lon="-119.59857" />
      <trkpt lat="37.75054" lon="-119.59861" />
      <trkpt lat="37.75043" lon="-119.59858" />
      <trkpt lat="37.75039" lon="-119.59858" />
      <trkpt lat="37.7503" lon="-119.5988" />
      <trkpt lat="37.75025" lon="-119.59901" />
      <trkpt lat="37.75022" lon="-119.59908" />
      <trkpt lat="37.75021" lon="-119.59924" />
      <trkpt lat="37.75017" lon="-119.59934" />
      <trkpt lat="37.75002" lon="-119.59948" />
      <trkpt lat="37.74996" lon="-119.59969" />
      <trkpt lat="37.74979" lon="-119.59998" />
      <trkpt lat="37.7496" lon="-119.60016" />
      <trkpt lat="37.74948" lon="-119.60035" />
      <trkpt lat="37.74946" lon="-119.60053" />
      <trkpt lat="37.7494" lon="-119.60059" />
      <trkpt lat="37.74937" lon="-119.60082" />
      <trkpt lat="37.74928" lon="-119.60095" />
      <trkpt lat="37.74925" lon="-119.60096" />
      <trkpt lat="37.74917" lon="-119.60107" />
      <trkpt lat="37.74908" lon="-119.6011" />
      <trkpt lat="37.74894" lon="-119.60135" />
      <trkpt lat="37.74884" lon="-119.60143" />
      <trkpt lat="37.74882" lon="-119.60143" />
      <trkpt lat="37.74873" lon="-119.60157" />
      <trkpt lat="37.74873" lon="-119.60158" />
      <trkpt lat="37.74882" lon="-119.60155" />
      <trkpt lat="37.74878" lon="-119.6016" />
      <trkpt lat="37.74873" lon="-119.60171" />
      <trkpt lat="37.74858" lon="-119.60188" />
      <trkpt lat="37.74855" lon="-119.60196" />
      <trkpt lat="37.74849" lon="-119.60196" />
      <trkpt lat="37.74825" lon="-119.60211" />
      <trkpt lat="37.74785" lon="-119.60204" />
      <trkpt lat="37.74765" lon="-119.60207" />
      <trkpt lat="37.74744" lon="-119.6022" />
      <trkpt lat="37.74733" lon="-119.6023" />
      <trkpt lat="37.74721" lon="-119.60247" />
      <trkpt lat="37.74715" lon="-119.60259" />
      <trkpt lat="37.74709" lon="-119.60266" />
      <trkpt lat="37.74693" lon="-119.60274" />
      <trkpt lat="37.74678" lon="-119.60287" />
      <trkpt lat="37.74676" lon="-119.60297" />
      <trkpt lat="37.7467" lon="-119.60285" />
      <trkpt lat="37.74661" lon="-119.60277" />
      <trkpt lat="37.74659" lon="-119.60283" />
      <trkpt lat="37.74658" lon="-119.60304" />
      <trkpt lat="37.74661" lon="-119.60318" />
      <trkpt lat="37.74659" lon="-119.60323" />
      <trkpt lat="37.74648" lon="-119.60307" />
      <trkpt lat="37.74642" lon="-119.60315" />
      <trkpt lat="37.74646" lon="-119.60323" />
      <trkpt lat="37.74638" lon="-119.60311" />
      <trkpt lat="37.74636" lon="-119.6031" />
      <trkpt lat="37.74636" lon="-119.6033" />
      <trkpt lat="37.74643" lon="-119.60354" />
      <trkpt lat="37.74646" lon="-119.60358" />
      <trkpt lat="37.74638" lon="-119.60347" />
      <trkpt lat="37.74634" lon="-119.60345" />
      <trkpt lat="37.74635" lon="-119.60361" />
      <trkpt lat="37.74643" lon="-119.6038" />
      <trkpt lat="37.74638" lon="-119.60381" />
      <trkpt lat="37.74634" lon="-119.60376" />
      <trkpt lat="37.74625" lon="-119.60376" />
      <trkpt lat="37.74622" lon="-119.60375" />
      <trkpt lat="37.74636" lon="-119.60393" />
      <trkpt lat="37.74634" lon="-119.60392" />
      <trkpt lat="37.74628" lon="-119.60392" />
      <trkpt lat="37.74629" lon="-119.60395" />
      <trkpt lat="37.74621" lon="-119.60394" />
      <trkpt lat="37.74618" lon="-119.6039" />
      <trkpt lat="37.74618" lon="-119.60393" />
      <trkpt lat="37.74625" lon="-119.60402" />
      <trkpt lat="37.74634" lon="-119.60423" />
      <trkpt lat="37.74626" lon="-119.6043" />
      <trkpt lat="37.74623" lon="-119.60436" />
      <trkpt lat="37.74624" lon="-119.60439" />
      <trkpt lat="37.74619" lon="-119.60437" />
      <trkpt lat="37.74616" lon="-119.60444" />
      <trkpt lat="37.74623" lon="-119.60492" />
      <trkpt lat="37.74622" lon="-119.60493" />
      <trkpt lat="37.7462" lon="-119.60491" />
      <trkpt lat="37.74619" lon="-119.605" />
      <trkpt lat="37.74609" lon="-119.60526" />
      <trkpt lat="37.74607" lon="-119.6054" />
      <trkpt lat="37.746" lon="-119.60556" />
      <trkpt lat="37.74602" lon="-119.6056" />
      <trkpt lat="37.74595" lon="-119.60575" />
      <trkpt lat="37.74596" lon="-119.60583" />
      <trkpt lat="37.74589" lon="-119.60604" />
      <trkpt lat="37.74583" lon="-119.60613" />
      <trkpt lat="37.74574" lon="-119.6062" />
      <trkpt lat="37.74574" lon="-119.60638" />
      <trkpt lat="37.74571" lon="-119.60642" />
      <trkpt lat="37.74561" lon="-119.60642" />
      <trkpt lat="37.74557" lon="-119.60639" />
      <trkpt lat="37.74537" lon="-119.60637" />
      <trkpt lat="37.74527" lon="-119.60637" />
      <trkpt lat="37.74524" lon="-119.60639" />
      <trkpt lat="37.74523" lon="-119.60637" />
      <trkpt lat="37.7453" lon="-119.60628" />
      <trkpt lat="37.74531" lon="-119.60621" />
      <trkpt lat="37.74528" lon="-119.60622" />
      <trkpt lat="37.74521" lon="-119.60632" />
      <trkpt lat="37.74528" lon="-119.6062" />
      <trkpt lat="37.74524" lon="-119.60615" />
      <trkpt lat="37.74512" lon="-119.60615" />
      <trkpt lat="37.74516" lon="-119.60605" />
      <trkpt lat="37.74525" lon="-119.60596" />
      <trkpt lat="37.74525" lon="-119.60593" />
      <trkpt lat="37.74514" lon="-119.60599" />
      <trkpt lat="37.74497" lon="-119.60595" />
      <trkpt lat="37.74501" lon="-119.60593" />
      <trkpt lat="37.74498" lon="-119.60592" />
      <trkpt lat="37.74506" lon="-119.60577" />
      <trkpt lat="37.74512" lon="-119.60573" />
      <trkpt lat="37.74509" lon="-119.6057" />
      <trkpt lat="37.74496" lon="-119.60562" />
      <trkpt lat="37.74487" lon="-119.60564" />
      <trkpt lat="37.74494" lon="-119.6055" />
      <trkpt lat="37.74498" lon="-119.60551" />
      <trkpt lat="37.74501" lon="-119.60544" />
      <trkpt lat="37.74496" lon="-119.60546" />
      <trkpt lat="37.7449" lon="-119.60537" />
      <trkpt lat="37.74481" lon="-119.60543" />
      <trkpt lat="37.74479" lon="-119.60539" />
      <trkpt lat="37.7448" lon="-119.60537" />
      <trkpt lat="37.74492" lon="-119.60533" />
      <trkpt lat="37.74494" lon="-119.60528" />
      <trkpt lat="37.74489" lon="-119.60524" />
      <trkpt lat="37.74483" lon="-119.60526" />
      <trkpt lat="37.74482" lon="-119.60522" />
      <trkpt lat="37.74485" lon="-119.60518" />
      <trkpt lat="37.74489" lon="-119.60515" />
      <trkpt lat="37.7448" lon="-119.60518" />
      <trkpt lat="37.74474" lon="-119.60515" />
      <trkpt lat="37.74479" lon="-119.60513" />
      <trkpt lat="37.74482" lon="-119.60508" />
      <trkpt lat="37.74484" lon="-119.60499" />
      <trkpt lat="37.74483" lon="-119.60498" />
      <trkpt lat="37.74475" lon="-119.60498" />
      <trkpt lat="37.74472" lon="-119.60495" />
      <trkpt lat="37.74479" lon="-119.60492" />
      <trkpt lat="37.74479" lon="-119.60489" />
      <trkpt lat="37.74471" lon="-119.60495" />
      <trkpt lat="37.74466" lon="-119.60494" />
      <trkpt lat="37.74459" lon="-119.60496" />
      <trkpt lat="37.74451" lon="-119.60493" />
      <trkpt lat="37.74462" lon="-119.60482" />
      <trkpt lat="37.74467" lon="-119.60481" />
      <trkpt lat="37.74465" lon="-119.60479" />
      <trkpt lat="37.74452" lon="-119.60471" />
      <trkpt lat="37.74436" lon="-119.60475" />
      <trkpt lat="37.74446" lon="-119.60471" />
      <trkpt lat="37.74454" lon="-119.60461" />
      <trkpt lat="37.74439" lon="-119.60464" />
      <trkpt lat="37.74431" lon="-119.60457" />
      <trkpt lat="37.7444" lon="-119.60441" />
      <trkpt lat="37.74441" lon="-119.60438" />
      <trkpt lat="37.74437" lon="-119.60431" />
      <trkpt lat="37.74439" lon="-119.60423" />
      <trkpt lat="37.74437" lon="-119.60431" />
      <trkpt lat="37.74433" lon="-119.6043" />
      <trkpt lat="37.74434" lon="-119.60419" />
      <trkpt lat="37.74431" lon="-119.6042" />
      <trkpt lat="37.74422" lon="-119.60432" />
      <trkpt lat="37.7442" lon="-119.60432" />
      <trkpt lat="37.74424" lon="-119.60429" />
      <trkpt lat="37.74425" lon="-119.60422" />
      <trkpt lat="37.7442" lon="-119.60425" />
      <trkpt lat="37.74412" lon="-119.60421" />
      <trkpt lat="37.74418" lon="-119.60412" />
      <trkpt lat="37.74414" lon="-119.60399" />
      <trkpt lat="37.74412" lon="-119.60403" />
      <trkpt lat="37.74405" lon="-119.60401" />
      <trkpt lat="37.74402" lon="-119.60397" />
      <trkpt lat="37.74404" lon="-119.60394" />
      <trkpt lat="37.74401" lon="-119.60382" />
      <trkpt lat="37.74398" lon="-119.60387" />
      <trkpt lat="37.74394" lon="-119.6038" />
      <trkpt lat="37.74397" lon="-119.60378" />
      <trkpt lat="37.74392" lon="-119.60369" />
      <trkpt lat="37.74387" lon="-119.60375" />
      <trkpt lat="37.74386" lon="-119.60372" />
      <trkpt lat="37.74387" lon="-119.60358" />
      <trkpt lat="37.74378" lon="-119.60365" />
      <trkpt lat="37.7437" lon="-119.60364" />
      <trkpt lat="37.74366" lon="-119.60354" />
      <trkpt lat="37.7436" lon="-119.60361" />
      <trkpt lat="37.74354" lon="-119.6034" />
      <trkpt lat="37.7435" lon="-119.60357" />
      <trkpt lat="37.74346" lon="-119.6036" />
      <trkpt lat="37.74334" lon="-119.60343" />
      <trkpt lat="37.74329" lon="-119.60319" />
      <trkpt lat="37.7433" lon="-119.60316" />
      <trkpt lat="37.74328" lon="-119.60311" />
      <trkpt lat="37.74319" lon="-119.60323" />
      <trkpt lat="37.74311" lon="-119.60343" />
      <trkpt lat="37.74307" lon="-119.60345" />
      <trkpt lat="37.74305" lon="-119.60334" />
      <trkpt lat="37.74299" lon="-119.60328" />
      <trkpt lat="37.74295" lon="-119.6033" />
      <trkpt lat="37.74281" lon="-119.60324" />
    </trkseg>
  </trk>
</gpx>