<?xml version="1.0" encoding="UTF-8"?>
<gpx version="1.1" creator="strava-segment-scraper" xmlns="http://www.topografix.com/GPX/1/1">
  <trk>
    <name>3 miles on Sawyer Camp Trail North-South</name>
    <trkseg>
      <trkpt lat="37.55799" lon="-122.39124" />
      <trkpt lat="37.558" lon="-122.39135" />
      <trkpt lat="37.55778" lon="-122.39083" />
      <trkpt lat="37.55767" lon="-122.39065" />
      <trkpt lat="37.55757" lon="-122.39054" />
      <trkpt lat="37.55747" lon="-122.39034" />
      <trkpt lat="37.55738" lon="-122.39023" />
      <trkpt lat="37.55726" lon="-122.3902" />
      <trkpt lat="37.55713" lon="-122.3902" />
      <trkpt lat="37.55676" lon="-122.39003" />
      <trkpt lat="37.55648" lon="-122.38983" />
      <trkpt lat="37.55637" lon="-122.38972" />
      <trkpt lat="37.5562" lon="-122.38953" />
      <trkpt lat="37.55609" lon="-122.38938" />
      <trkpt lat="37.55597" lon="-122.3893" />
      <trkpt lat="37.55581" lon="-122.38924" />
      <trkpt lat="37.55568" lon="-122.38911" />
      <trkpt lat="37.55545" lon="-122.38878" />
      <trkpt lat="37.55539" lon="-122.38864" />
      <trkpt lat="37.55537" lon="-122.38826" />
      <trkpt lat="37.55539" lon="-122.38804" />
      <trkpt lat="37.55543" lon="-122.38789" />
      <trkpt lat="37.55531" lon="-122.38781" />
      <trkpt lat="37.55507" lon="-122.38802" />
      <trkpt lat="37.55491" lon="-122.38802" />
      <trkpt lat="37.55477" lon="-122.38795" />
      <trkpt lat="37.55458" lon="-122.38776" />
      <trkpt lat="37.5545" lon="-122.3877" />
      <trkpt lat="37.5543" lon="-122.38741" />
      <trkpt lat="37.55427" lon="-122.38722" />
      <trkpt lat="37.55427" lon="-122.3871" />
      <trkpt lat="37.55431" lon="-122.38679" />
      <trkpt lat="37.55423" lon="-122.38671" />
      <trkpt lat="37.55404" lon="-122.38693" />
      <trkpt lat="37.55397" lon="-122.38696" />
      <trkpt lat="37.55381" lon="-122.38697" />
      <trkpt lat="37.55363" lon="-122.38692" />
      <trkpt lat="37.55343" lon="-122.38679" />
      <trkpt lat="37.55333" lon="-122.38669" />
      <trkpt lat="37.55325" lon="-122.38663" />
      <trkpt lat="37.55316" lon="-122.3866" />
      <trkpt lat="37.55294" lon="-122.38662" />
      <trkpt lat="37.55283" lon="-122.3866" />
      <trkpt lat="37.55266" lon="-122.38652" />
      <trkpt lat="37.55252" lon="-122.38636" />
      <trkpt lat="37.5524" lon="-122.38618" />
      <trkpt lat="37.55226" lon="-122.38588" />
      <trkpt lat="37.55223" lon="-122.38557" />
      <trkpt lat="37.55221" lon="-122.38556" />
      <trkpt lat="37.55191" lon="-122.38562" />
      <trkpt lat="37.55175" lon="-122.38557" />
      <trkpt lat="37.5515" lon="-122.38536" />
      <trkpt lat="37.55126" lon="-122.3852" />
      <trkpt lat="37.55096" lon="-122.38492" />
      <trkpt lat="37.55092" lon="-122.38491" />
      <trkpt lat="37.55079" lon="-122.38497" />
      <trkpt lat="37.55066" lon="-122.38512" />
      <trkpt lat="37.55055" lon="-122.38513" />
      <trkpt lat="37.55012" lon="-122.38496" />
      <trkpt lat="37.54999" lon="-122.38487" />
      <trkpt lat="37.5496" lon="-122.38437" />
      <trkpt lat="37.54946" lon="-122.38429" />
      <trkpt lat="37.54933" lon="-122.38411" />
      <trkpt lat="37.54919" lon="-122.38396" />
      <trkpt lat="37.54908" lon="-122.38396" />
      <trkpt lat="37.5488" lon="-122.38403" />
      <trkpt lat="37.54854" lon="-122.38394" />
      <trkpt lat="37.54829" lon="-122.38375" />
      <trkpt lat="37.54813" lon="-122.38359" />
      <trkpt lat="37.54803" lon="-122.3834" />
      <trkpt lat="37.5479" lon="-122.38325" />
      <trkpt lat="37.54758" lon="-122.38293" />
      <trkpt lat="37.54748" lon="-122.38289" />
      <trkpt lat="37.54732" lon="-122.38271" />
      <trkpt lat="37.54726" lon="-122.38254" />
      <trkpt lat="37.54728" lon="-122.38217" />
      <trkpt lat="37.54718" lon="-122.38198" />
      <trkpt lat="37.54713" lon="-122.38195" />
      <trkpt lat="37.54677" lon="-122.38192" />
      <trkpt lat="37.54664" lon="-122.38188" />
      <trkpt lat="37.54653" lon="-122.38181" />
      <trkpt lat="37.54627" lon="-122.38159" />
      <trkpt lat="37.54601" lon="-122.38092" />
      <trkpt lat="37.54593" lon="-122.38053" />
      <trkpt lat="37.54584" lon="-122.38047" />
      <trkpt lat="37.54556" lon="-122.38035" />
      <trkpt lat="37.54541" lon="-122.38027" />
      <trkpt lat="37.54518" lon="-122.3801" />
      <trkpt lat="37.54498" lon="-122.37988" />
      <trkpt lat="37.54494" lon="-122.37973" />
      <trkpt lat="37.54489" lon="-122.379" />
      <trkpt lat="37.54481" lon="-122.37894" />
      <trkpt lat="37.54469" lon="-122.379" />
      <trkpt lat="37.54451" lon="-122.37901" />
      <trkpt lat="37.5444" lon="-122.37896" />
      <trkpt lat="37.54411" lon="-122.37862" />
      <trkpt lat="37.54401" lon="-122.37857" />
      <trkpt lat="37.54378" lon="-122.37851" />
      <trkpt lat="37.54368" lon="-122.37841" />
      <trkpt lat="37.5436" lon="-122.37821" />
      <trkpt lat="37.54361" lon="-122.37806" />
      <trkpt lat="37.54353" lon="-122.37798" />
      <trkpt lat="37.54339" lon="-122.37802" />
      <trkpt lat="37.54327" lon="-122.37793" />
      <trkpt lat="37.5431" lon="-122.37773" />
      <trkpt lat="37.54298" lon="-122.37762" />
      <trkpt lat="37.54286" lon="-122.37761" />
      <trkpt lat="37.54277" lon="-122.37758" />
      <trkpt lat="37.54261" lon="-122.37746" />
      <trkpt lat="37.54253" lon="-122.37733" />
      <trkpt lat="37.54229" lon="-122.37708" />
      <trkpt lat="37.54224" lon="-122.37696" />
      <trkpt lat="37.54211" lon="-122.37674" />
      <trkpt lat="37.54207" lon="-122.37659" />
      <trkpt lat="37.54199" lon="-122.37643" />
      <trkpt lat="37.54184" lon="-122.37641" />
      <trkpt lat="37.54173" lon="-122.37636" />
      <trkpt lat="37.54137" lon="-122.37601" />
      <trkpt lat="37.54119" lon="-122.37593" />
      <trkpt lat="37.54087" lon="-122.3759" />
      <trkpt lat="37.54074" lon="-122.37586" />
      <trkpt lat="37.54061" lon="-122.37575" />
      <trkpt lat="37.54044" lon="-122.37557" />
      <trkpt lat="37.54031" lon="-122.3755" />
      <trkpt lat="37.54016" lon="-122.37551" />
      <trkpt lat="37.54005" lon="-122.37549" />
      <trkpt lat="37.53994" lon="-122.37542" />
      <trkpt lat="37.53982" lon="-122.37527" />
      <trkpt lat="37.53973" lon="-122.37509" />
      <trkpt lat="37.53976" lon="-122.37485" />
      <trkpt lat="37.54" lon="-122.37456" />
      <trkpt lat="37.54006" lon="-122.37439" />
      <trkpt lat="37.5401" lon="-122.37416" />
      <trkpt lat="37.53997" lon="-122.37402" />
      <trkpt lat="37.53983" lon="-122.37395" />
      <trkpt lat="37.53969" lon="-122.37393" />
      <trkpt lat="37.53959" lon="-122.37387" />
      <trkpt lat="37.53946" lon="-122.37389" />
      <trkpt lat="37.53938" lon="-122.37395" />
      <trkpt lat="37.53922" lon="-122.37417" />
      <trkpt lat="37.53909" lon="-122.37426" />
      <trkpt lat="37.53887" lon="-122.37429" />
      <trkpt lat="37.53873" lon="-122.37429" />
      <trkpt lat="37.53855" lon="-122.37426" />
      <trkpt lat="37.53837" lon="-122.37419" />
      <trkpt lat="37.53824" lon="-122.3741" />
      <trkpt lat="37.53812" lon="-122.37397" />
      <trkpt lat="37.53802" lon="-122.3738" />
      <trkpt lat="37.538" lon="-122.37362" />
      <trkpt lat="37.53808" lon="-122.37346" />
      <trkpt lat="37.53846" lon="-122.37322" />
      <trkpt lat="37.53857" lon="-122.37307" />
      <trkpt lat="37.53883" lon="-122.37282" />
      <trkpt lat="37.53902" lon="-122.37255" />
      <trkpt lat="37.53904" lon="-122.37229" />
      <trkpt lat="37.53877" lon="-122.37224" />
      <trkpt lat="37.53854" lon="-122.37217" />
      <trkpt lat="37.53843" lon="-122.37209" />
      <trkpt lat="37.53829" lon="-122.37203" />
      <trkpt lat="37.53814" lon="-122.37192" />
      <trkpt lat="37.53811" lon="-122.37179" />
      <trkpt lat="37.53809" lon="-122.37149" />
      <trkpt lat="37.5381" lon="-122.37126" />
      <trkpt lat="37.53807" lon="-122.3711" />
      <trkpt lat="37.53802" lon="-122.37102" />
      <trkpt lat="37.53792" lon="-122.37105" />
      <trkpt lat="37.53777" lon="-122.37119" />
      <trkpt lat="37.53766" lon="-122.37133" />
      <trkpt lat="37.53715" lon="-122.37176" />
      <trkpt lat="37.53704" lon="-122.37173" />
      <trkpt lat="37.53691" lon="-122.37163" />
      <trkpt lat="37.53663" lon="-122.37133" />
      <trkpt lat="37.5365" lon="-122.37113" />
      <trkpt lat="37.53638" lon="-122.37101" />
      <trkpt lat="37.53595" lon="-122.37097" />
      <trkpt lat="37.53552" lon="-122.37081" />
      <trkpt lat="37.53538" lon="-122.37073" />
      <trkpt lat="37.53517" lon="-122.37054" />
      <trkpt lat="37.53488" lon="-122.37003" />
      <trkpt lat="37.53482" lon="-122.36981" />
      <trkpt lat="37.53469" lon="-122.36949" />
      <trkpt lat="37.53446" lon="-122.36904" />
      <trkpt lat="37.53438" lon="-122.36879" />
      <trkpt lat="37.53426" lon="-122.36829" />
      <trkpt lat="37.53427" lon="-122.36773" />
      <trkpt lat="37.53425" lon="-122.36754" />
      <trkpt lat="37.5342" lon="-122.36736" />
      <trkpt lat="37.53409" lon="-122.36727" />
      <trkpt lat="37.53394" lon="-122.3672" />
      <trkpt lat="37.53378" lon="-122.36713" />
      <trkpt lat="37.53365" lon="-122.36711" />
      <trkpt lat="37.53347" lon="-122.36705" />
      <trkpt lat="37.53334" lon="-122.36709" />
      <trkpt lat="37.53325" lon="-122.3672" />
      <trkpt lat="37.53312" lon="-122.36727" />
      <trkpt lat="37.53295" lon="-122.36726" />
      <trkpt lat="37.53278" lon="-122.36719" />
      <trkpt lat="37.53268" lon="-122.36705" />
      <trkpt lat="37.5326" lon="-122.36668" />
      <trkpt lat="37.53258" lon="-122.36642" />
      <trkpt lat="37.53247" lon="-122.36637" />
      <trkpt lat="37.53233" lon="-122.36641" />
      <trkpt lat="37.53198" lon="-122.36635" />
      <trkpt lat="37.53179" lon="-122.36637" />
      <trkpt lat="37.53166" lon="-122.36634" />
      <trkpt lat="37.53153" lon="-122.36627" />
      <trkpt lat="37.53139" lon="-122.36613" />
      <trkpt lat="37.53113" lon="-122.36583" />
      <trkpt lat="37.53106" lon="-122.36564" />
      <trkpt lat="37.531" lon="-122.36504" />
      <trkpt lat="37.53093" lon="-122.36462" />
      <trkpt lat="37.5309" lon="-122.36431" />
    </trkseg>
  </trk>
</gpx>