<?xml version="1.0" encoding="UTF-8"?>
<gpx version="1.1" creator="strava-segment-scraper" xmlns="http://www.topografix.com/GPX/1/1">
  <trk>
    <name>Orr Springs Westside descent</name>
    <trkseg>
      <trkpt lat="39.21671" lon="-123.32578" />
      <trkpt lat="39.21726" lon="-123.32617" />
      <trkpt lat="39.21738" lon="-123.32624" />
      <trkpt lat="39.21793" lon="-123.32636" />
      <trkpt lat="39.21839" lon="-123.32635" />
      <trkpt lat="39.21885" lon="-123.32652" />
      <trkpt lat="39.21904" lon="-123.32684" />
      <trkpt lat="39.21911" lon="-123.32702" />
      <trkpt lat="39.21919" lon="-123.32741" />
      <trkpt lat="39.21916" lon="-123.32799" />
      <trkpt lat="39.21899" lon="-123.32833" />
      <trkpt lat="39.21875" lon="-123.32858" />
      <trkpt lat="39.21859" lon="-123.32864" />
      <trkpt lat="39.21806" lon="-123.32893" />
      <trkpt lat="39.21791" lon="-123.32923" />
      <trkpt lat="39.21781" lon="-123.32976" />
      <trkpt lat="39.21788" lon="-123.33011" />
      <trkpt lat="39.21805" lon="-123.33038" />
      <trkpt lat="39.21825" lon="-123.33064" />
      <trkpt lat="39.21845" lon="-123.33085" />
      <trkpt lat="39.21862" lon="-123.3313" />
      <trkpt lat="39.2186" lon="-123.33147" />
      <trkpt lat="39.21862" lon="-123.33245" />
      <trkpt lat="39.21873" lon="-123.33299" />
      <trkpt lat="39.21903" lon="-123.33313" />
      <trkpt lat="39.21946" lon="-123.33323" />
      <trkpt lat="39.21985" lon="-123.33347" />
      <trkpt lat="39.22012" lon="-123.3336" />
      <trkpt lat="39.22039" lon="-123.33356" />
      <trkpt lat="39.22074" lon="-123.33372" />
      <trkpt lat="39.2209" lon="-123.33386" />
      <trkpt lat="39.22114" lon="-123.33444" />
      <trkpt lat="39.22138" lon="-123.3351" />
      <trkpt lat="39.22157" lon="-123.33548" />
      <trkpt lat="39.22167" lon="-123.33604" />
      <trkpt lat="39.22167" lon="-123.33658" />
      <trkpt lat="39.22178" lon="-123.33681" />
      <trkpt lat="39.22202" lon="-123.33722" />
      <trkpt lat="39.22235" lon="-123.33748" />
      <trkpt lat="39.22244" lon="-123.33752" />
      <trkpt lat="39.22267" lon="-123.33777" />
      <trkpt lat="39.22283" lon="-123.33813" />
      <trkpt lat="39.22311" lon="-123.33829" />
      <trkpt lat="39.22344" lon="-123.33834" />
      <trkpt lat="39.22388" lon="-123.33856" />
      <trkpt lat="39.22414" lon="-123.33886" />
      <trkpt lat="39.22416" lon="-123.33917" />
      <trkpt lat="39.22405" lon="-123.33949" />
      <trkpt lat="39.22393" lon="-123.34009" />
      <trkpt lat="39.22403" lon="-123.34028" />
      <trkpt lat="39.22422" lon="-123.34029" />
      <trkpt lat="39.22462" lon="-123.34011" />
      <trkpt lat="39.22473" lon="-123.33986" />
      <trkpt lat="39.22476" lon="-123.33972" />
      <trkpt lat="39.2249" lon="-123.33941" />
      <trkpt lat="39.225" lon="-123.33955" />
      <trkpt lat="39.22509" lon="-123.34006" />
      <trkpt lat="39.22496" lon="-123.34057" />
      <trkpt lat="39.22489" lon="-123.34068" />
      <trkpt lat="39.2247" lon="-123.34081" />
      <trkpt lat="39.2245" lon="-123.34103" />
      <trkpt lat="39.22443" lon="-123.34149" />
      <trkpt lat="39.22456" lon="-123.34155" />
      <trkpt lat="39.22495" lon="-123.34115" />
      <trkpt lat="39.22536" lon="-123.3411" />
      <trkpt lat="39.22558" lon="-123.341" />
      <trkpt lat="39.22575" lon="-123.34078" />
      <trkpt lat="39.22608" lon="-123.34055" />
      <trkpt lat="39.22647" lon="-123.34051" />
      <trkpt lat="39.22667" lon="-123.34065" />
      <trkpt lat="39.22682" lon="-123.34095" />
      <trkpt lat="39.22705" lon="-123.34195" />
      <trkpt lat="39.22711" lon="-123.34228" />
      <trkpt lat="39.22728" lon="-123.34269" />
      <trkpt lat="39.22737" lon="-123.3428" />
      <trkpt lat="39.22805" lon="-123.34331" />
      <trkpt lat="39.22854" lon="-123.34331" />
      <trkpt lat="39.22864" lon="-123.34321" />
      <trkpt lat="39.229" lon="-123.34279" />
      <trkpt lat="39.2292" lon="-123.34262" />
      <trkpt lat="39.22941" lon="-123.34232" />
      <trkpt lat="39.22968" lon="-123.34218" />
      <trkpt lat="39.22988" lon="-123.34233" />
      <trkpt lat="39.22996" lon="-123.34243" />
      <trkpt lat="39.23031" lon="-123.34315" />
      <trkpt lat="39.23048" lon="-123.34384" />
      <trkpt lat="39.23071" lon="-123.34421" />
      <trkpt lat="39.23081" lon="-123.3443" />
      <trkpt lat="39.23092" lon="-123.34464" />
      <trkpt lat="39.23074" lon="-123.34487" />
      <trkpt lat="39.23041" lon="-123.34553" />
      <trkpt lat="39.23031" lon="-123.346" />
      <trkpt lat="39.23044" lon="-123.34647" />
      <trkpt lat="39.23063" lon="-123.34696" />
      <trkpt lat="39.23064" lon="-123.34734" />
      <trkpt lat="39.23063" lon="-123.34753" />
      <trkpt lat="39.23063" lon="-123.34841" />
      <trkpt lat="39.23072" lon="-123.34897" />
      <trkpt lat="39.23069" lon="-123.34934" />
      <trkpt lat="39.23059" lon="-123.35007" />
      <trkpt lat="39.23051" lon="-123.35088" />
      <trkpt lat="39.23055" lon="-123.35144" />
      <trkpt lat="39.23079" lon="-123.35192" />
      <trkpt lat="39.231" lon="-123.35207" />
      <trkpt lat="39.23114" lon="-123.35232" />
      <trkpt lat="39.23115" lon="-123.35266" />
      <trkpt lat="39.23109" lon="-123.35298" />
      <trkpt lat="39.23103" lon="-123.3538" />
      <trkpt lat="39.23106" lon="-123.35429" />
      <trkpt lat="39.23123" lon="-123.35467" />
      <trkpt lat="39.23146" lon="-123.3548" />
      <trkpt lat="39.23185" lon="-123.3552" />
      <trkpt lat="39.23211" lon="-123.35664" />
      <trkpt lat="39.23244" lon="-123.35729" />
      <trkpt lat="39.23251" lon="-123.35748" />
      <trkpt lat="39.23266" lon="-123.35804" />
      <trkpt lat="39.23264" lon="-123.35824" />
      <trkpt lat="39.23204" lon="-123.35913" />
      <trkpt lat="39.23167" lon="-123.3598" />
      <trkpt lat="39.23141" lon="-123.36014" />
      <trkpt lat="39.23148" lon="-123.36046" />
      <trkpt lat="39.23168" lon="-123.36061" />
      <trkpt lat="39.23202" lon="-123.36104" />
      <trkpt lat="39.23205" lon="-123.36117" />
      <trkpt lat="39.23199" lon="-123.36133" />
      <trkpt lat="39.23184" lon="-123.36131" />
      <trkpt lat="39.23176" lon="-123.36111" />
      <trkpt lat="39.23163" lon="-123.36092" />
      <trkpt lat="39.23122" lon="-123.36077" />
      <trkpt lat="39.2308" lon="-123.36045" />
      <trkpt lat="39.23065" lon="-123.36008" />
      <trkpt lat="39.23063" lon="-123.35997" />
      <trkpt lat="39.23054" lon="-123.35989" />
      <trkpt lat="39.23043" lon="-123.35999" />
      <trkpt lat="39.23037" lon="-123.3602" />
      <trkpt lat="39.23024" lon="-123.36085" />
      <trkpt lat="39.23013" lon="-123.36126" />
      <trkpt lat="39.23009" lon="-123.36172" />
      <trkpt lat="39.23002" lon="-123.36203" />
      <trkpt lat="39.22991" lon="-123.36193" />
      <trkpt lat="39.22983" lon="-123.36172" />
      <trkpt lat="39.22975" lon="-123.36146" />
      <trkpt lat="39.22965" lon="-123.36093" />
      <trkpt lat="39.22945" lon="-123.36082" />
      <trkpt lat="39.22924" lon="-123.3609" />
      <trkpt lat="39.22877" lon="-123.36076" />
    </trkseg>
  </trk>
</gpx>