<?xml version="1.0" encoding="UTF-8"?>
<gpx version="1.1" creator="strava-segment-scraper" xmlns="http://www.topografix.com/GPX/1/1">
  <trk>
    <name>Manzanita Creek climb</name>
    <trkseg>
      <trkpt lat="40.52709" lon="-121.56148" />
      <trkpt lat="40.52702" lon="-121.56144" />
      <trkpt lat="40.52695" lon="-121.56134" />
      <trkpt lat="40.52682" lon="-121.56125" />
      <trkpt lat="40.52672" lon="-121.56115" />
      <trkpt lat="40.52655" lon="-121.56084" />
      <trkpt lat="40.52643" lon="-121.56073" />
      <trkpt lat="40.52616" lon="-121.56037" />
      <trkpt lat="40.52613" lon="-121.56032" />
      <trkpt lat="40.52611" lon="-121.56022" />
      <trkpt lat="40.52611" lon="-121.56009" />
      <trkpt lat="40.52604" lon="-121.55969" />
      <trkpt lat="40.52594" lon="-121.55948" />
      <trkpt lat="40.52593" lon="-121.55935" />
      <trkpt lat="40.52588" lon="-121.5592" />
      <trkpt lat="40.52549" lon="-121.55856" />
      <trkpt lat="40.52539" lon="-121.55834" />
      <trkpt lat="40.5253" lon="-121.55822" />
      <trkpt lat="40.52515" lon="-121.55797" />
      <trkpt lat="40.52503" lon="-121.55765" />
      <trkpt lat="40.52494" lon="-121.55756" />
      <trkpt lat="40.52489" lon="-121.55743" />
      <trkpt lat="40.52483" lon="-121.55735" />
      <trkpt lat="40.52478" lon="-121.55731" />
      <trkpt lat="40.52465" lon="-121.55726" />
      <trkpt lat="40.52457" lon="-121.55718" />
      <trkpt lat="40.52442" lon="-121.55707" />
      <trkpt lat="40.52426" lon="-121.5569" />
      <trkpt lat="40.52418" lon="-121.55656" />
      <trkpt lat="40.52413" lon="-121.55647" />
      <trkpt lat="40.52404" lon="-121.5564" />
      <trkpt lat="40.524" lon="-121.55634" />
      <trkpt lat="40.52391" lon="-121.55611" />
      <trkpt lat="40.52375" lon="-121.55584" />
      <trkpt lat="40.52371" lon="-121.55571" />
      <trkpt lat="40.52367" lon="-121.55567" />
      <trkpt lat="40.52363" lon="-121.55556" />
      <trkpt lat="40.52359" lon="-121.55552" />
      <trkpt lat="40.52355" lon="-121.5554" />
      <trkpt lat="40.52345" lon="-121.55525" />
      <trkpt lat="40.52342" lon="-121.55512" />
      <trkpt lat="40.52338" lon="-121.55503" />
      <trkpt lat="40.5234" lon="-121.55497" />
      <trkpt lat="40.52339" lon="-121.55494" />
      <trkpt lat="40.52326" lon="-121.55478" />
      <trkpt lat="40.52313" lon="-121.55467" />
      <trkpt lat="40.52294" lon="-121.55455" />
      <trkpt lat="40.52271" lon="-121.55426" />
      <trkpt lat="40.52253" lon="-121.55412" />
      <trkpt lat="40.52246" lon="-121.55408" />
      <trkpt lat="40.52239" lon="-121.55406" />
      <trkpt lat="40.52214" lon="-121.55419" />
      <trkpt lat="40.52209" lon="-121.55419" />
      <trkpt lat="40.5219" lon="-121.55412" />
      <trkpt lat="40.52166" lon="-121.55399" />
      <trkpt lat="40.52156" lon="-121.55396" />
      <trkpt lat="40.52141" lon="-121.55383" />
      <trkpt lat="40.52122" lon="-121.55373" />
      <trkpt lat="40.52116" lon="-121.55366" />
      <trkpt lat="40.52097" lon="-121.55356" />
      <trkpt lat="40.52094" lon="-121.55351" />
      <trkpt lat="40.52078" lon="-121.55345" />
      <trkpt lat="40.52071" lon="-121.55339" />
      <trkpt lat="40.52063" lon="-121.55338" />
      <trkpt lat="40.52059" lon="-121.55333" />
      <trkpt lat="40.52042" lon="-121.5533" />
      <trkpt lat="40.52041" lon="-121.55326" />
      <trkpt lat="40.52033" lon="-121.55319" />
      <trkpt lat="40.5202" lon="-121.55312" />
      <trkpt lat="40.52004" lon="-121.55308" />
      <trkpt lat="40.51994" lon="-121.55299" />
      <trkpt lat="40.5198" lon="-121.55282" />
      <trkpt lat="40.51976" lon="-121.5528" />
      <trkpt lat="40.51971" lon="-121.55281" />
      <trkpt lat="40.51968" lon="-121.55278" />
      <trkpt lat="40.51962" lon="-121.55277" />
      <trkpt lat="40.51958" lon="-121.55278" />
      <trkpt lat="40.51954" lon="-121.55284" />
      <trkpt lat="40.51953" lon="-121.553" />
      <trkpt lat="40.51957" lon="-121.55311" />
      <trkpt lat="40.51961" lon="-121.55318" />
      <trkpt lat="40.51967" lon="-121.55342" />
      <trkpt lat="40.51967" lon="-121.55353" />
      <trkpt lat="40.51964" lon="-121.5536" />
      <trkpt lat="40.5196" lon="-121.55361" />
      <trkpt lat="40.51954" lon="-121.55358" />
      <trkpt lat="40.51951" lon="-121.55356" />
      <trkpt lat="40.5195" lon="-121.55351" />
      <trkpt lat="40.51936" lon="-121.55339" />
      <trkpt lat="40.51941" lon="-121.55339" />
      <trkpt lat="40.51939" lon="-121.55338" />
      <trkpt lat="40.51928" lon="-121.55331" />
      <trkpt lat="40.51921" lon="-121.55328" />
      <trkpt lat="40.51917" lon="-121.55329" />
      <trkpt lat="40.51909" lon="-121.55334" />
      <trkpt lat="40.51892" lon="-121.55362" />
      <trkpt lat="40.51888" lon="-121.55364" />
      <trkpt lat="40.5187" lon="-121.55363" />
      <trkpt lat="40.51856" lon="-121.55357" />
      <trkpt lat="40.51852" lon="-121.5535" />
      <trkpt lat="40.51844" lon="-121.55324" />
      <trkpt lat="40.5184" lon="-121.55317" />
      <trkpt lat="40.51817" lon="-121.55298" />
      <trkpt lat="40.51813" lon="-121.55297" />
      <trkpt lat="40.51797" lon="-121.55286" />
      <trkpt lat="40.51764" lon="-121.55255" />
      <trkpt lat="40.51756" lon="-121.55238" />
      <trkpt lat="40.51749" lon="-121.55211" />
      <trkpt lat="40.51731" lon="-121.55188" />
      <trkpt lat="40.51719" lon="-121.55162" />
      <trkpt lat="40.51713" lon="-121.55158" />
      <trkpt lat="40.51677" lon="-121.55153" />
      <trkpt lat="40.51664" lon="-121.55146" />
      <trkpt lat="40.51635" lon="-121.55129" />
      <trkpt lat="40.51631" lon="-121.55123" />
      <trkpt lat="40.51627" lon="-121.55122" />
      <trkpt lat="40.51621" lon="-121.55117" />
      <trkpt lat="40.51615" lon="-121.55107" />
      <trkpt lat="40.51607" lon="-121.551" />
      <trkpt lat="40.51601" lon="-121.5509" />
      <trkpt lat="40.516" lon="-121.55083" />
      <trkpt lat="40.5159" lon="-121.55063" />
      <trkpt lat="40.51583" lon="-121.55055" />
      <trkpt lat="40.51581" lon="-121.55047" />
      <trkpt lat="40.51576" lon="-121.55041" />
      <trkpt lat="40.51576" lon="-121.55037" />
      <trkpt lat="40.5156" lon="-121.55024" />
      <trkpt lat="40.5151" lon="-121.54973" />
      <trkpt lat="40.5149" lon="-121.54935" />
      <trkpt lat="40.51476" lon="-121.54919" />
      <trkpt lat="40.51456" lon="-121.54904" />
      <trkpt lat="40.51444" lon="-121.54898" />
      <trkpt lat="40.51419" lon="-121.54876" />
      <trkpt lat="40.51395" lon="-121.54841" />
      <trkpt lat="40.51381" lon="-121.54815" />
      <trkpt lat="40.5137" lon="-121.54798" />
      <trkpt lat="40.51359" lon="-121.54776" />
      <trkpt lat="40.51355" lon="-121.54764" />
      <trkpt lat="40.51319" lon="-121.54727" />
      <trkpt lat="40.51308" lon="-121.54708" />
      <trkpt lat="40.51297" lon="-121.54695" />
      <trkpt lat="40.51291" lon="-121.54682" />
      <trkpt lat="40.51271" lon="-121.5466" />
      <trkpt lat="40.51264" lon="-121.54654" />
      <trkpt lat="40.51259" lon="-121.54652" />
      <trkpt lat="40.51217" lon="-121.54641" />
      <trkpt lat="40.5119" lon="-121.54622" />
      <trkpt lat="40.51157" lon="-121.54618" />
      <trkpt lat="40.51146" lon="-121.54615" />
      <trkpt lat="40.51133" lon="-121.54607" />
      <trkpt lat="40.51129" lon="-121.54606" />
      <trkpt lat="40.51118" lon="-121.54597" />
      <trkpt lat="40.51106" lon="-121.54592" />
      <trkpt lat="40.51104" lon="-121.54589" />
      <trkpt lat="40.51096" lon="-121.54585" />
      <trkpt lat="40.51061" lon="-121.54585" />
      <trkpt lat="40.5105" lon="-121.5458" />
      <trkpt lat="40.51031" lon="-121.5458" />
      <trkpt lat="40.51015" lon="-121.54572" />
      <trkpt lat="40.51012" lon="-121.54569" />
      <trkpt lat="40.51011" lon="-121.54563" />
      <trkpt lat="40.51007" lon="-121.5456" />
      <trkpt lat="40.51" lon="-121.54547" />
      <trkpt lat="40.5099" lon="-121.54536" />
      <trkpt lat="40.50977" lon="-121.54531" />
      <trkpt lat="40.50967" lon="-121.54522" />
      <trkpt lat="40.50955" lon="-121.54509" />
      <trkpt lat="40.50941" lon="-121.54502" />
      <trkpt lat="40.50934" lon="-121.54495" />
      <trkpt lat="40.50929" lon="-121.54477" />
      <trkpt lat="40.50927" lon="-121.54458" />
      <trkpt lat="40.50921" lon="-121.54438" />
      <trkpt lat="40.50919" lon="-121.54424" />
      <trkpt lat="40.50927" lon="-121.5439" />
      <trkpt lat="40.50928" lon="-121.54371" />
      <trkpt lat="40.50924" lon="-121.54363" />
      <trkpt lat="40.5091" lon="-121.54343" />
      <trkpt lat="40.50905" lon="-121.54331" />
      <trkpt lat="40.50904" lon="-121.54321" />
      <trkpt lat="40.50904" lon="-121.54299" />
      <trkpt lat="40.50898" lon="-121.5427" />
      <trkpt lat="40.50885" lon="-121.54251" />
      <trkpt lat="40.50877" lon="-121.54244" />
      <trkpt lat="40.50867" lon="-121.54238" />
      <trkpt lat="40.5086" lon="-121.54237" />
      <trkpt lat="40.50841" lon="-121.54228" />
      <trkpt lat="40.50818" lon="-121.54216" />
      <trkpt lat="40.50786" lon="-121.54192" />
      <trkpt lat="40.50756" lon="-121.54184" />
      <trkpt lat="40.50741" lon="-121.54177" />
      <trkpt lat="40.50731" lon="-121.54175" />
      <trkpt lat="40.50723" lon="-121.54176" />
      <trkpt lat="40.50719" lon="-121.54174" />
      <trkpt lat="40.50711" lon="-121.54177" />
      <trkpt lat="40.50696" lon="-121.54178" />
      <trkpt lat="40.50689" lon="-121.54176" />
      <trkpt lat="40.5067" lon="-121.54177" />
      <trkpt lat="40.50655" lon="-121.54175" />
      <trkpt lat="40.50646" lon="-121.5417" />
      <trkpt lat="40.50634" lon="-121.54159" />
      <trkpt lat="40.50628" lon="-121.54148" />
      <trkpt lat="40.50629" lon="-121.54119" />
      <trkpt lat="40.50631" lon="-121.54116" />
      <trkpt lat="40.50636" lon="-121.54114" />
      <trkpt lat="40.50659" lon="-121.54111" />
      <trkpt lat="40.50669" lon="-121.54101" />
      <trkpt lat="40.50672" lon="-121.54091" />
      <trkpt lat="40.50669" lon="-121.5407" />
      <trkpt lat="40.50659" lon="-121.54051" />
      <trkpt lat="40.50652" lon="-121.54044" />
      <trkpt lat="40.50639" lon="-121.54041" />
      <trkpt lat="40.5063" lon="-121.54036" />
      <trkpt lat="40.50626" lon="-121.54009" />
      <trkpt lat="40.50624" lon="-121.53999" />
      <trkpt lat="40.50619" lon="-121.53991" />
      <trkpt lat="40.50611" lon="-121.53989" />
      <trkpt lat="40.50582" lon="-121.53984" />
      <trkpt lat="40.50541" lon="-121.53982" />
      <trkpt lat="40.50518" lon="-121.53971" />
      <trkpt lat="40.505" lon="-121.53967" />
      <trkpt lat="40.5048" lon="-121.53968" />
      <trkpt lat="40.50462" lon="-121.53966" />
      <trkpt lat="40.50447" lon="-121.53961" />
      <trkpt lat="40.50433" lon="-121.53959" />
      <trkpt lat="40.50423" lon="-121.53951" />
      <trkpt lat="40.50413" lon="-121.53948" />
      <trkpt lat="40.50389" lon="-121.5395" />
      <trkpt lat="40.50375" lon="-121.53947" />
      <trkpt lat="40.50365" lon="-121.53942" />
      <trkpt lat="40.5036" lon="-121.53936" />
      <trkpt lat="40.50359" lon="-121.5393" />
      <trkpt lat="40.50361" lon="-121.53921" />
      <trkpt lat="40.50364" lon="-121.53915" />
      <trkpt lat="40.50375" lon="-121.53906" />
      <trkpt lat="40.50411" lon="-121.53891" />
      <trkpt lat="40.50416" lon="-121.53886" />
      <trkpt lat="40.50416" lon="-121.53882" />
      <trkpt lat="40.5041" lon="-121.53874" />
      <trkpt lat="40.50405" lon="-121.53872" />
      <trkpt lat="40.50388" lon="-121.53872" />
      <trkpt lat="40.50381" lon="-121.5387" />
      <trkpt lat="40.50372" lon="-121.53871" />
      <trkpt lat="40.50357" lon="-121.53865" />
      <trkpt lat="40.50346" lon="-121.53864" />
      <trkpt lat="40.50326" lon="-121.53858" />
      <trkpt lat="40.50319" lon="-121.53858" />
      <trkpt lat="40.50305" lon="-121.53855" />
      <trkpt lat="40.50293" lon="-121.53848" />
      <trkpt lat="40.50273" lon="-121.53833" />
      <trkpt lat="40.50268" lon="-121.53825" />
      <trkpt lat="40.50259" lon="-121.53817" />
      <trkpt lat="40.50242" lon="-121.53808" />
      <trkpt lat="40.50237" lon="-121.53803" />
      <trkpt lat="40.50224" lon="-121.53795" />
      <trkpt lat="40.50217" lon="-121.53786" />
      <trkpt lat="40.50209" lon="-121.53779" />
      <trkpt lat="40.50184" lon="-121.5377" />
      <trkpt lat="40.50176" lon="-121.53763" />
      <trkpt lat="40.50156" lon="-121.53756" />
      <trkpt lat="40.50153" lon="-121.53754" />
      <trkpt lat="40.50148" lon="-121.53744" />
      <trkpt lat="40.50138" lon="-121.53735" />
      <trkpt lat="40.50134" lon="-121.53725" />
      <trkpt lat="40.50118" lon="-121.53716" />
      <trkpt lat="40.50105" lon="-121.53711" />
      <trkpt lat="40.50092" lon="-121.53703" />
      <trkpt lat="40.50085" lon="-121.53701" />
      <trkpt lat="40.50078" lon="-121.53696" />
      <trkpt lat="40.50058" lon="-121.53672" />
      <trkpt lat="40.50048" lon="-121.53656" />
      <trkpt lat="40.50037" lon="-121.53651" />
      <trkpt lat="40.50033" lon="-121.53647" />
      <trkpt lat="40.50025" lon="-121.5363" />
      <trkpt lat="40.50018" lon="-121.53621" />
      <trkpt lat="40.50009" lon="-121.53606" />
      <trkpt lat="40.49984" lon="-121.53596" />
      <trkpt lat="40.49975" lon="-121.53581" />
      <trkpt lat="40.49955" lon="-121.53564" />
      <trkpt lat="40.49953" lon="-121.53561" />
      <trkpt lat="40.4994" lon="-121.5356" />
      <trkpt lat="40.49928" lon="-121.53555" />
      <trkpt lat="40.49912" lon="-121.53551" />
      <trkpt lat="40.49902" lon="-121.53551" />
      <trkpt lat="40.49899" lon="-121.53549" />
      <trkpt lat="40.49893" lon="-121.53548" />
      <trkpt lat="40.49867" lon="-121.53551" />
      <trkpt lat="40.49863" lon="-121.53549" />
      <trkpt lat="40.49845" lon="-121.5355" />
      <trkpt lat="40.4983" lon="-121.53548" />
      <trkpt lat="40.49812" lon="-121.53555" />
      <trkpt lat="40.49812" lon="-121.53554" />
      <trkpt lat="40.498" lon="-121.53563" />
      <trkpt lat="40.49793" lon="-121.53566" />
      <trkpt lat="40.49783" lon="-121.53567" />
      <trkpt lat="40.49775" lon="-121.53571" />
      <trkpt lat="40.49767" lon="-121.53572" />
      <trkpt lat="40.49767" lon="-121.5357" />
      <trkpt lat="40.49764" lon="-121.53569" />
      <trkpt lat="40.49757" lon="-121.53572" />
      <trkpt lat="40.49736" lon="-121.53564" />
      <trkpt lat="40.49728" lon="-121.53559" />
      <trkpt lat="40.49716" lon="-121.53557" />
      <trkpt lat="40.49706" lon="-121.5355" />
      <trkpt lat="40.49694" lon="-121.53549" />
      <trkpt lat="40.49683" lon="-121.53552" />
      <trkpt lat="40.49639" lon="-121.53573" />
      <trkpt lat="40.49632" lon="-121.53579" />
      <trkpt lat="40.49623" lon="-121.5358" />
      <trkpt lat="40.49621" lon="-121.53579" />
      <trkpt lat="40.49615" lon="-121.53579" />
      <trkpt lat="40.49606" lon="-121.53574" />
      <trkpt lat="40.49601" lon="-121.53571" />
      <trkpt lat="40.49598" lon="-121.53566" />
      <trkpt lat="40.49588" lon="-121.53559" />
      <trkpt lat="40.49576" lon="-121.53556" />
      <trkpt lat="40.49572" lon="-121.53552" />
      <trkpt lat="40.49558" lon="-121.53545" />
      <trkpt lat="40.49545" lon="-121.53535" />
      <trkpt lat="40.49528" lon="-121.5353" />
      <trkpt lat="40.49527" lon="-121.53529" />
      <trkpt lat="40.49518" lon="-121.53531" />
      <trkpt lat="40.49489" lon="-121.53535" />
      <trkpt lat="40.49481" lon="-121.53534" />
      <trkpt lat="40.49475" lon="-121.53531" />
      <trkpt lat="40.4946" lon="-121.5353" />
      <trkpt lat="40.49454" lon="-121.53528" />
      <trkpt lat="40.49428" lon="-121.53528" />
      <trkpt lat="40.49418" lon="-121.53518" />
      <trkpt lat="40.49398" lon="-121.5352" />
      <trkpt lat="40.49387" lon="-121.53524" />
      <trkpt lat="40.49377" lon="-121.53523" />
      <trkpt lat="40.49369" lon="-121.53519" />
      <trkpt lat="40.49358" lon="-121.53519" />
      <trkpt lat="40.49351" lon="-121.53515" />
      <trkpt lat="40.49342" lon="-121.5352" />
      <trkpt lat="40.49328" lon="-121.53521" />
      <trkpt lat="40.49314" lon="-121.53525" />
      <trkpt lat="40.49288" lon="-121.53518" />
      <trkpt lat="40.49286" lon="-121.53514" />
      <trkpt lat="40.49282" lon="-121.53512" />
      <trkpt lat="40.49277" lon="-121.53498" />
      <trkpt lat="40.49262" lon="-121.53486" />
      <trkpt lat="40.49242" lon="-121.53494" />
      <trkpt lat="40.49232" lon="-121.53493" />
      <trkpt lat="40.49222" lon="-121.53499" />
      <trkpt lat="40.49216" lon="-121.53499" />
      <trkpt lat="40.49206" lon="-121.53496" />
      <trkpt lat="40.49199" lon="-121.53499" />
      <trkpt lat="40.49161" lon="-121.53532" />
      <trkpt lat="40.49153" lon="-121.53533" />
      <trkpt lat="40.49148" lon="-121.53545" />
      <trkpt lat="40.49143" lon="-121.53547" />
      <trkpt lat="40.49128" lon="-121.53545" />
      <trkpt lat="40.49122" lon="-121.53539" />
      <trkpt lat="40.4911" lon="-121.53535" />
      <trkpt lat="40.49108" lon="-121.53529" />
      <trkpt lat="40.49098" lon="-121.53526" />
      <trkpt lat="40.49095" lon="-121.53523" />
      <trkpt lat="40.49083" lon="-121.5352" />
      <trkpt lat="40.49081" lon="-121.53518" />
      <trkpt lat="40.49079" lon="-121.53512" />
      <trkpt lat="40.49077" lon="-121.53511" />
    </trkseg>
  </trk>
</gpx>