<?xml version="1.0" encoding="UTF-8"?>
<gpx version="1.1" creator="strava-segment-scraper" xmlns="http://www.topografix.com/GPX/1/1">
  <trk>
    <name>Valencia to Market</name>
    <trkseg>
      <trkpt lat="39.32257" lon="-120.88288" />
      <trkpt lat="39.32245" lon="-120.88308" />
      <trkpt lat="39.32236" lon="-120.8833" />
      <trkpt lat="39.32196" lon="-120.88386" />
      <trkpt lat="39.32149" lon="-120.88466" />
      <trkpt lat="39.32137" lon="-120.88483" />
      <trkpt lat="39.32122" lon="-120.88499" />
      <trkpt lat="39.32077" lon="-120.88583" />
      <trkpt lat="39.32065" lon="-120.886" />
      <trkpt lat="39.32036" lon="-120.88634" />
      <trkpt lat="39.32011" lon="-120.88668" />
      <trkpt lat="39.3199" lon="-120.8871" />
      <trkpt lat="39.3197" lon="-120.88754" />
      <trkpt lat="39.3196" lon="-120.88774" />
      <trkpt lat="39.31931" lon="-120.88809" />
      <trkpt lat="39.31922" lon="-120.88833" />
      <trkpt lat="39.31881" lon="-120.88881" />
      <trkpt lat="39.31866" lon="-120.88897" />
      <trkpt lat="39.31834" lon="-120.8896" />
      <trkpt lat="39.31817" lon="-120.8901" />
      <trkpt lat="39.31812" lon="-120.89036" />
      <trkpt lat="39.3179" lon="-120.89075" />
      <trkpt lat="39.3178" lon="-120.89096" />
      <trkpt lat="39.31772" lon="-120.89126" />
      <trkpt lat="39.31747" lon="-120.89191" />
      <trkpt lat="39.31738" lon="-120.89211" />
      <trkpt lat="39.31718" lon="-120.89244" />
      <trkpt lat="39.3171" lon="-120.89266" />
      <trkpt lat="39.31699" lon="-120.8931" />
      <trkpt lat="39.31683" lon="-120.8933" />
      <trkpt lat="39.31673" lon="-120.89353" />
      <trkpt lat="39.3166" lon="-120.89373" />
      <trkpt lat="39.31653" lon="-120.89421" />
      <trkpt lat="39.31637" lon="-120.89475" />
      <trkpt lat="39.31628" lon="-120.89498" />
      <trkpt lat="39.31606" lon="-120.89538" />
      <trkpt lat="39.31596" lon="-120.8956" />
      <trkpt lat="39.31577" lon="-120.89627" />
      <trkpt lat="39.31558" lon="-120.89671" />
      <trkpt lat="39.31547" lon="-120.89689" />
      <trkpt lat="39.31533" lon="-120.89706" />
      <trkpt lat="39.31525" lon="-120.89727" />
      <trkpt lat="39.31521" lon="-120.89752" />
      <trkpt lat="39.31513" lon="-120.89773" />
      <trkpt lat="39.315" lon="-120.89823" />
      <trkpt lat="39.3149" lon="-120.89844" />
      <trkpt lat="39.31478" lon="-120.89862" />
      <trkpt lat="39.31469" lon="-120.89885" />
      <trkpt lat="39.31454" lon="-120.8993" />
      <trkpt lat="39.31442" lon="-120.89975" />
      <trkpt lat="39.31432" lon="-120.89994" />
      <trkpt lat="39.31428" lon="-120.90019" />
      <trkpt lat="39.31411" lon="-120.90063" />
      <trkpt lat="39.31404" lon="-120.90087" />
      <trkpt lat="39.31394" lon="-120.90106" />
      <trkpt lat="39.31394" lon="-120.90133" />
      <trkpt lat="39.3139" lon="-120.90159" />
      <trkpt lat="39.31386" lon="-120.90213" />
      <trkpt lat="39.31373" lon="-120.9029" />
      <trkpt lat="39.31375" lon="-120.90342" />
      <trkpt lat="39.31377" lon="-120.90368" />
      <trkpt lat="39.31372" lon="-120.90419" />
      <trkpt lat="39.31355" lon="-120.90495" />
      <trkpt lat="39.31342" lon="-120.9054" />
      <trkpt lat="39.31307" lon="-120.90627" />
      <trkpt lat="39.31259" lon="-120.907" />
      <trkpt lat="39.31245" lon="-120.9072" />
      <trkpt lat="39.31215" lon="-120.90756" />
      <trkpt lat="39.31204" lon="-120.90774" />
      <trkpt lat="39.31187" lon="-120.90788" />
      <trkpt lat="39.31176" lon="-120.90805" />
      <trkpt lat="39.3116" lon="-120.90822" />
      <trkpt lat="39.31109" lon="-120.90865" />
      <trkpt lat="39.31096" lon="-120.90882" />
      <trkpt lat="39.31086" lon="-120.90903" />
      <trkpt lat="39.31074" lon="-120.90924" />
      <trkpt lat="39.31066" lon="-120.90947" />
      <trkpt lat="39.31053" lon="-120.90965" />
      <trkpt lat="39.31042" lon="-120.90987" />
      <trkpt lat="39.31018" lon="-120.91026" />
      <trkpt lat="39.31" lon="-120.91034" />
      <trkpt lat="39.30981" lon="-120.91045" />
      <trkpt lat="39.30969" lon="-120.91062" />
      <trkpt lat="39.30953" lon="-120.91075" />
      <trkpt lat="39.30934" lon="-120.91082" />
      <trkpt lat="39.30918" lon="-120.91094" />
      <trkpt lat="39.30903" lon="-120.91111" />
      <trkpt lat="39.3089" lon="-120.91131" />
      <trkpt lat="39.30874" lon="-120.91145" />
      <trkpt lat="39.30858" lon="-120.91162" />
      <trkpt lat="39.30844" lon="-120.91181" />
      <trkpt lat="39.30815" lon="-120.91214" />
      <trkpt lat="39.30788" lon="-120.91249" />
      <trkpt lat="39.30771" lon="-120.91264" />
      <trkpt lat="39.30729" lon="-120.91313" />
      <trkpt lat="39.30714" lon="-120.91327" />
      <trkpt lat="39.30697" lon="-120.91339" />
      <trkpt lat="39.30679" lon="-120.91347" />
      <trkpt lat="39.30663" lon="-120.91364" />
      <trkpt lat="39.30633" lon="-120.91389" />
      <trkpt lat="39.30615" lon="-120.914" />
      <trkpt lat="39.30608" lon="-120.91411" />
      <trkpt lat="39.3059" lon="-120.91417" />
      <trkpt lat="39.30574" lon="-120.91434" />
      <trkpt lat="39.30561" lon="-120.91455" />
      <trkpt lat="39.30548" lon="-120.91472" />
      <trkpt lat="39.30524" lon="-120.9151" />
      <trkpt lat="39.30509" lon="-120.91523" />
      <trkpt lat="39.30496" lon="-120.91539" />
      <trkpt lat="39.30464" lon="-120.91566" />
      <trkpt lat="39.30451" lon="-120.91584" />
      <trkpt lat="39.30421" lon="-120.91614" />
      <trkpt lat="39.3036" lon="-120.91659" />
      <trkpt lat="39.30347" lon="-120.91678" />
      <trkpt lat="39.30317" lon="-120.91711" />
      <trkpt lat="39.30302" lon="-120.91721" />
      <trkpt lat="39.30289" lon="-120.91743" />
      <trkpt lat="39.30261" lon="-120.91778" />
      <trkpt lat="39.30256" lon="-120.91803" />
      <trkpt lat="39.30247" lon="-120.91826" />
      <trkpt lat="39.30212" lon="-120.91849" />
      <trkpt lat="39.30195" lon="-120.91868" />
      <trkpt lat="39.30177" lon="-120.91877" />
      <trkpt lat="39.30158" lon="-120.91879" />
      <trkpt lat="39.30141" lon="-120.91888" />
      <trkpt lat="39.30126" lon="-120.91902" />
      <trkpt lat="39.30095" lon="-120.91934" />
      <trkpt lat="39.30037" lon="-120.92005" />
      <trkpt lat="39.30021" lon="-120.92019" />
      <trkpt lat="39.30006" lon="-120.92036" />
      <trkpt lat="39.29976" lon="-120.92065" />
      <trkpt lat="39.29961" lon="-120.92085" />
      <trkpt lat="39.29936" lon="-120.92124" />
      <trkpt lat="39.29909" lon="-120.92159" />
      <trkpt lat="39.29898" lon="-120.92181" />
      <trkpt lat="39.29851" lon="-120.92264" />
      <trkpt lat="39.29833" lon="-120.92285" />
      <trkpt lat="39.29813" lon="-120.92325" />
      <trkpt lat="39.298" lon="-120.92342" />
      <trkpt lat="39.29783" lon="-120.92357" />
      <trkpt lat="39.29771" lon="-120.92375" />
      <trkpt lat="39.29763" lon="-120.92398" />
      <trkpt lat="39.29753" lon="-120.92419" />
      <trkpt lat="39.2971" lon="-120.92473" />
      <trkpt lat="39.29698" lon="-120.92493" />
      <trkpt lat="39.29667" lon="-120.92554" />
      <trkpt lat="39.29658" lon="-120.92579" />
      <trkpt lat="39.2963" lon="-120.92674" />
      <trkpt lat="39.29621" lon="-120.92736" />
      <trkpt lat="39.2962" lon="-120.92762" />
      <trkpt lat="39.2961" lon="-120.92814" />
      <trkpt lat="39.29588" lon="-120.92856" />
      <trkpt lat="39.29562" lon="-120.92895" />
      <trkpt lat="39.29551" lon="-120.92918" />
      <trkpt lat="39.29496" lon="-120.92986" />
      <trkpt lat="39.29484" lon="-120.93005" />
      <trkpt lat="39.2947" lon="-120.93023" />
      <trkpt lat="39.29458" lon="-120.93045" />
      <trkpt lat="39.29446" lon="-120.93062" />
      <trkpt lat="39.29423" lon="-120.93102" />
      <trkpt lat="39.29411" lon="-120.93121" />
      <trkpt lat="39.294" lon="-120.93143" />
      <trkpt lat="39.29382" lon="-120.93187" />
      <trkpt lat="39.29352" lon="-120.93252" />
      <trkpt lat="39.29348" lon="-120.93276" />
      <trkpt lat="39.29341" lon="-120.93302" />
      <trkpt lat="39.29332" lon="-120.93324" />
      <trkpt lat="39.29328" lon="-120.93346" />
      <trkpt lat="39.29322" lon="-120.93369" />
      <trkpt lat="39.29312" lon="-120.9339" />
      <trkpt lat="39.29303" lon="-120.93411" />
      <trkpt lat="39.29287" lon="-120.93459" />
      <trkpt lat="39.29266" lon="-120.935" />
      <trkpt lat="39.29255" lon="-120.93519" />
      <trkpt lat="39.29241" lon="-120.93538" />
      <trkpt lat="39.29217" lon="-120.93581" />
      <trkpt lat="39.292" lon="-120.93628" />
      <trkpt lat="39.2919" lon="-120.93648" />
      <trkpt lat="39.29173" lon="-120.93692" />
      <trkpt lat="39.29174" lon="-120.93695" />
      <trkpt lat="39.29172" lon="-120.93704" />
      <trkpt lat="39.29141" lon="-120.93787" />
      <trkpt lat="39.2913" lon="-120.93811" />
      <trkpt lat="39.29105" lon="-120.93848" />
      <trkpt lat="39.29062" lon="-120.939" />
      <trkpt lat="39.29034" lon="-120.93936" />
      <trkpt lat="39.29019" lon="-120.93951" />
      <trkpt lat="39.28962" lon="-120.9402" />
      <trkpt lat="39.28922" lon="-120.9408" />
      <trkpt lat="39.28888" lon="-120.94143" />
      <trkpt lat="39.28873" lon="-120.94157" />
      <trkpt lat="39.28832" lon="-120.94207" />
    </trkseg>
  </trk>
</gpx>