<?xml version="1.0" encoding="UTF-8"?>
<gpx version="1.1" creator="strava-segment-scraper" xmlns="http://www.topografix.com/GPX/1/1">
  <trk>
    <name>W. Dry Creek South</name>
    <trkseg>
      <trkpt lat="38.69451" lon="-122.96295" />
      <trkpt lat="38.69446" lon="-122.96291" />
      <trkpt lat="38.69431" lon="-122.96282" />
      <trkpt lat="38.69406" lon="-122.96278" />
      <trkpt lat="38.69389" lon="-122.96277" />
      <trkpt lat="38.69376" lon="-122.96279" />
      <trkpt lat="38.69366" lon="-122.96278" />
      <trkpt lat="38.69338" lon="-122.96274" />
      <trkpt lat="38.69308" lon="-122.96264" />
      <trkpt lat="38.69269" lon="-122.96256" />
      <trkpt lat="38.69203" lon="-122.96237" />
      <trkpt lat="38.69189" lon="-122.96235" />
      <trkpt lat="38.69176" lon="-122.9623" />
      <trkpt lat="38.69169" lon="-122.96225" />
      <trkpt lat="38.69159" lon="-122.96212" />
      <trkpt lat="38.69156" lon="-122.96203" />
      <trkpt lat="38.69151" lon="-122.96183" />
      <trkpt lat="38.6914" lon="-122.96119" />
      <trkpt lat="38.69137" lon="-122.96108" />
      <trkpt lat="38.6903" lon="-122.95869" />
      <trkpt lat="38.69014" lon="-122.95841" />
      <trkpt lat="38.68981" lon="-122.95772" />
      <trkpt lat="38.68963" lon="-122.95747" />
      <trkpt lat="38.68943" lon="-122.95727" />
      <trkpt lat="38.68928" lon="-122.95717" />
      <trkpt lat="38.68903" lon="-122.95703" />
      <trkpt lat="38.68882" lon="-122.95692" />
      <trkpt lat="38.68866" lon="-122.9569" />
      <trkpt lat="38.6886" lon="-122.95696" />
      <trkpt lat="38.68842" lon="-122.95718" />
      <trkpt lat="38.6881" lon="-122.95768" />
      <trkpt lat="38.6874" lon="-122.95865" />
      <trkpt lat="38.68716" lon="-122.95902" />
      <trkpt lat="38.68705" lon="-122.95912" />
      <trkpt lat="38.68698" lon="-122.95912" />
      <trkpt lat="38.68685" lon="-122.95908" />
      <trkpt lat="38.68672" lon="-122.95897" />
      <trkpt lat="38.68645" lon="-122.95864" />
      <trkpt lat="38.68571" lon="-122.95766" />
      <trkpt lat="38.6851" lon="-122.95697" />
      <trkpt lat="38.68492" lon="-122.95662" />
      <trkpt lat="38.68478" lon="-122.95628" />
      <trkpt lat="38.68465" lon="-122.95602" />
      <trkpt lat="38.68453" lon="-122.95567" />
      <trkpt lat="38.68446" lon="-122.95553" />
      <trkpt lat="38.68432" lon="-122.95542" />
      <trkpt lat="38.68386" lon="-122.9552" />
      <trkpt lat="38.68362" lon="-122.95505" />
      <trkpt lat="38.68352" lon="-122.95503" />
      <trkpt lat="38.68323" lon="-122.95489" />
      <trkpt lat="38.68299" lon="-122.95481" />
      <trkpt lat="38.68266" lon="-122.95459" />
      <trkpt lat="38.68251" lon="-122.95447" />
      <trkpt lat="38.68224" lon="-122.95417" />
      <trkpt lat="38.68148" lon="-122.95322" />
      <trkpt lat="38.68137" lon="-122.95303" />
      <trkpt lat="38.68119" lon="-122.95263" />
      <trkpt lat="38.68112" lon="-122.95242" />
      <trkpt lat="38.68107" lon="-122.95219" />
      <trkpt lat="38.68102" lon="-122.95187" />
      <trkpt lat="38.68101" lon="-122.95118" />
      <trkpt lat="38.68095" lon="-122.95077" />
      <trkpt lat="38.68088" lon="-122.95041" />
      <trkpt lat="38.68082" lon="-122.9503" />
      <trkpt lat="38.68049" lon="-122.94948" />
      <trkpt lat="38.68017" lon="-122.94904" />
      <trkpt lat="38.68006" lon="-122.94896" />
      <trkpt lat="38.67988" lon="-122.9488" />
      <trkpt lat="38.67968" lon="-122.94875" />
      <trkpt lat="38.67959" lon="-122.94871" />
      <trkpt lat="38.67907" lon="-122.94861" />
      <trkpt lat="38.67889" lon="-122.94861" />
      <trkpt lat="38.67861" lon="-122.94856" />
      <trkpt lat="38.67835" lon="-122.94848" />
      <trkpt lat="38.67825" lon="-122.94848" />
      <trkpt lat="38.67808" lon="-122.94841" />
      <trkpt lat="38.67791" lon="-122.94829" />
      <trkpt lat="38.67752" lon="-122.94809" />
      <trkpt lat="38.67733" lon="-122.94797" />
      <trkpt lat="38.6772" lon="-122.9479" />
      <trkpt lat="38.67705" lon="-122.94786" />
      <trkpt lat="38.67683" lon="-122.94774" />
      <trkpt lat="38.67595" lon="-122.94746" />
      <trkpt lat="38.67551" lon="-122.94715" />
      <trkpt lat="38.67527" lon="-122.94688" />
      <trkpt lat="38.67476" lon="-122.94619" />
      <trkpt lat="38.6746" lon="-122.94602" />
      <trkpt lat="38.67435" lon="-122.94581" />
      <trkpt lat="38.67424" lon="-122.94579" />
      <trkpt lat="38.67406" lon="-122.94571" />
      <trkpt lat="38.6736" lon="-122.9457" />
      <trkpt lat="38.67327" lon="-122.94578" />
      <trkpt lat="38.67311" lon="-122.94586" />
      <trkpt lat="38.67295" lon="-122.9459" />
      <trkpt lat="38.67277" lon="-122.94589" />
      <trkpt lat="38.6726" lon="-122.94585" />
      <trkpt lat="38.67243" lon="-122.94576" />
      <trkpt lat="38.67225" lon="-122.94569" />
      <trkpt lat="38.67199" lon="-122.94569" />
      <trkpt lat="38.67174" lon="-122.94565" />
      <trkpt lat="38.67158" lon="-122.94559" />
      <trkpt lat="38.67131" lon="-122.94545" />
      <trkpt lat="38.67034" lon="-122.94511" />
      <trkpt lat="38.67016" lon="-122.94511" />
      <trkpt lat="38.66983" lon="-122.94511" />
      <trkpt lat="38.66976" lon="-122.94514" />
      <trkpt lat="38.66964" lon="-122.94514" />
      <trkpt lat="38.66934" lon="-122.94526" />
      <trkpt lat="38.66884" lon="-122.9455" />
      <trkpt lat="38.66857" lon="-122.94556" />
      <trkpt lat="38.66827" lon="-122.94561" />
      <trkpt lat="38.66805" lon="-122.94567" />
      <trkpt lat="38.66783" lon="-122.94567" />
      <trkpt lat="38.6677" lon="-122.94561" />
      <trkpt lat="38.6676" lon="-122.94551" />
      <trkpt lat="38.66747" lon="-122.94532" />
      <trkpt lat="38.66738" lon="-122.94508" />
      <trkpt lat="38.66722" lon="-122.9449" />
      <trkpt lat="38.66711" lon="-122.9448" />
      <trkpt lat="38.66704" lon="-122.94469" />
      <trkpt lat="38.66693" lon="-122.94459" />
      <trkpt lat="38.66682" lon="-122.94452" />
      <trkpt lat="38.6666" lon="-122.94431" />
      <trkpt lat="38.66653" lon="-122.94426" />
      <trkpt lat="38.66637" lon="-122.94421" />
      <trkpt lat="38.66607" lon="-122.94423" />
      <trkpt lat="38.66585" lon="-122.94421" />
      <trkpt lat="38.66563" lon="-122.94411" />
      <trkpt lat="38.66468" lon="-122.9435" />
      <trkpt lat="38.66447" lon="-122.94341" />
      <trkpt lat="38.66404" lon="-122.94317" />
      <trkpt lat="38.6635" lon="-122.94281" />
      <trkpt lat="38.66289" lon="-122.94244" />
      <trkpt lat="38.66244" lon="-122.94213" />
      <trkpt lat="38.66193" lon="-122.94182" />
      <trkpt lat="38.66169" lon="-122.94164" />
      <trkpt lat="38.661" lon="-122.94102" />
      <trkpt lat="38.66079" lon="-122.94073" />
      <trkpt lat="38.66041" lon="-122.94028" />
      <trkpt lat="38.66026" lon="-122.94013" />
      <trkpt lat="38.65997" lon="-122.93989" />
      <trkpt lat="38.65931" lon="-122.93957" />
      <trkpt lat="38.65918" lon="-122.93948" />
      <trkpt lat="38.65912" lon="-122.93941" />
      <trkpt lat="38.65905" lon="-122.93933" />
      <trkpt lat="38.6586" lon="-122.93849" />
      <trkpt lat="38.65825" lon="-122.93778" />
      <trkpt lat="38.6581" lon="-122.93759" />
      <trkpt lat="38.65802" lon="-122.93755" />
      <trkpt lat="38.65791" lon="-122.93752" />
      <trkpt lat="38.65774" lon="-122.93759" />
      <trkpt lat="38.65744" lon="-122.93778" />
      <trkpt lat="38.65717" lon="-122.938" />
      <trkpt lat="38.65699" lon="-122.93813" />
      <trkpt lat="38.65677" lon="-122.93826" />
      <trkpt lat="38.6566" lon="-122.9383" />
      <trkpt lat="38.65617" lon="-122.93839" />
      <trkpt lat="38.65599" lon="-122.93839" />
      <trkpt lat="38.65582" lon="-122.93837" />
      <trkpt lat="38.65566" lon="-122.93827" />
      <trkpt lat="38.65559" lon="-122.93819" />
      <trkpt lat="38.65555" lon="-122.9381" />
      <trkpt lat="38.65544" lon="-122.93779" />
      <trkpt lat="38.65531" lon="-122.93749" />
      <trkpt lat="38.65528" lon="-122.93738" />
      <trkpt lat="38.65507" lon="-122.93688" />
      <trkpt lat="38.65487" lon="-122.93628" />
      <trkpt lat="38.65458" lon="-122.93567" />
      <trkpt lat="38.65452" lon="-122.93558" />
      <trkpt lat="38.6543" lon="-122.93536" />
      <trkpt lat="38.65422" lon="-122.93531" />
      <trkpt lat="38.65389" lon="-122.93514" />
      <trkpt lat="38.65302" lon="-122.93462" />
      <trkpt lat="38.65285" lon="-122.93455" />
      <trkpt lat="38.65266" lon="-122.93444" />
      <trkpt lat="38.65242" lon="-122.93427" />
      <trkpt lat="38.65235" lon="-122.93418" />
      <trkpt lat="38.6519" lon="-122.93338" />
      <trkpt lat="38.65166" lon="-122.93299" />
      <trkpt lat="38.65154" lon="-122.93274" />
      <trkpt lat="38.65132" lon="-122.93233" />
      <trkpt lat="38.65094" lon="-122.9317" />
      <trkpt lat="38.65073" lon="-122.93143" />
      <trkpt lat="38.65045" lon="-122.93098" />
      <trkpt lat="38.65026" lon="-122.93073" />
      <trkpt lat="38.64984" lon="-122.92999" />
      <trkpt lat="38.64979" lon="-122.92988" />
      <trkpt lat="38.64968" lon="-122.92955" />
      <trkpt lat="38.6496" lon="-122.92869" />
      <trkpt lat="38.64954" lon="-122.92849" />
      <trkpt lat="38.6494" lon="-122.92823" />
      <trkpt lat="38.64926" lon="-122.92808" />
      <trkpt lat="38.64917" lon="-122.92804" />
      <trkpt lat="38.64908" lon="-122.92803" />
      <trkpt lat="38.6489" lon="-122.9281" />
      <trkpt lat="38.64866" lon="-122.92833" />
      <trkpt lat="38.64847" lon="-122.92859" />
      <trkpt lat="38.64845" lon="-122.92871" />
      <trkpt lat="38.64841" lon="-122.92903" />
      <trkpt lat="38.6484" lon="-122.92937" />
      <trkpt lat="38.64836" lon="-122.92956" />
      <trkpt lat="38.64831" lon="-122.92966" />
      <trkpt lat="38.6482" lon="-122.92997" />
      <trkpt lat="38.64804" lon="-122.9303" />
      <trkpt lat="38.64799" lon="-122.93043" />
      <trkpt lat="38.64792" lon="-122.93052" />
      <trkpt lat="38.64786" lon="-122.93056" />
      <trkpt lat="38.6477" lon="-122.93057" />
      <trkpt lat="38.64754" lon="-122.93044" />
      <trkpt lat="38.64748" lon="-122.93035" />
      <trkpt lat="38.64738" lon="-122.93014" />
      <trkpt lat="38.64736" lon="-122.9299" />
      <trkpt lat="38.64742" lon="-122.92929" />
      <trkpt lat="38.64737" lon="-122.9289" />
      <trkpt lat="38.64737" lon="-122.92835" />
      <trkpt lat="38.6475" lon="-122.92769" />
      <trkpt lat="38.64752" lon="-122.92747" />
      <trkpt lat="38.64752" lon="-122.92726" />
      <trkpt lat="38.64748" lon="-122.92705" />
      <trkpt lat="38.64747" lon="-122.92681" />
      <trkpt lat="38.64754" lon="-122.92651" />
      <trkpt lat="38.64774" lon="-122.92603" />
      <trkpt lat="38.64792" lon="-122.92542" />
      <trkpt lat="38.64794" lon="-122.9252" />
      <trkpt lat="38.64795" lon="-122.92462" />
      <trkpt lat="38.64788" lon="-122.92451" />
      <trkpt lat="38.64786" lon="-122.9244" />
      <trkpt lat="38.64773" lon="-122.92409" />
      <trkpt lat="38.64765" lon="-122.92375" />
      <trkpt lat="38.64761" lon="-122.92364" />
      <trkpt lat="38.64759" lon="-122.92339" />
      <trkpt lat="38.6476" lon="-122.92314" />
      <trkpt lat="38.6477" lon="-122.92234" />
      <trkpt lat="38.64765" lon="-122.92224" />
      <trkpt lat="38.64762" lon="-122.92209" />
      <trkpt lat="38.64761" lon="-122.92186" />
      <trkpt lat="38.64761" lon="-122.92161" />
      <trkpt lat="38.64765" lon="-122.92122" />
      <trkpt lat="38.64764" lon="-122.92094" />
      <trkpt lat="38.64758" lon="-122.92043" />
      <trkpt lat="38.64751" lon="-122.9202" />
      <trkpt lat="38.64743" lon="-122.92012" />
      <trkpt lat="38.64737" lon="-122.92003" />
      <trkpt lat="38.64721" lon="-122.91989" />
      <trkpt lat="38.64678" lon="-122.91974" />
      <trkpt lat="38.64669" lon="-122.91968" />
      <trkpt lat="38.64637" lon="-122.91942" />
      <trkpt lat="38.64593" lon="-122.91896" />
      <trkpt lat="38.64569" lon="-122.91877" />
      <trkpt lat="38.64554" lon="-122.91868" />
      <trkpt lat="38.64529" lon="-122.9186" />
      <trkpt lat="38.64505" lon="-122.91847" />
      <trkpt lat="38.64455" lon="-122.91809" />
      <trkpt lat="38.64418" lon="-122.91784" />
      <trkpt lat="38.64352" lon="-122.91732" />
      <trkpt lat="38.64328" lon="-122.91715" />
      <trkpt lat="38.64294" lon="-122.91681" />
      <trkpt lat="38.64271" lon="-122.91648" />
      <trkpt lat="38.64262" lon="-122.9163" />
      <trkpt lat="38.64256" lon="-122.91611" />
      <trkpt lat="38.64245" lon="-122.91573" />
      <trkpt lat="38.64245" lon="-122.91549" />
      <trkpt lat="38.64244" lon="-122.91538" />
      <trkpt lat="38.64241" lon="-122.91526" />
      <trkpt lat="38.64235" lon="-122.91517" />
      <trkpt lat="38.64234" lon="-122.91506" />
      <trkpt lat="38.64224" lon="-122.91486" />
      <trkpt lat="38.64202" lon="-122.91459" />
      <trkpt lat="38.6417" lon="-122.91406" />
      <trkpt lat="38.64139" lon="-122.91369" />
      <trkpt lat="38.64119" lon="-122.91358" />
      <trkpt lat="38.64109" lon="-122.91355" />
      <trkpt lat="38.64077" lon="-122.91334" />
      <trkpt lat="38.64069" lon="-122.91327" />
      <trkpt lat="38.64021" lon="-122.9128" />
      <trkpt lat="38.64013" lon="-122.91275" />
      <trkpt lat="38.63977" lon="-122.91241" />
      <trkpt lat="38.63954" lon="-122.91215" />
      <trkpt lat="38.6392" lon="-122.91174" />
      <trkpt lat="38.63885" lon="-122.91128" />
      <trkpt lat="38.63863" lon="-122.9108" />
      <trkpt lat="38.63826" lon="-122.91019" />
      <trkpt lat="38.63818" lon="-122.90998" />
      <trkpt lat="38.63796" lon="-122.90959" />
      <trkpt lat="38.63744" lon="-122.90904" />
      <trkpt lat="38.63704" lon="-122.90865" />
      <trkpt lat="38.63688" lon="-122.90857" />
      <trkpt lat="38.63661" lon="-122.9084" />
      <trkpt lat="38.63646" lon="-122.90834" />
      <trkpt lat="38.63625" lon="-122.90822" />
      <trkpt lat="38.63618" lon="-122.9082" />
      <trkpt lat="38.63549" lon="-122.90782" />
      <trkpt lat="38.63525" lon="-122.90768" />
      <trkpt lat="38.63516" lon="-122.9076" />
      <trkpt lat="38.63502" lon="-122.90742" />
      <trkpt lat="38.6349" lon="-122.90703" />
      <trkpt lat="38.63481" lon="-122.90679" />
      <trkpt lat="38.63476" lon="-122.9067" />
      <trkpt lat="38.63474" lon="-122.90663" />
      <trkpt lat="38.63466" lon="-122.90655" />
      <trkpt lat="38.63447" lon="-122.90648" />
      <trkpt lat="38.63404" lon="-122.90642" />
      <trkpt lat="38.63344" lon="-122.90617" />
      <trkpt lat="38.63325" lon="-122.90614" />
      <trkpt lat="38.63289" lon="-122.90616" />
      <trkpt lat="38.63257" lon="-122.9061" />
      <trkpt lat="38.63236" lon="-122.90602" />
      <trkpt lat="38.63214" lon="-122.9059" />
      <trkpt lat="38.63212" lon="-122.90586" />
      <trkpt lat="38.63199" lon="-122.90578" />
      <trkpt lat="38.63194" lon="-122.90577" />
      <trkpt lat="38.63168" lon="-122.90566" />
      <trkpt lat="38.63155" lon="-122.90559" />
      <trkpt lat="38.63118" lon="-122.90529" />
      <trkpt lat="38.63103" lon="-122.90513" />
      <trkpt lat="38.63024" lon="-122.90417" />
      <trkpt lat="38.62984" lon="-122.90364" />
      <trkpt lat="38.62965" lon="-122.90333" />
      <trkpt lat="38.62941" lon="-122.90299" />
      <trkpt lat="38.62932" lon="-122.90296" />
      <trkpt lat="38.62925" lon="-122.90287" />
      <trkpt lat="38.62921" lon="-122.90272" />
      <trkpt lat="38.62895" lon="-122.90225" />
      <trkpt lat="38.62881" lon="-122.90205" />
      <trkpt lat="38.62863" lon="-122.90185" />
      <trkpt lat="38.62856" lon="-122.90174" />
      <trkpt lat="38.62848" lon="-122.90168" />
      <trkpt lat="38.62812" lon="-122.90099" />
      <trkpt lat="38.62796" lon="-122.90083" />
      <trkpt lat="38.62789" lon="-122.90079" />
      <trkpt lat="38.62775" lon="-122.90077" />
      <trkpt lat="38.62765" lon="-122.90077" />
      <trkpt lat="38.62738" lon="-122.90072" />
      <trkpt lat="38.62734" lon="-122.90074" />
      <trkpt lat="38.62722" lon="-122.90073" />
      <trkpt lat="38.62707" lon="-122.90066" />
      <trkpt lat="38.62696" lon="-122.90056" />
      <trkpt lat="38.62685" lon="-122.90048" />
      <trkpt lat="38.62663" lon="-122.90023" />
      <trkpt lat="38.62654" lon="-122.90015" />
      <trkpt lat="38.62633" lon="-122.89989" />
      <trkpt lat="38.62576" lon="-122.89932" />
      <trkpt lat="38.62513" lon="-122.89865" />
      <trkpt lat="38.62445" lon="-122.89786" />
      <trkpt lat="38.62419" lon="-122.8975" />
      <trkpt lat="38.6239" lon="-122.89722" />
      <trkpt lat="38.62385" lon="-122.89712" />
      <trkpt lat="38.62367" lon="-122.89691" />
      <trkpt lat="38.62357" lon="-122.89674" />
      <trkpt lat="38.62337" lon="-122.89635" />
      <trkpt lat="38.62317" lon="-122.8959" />
      <trkpt lat="38.62302" lon="-122.89549" />
      <trkpt lat="38.62294" lon="-122.89541" />
      <trkpt lat="38.62271" lon="-122.89468" />
      <trkpt lat="38.62263" lon="-122.8946" />
      <trkpt lat="38.62205" lon="-122.89454" />
      <trkpt lat="38.62173" lon="-122.89444" />
      <trkpt lat="38.62154" lon="-122.8944" />
      <trkpt lat="38.62083" lon="-122.89416" />
      <trkpt lat="38.6207" lon="-122.89407" />
      <trkpt lat="38.62046" lon="-122.89393" />
      <trkpt lat="38.62006" lon="-122.8934" />
      <trkpt lat="38.61995" lon="-122.89335" />
      <trkpt lat="38.61976" lon="-122.8932" />
      <trkpt lat="38.61955" lon="-122.89316" />
      <trkpt lat="38.6189" lon="-122.893" />
      <trkpt lat="38.61867" lon="-122.8929" />
      <trkpt lat="38.6183" lon="-122.89277" />
      <trkpt lat="38.61812" lon="-122.89288" />
      <trkpt lat="38.61801" lon="-122.89289" />
      <trkpt lat="38.6179" lon="-122.89297" />
      <trkpt lat="38.61672" lon="-122.89307" />
      <trkpt lat="38.61633" lon="-122.89313" />
      <trkpt lat="38.61593" lon="-122.89328" />
      <trkpt lat="38.6156" lon="-122.89349" />
      <trkpt lat="38.6154" lon="-122.89365" />
      <trkpt lat="38.61518" lon="-122.89379" />
      <trkpt lat="38.61501" lon="-122.89383" />
      <trkpt lat="38.61475" lon="-122.89377" />
      <trkpt lat="38.61423" lon="-122.89346" />
      <trkpt lat="38.61377" lon="-122.89306" />
      <trkpt lat="38.61367" lon="-122.89303" />
      <trkpt lat="38.61343" lon="-122.89282" />
      <trkpt lat="38.61291" lon="-122.89233" />
      <trkpt lat="38.6128" lon="-122.89225" />
      <trkpt lat="38.61272" lon="-122.89223" />
      <trkpt lat="38.61265" lon="-122.89216" />
      <trkpt lat="38.61251" lon="-122.89197" />
      <trkpt lat="38.61237" lon="-122.89188" />
      <trkpt lat="38.61219" lon="-122.89172" />
      <trkpt lat="38.61193" lon="-122.89154" />
      <trkpt lat="38.6117" lon="-122.89133" />
      <trkpt lat="38.61145" lon="-122.8912" />
      <trkpt lat="38.61124" lon="-122.89103" />
      <trkpt lat="38.6108" lon="-122.89072" />
      <trkpt lat="38.61039" lon="-122.89038" />
      <trkpt lat="38.61018" lon="-122.89014" />
      <trkpt lat="38.60996" lon="-122.88995" />
      <trkpt lat="38.60983" lon="-122.88978" />
      <trkpt lat="38.60937" lon="-122.88931" />
      <trkpt lat="38.60908" lon="-122.88899" />
      <trkpt lat="38.60803" lon="-122.88792" />
      <trkpt lat="38.60775" lon="-122.88769" />
      <trkpt lat="38.60737" lon="-122.88743" />
      <trkpt lat="38.60727" lon="-122.88738" />
      <trkpt lat="38.60698" lon="-122.8872" />
      <trkpt lat="38.60641" lon="-122.88683" />
      <trkpt lat="38.60601" lon="-122.88667" />
      <trkpt lat="38.60535" lon="-122.88631" />
      <trkpt lat="38.60495" lon="-122.88599" />
    </trkseg>
  </trk>
</gpx>