<?xml version="1.0" encoding="UTF-8"?>
<gpx version="1.1" creator="strava-segment-scraper" xmlns="http://www.topografix.com/GPX/1/1">
  <trk>
    <name>sunrise-BRsingle-3rd-1st</name>
    <trkseg>
      <trkpt lat="39.61461" lon="-120.66671" />
      <trkpt lat="39.61458" lon="-120.66668" />
      <trkpt lat="39.61453" lon="-120.66668" />
      <trkpt lat="39.61451" lon="-120.66666" />
      <trkpt lat="39.61454" lon="-120.66664" />
      <trkpt lat="39.61472" lon="-120.66665" />
      <trkpt lat="39.61484" lon="-120.66668" />
      <trkpt lat="39.615" lon="-120.66674" />
      <trkpt lat="39.61511" lon="-120.66682" />
      <trkpt lat="39.61519" lon="-120.66691" />
      <trkpt lat="39.61523" lon="-120.66704" />
      <trkpt lat="39.61522" lon="-120.66715" />
      <trkpt lat="39.61523" lon="-120.66719" />
      <trkpt lat="39.6153" lon="-120.66731" />
      <trkpt lat="39.61533" lon="-120.66732" />
      <trkpt lat="39.61547" lon="-120.66731" />
      <trkpt lat="39.61556" lon="-120.66727" />
      <trkpt lat="39.61565" lon="-120.66727" />
      <trkpt lat="39.6157" lon="-120.66731" />
      <trkpt lat="39.61581" lon="-120.66748" />
      <trkpt lat="39.61585" lon="-120.6675" />
      <trkpt lat="39.61599" lon="-120.66753" />
      <trkpt lat="39.61617" lon="-120.66748" />
      <trkpt lat="39.61624" lon="-120.66749" />
      <trkpt lat="39.6165" lon="-120.66773" />
      <trkpt lat="39.61652" lon="-120.66786" />
      <trkpt lat="39.61655" lon="-120.66789" />
      <trkpt lat="39.61659" lon="-120.66792" />
      <trkpt lat="39.61669" lon="-120.66793" />
      <trkpt lat="39.6168" lon="-120.66799" />
      <trkpt lat="39.61696" lon="-120.66825" />
      <trkpt lat="39.61699" lon="-120.66836" />
      <trkpt lat="39.61699" lon="-120.66847" />
      <trkpt lat="39.61706" lon="-120.66862" />
      <trkpt lat="39.61723" lon="-120.66875" />
      <trkpt lat="39.61727" lon="-120.66874" />
      <trkpt lat="39.61736" lon="-120.66864" />
      <trkpt lat="39.61737" lon="-120.66871" />
      <trkpt lat="39.61725" lon="-120.66917" />
      <trkpt lat="39.61722" lon="-120.66924" />
      <trkpt lat="39.61707" lon="-120.66931" />
      <trkpt lat="39.6171" lon="-120.66939" />
      <trkpt lat="39.61713" lon="-120.6694" />
      <trkpt lat="39.61721" lon="-120.66938" />
      <trkpt lat="39.61724" lon="-120.6693" />
      <trkpt lat="39.61737" lon="-120.6691" />
      <trkpt lat="39.61756" lon="-120.66891" />
      <trkpt lat="39.61766" lon="-120.66887" />
      <trkpt lat="39.61771" lon="-120.66887" />
      <trkpt lat="39.6178" lon="-120.66877" />
      <trkpt lat="39.61805" lon="-120.66869" />
      <trkpt lat="39.61813" lon="-120.66866" />
      <trkpt lat="39.61816" lon="-120.66861" />
      <trkpt lat="39.61829" lon="-120.66858" />
      <trkpt lat="39.61836" lon="-120.66851" />
      <trkpt lat="39.61857" lon="-120.66821" />
      <trkpt lat="39.61879" lon="-120.66793" />
      <trkpt lat="39.61884" lon="-120.66789" />
      <trkpt lat="39.61896" lon="-120.66787" />
      <trkpt lat="39.61909" lon="-120.6679" />
      <trkpt lat="39.61927" lon="-120.66788" />
      <trkpt lat="39.6193" lon="-120.66791" />
      <trkpt lat="39.6193" lon="-120.66795" />
      <trkpt lat="39.61925" lon="-120.66799" />
      <trkpt lat="39.61917" lon="-120.66796" />
      <trkpt lat="39.61912" lon="-120.66797" />
      <trkpt lat="39.61904" lon="-120.66802" />
      <trkpt lat="39.61903" lon="-120.66811" />
      <trkpt lat="39.6191" lon="-120.66813" />
      <trkpt lat="39.61922" lon="-120.66811" />
      <trkpt lat="39.61929" lon="-120.66813" />
      <trkpt lat="39.61925" lon="-120.66819" />
      <trkpt lat="39.61915" lon="-120.66824" />
      <trkpt lat="39.61906" lon="-120.66836" />
      <trkpt lat="39.61901" lon="-120.66853" />
      <trkpt lat="39.61895" lon="-120.66861" />
      <trkpt lat="39.61888" lon="-120.66882" />
      <trkpt lat="39.61877" lon="-120.66906" />
      <trkpt lat="39.61869" lon="-120.66914" />
      <trkpt lat="39.61813" lon="-120.66936" />
      <trkpt lat="39.61798" lon="-120.66952" />
      <trkpt lat="39.61783" lon="-120.66978" />
      <trkpt lat="39.61781" lon="-120.67001" />
      <trkpt lat="39.61777" lon="-120.67029" />
      <trkpt lat="39.61769" lon="-120.67044" />
      <trkpt lat="39.61764" lon="-120.67061" />
      <trkpt lat="39.61765" lon="-120.6708" />
      <trkpt lat="39.61765" lon="-120.671" />
      <trkpt lat="39.6177" lon="-120.67131" />
      <trkpt lat="39.61761" lon="-120.6716" />
      <trkpt lat="39.61759" lon="-120.67163" />
      <trkpt lat="39.61782" lon="-120.67136" />
      <trkpt lat="39.61784" lon="-120.67147" />
      <trkpt lat="39.61789" lon="-120.67149" />
      <trkpt lat="39.61774" lon="-120.67175" />
      <trkpt lat="39.61777" lon="-120.67185" />
      <trkpt lat="39.61774" lon="-120.67192" />
      <trkpt lat="39.61775" lon="-120.6721" />
      <trkpt lat="39.61772" lon="-120.6722" />
      <trkpt lat="39.61765" lon="-120.6723" />
      <trkpt lat="39.61765" lon="-120.67237" />
      <trkpt lat="39.61768" lon="-120.67242" />
      <trkpt lat="39.61766" lon="-120.67258" />
      <trkpt lat="39.61761" lon="-120.67264" />
      <trkpt lat="39.61753" lon="-120.6728" />
      <trkpt lat="39.61749" lon="-120.67283" />
      <trkpt lat="39.61734" lon="-120.67315" />
      <trkpt lat="39.61724" lon="-120.67329" />
      <trkpt lat="39.61715" lon="-120.67349" />
      <trkpt lat="39.61714" lon="-120.67363" />
      <trkpt lat="39.6172" lon="-120.67415" />
      <trkpt lat="39.61717" lon="-120.67431" />
      <trkpt lat="39.61717" lon="-120.67455" />
      <trkpt lat="39.61721" lon="-120.67468" />
      <trkpt lat="39.61727" lon="-120.67478" />
      <trkpt lat="39.61739" lon="-120.67492" />
      <trkpt lat="39.61754" lon="-120.67514" />
      <trkpt lat="39.61759" lon="-120.67518" />
      <trkpt lat="39.61793" lon="-120.67528" />
      <trkpt lat="39.61803" lon="-120.67533" />
      <trkpt lat="39.6181" lon="-120.67545" />
      <trkpt lat="39.61816" lon="-120.67559" />
      <trkpt lat="39.61821" lon="-120.6756" />
      <trkpt lat="39.61836" lon="-120.67556" />
      <trkpt lat="39.61842" lon="-120.67557" />
      <trkpt lat="39.61854" lon="-120.67612" />
      <trkpt lat="39.61856" lon="-120.6763" />
      <trkpt lat="39.6186" lon="-120.67638" />
      <trkpt lat="39.61868" lon="-120.67644" />
      <trkpt lat="39.61873" lon="-120.67655" />
      <trkpt lat="39.61872" lon="-120.67664" />
      <trkpt lat="39.61869" lon="-120.6767" />
      <trkpt lat="39.61831" lon="-120.67685" />
      <trkpt lat="39.6182" lon="-120.67697" />
      <trkpt lat="39.61807" lon="-120.67708" />
      <trkpt lat="39.61792" lon="-120.67727" />
      <trkpt lat="39.61779" lon="-120.67755" />
      <trkpt lat="39.61779" lon="-120.67775" />
      <trkpt lat="39.61772" lon="-120.67808" />
      <trkpt lat="39.61764" lon="-120.67829" />
      <trkpt lat="39.61763" lon="-120.67833" />
      <trkpt lat="39.61766" lon="-120.67841" />
      <trkpt lat="39.61768" lon="-120.6787" />
      <trkpt lat="39.61777" lon="-120.67909" />
      <trkpt lat="39.61777" lon="-120.67929" />
      <trkpt lat="39.61773" lon="-120.67944" />
      <trkpt lat="39.61772" lon="-120.67957" />
      <trkpt lat="39.6177" lon="-120.67966" />
      <trkpt lat="39.61773" lon="-120.6798" />
      <trkpt lat="39.61781" lon="-120.68012" />
      <trkpt lat="39.61786" lon="-120.68025" />
      <trkpt lat="39.6179" lon="-120.68031" />
      <trkpt lat="39.61814" lon="-120.6805" />
      <trkpt lat="39.61811" lon="-120.68053" />
      <trkpt lat="39.61818" lon="-120.68075" />
      <trkpt lat="39.61825" lon="-120.68103" />
      <trkpt lat="39.61838" lon="-120.68142" />
      <trkpt lat="39.6184" lon="-120.68169" />
      <trkpt lat="39.61833" lon="-120.68192" />
      <trkpt lat="39.61832" lon="-120.68217" />
      <trkpt lat="39.61827" lon="-120.68231" />
      <trkpt lat="39.61826" lon="-120.68246" />
      <trkpt lat="39.61816" lon="-120.68259" />
      <trkpt lat="39.61807" lon="-120.68265" />
      <trkpt lat="39.61803" lon="-120.68272" />
      <trkpt lat="39.61798" lon="-120.68276" />
      <trkpt lat="39.61789" lon="-120.6828" />
      <trkpt lat="39.61788" lon="-120.68287" />
      <trkpt lat="39.61784" lon="-120.68289" />
      <trkpt lat="39.61781" lon="-120.68288" />
      <trkpt lat="39.61768" lon="-120.68281" />
      <trkpt lat="39.61763" lon="-120.68288" />
      <trkpt lat="39.61764" lon="-120.68293" />
      <trkpt lat="39.61778" lon="-120.68306" />
      <trkpt lat="39.61788" lon="-120.6831" />
      <trkpt lat="39.61803" lon="-120.68317" />
      <trkpt lat="39.61826" lon="-120.68323" />
      <trkpt lat="39.61846" lon="-120.68321" />
      <trkpt lat="39.61851" lon="-120.68323" />
      <trkpt lat="39.61856" lon="-120.68332" />
      <trkpt lat="39.61867" lon="-120.68338" />
      <trkpt lat="39.61873" lon="-120.68339" />
      <trkpt lat="39.61884" lon="-120.68333" />
      <trkpt lat="39.61899" lon="-120.68319" />
      <trkpt lat="39.61908" lon="-120.68283" />
      <trkpt lat="39.61914" lon="-120.68269" />
      <trkpt lat="39.61916" lon="-120.68257" />
      <trkpt lat="39.61919" lon="-120.68254" />
      <trkpt lat="39.61926" lon="-120.68273" />
      <trkpt lat="39.61941" lon="-120.6827" />
      <trkpt lat="39.61944" lon="-120.68271" />
      <trkpt lat="39.61948" lon="-120.68276" />
      <trkpt lat="39.61955" lon="-120.68296" />
      <trkpt lat="39.61956" lon="-120.68313" />
      <trkpt lat="39.61954" lon="-120.6832" />
      <trkpt lat="39.61946" lon="-120.6833" />
      <trkpt lat="39.61937" lon="-120.68349" />
      <trkpt lat="39.61927" lon="-120.68358" />
      <trkpt lat="39.61929" lon="-120.68364" />
      <trkpt lat="39.61925" lon="-120.68373" />
      <trkpt lat="39.6192" lon="-120.68378" />
      <trkpt lat="39.61905" lon="-120.68384" />
      <trkpt lat="39.6189" lon="-120.68384" />
      <trkpt lat="39.61853" lon="-120.68394" />
      <trkpt lat="39.61816" lon="-120.68396" />
      <trkpt lat="39.61803" lon="-120.68394" />
      <trkpt lat="39.61777" lon="-120.68386" />
      <trkpt lat="39.61748" lon="-120.68382" />
      <trkpt lat="39.61735" lon="-120.68373" />
      <trkpt lat="39.6172" lon="-120.68368" />
      <trkpt lat="39.61706" lon="-120.68352" />
      <trkpt lat="39.61686" lon="-120.68341" />
      <trkpt lat="39.61673" lon="-120.68331" />
      <trkpt lat="39.61657" lon="-120.68311" />
      <trkpt lat="39.61647" lon="-120.68296" />
      <trkpt lat="39.61642" lon="-120.68286" />
      <trkpt lat="39.61648" lon="-120.68294" />
      <trkpt lat="39.6164" lon="-120.68295" />
      <trkpt lat="39.61634" lon="-120.68292" />
      <trkpt lat="39.61626" lon="-120.68286" />
      <trkpt lat="39.61617" lon="-120.68271" />
      <trkpt lat="39.61607" lon="-120.68266" />
      <trkpt lat="39.61602" lon="-120.68266" />
      <trkpt lat="39.61588" lon="-120.68271" />
      <trkpt lat="39.61561" lon="-120.68276" />
      <trkpt lat="39.61552" lon="-120.68279" />
      <trkpt lat="39.61548" lon="-120.68282" />
      <trkpt lat="39.61538" lon="-120.68296" />
      <trkpt lat="39.61531" lon="-120.68299" />
      <trkpt lat="39.61517" lon="-120.683" />
      <trkpt lat="39.61511" lon="-120.68296" />
      <trkpt lat="39.61505" lon="-120.68295" />
      <trkpt lat="39.61499" lon="-120.68297" />
      <trkpt lat="39.61489" lon="-120.68295" />
      <trkpt lat="39.6148" lon="-120.68297" />
      <trkpt lat="39.61464" lon="-120.68294" />
      <trkpt lat="39.61442" lon="-120.68287" />
      <trkpt lat="39.61421" lon="-120.68273" />
      <trkpt lat="39.61408" lon="-120.6827" />
      <trkpt lat="39.61383" lon="-120.68276" />
      <trkpt lat="39.6136" lon="-120.68278" />
      <trkpt lat="39.61342" lon="-120.68287" />
      <trkpt lat="39.61337" lon="-120.68286" />
      <trkpt lat="39.61335" lon="-120.68289" />
      <trkpt lat="39.61349" lon="-120.6829" />
      <trkpt lat="39.61354" lon="-120.68294" />
      <trkpt lat="39.6137" lon="-120.68299" />
      <trkpt lat="39.61386" lon="-120.68296" />
      <trkpt lat="39.61396" lon="-120.68297" />
      <trkpt lat="39.614" lon="-120.68301" />
      <trkpt lat="39.61409" lon="-120.68304" />
      <trkpt lat="39.61414" lon="-120.68303" />
      <trkpt lat="39.61418" lon="-120.68304" />
      <trkpt lat="39.61415" lon="-120.68306" />
      <trkpt lat="39.61405" lon="-120.68304" />
      <trkpt lat="39.614" lon="-120.68301" />
      <trkpt lat="39.61392" lon="-120.68302" />
      <trkpt lat="39.61383" lon="-120.68309" />
      <trkpt lat="39.61354" lon="-120.68321" />
      <trkpt lat="39.61341" lon="-120.68324" />
      <trkpt lat="39.61333" lon="-120.68324" />
      <trkpt lat="39.61326" lon="-120.68327" />
      <trkpt lat="39.61318" lon="-120.68327" />
      <trkpt lat="39.61317" lon="-120.68326" />
      <trkpt lat="39.6132" lon="-120.68325" />
      <trkpt lat="39.61322" lon="-120.68328" />
      <trkpt lat="39.61319" lon="-120.68333" />
      <trkpt lat="39.61307" lon="-120.68344" />
      <trkpt lat="39.61305" lon="-120.68354" />
      <trkpt lat="39.61306" lon="-120.68364" />
      <trkpt lat="39.61313" lon="-120.68381" />
      <trkpt lat="39.61309" lon="-120.68395" />
      <trkpt lat="39.61301" lon="-120.68411" />
      <trkpt lat="39.61296" lon="-120.68433" />
      <trkpt lat="39.61283" lon="-120.68456" />
      <trkpt lat="39.61277" lon="-120.68474" />
      <trkpt lat="39.61277" lon="-120.68479" />
      <trkpt lat="39.61281" lon="-120.68478" />
      <trkpt lat="39.61285" lon="-120.68481" />
      <trkpt lat="39.61307" lon="-120.68513" />
      <trkpt lat="39.61332" lon="-120.6854" />
      <trkpt lat="39.61341" lon="-120.68555" />
      <trkpt lat="39.61346" lon="-120.68566" />
      <trkpt lat="39.61352" lon="-120.68598" />
      <trkpt lat="39.61353" lon="-120.68608" />
      <trkpt lat="39.6135" lon="-120.6864" />
      <trkpt lat="39.61357" lon="-120.68674" />
      <trkpt lat="39.61352" lon="-120.6869" />
      <trkpt lat="39.61345" lon="-120.68695" />
      <trkpt lat="39.61343" lon="-120.68702" />
      <trkpt lat="39.61337" lon="-120.6871" />
      <trkpt lat="39.61329" lon="-120.68726" />
      <trkpt lat="39.61322" lon="-120.68767" />
      <trkpt lat="39.61332" lon="-120.6878" />
      <trkpt lat="39.61347" lon="-120.68787" />
      <trkpt lat="39.61354" lon="-120.68795" />
      <trkpt lat="39.61369" lon="-120.68823" />
      <trkpt lat="39.61373" lon="-120.68834" />
      <trkpt lat="39.61375" lon="-120.68866" />
      <trkpt lat="39.61377" lon="-120.68872" />
      <trkpt lat="39.6138" lon="-120.68875" />
      <trkpt lat="39.61384" lon="-120.68876" />
      <trkpt lat="39.61394" lon="-120.68875" />
      <trkpt lat="39.61426" lon="-120.68878" />
      <trkpt lat="39.61433" lon="-120.68875" />
      <trkpt lat="39.61449" lon="-120.68873" />
      <trkpt lat="39.6147" lon="-120.68876" />
      <trkpt lat="39.61489" lon="-120.68888" />
      <trkpt lat="39.61502" lon="-120.68903" />
      <trkpt lat="39.61512" lon="-120.68905" />
      <trkpt lat="39.61528" lon="-120.68895" />
      <trkpt lat="39.61542" lon="-120.68895" />
      <trkpt lat="39.61548" lon="-120.68894" />
      <trkpt lat="39.61568" lon="-120.68885" />
      <trkpt lat="39.61584" lon="-120.68886" />
      <trkpt lat="39.61605" lon="-120.68891" />
      <trkpt lat="39.61615" lon="-120.68902" />
      <trkpt lat="39.61619" lon="-120.68911" />
      <trkpt lat="39.61621" lon="-120.68918" />
      <trkpt lat="39.61627" lon="-120.68929" />
      <trkpt lat="39.61632" lon="-120.68959" />
      <trkpt lat="39.61641" lon="-120.68976" />
      <trkpt lat="39.61646" lon="-120.68998" />
      <trkpt lat="39.61649" lon="-120.69003" />
      <trkpt lat="39.61661" lon="-120.69013" />
      <trkpt lat="39.61668" lon="-120.69021" />
      <trkpt lat="39.61673" lon="-120.69023" />
      <trkpt lat="39.61686" lon="-120.69039" />
      <trkpt lat="39.61688" lon="-120.69044" />
      <trkpt lat="39.61687" lon="-120.69049" />
      <trkpt lat="39.61688" lon="-120.69062" />
      <trkpt lat="39.61688" lon="-120.69078" />
      <trkpt lat="39.6169" lon="-120.69109" />
      <trkpt lat="39.61696" lon="-120.69146" />
      <trkpt lat="39.61687" lon="-120.69152" />
      <trkpt lat="39.61643" lon="-120.69159" />
      <trkpt lat="39.61643" lon="-120.69163" />
      <trkpt lat="39.61622" lon="-120.69166" />
      <trkpt lat="39.6162" lon="-120.69173" />
      <trkpt lat="39.61619" lon="-120.69166" />
      <trkpt lat="39.61605" lon="-120.69158" />
      <trkpt lat="39.61615" lon="-120.69162" />
      <trkpt lat="39.61619" lon="-120.69167" />
      <trkpt lat="39.61627" lon="-120.69172" />
      <trkpt lat="39.61633" lon="-120.69184" />
      <trkpt lat="39.61619" lon="-120.69204" />
      <trkpt lat="39.61619" lon="-120.6923" />
      <trkpt lat="39.61616" lon="-120.69239" />
      <trkpt lat="39.61609" lon="-120.69252" />
      <trkpt lat="39.61608" lon="-120.69258" />
      <trkpt lat="39.616" lon="-120.69266" />
      <trkpt lat="39.61588" lon="-120.69273" />
      <trkpt lat="39.61585" lon="-120.69272" />
      <trkpt lat="39.61579" lon="-120.69275" />
      <trkpt lat="39.61579" lon="-120.69279" />
      <trkpt lat="39.61585" lon="-120.69282" />
      <trkpt lat="39.61587" lon="-120.69286" />
      <trkpt lat="39.61596" lon="-120.69325" />
      <trkpt lat="39.61611" lon="-120.69342" />
      <trkpt lat="39.61612" lon="-120.69347" />
      <trkpt lat="39.61613" lon="-120.69373" />
      <trkpt lat="39.61608" lon="-120.6939" />
      <trkpt lat="39.616" lon="-120.69404" />
      <trkpt lat="39.61599" lon="-120.69408" />
      <trkpt lat="39.61601" lon="-120.69411" />
      <trkpt lat="39.61615" lon="-120.69412" />
      <trkpt lat="39.61627" lon="-120.69411" />
      <trkpt lat="39.61645" lon="-120.69416" />
      <trkpt lat="39.6165" lon="-120.69422" />
      <trkpt lat="39.6166" lon="-120.69447" />
      <trkpt lat="39.61662" lon="-120.6945" />
      <trkpt lat="39.61669" lon="-120.6945" />
      <trkpt lat="39.61672" lon="-120.69452" />
      <trkpt lat="39.61688" lon="-120.69466" />
      <trkpt lat="39.61693" lon="-120.69473" />
      <trkpt lat="39.61698" lon="-120.69482" />
      <trkpt lat="39.61699" lon="-120.6951" />
      <trkpt lat="39.61712" lon="-120.69518" />
      <trkpt lat="39.61721" lon="-120.69518" />
      <trkpt lat="39.6173" lon="-120.69515" />
      <trkpt lat="39.61746" lon="-120.69501" />
      <trkpt lat="39.61794" lon="-120.69483" />
      <trkpt lat="39.61814" lon="-120.69479" />
      <trkpt lat="39.6183" lon="-120.69479" />
      <trkpt lat="39.61835" lon="-120.69477" />
      <trkpt lat="39.6184" lon="-120.69477" />
      <trkpt lat="39.61852" lon="-120.69482" />
      <trkpt lat="39.61888" lon="-120.69485" />
      <trkpt lat="39.61906" lon="-120.69491" />
      <trkpt lat="39.61921" lon="-120.69502" />
      <trkpt lat="39.61934" lon="-120.69515" />
      <trkpt lat="39.61937" lon="-120.69516" />
      <trkpt lat="39.61933" lon="-120.69511" />
      <trkpt lat="39.6192" lon="-120.69504" />
      <trkpt lat="39.61907" lon="-120.69492" />
      <trkpt lat="39.61884" lon="-120.69477" />
      <trkpt lat="39.61884" lon="-120.69472" />
      <trkpt lat="39.61888" lon="-120.69468" />
      <trkpt lat="39.61899" lon="-120.69463" />
      <trkpt lat="39.61914" lon="-120.69465" />
      <trkpt lat="39.61932" lon="-120.69479" />
      <trkpt lat="39.61948" lon="-120.69485" />
      <trkpt lat="39.61951" lon="-120.69485" />
      <trkpt lat="39.61945" lon="-120.69475" />
      <trkpt lat="39.61918" lon="-120.69442" />
      <trkpt lat="39.61908" lon="-120.69437" />
      <trkpt lat="39.6188" lon="-120.69438" />
      <trkpt lat="39.61876" lon="-120.69435" />
      <trkpt lat="39.61873" lon="-120.69429" />
      <trkpt lat="39.61875" lon="-120.69426" />
      <trkpt lat="39.61885" lon="-120.69425" />
      <trkpt lat="39.61916" lon="-120.69407" />
      <trkpt lat="39.61924" lon="-120.69405" />
      <trkpt lat="39.61934" lon="-120.69407" />
      <trkpt lat="39.61946" lon="-120.69418" />
      <trkpt lat="39.61974" lon="-120.69434" />
      <trkpt lat="39.61977" lon="-120.69435" />
      <trkpt lat="39.61988" lon="-120.69428" />
      <trkpt lat="39.61999" lon="-120.69425" />
      <trkpt lat="39.62011" lon="-120.69425" />
      <trkpt lat="39.62022" lon="-120.69428" />
      <trkpt lat="39.62051" lon="-120.69442" />
      <trkpt lat="39.62072" lon="-120.69457" />
      <trkpt lat="39.62084" lon="-120.69463" />
      <trkpt lat="39.62092" lon="-120.69471" />
      <trkpt lat="39.62096" lon="-120.69473" />
      <trkpt lat="39.62107" lon="-120.69473" />
      <trkpt lat="39.62117" lon="-120.69477" />
      <trkpt lat="39.62125" lon="-120.69482" />
      <trkpt lat="39.62135" lon="-120.69483" />
      <trkpt lat="39.62171" lon="-120.69505" />
      <trkpt lat="39.62182" lon="-120.69519" />
      <trkpt lat="39.62193" lon="-120.69529" />
      <trkpt lat="39.62199" lon="-120.6954" />
      <trkpt lat="39.62213" lon="-120.69555" />
      <trkpt lat="39.62218" lon="-120.69558" />
      <trkpt lat="39.62224" lon="-120.6956" />
      <trkpt lat="39.62237" lon="-120.6956" />
      <trkpt lat="39.62249" lon="-120.69569" />
      <trkpt lat="39.62261" lon="-120.69579" />
      <trkpt lat="39.6227" lon="-120.6959" />
      <trkpt lat="39.62284" lon="-120.69602" />
      <trkpt lat="39.62288" lon="-120.6961" />
      <trkpt lat="39.62297" lon="-120.6962" />
      <trkpt lat="39.62299" lon="-120.69636" />
      <trkpt lat="39.62294" lon="-120.6966" />
      <trkpt lat="39.62286" lon="-120.69665" />
      <trkpt lat="39.62273" lon="-120.69666" />
      <trkpt lat="39.62269" lon="-120.69668" />
      <trkpt lat="39.62268" lon="-120.69674" />
      <trkpt lat="39.62273" lon="-120.69677" />
      <trkpt lat="39.62298" lon="-120.69682" />
      <trkpt lat="39.62308" lon="-120.69686" />
      <trkpt lat="39.62317" lon="-120.69681" />
      <trkpt lat="39.62328" lon="-120.69685" />
      <trkpt lat="39.62345" lon="-120.69692" />
      <trkpt lat="39.62357" lon="-120.69703" />
      <trkpt lat="39.62364" lon="-120.69714" />
      <trkpt lat="39.62373" lon="-120.69732" />
      <trkpt lat="39.62375" lon="-120.69745" />
      <trkpt lat="39.62378" lon="-120.69753" />
      <trkpt lat="39.62387" lon="-120.69765" />
      <trkpt lat="39.62388" lon="-120.69775" />
      <trkpt lat="39.62394" lon="-120.69787" />
      <trkpt lat="39.62398" lon="-120.69805" />
      <trkpt lat="39.62403" lon="-120.6981" />
      <trkpt lat="39.62411" lon="-120.69811" />
      <trkpt lat="39.6242" lon="-120.69822" />
      <trkpt lat="39.62413" lon="-120.69834" />
      <trkpt lat="39.62414" lon="-120.69839" />
      <trkpt lat="39.62426" lon="-120.69861" />
      <trkpt lat="39.62429" lon="-120.6988" />
      <trkpt lat="39.62434" lon="-120.69895" />
      <trkpt lat="39.62449" lon="-120.69919" />
      <trkpt lat="39.62467" lon="-120.69964" />
      <trkpt lat="39.62466" lon="-120.6997" />
      <trkpt lat="39.62462" lon="-120.69976" />
      <trkpt lat="39.62461" lon="-120.69992" />
      <trkpt lat="39.62462" lon="-120.70001" />
      <trkpt lat="39.62467" lon="-120.70019" />
      <trkpt lat="39.62473" lon="-120.70034" />
      <trkpt lat="39.62493" lon="-120.70064" />
      <trkpt lat="39.62491" lon="-120.7007" />
      <trkpt lat="39.62493" lon="-120.70085" />
      <trkpt lat="39.62501" lon="-120.70107" />
      <trkpt lat="39.62516" lon="-120.70128" />
      <trkpt lat="39.62517" lon="-120.70134" />
      <trkpt lat="39.62517" lon="-120.7014" />
      <trkpt lat="39.62514" lon="-120.70144" />
      <trkpt lat="39.62503" lon="-120.70151" />
      <trkpt lat="39.62487" lon="-120.70155" />
      <trkpt lat="39.62494" lon="-120.7016" />
      <trkpt lat="39.62498" lon="-120.7018" />
      <trkpt lat="39.62498" lon="-120.70198" />
      <trkpt lat="39.62488" lon="-120.70235" />
      <trkpt lat="39.62485" lon="-120.70239" />
      <trkpt lat="39.62476" lon="-120.70245" />
      <trkpt lat="39.62474" lon="-120.70249" />
      <trkpt lat="39.62475" lon="-120.7026" />
      <trkpt lat="39.62485" lon="-120.70273" />
      <trkpt lat="39.62477" lon="-120.7029" />
      <trkpt lat="39.62475" lon="-120.70302" />
      <trkpt lat="39.6248" lon="-120.70326" />
      <trkpt lat="39.62479" lon="-120.70335" />
      <trkpt lat="39.62482" lon="-120.70336" />
      <trkpt lat="39.62485" lon="-120.70341" />
      <trkpt lat="39.62485" lon="-120.70345" />
      <trkpt lat="39.62482" lon="-120.70353" />
      <trkpt lat="39.62475" lon="-120.70361" />
      <trkpt lat="39.62475" lon="-120.70376" />
      <trkpt lat="39.62472" lon="-120.70382" />
      <trkpt lat="39.62464" lon="-120.70391" />
      <trkpt lat="39.62456" lon="-120.70394" />
      <trkpt lat="39.62452" lon="-120.704" />
      <trkpt lat="39.6244" lon="-120.70432" />
      <trkpt lat="39.62434" lon="-120.70458" />
      <trkpt lat="39.62433" lon="-120.70469" />
      <trkpt lat="39.62435" lon="-120.70482" />
      <trkpt lat="39.62445" lon="-120.70507" />
      <trkpt lat="39.62442" lon="-120.70537" />
      <trkpt lat="39.62447" lon="-120.70551" />
      <trkpt lat="39.62457" lon="-120.70563" />
      <trkpt lat="39.6246" lon="-120.7057" />
      <trkpt lat="39.6246" lon="-120.70594" />
      <trkpt lat="39.62462" lon="-120.70598" />
      <trkpt lat="39.62467" lon="-120.70604" />
      <trkpt lat="39.62466" lon="-120.70616" />
      <trkpt lat="39.62449" lon="-120.70645" />
      <trkpt lat="39.62454" lon="-120.70663" />
      <trkpt lat="39.62449" lon="-120.70682" />
      <trkpt lat="39.6245" lon="-120.70696" />
      <trkpt lat="39.62439" lon="-120.70731" />
      <trkpt lat="39.62438" lon="-120.70747" />
      <trkpt lat="39.62431" lon="-120.70758" />
      <trkpt lat="39.62425" lon="-120.70761" />
      <trkpt lat="39.62416" lon="-120.70788" />
      <trkpt lat="39.62395" lon="-120.70862" />
      <trkpt lat="39.62393" lon="-120.70894" />
      <trkpt lat="39.62385" lon="-120.70914" />
      <trkpt lat="39.62369" lon="-120.70941" />
      <trkpt lat="39.6237" lon="-120.70954" />
      <trkpt lat="39.62368" lon="-120.70962" />
      <trkpt lat="39.62364" lon="-120.7097" />
      <trkpt lat="39.62362" lon="-120.70988" />
      <trkpt lat="39.6235" lon="-120.71023" />
      <trkpt lat="39.62347" lon="-120.71056" />
      <trkpt lat="39.62343" lon="-120.71069" />
      <trkpt lat="39.62344" lon="-120.71115" />
      <trkpt lat="39.62345" lon="-120.71133" />
      <trkpt lat="39.6235" lon="-120.71161" />
      <trkpt lat="39.6235" lon="-120.71176" />
      <trkpt lat="39.62354" lon="-120.71185" />
      <trkpt lat="39.62352" lon="-120.712" />
      <trkpt lat="39.62342" lon="-120.71217" />
      <trkpt lat="39.62337" lon="-120.71232" />
      <trkpt lat="39.62327" lon="-120.71246" />
      <trkpt lat="39.62324" lon="-120.71255" />
      <trkpt lat="39.62309" lon="-120.71285" />
      <trkpt lat="39.62297" lon="-120.71301" />
      <trkpt lat="39.62282" lon="-120.71315" />
      <trkpt lat="39.62277" lon="-120.71323" />
      <trkpt lat="39.62275" lon="-120.71332" />
      <trkpt lat="39.62276" lon="-120.71344" />
      <trkpt lat="39.62268" lon="-120.71388" />
      <trkpt lat="39.62257" lon="-120.71411" />
      <trkpt lat="39.62243" lon="-120.71433" />
      <trkpt lat="39.62241" lon="-120.7144" />
      <trkpt lat="39.62239" lon="-120.71448" />
      <trkpt lat="39.62248" lon="-120.71455" />
      <trkpt lat="39.62247" lon="-120.71468" />
      <trkpt lat="39.62227" lon="-120.71509" />
      <trkpt lat="39.62228" lon="-120.71529" />
      <trkpt lat="39.6222" lon="-120.71558" />
      <trkpt lat="39.6222" lon="-120.71563" />
      <trkpt lat="39.62223" lon="-120.71564" />
      <trkpt lat="39.62233" lon="-120.71559" />
      <trkpt lat="39.62234" lon="-120.7158" />
      <trkpt lat="39.62239" lon="-120.71595" />
      <trkpt lat="39.6224" lon="-120.71614" />
      <trkpt lat="39.62231" lon="-120.71646" />
      <trkpt lat="39.62231" lon="-120.71655" />
      <trkpt lat="39.62227" lon="-120.71678" />
      <trkpt lat="39.62226" lon="-120.71718" />
      <trkpt lat="39.62218" lon="-120.7175" />
      <trkpt lat="39.62211" lon="-120.7176" />
      <trkpt lat="39.62209" lon="-120.71765" />
      <trkpt lat="39.62206" lon="-120.71767" />
      <trkpt lat="39.62203" lon="-120.71776" />
      <trkpt lat="39.62209" lon="-120.71779" />
      <trkpt lat="39.62215" lon="-120.71779" />
      <trkpt lat="39.62219" lon="-120.7178" />
      <trkpt lat="39.62237" lon="-120.71791" />
      <trkpt lat="39.62249" lon="-120.71818" />
      <trkpt lat="39.62252" lon="-120.71831" />
      <trkpt lat="39.6225" lon="-120.71878" />
      <trkpt lat="39.62251" lon="-120.71893" />
      <trkpt lat="39.62259" lon="-120.71922" />
      <trkpt lat="39.62265" lon="-120.71971" />
      <trkpt lat="39.62276" lon="-120.72013" />
      <trkpt lat="39.62276" lon="-120.7202" />
      <trkpt lat="39.62271" lon="-120.72039" />
      <trkpt lat="39.62265" lon="-120.72087" />
      <trkpt lat="39.62256" lon="-120.72117" />
      <trkpt lat="39.62252" lon="-120.72145" />
      <trkpt lat="39.62238" lon="-120.72171" />
      <trkpt lat="39.62218" lon="-120.722" />
      <trkpt lat="39.62211" lon="-120.72216" />
      <trkpt lat="39.62222" lon="-120.72214" />
      <trkpt lat="39.62237" lon="-120.72207" />
      <trkpt lat="39.6224" lon="-120.72201" />
      <trkpt lat="39.62253" lon="-120.72194" />
      <trkpt lat="39.62277" lon="-120.72173" />
      <trkpt lat="39.6228" lon="-120.7216" />
      <trkpt lat="39.62282" lon="-120.72157" />
      <trkpt lat="39.62291" lon="-120.72155" />
      <trkpt lat="39.62298" lon="-120.72146" />
      <trkpt lat="39.62304" lon="-120.72142" />
      <trkpt lat="39.62306" lon="-120.72146" />
      <trkpt lat="39.62306" lon="-120.72172" />
      <trkpt lat="39.62295" lon="-120.7221" />
      <trkpt lat="39.62281" lon="-120.72236" />
      <trkpt lat="39.6229" lon="-120.72241" />
      <trkpt lat="39.62295" lon="-120.72235" />
      <trkpt lat="39.62302" lon="-120.72232" />
      <trkpt lat="39.62304" lon="-120.72233" />
      <trkpt lat="39.62292" lon="-120.7226" />
      <trkpt lat="39.6231" lon="-120.72265" />
      <trkpt lat="39.62316" lon="-120.72268" />
      <trkpt lat="39.62313" lon="-120.72277" />
      <trkpt lat="39.62301" lon="-120.72294" />
      <trkpt lat="39.62283" lon="-120.72311" />
      <trkpt lat="39.62259" lon="-120.72332" />
      <trkpt lat="39.62251" lon="-120.72334" />
      <trkpt lat="39.6225" lon="-120.72341" />
      <trkpt lat="39.62239" lon="-120.72357" />
      <trkpt lat="39.62224" lon="-120.72369" />
      <trkpt lat="39.62222" lon="-120.72373" />
      <trkpt lat="39.62229" lon="-120.7237" />
      <trkpt lat="39.62236" lon="-120.7237" />
      <trkpt lat="39.62239" lon="-120.72374" />
      <trkpt lat="39.6224" lon="-120.72382" />
      <trkpt lat="39.62233" lon="-120.72396" />
      <trkpt lat="39.62231" lon="-120.7241" />
      <trkpt lat="39.62234" lon="-120.72431" />
      <trkpt lat="39.62233" lon="-120.72443" />
      <trkpt lat="39.62231" lon="-120.72461" />
      <trkpt lat="39.62224" lon="-120.72488" />
      <trkpt lat="39.62225" lon="-120.72495" />
      <trkpt lat="39.62223" lon="-120.72496" />
      <trkpt lat="39.62224" lon="-120.72506" />
      <trkpt lat="39.62223" lon="-120.72509" />
      <trkpt lat="39.62205" lon="-120.72527" />
      <trkpt lat="39.62187" lon="-120.72562" />
      <trkpt lat="39.62182" lon="-120.72582" />
      <trkpt lat="39.62173" lon="-120.72604" />
      <trkpt lat="39.62177" lon="-120.72609" />
      <trkpt lat="39.62163" lon="-120.72649" />
      <trkpt lat="39.62158" lon="-120.72687" />
      <trkpt lat="39.62147" lon="-120.72694" />
      <trkpt lat="39.62138" lon="-120.72703" />
      <trkpt lat="39.62124" lon="-120.72713" />
      <trkpt lat="39.62119" lon="-120.72721" />
      <trkpt lat="39.62104" lon="-120.72718" />
      <trkpt lat="39.62097" lon="-120.72729" />
      <trkpt lat="39.62098" lon="-120.72737" />
      <trkpt lat="39.62094" lon="-120.7275" />
      <trkpt lat="39.62072" lon="-120.7279" />
      <trkpt lat="39.62066" lon="-120.72796" />
      <trkpt lat="39.62048" lon="-120.72823" />
      <trkpt lat="39.62044" lon="-120.72841" />
      <trkpt lat="39.6204" lon="-120.72848" />
      <trkpt lat="39.62035" lon="-120.72866" />
      <trkpt lat="39.62037" lon="-120.72886" />
      <trkpt lat="39.62031" lon="-120.72899" />
      <trkpt lat="39.62033" lon="-120.72908" />
      <trkpt lat="39.62027" lon="-120.72921" />
      <trkpt lat="39.62028" lon="-120.72938" />
      <trkpt lat="39.62026" lon="-120.72982" />
      <trkpt lat="39.62021" lon="-120.72993" />
      <trkpt lat="39.62014" lon="-120.73017" />
      <trkpt lat="39.62006" lon="-120.73032" />
      <trkpt lat="39.61992" lon="-120.7305" />
      <trkpt lat="39.6198" lon="-120.73059" />
      <trkpt lat="39.61964" lon="-120.73082" />
      <trkpt lat="39.61954" lon="-120.73094" />
      <trkpt lat="39.61951" lon="-120.73098" />
      <trkpt lat="39.61944" lon="-120.73098" />
      <trkpt lat="39.61939" lon="-120.73101" />
      <trkpt lat="39.61927" lon="-120.73117" />
      <trkpt lat="39.61925" lon="-120.73131" />
      <trkpt lat="39.61926" lon="-120.73134" />
      <trkpt lat="39.61917" lon="-120.73135" />
      <trkpt lat="39.61916" lon="-120.73138" />
      <trkpt lat="39.61916" lon="-120.73135" />
      <trkpt lat="39.61913" lon="-120.73137" />
      <trkpt lat="39.61901" lon="-120.73163" />
      <trkpt lat="39.6189" lon="-120.73198" />
      <trkpt lat="39.61886" lon="-120.73229" />
      <trkpt lat="39.61887" lon="-120.73239" />
      <trkpt lat="39.61872" lon="-120.73276" />
      <trkpt lat="39.61871" lon="-120.73285" />
      <trkpt lat="39.61885" lon="-120.73297" />
      <trkpt lat="39.6189" lon="-120.73312" />
      <trkpt lat="39.61896" lon="-120.73366" />
      <trkpt lat="39.61894" lon="-120.73391" />
      <trkpt lat="39.61894" lon="-120.73405" />
      <trkpt lat="39.61892" lon="-120.73413" />
      <trkpt lat="39.61892" lon="-120.73423" />
      <trkpt lat="39.61897" lon="-120.73441" />
      <trkpt lat="39.61896" lon="-120.73453" />
      <trkpt lat="39.61901" lon="-120.73485" />
      <trkpt lat="39.61901" lon="-120.73518" />
      <trkpt lat="39.61907" lon="-120.73542" />
      <trkpt lat="39.61912" lon="-120.73576" />
      <trkpt lat="39.6193" lon="-120.73645" />
      <trkpt lat="39.61931" lon="-120.73653" />
      <trkpt lat="39.61927" lon="-120.73679" />
      <trkpt lat="39.61921" lon="-120.73702" />
      <trkpt lat="39.6192" lon="-120.73739" />
      <trkpt lat="39.61909" lon="-120.73788" />
      <trkpt lat="39.61908" lon="-120.73818" />
      <trkpt lat="39.61906" lon="-120.73828" />
      <trkpt lat="39.61896" lon="-120.73847" />
      <trkpt lat="39.61892" lon="-120.73852" />
      <trkpt lat="39.6188" lon="-120.73859" />
      <trkpt lat="39.61875" lon="-120.7386" />
      <trkpt lat="39.61852" lon="-120.7386" />
      <trkpt lat="39.6183" lon="-120.73869" />
      <trkpt lat="39.61815" lon="-120.73868" />
      <trkpt lat="39.61801" lon="-120.73875" />
      <trkpt lat="39.61795" lon="-120.7388" />
      <trkpt lat="39.61781" lon="-120.73894" />
      <trkpt lat="39.61754" lon="-120.73912" />
      <trkpt lat="39.61742" lon="-120.73915" />
      <trkpt lat="39.61724" lon="-120.73914" />
      <trkpt lat="39.61702" lon="-120.7392" />
      <trkpt lat="39.61688" lon="-120.73927" />
      <trkpt lat="39.6167" lon="-120.73975" />
      <trkpt lat="39.61667" lon="-120.7399" />
      <trkpt lat="39.61664" lon="-120.74026" />
      <trkpt lat="39.61661" lon="-120.74031" />
      <trkpt lat="39.6165" lon="-120.74037" />
      <trkpt lat="39.61645" lon="-120.74041" />
      <trkpt lat="39.61635" lon="-120.7406" />
      <trkpt lat="39.61633" lon="-120.74068" />
      <trkpt lat="39.61634" lon="-120.74092" />
      <trkpt lat="39.61631" lon="-120.74136" />
      <trkpt lat="39.61632" lon="-120.74184" />
      <trkpt lat="39.61627" lon="-120.7419" />
      <trkpt lat="39.61625" lon="-120.74196" />
      <trkpt lat="39.61622" lon="-120.74224" />
      <trkpt lat="39.61626" lon="-120.74233" />
      <trkpt lat="39.61613" lon="-120.74225" />
      <trkpt lat="39.61607" lon="-120.74225" />
      <trkpt lat="39.616" lon="-120.74229" />
      <trkpt lat="39.61595" lon="-120.7423" />
      <trkpt lat="39.61582" lon="-120.7424" />
      <trkpt lat="39.61536" lon="-120.74269" />
      <trkpt lat="39.61518" lon="-120.74287" />
      <trkpt lat="39.61507" lon="-120.74302" />
      <trkpt lat="39.61485" lon="-120.74318" />
      <trkpt lat="39.61478" lon="-120.74326" />
      <trkpt lat="39.61465" lon="-120.74334" />
      <trkpt lat="39.61445" lon="-120.74349" />
      <trkpt lat="39.61434" lon="-120.74363" />
      <trkpt lat="39.61418" lon="-120.74375" />
      <trkpt lat="39.61406" lon="-120.74397" />
      <trkpt lat="39.61412" lon="-120.74398" />
      <trkpt lat="39.61435" lon="-120.74391" />
      <trkpt lat="39.6146" lon="-120.74393" />
      <trkpt lat="39.6147" lon="-120.74391" />
      <trkpt lat="39.61477" lon="-120.74392" />
      <trkpt lat="39.61488" lon="-120.74391" />
      <trkpt lat="39.61494" lon="-120.74393" />
      <trkpt lat="39.61497" lon="-120.74396" />
      <trkpt lat="39.61488" lon="-120.744" />
      <trkpt lat="39.6148" lon="-120.74407" />
      <trkpt lat="39.61463" lon="-120.74426" />
      <trkpt lat="39.61458" lon="-120.74436" />
      <trkpt lat="39.61445" lon="-120.7445" />
      <trkpt lat="39.6144" lon="-120.74462" />
      <trkpt lat="39.61435" lon="-120.74464" />
      <trkpt lat="39.61431" lon="-120.7447" />
      <trkpt lat="39.61435" lon="-120.74472" />
      <trkpt lat="39.61441" lon="-120.74472" />
      <trkpt lat="39.61453" lon="-120.74468" />
      <trkpt lat="39.6146" lon="-120.74463" />
      <trkpt lat="39.61466" lon="-120.74464" />
      <trkpt lat="39.61467" lon="-120.74473" />
      <trkpt lat="39.61464" lon="-120.74474" />
      <trkpt lat="39.61464" lon="-120.7447" />
      <trkpt lat="39.61467" lon="-120.74471" />
      <trkpt lat="39.61467" lon="-120.74476" />
      <trkpt lat="39.61436" lon="-120.74502" />
      <trkpt lat="39.61433" lon="-120.74507" />
      <trkpt lat="39.61424" lon="-120.74536" />
      <trkpt lat="39.61406" lon="-120.74558" />
      <trkpt lat="39.61381" lon="-120.74575" />
      <trkpt lat="39.61375" lon="-120.74576" />
      <trkpt lat="39.61369" lon="-120.74575" />
      <trkpt lat="39.6135" lon="-120.74594" />
      <trkpt lat="39.61323" lon="-120.74615" />
      <trkpt lat="39.61311" lon="-120.74636" />
      <trkpt lat="39.61304" lon="-120.7464" />
      <trkpt lat="39.61282" lon="-120.74674" />
      <trkpt lat="39.61279" lon="-120.74677" />
      <trkpt lat="39.61275" lon="-120.74678" />
      <trkpt lat="39.6126" lon="-120.7469" />
      <trkpt lat="39.61257" lon="-120.74697" />
      <trkpt lat="39.61245" lon="-120.74709" />
      <trkpt lat="39.61226" lon="-120.74721" />
      <trkpt lat="39.6122" lon="-120.7473" />
      <trkpt lat="39.61202" lon="-120.74742" />
      <trkpt lat="39.61199" lon="-120.74745" />
      <trkpt lat="39.61199" lon="-120.74749" />
      <trkpt lat="39.61182" lon="-120.74762" />
      <trkpt lat="39.6116" lon="-120.74798" />
      <trkpt lat="39.6115" lon="-120.74824" />
      <trkpt lat="39.61155" lon="-120.74851" />
      <trkpt lat="39.61155" lon="-120.74882" />
      <trkpt lat="39.61158" lon="-120.74927" />
      <trkpt lat="39.61165" lon="-120.74969" />
      <trkpt lat="39.61177" lon="-120.75014" />
      <trkpt lat="39.6118" lon="-120.75016" />
      <trkpt lat="39.61178" lon="-120.75019" />
      <trkpt lat="39.61187" lon="-120.75044" />
      <trkpt lat="39.61189" lon="-120.75066" />
      <trkpt lat="39.61193" lon="-120.75089" />
      <trkpt lat="39.61193" lon="-120.75138" />
      <trkpt lat="39.61191" lon="-120.7515" />
      <trkpt lat="39.61192" lon="-120.75163" />
      <trkpt lat="39.61188" lon="-120.75193" />
      <trkpt lat="39.61189" lon="-120.75203" />
      <trkpt lat="39.61193" lon="-120.75209" />
      <trkpt lat="39.61188" lon="-120.75224" />
      <trkpt lat="39.61191" lon="-120.7523" />
      <trkpt lat="39.61199" lon="-120.75299" />
      <trkpt lat="39.61198" lon="-120.75323" />
      <trkpt lat="39.61195" lon="-120.75342" />
      <trkpt lat="39.61197" lon="-120.75372" />
      <trkpt lat="39.61187" lon="-120.75426" />
      <trkpt lat="39.61184" lon="-120.75458" />
      <trkpt lat="39.61187" lon="-120.75487" />
      <trkpt lat="39.61199" lon="-120.75544" />
      <trkpt lat="39.61213" lon="-120.75593" />
      <trkpt lat="39.61216" lon="-120.75611" />
      <trkpt lat="39.61225" lon="-120.75637" />
      <trkpt lat="39.61237" lon="-120.75687" />
      <trkpt lat="39.61242" lon="-120.75724" />
      <trkpt lat="39.61247" lon="-120.75741" />
      <trkpt lat="39.61254" lon="-120.75773" />
      <trkpt lat="39.6126" lon="-120.75788" />
      <trkpt lat="39.6126" lon="-120.75792" />
      <trkpt lat="39.61273" lon="-120.75833" />
      <trkpt lat="39.61284" lon="-120.75862" />
      <trkpt lat="39.61323" lon="-120.75941" />
      <trkpt lat="39.61332" lon="-120.75962" />
      <trkpt lat="39.61346" lon="-120.76043" />
      <trkpt lat="39.61362" lon="-120.76089" />
      <trkpt lat="39.61357" lon="-120.76112" />
      <trkpt lat="39.61361" lon="-120.76115" />
      <trkpt lat="39.61366" lon="-120.76132" />
      <trkpt lat="39.61392" lon="-120.76178" />
      <trkpt lat="39.614" lon="-120.76197" />
      <trkpt lat="39.61416" lon="-120.76252" />
      <trkpt lat="39.61417" lon="-120.76265" />
      <trkpt lat="39.61416" lon="-120.76277" />
      <trkpt lat="39.61417" lon="-120.7629" />
      <trkpt lat="39.61415" lon="-120.76309" />
      <trkpt lat="39.61411" lon="-120.76316" />
      <trkpt lat="39.61403" lon="-120.76324" />
      <trkpt lat="39.61387" lon="-120.76329" />
      <trkpt lat="39.6138" lon="-120.76327" />
      <trkpt lat="39.61377" lon="-120.76329" />
      <trkpt lat="39.61368" lon="-120.76349" />
      <trkpt lat="39.61356" lon="-120.764" />
      <trkpt lat="39.61353" lon="-120.76411" />
      <trkpt lat="39.61355" lon="-120.76426" />
      <trkpt lat="39.61362" lon="-120.76446" />
      <trkpt lat="39.6136" lon="-120.76454" />
      <trkpt lat="39.61358" lon="-120.76465" />
      <trkpt lat="39.61349" lon="-120.76469" />
      <trkpt lat="39.61346" lon="-120.76473" />
      <trkpt lat="39.61343" lon="-120.76492" />
      <trkpt lat="39.6136" lon="-120.76587" />
      <trkpt lat="39.61362" lon="-120.7662" />
      <trkpt lat="39.61368" lon="-120.76647" />
      <trkpt lat="39.61365" lon="-120.76654" />
      <trkpt lat="39.61365" lon="-120.76661" />
      <trkpt lat="39.61359" lon="-120.76677" />
      <trkpt lat="39.61352" lon="-120.76687" />
      <trkpt lat="39.61333" lon="-120.76704" />
      <trkpt lat="39.6131" lon="-120.76737" />
      <trkpt lat="39.61291" lon="-120.76753" />
      <trkpt lat="39.61286" lon="-120.76756" />
      <trkpt lat="39.61281" lon="-120.7676" />
      <trkpt lat="39.61258" lon="-120.76788" />
      <trkpt lat="39.61256" lon="-120.76794" />
      <trkpt lat="39.61236" lon="-120.76816" />
      <trkpt lat="39.61229" lon="-120.76826" />
      <trkpt lat="39.61229" lon="-120.76821" />
      <trkpt lat="39.61229" lon="-120.76825" />
      <trkpt lat="39.61224" lon="-120.76828" />
      <trkpt lat="39.61222" lon="-120.76833" />
      <trkpt lat="39.61213" lon="-120.7684" />
      <trkpt lat="39.61203" lon="-120.76859" />
      <trkpt lat="39.61188" lon="-120.7687" />
      <trkpt lat="39.61174" lon="-120.76877" />
      <trkpt lat="39.61168" lon="-120.76876" />
      <trkpt lat="39.61157" lon="-120.7689" />
      <trkpt lat="39.61127" lon="-120.7694" />
      <trkpt lat="39.61116" lon="-120.76967" />
      <trkpt lat="39.61102" lon="-120.76988" />
      <trkpt lat="39.61065" lon="-120.77061" />
      <trkpt lat="39.6103" lon="-120.7711" />
      <trkpt lat="39.61005" lon="-120.7713" />
      <trkpt lat="39.61" lon="-120.77133" />
      <trkpt lat="39.60997" lon="-120.77137" />
      <trkpt lat="39.61" lon="-120.77154" />
      <trkpt lat="39.60998" lon="-120.77165" />
      <trkpt lat="39.60998" lon="-120.77187" />
      <trkpt lat="39.61001" lon="-120.77197" />
      <trkpt lat="39.61003" lon="-120.7722" />
      <trkpt lat="39.61007" lon="-120.77245" />
      <trkpt lat="39.61004" lon="-120.77283" />
      <trkpt lat="39.61003" lon="-120.77289" />
      <trkpt lat="39.60998" lon="-120.77299" />
      <trkpt lat="39.60981" lon="-120.77341" />
      <trkpt lat="39.60967" lon="-120.77369" />
      <trkpt lat="39.60961" lon="-120.77389" />
      <trkpt lat="39.60961" lon="-120.77395" />
      <trkpt lat="39.60956" lon="-120.77399" />
      <trkpt lat="39.60941" lon="-120.77406" />
      <trkpt lat="39.60932" lon="-120.77416" />
      <trkpt lat="39.60922" lon="-120.77424" />
      <trkpt lat="39.60905" lon="-120.77428" />
      <trkpt lat="39.60871" lon="-120.77445" />
      <trkpt lat="39.60853" lon="-120.77456" />
      <trkpt lat="39.60815" lon="-120.77471" />
      <trkpt lat="39.608" lon="-120.77472" />
      <trkpt lat="39.60795" lon="-120.77474" />
      <trkpt lat="39.60772" lon="-120.77471" />
      <trkpt lat="39.60703" lon="-120.77474" />
      <trkpt lat="39.60691" lon="-120.77471" />
      <trkpt lat="39.60684" lon="-120.7747" />
      <trkpt lat="39.60665" lon="-120.77475" />
      <trkpt lat="39.60654" lon="-120.77473" />
      <trkpt lat="39.60639" lon="-120.77475" />
      <trkpt lat="39.60636" lon="-120.77476" />
      <trkpt lat="39.60631" lon="-120.77481" />
      <trkpt lat="39.60607" lon="-120.77485" />
      <trkpt lat="39.60587" lon="-120.77495" />
      <trkpt lat="39.60566" lon="-120.7751" />
      <trkpt lat="39.60546" lon="-120.7753" />
      <trkpt lat="39.60543" lon="-120.77535" />
      <trkpt lat="39.60535" lon="-120.77558" />
      <trkpt lat="39.60525" lon="-120.7756" />
      <trkpt lat="39.60517" lon="-120.77566" />
      <trkpt lat="39.6051" lon="-120.7759" />
      <trkpt lat="39.60501" lon="-120.776" />
      <trkpt lat="39.60499" lon="-120.77604" />
      <trkpt lat="39.60491" lon="-120.77631" />
      <trkpt lat="39.60489" lon="-120.77655" />
      <trkpt lat="39.6049" lon="-120.77673" />
      <trkpt lat="39.60481" lon="-120.77714" />
      <trkpt lat="39.60475" lon="-120.77761" />
      <trkpt lat="39.60467" lon="-120.77764" />
      <trkpt lat="39.60465" lon="-120.77767" />
      <trkpt lat="39.60464" lon="-120.77779" />
      <trkpt lat="39.60459" lon="-120.77796" />
      <trkpt lat="39.60459" lon="-120.77824" />
      <trkpt lat="39.60456" lon="-120.7784" />
      <trkpt lat="39.6046" lon="-120.77879" />
      <trkpt lat="39.60452" lon="-120.7791" />
      <trkpt lat="39.60448" lon="-120.77933" />
      <trkpt lat="39.60429" lon="-120.77992" />
      <trkpt lat="39.60426" lon="-120.78008" />
      <trkpt lat="39.60422" lon="-120.78014" />
      <trkpt lat="39.6042" lon="-120.78021" />
      <trkpt lat="39.60419" lon="-120.78018" />
      <trkpt lat="39.6042" lon="-120.78015" />
      <trkpt lat="39.60423" lon="-120.78015" />
      <trkpt lat="39.60423" lon="-120.78011" />
      <trkpt lat="39.60418" lon="-120.78011" />
      <trkpt lat="39.60415" lon="-120.78007" />
      <trkpt lat="39.60421" lon="-120.78009" />
      <trkpt lat="39.60423" lon="-120.78008" />
      <trkpt lat="39.60426" lon="-120.78011" />
      <trkpt lat="39.60424" lon="-120.78014" />
      <trkpt lat="39.60418" lon="-120.78017" />
      <trkpt lat="39.60416" lon="-120.78021" />
      <trkpt lat="39.60421" lon="-120.78024" />
      <trkpt lat="39.60416" lon="-120.78031" />
      <trkpt lat="39.60416" lon="-120.7804" />
      <trkpt lat="39.60435" lon="-120.78077" />
      <trkpt lat="39.60458" lon="-120.78106" />
      <trkpt lat="39.6046" lon="-120.78111" />
      <trkpt lat="39.6046" lon="-120.78115" />
      <trkpt lat="39.60456" lon="-120.78125" />
      <trkpt lat="39.60451" lon="-120.7813" />
      <trkpt lat="39.60402" lon="-120.7815" />
      <trkpt lat="39.60383" lon="-120.7816" />
      <trkpt lat="39.60374" lon="-120.78173" />
      <trkpt lat="39.60364" lon="-120.78196" />
      <trkpt lat="39.60361" lon="-120.78216" />
      <trkpt lat="39.60361" lon="-120.78232" />
      <trkpt lat="39.60366" lon="-120.78256" />
      <trkpt lat="39.6037" lon="-120.78263" />
      <trkpt lat="39.60379" lon="-120.78292" />
      <trkpt lat="39.60383" lon="-120.78316" />
      <trkpt lat="39.60381" lon="-120.78329" />
      <trkpt lat="39.60375" lon="-120.78349" />
      <trkpt lat="39.6037" lon="-120.78379" />
      <trkpt lat="39.60367" lon="-120.78386" />
      <trkpt lat="39.60354" lon="-120.78406" />
      <trkpt lat="39.60343" lon="-120.78418" />
      <trkpt lat="39.60333" lon="-120.78431" />
      <trkpt lat="39.6032" lon="-120.78453" />
      <trkpt lat="39.60305" lon="-120.7847" />
      <trkpt lat="39.60289" lon="-120.78481" />
      <trkpt lat="39.60274" lon="-120.78495" />
      <trkpt lat="39.60267" lon="-120.78498" />
      <trkpt lat="39.60265" lon="-120.78501" />
      <trkpt lat="39.60235" lon="-120.78519" />
      <trkpt lat="39.60213" lon="-120.78526" />
      <trkpt lat="39.60186" lon="-120.7853" />
      <trkpt lat="39.60179" lon="-120.78533" />
      <trkpt lat="39.60169" lon="-120.78533" />
      <trkpt lat="39.60154" lon="-120.78544" />
      <trkpt lat="39.60145" lon="-120.7857" />
      <trkpt lat="39.6014" lon="-120.78601" />
      <trkpt lat="39.60125" lon="-120.78648" />
      <trkpt lat="39.60105" lon="-120.7868" />
      <trkpt lat="39.60101" lon="-120.78684" />
      <trkpt lat="39.60088" lon="-120.78692" />
      <trkpt lat="39.60059" lon="-120.78705" />
      <trkpt lat="39.60049" lon="-120.78715" />
      <trkpt lat="39.60033" lon="-120.78725" />
      <trkpt lat="39.60003" lon="-120.78748" />
      <trkpt lat="39.59987" lon="-120.78765" />
      <trkpt lat="39.59972" lon="-120.78777" />
      <trkpt lat="39.59957" lon="-120.78791" />
      <trkpt lat="39.59954" lon="-120.78813" />
      <trkpt lat="39.59951" lon="-120.78823" />
      <trkpt lat="39.5995" lon="-120.78834" />
      <trkpt lat="39.5995" lon="-120.78847" />
      <trkpt lat="39.59954" lon="-120.78884" />
      <trkpt lat="39.59969" lon="-120.7895" />
      <trkpt lat="39.59991" lon="-120.79018" />
      <trkpt lat="39.59992" lon="-120.79035" />
      <trkpt lat="39.59999" lon="-120.79057" />
      <trkpt lat="39.59998" lon="-120.79071" />
      <trkpt lat="39.60001" lon="-120.79089" />
      <trkpt lat="39.60001" lon="-120.79113" />
      <trkpt lat="39.59997" lon="-120.79152" />
      <trkpt lat="39.59994" lon="-120.79164" />
      <trkpt lat="39.59988" lon="-120.79178" />
      <trkpt lat="39.59986" lon="-120.792" />
      <trkpt lat="39.59973" lon="-120.79241" />
      <trkpt lat="39.59971" lon="-120.79254" />
      <trkpt lat="39.59974" lon="-120.79291" />
      <trkpt lat="39.5998" lon="-120.79321" />
      <trkpt lat="39.5999" lon="-120.7935" />
      <trkpt lat="39.59996" lon="-120.79348" />
      <trkpt lat="39.59981" lon="-120.79421" />
      <trkpt lat="39.59973" lon="-120.79444" />
      <trkpt lat="39.59966" lon="-120.79454" />
      <trkpt lat="39.59962" lon="-120.79464" />
      <trkpt lat="39.59949" lon="-120.79505" />
      <trkpt lat="39.59939" lon="-120.79523" />
      <trkpt lat="39.59917" lon="-120.7955" />
      <trkpt lat="39.59898" lon="-120.79579" />
      <trkpt lat="39.59861" lon="-120.79614" />
      <trkpt lat="39.59866" lon="-120.79617" />
      <trkpt lat="39.59854" lon="-120.79625" />
      <trkpt lat="39.59841" lon="-120.79639" />
      <trkpt lat="39.59816" lon="-120.79674" />
      <trkpt lat="39.59782" lon="-120.79742" />
      <trkpt lat="39.59764" lon="-120.79785" />
      <trkpt lat="39.59744" lon="-120.79804" />
      <trkpt lat="39.59743" lon="-120.79809" />
      <trkpt lat="39.59745" lon="-120.79817" />
      <trkpt lat="39.59747" lon="-120.79817" />
      <trkpt lat="39.59745" lon="-120.79818" />
      <trkpt lat="39.59744" lon="-120.79828" />
      <trkpt lat="39.5974" lon="-120.79835" />
      <trkpt lat="39.59724" lon="-120.7985" />
      <trkpt lat="39.5971" lon="-120.79859" />
      <trkpt lat="39.59691" lon="-120.79866" />
      <trkpt lat="39.59677" lon="-120.79865" />
      <trkpt lat="39.59668" lon="-120.79877" />
      <trkpt lat="39.59662" lon="-120.79899" />
      <trkpt lat="39.59654" lon="-120.79906" />
      <trkpt lat="39.59645" lon="-120.79909" />
      <trkpt lat="39.59643" lon="-120.79923" />
      <trkpt lat="39.59645" lon="-120.79939" />
      <trkpt lat="39.59657" lon="-120.79963" />
      <trkpt lat="39.59672" lon="-120.79985" />
      <trkpt lat="39.59678" lon="-120.79998" />
      <trkpt lat="39.59685" lon="-120.80006" />
      <trkpt lat="39.59686" lon="-120.8002" />
      <trkpt lat="39.59685" lon="-120.80024" />
      <trkpt lat="39.59682" lon="-120.80027" />
      <trkpt lat="39.59673" lon="-120.80032" />
      <trkpt lat="39.59655" lon="-120.80035" />
      <trkpt lat="39.59613" lon="-120.80037" />
      <trkpt lat="39.59603" lon="-120.80034" />
      <trkpt lat="39.59591" lon="-120.80026" />
      <trkpt lat="39.59585" lon="-120.80019" />
      <trkpt lat="39.5958" lon="-120.80001" />
      <trkpt lat="39.59576" lon="-120.79971" />
      <trkpt lat="39.59573" lon="-120.79962" />
      <trkpt lat="39.59568" lon="-120.79957" />
      <trkpt lat="39.59563" lon="-120.79952" />
      <trkpt lat="39.59555" lon="-120.7995" />
      <trkpt lat="39.5955" lon="-120.7995" />
      <trkpt lat="39.59532" lon="-120.79954" />
      <trkpt lat="39.59521" lon="-120.79951" />
      <trkpt lat="39.59512" lon="-120.79955" />
      <trkpt lat="39.59511" lon="-120.7996" />
      <trkpt lat="39.59505" lon="-120.79969" />
      <trkpt lat="39.59497" lon="-120.79991" />
      <trkpt lat="39.59483" lon="-120.80011" />
      <trkpt lat="39.59473" lon="-120.80018" />
      <trkpt lat="39.59458" lon="-120.8002" />
      <trkpt lat="39.59435" lon="-120.8003" />
      <trkpt lat="39.59424" lon="-120.8004" />
      <trkpt lat="39.59415" lon="-120.80052" />
      <trkpt lat="39.59408" lon="-120.80067" />
      <trkpt lat="39.59399" lon="-120.801" />
      <trkpt lat="39.59392" lon="-120.80119" />
      <trkpt lat="39.5939" lon="-120.80138" />
      <trkpt lat="39.59392" lon="-120.80149" />
      <trkpt lat="39.59396" lon="-120.80158" />
      <trkpt lat="39.59402" lon="-120.80162" />
      <trkpt lat="39.59403" lon="-120.80158" />
      <trkpt lat="39.59403" lon="-120.80185" />
      <trkpt lat="39.59405" lon="-120.80209" />
      <trkpt lat="39.59415" lon="-120.80247" />
      <trkpt lat="39.59421" lon="-120.80313" />
      <trkpt lat="39.59433" lon="-120.80394" />
      <trkpt lat="39.59428" lon="-120.80427" />
      <trkpt lat="39.59421" lon="-120.8044" />
      <trkpt lat="39.5941" lon="-120.80452" />
      <trkpt lat="39.5938" lon="-120.80473" />
      <trkpt lat="39.59374" lon="-120.80475" />
      <trkpt lat="39.59358" lon="-120.80478" />
      <trkpt lat="39.59308" lon="-120.80474" />
      <trkpt lat="39.59283" lon="-120.80468" />
      <trkpt lat="39.59268" lon="-120.80462" />
      <trkpt lat="39.59259" lon="-120.80462" />
      <trkpt lat="39.59228" lon="-120.80487" />
      <trkpt lat="39.5921" lon="-120.80492" />
      <trkpt lat="39.59203" lon="-120.80492" />
      <trkpt lat="39.59192" lon="-120.80496" />
      <trkpt lat="39.59174" lon="-120.80516" />
      <trkpt lat="39.59172" lon="-120.80523" />
      <trkpt lat="39.59177" lon="-120.80551" />
      <trkpt lat="39.59174" lon="-120.80577" />
      <trkpt lat="39.59159" lon="-120.8062" />
      <trkpt lat="39.59136" lon="-120.80658" />
      <trkpt lat="39.59131" lon="-120.80675" />
      <trkpt lat="39.59132" lon="-120.80684" />
      <trkpt lat="39.59141" lon="-120.80698" />
      <trkpt lat="39.59145" lon="-120.80715" />
      <trkpt lat="39.59147" lon="-120.80731" />
      <trkpt lat="39.59143" lon="-120.80749" />
      <trkpt lat="39.59134" lon="-120.80766" />
      <trkpt lat="39.5913" lon="-120.80778" />
      <trkpt lat="39.59121" lon="-120.80782" />
      <trkpt lat="39.59108" lon="-120.80785" />
      <trkpt lat="39.59079" lon="-120.808" />
      <trkpt lat="39.59066" lon="-120.80811" />
      <trkpt lat="39.59058" lon="-120.80815" />
      <trkpt lat="39.59046" lon="-120.80824" />
      <trkpt lat="39.59038" lon="-120.80833" />
      <trkpt lat="39.59034" lon="-120.80842" />
      <trkpt lat="39.59035" lon="-120.80857" />
      <trkpt lat="39.59047" lon="-120.80904" />
      <trkpt lat="39.5904" lon="-120.80933" />
      <trkpt lat="39.5904" lon="-120.80949" />
      <trkpt lat="39.59042" lon="-120.8096" />
      <trkpt lat="39.59052" lon="-120.80986" />
      <trkpt lat="39.59053" lon="-120.81015" />
      <trkpt lat="39.59057" lon="-120.81033" />
      <trkpt lat="39.59056" lon="-120.81043" />
      <trkpt lat="39.59048" lon="-120.81059" />
      <trkpt lat="39.59041" lon="-120.81066" />
      <trkpt lat="39.59032" lon="-120.81071" />
      <trkpt lat="39.5895" lon="-120.81111" />
      <trkpt lat="39.58947" lon="-120.81114" />
      <trkpt lat="39.58933" lon="-120.81136" />
      <trkpt lat="39.58924" lon="-120.81147" />
      <trkpt lat="39.58902" lon="-120.81163" />
      <trkpt lat="39.58886" lon="-120.81176" />
      <trkpt lat="39.58864" lon="-120.81188" />
      <trkpt lat="39.58854" lon="-120.81196" />
      <trkpt lat="39.58843" lon="-120.81209" />
      <trkpt lat="39.58833" lon="-120.81232" />
      <trkpt lat="39.58818" lon="-120.81293" />
      <trkpt lat="39.58807" lon="-120.81311" />
      <trkpt lat="39.58798" lon="-120.81318" />
      <trkpt lat="39.58788" lon="-120.81321" />
      <trkpt lat="39.58781" lon="-120.81326" />
      <trkpt lat="39.58772" lon="-120.81328" />
      <trkpt lat="39.58749" lon="-120.8133" />
      <trkpt lat="39.58723" lon="-120.81326" />
      <trkpt lat="39.5871" lon="-120.81316" />
      <trkpt lat="39.58707" lon="-120.81311" />
      <trkpt lat="39.58703" lon="-120.81299" />
      <trkpt lat="39.58701" lon="-120.81283" />
      <trkpt lat="39.58682" lon="-120.81241" />
      <trkpt lat="39.58658" lon="-120.8117" />
      <trkpt lat="39.5864" lon="-120.81129" />
      <trkpt lat="39.58631" lon="-120.81115" />
      <trkpt lat="39.58623" lon="-120.81108" />
      <trkpt lat="39.58582" lon="-120.81087" />
      <trkpt lat="39.58574" lon="-120.81085" />
      <trkpt lat="39.58562" lon="-120.81086" />
      <trkpt lat="39.58556" lon="-120.81079" />
      <trkpt lat="39.58548" lon="-120.81076" />
      <trkpt lat="39.5853" lon="-120.81065" />
      <trkpt lat="39.58521" lon="-120.81063" />
      <trkpt lat="39.58513" lon="-120.81067" />
      <trkpt lat="39.58511" lon="-120.81071" />
      <trkpt lat="39.58506" lon="-120.81075" />
      <trkpt lat="39.58484" lon="-120.81078" />
      <trkpt lat="39.58462" lon="-120.81076" />
      <trkpt lat="39.5843" lon="-120.8107" />
      <trkpt lat="39.58427" lon="-120.81065" />
      <trkpt lat="39.58423" lon="-120.8106" />
      <trkpt lat="39.58401" lon="-120.81045" />
      <trkpt lat="39.58388" lon="-120.81033" />
      <trkpt lat="39.58383" lon="-120.81026" />
      <trkpt lat="39.58369" lon="-120.81001" />
      <trkpt lat="39.58346" lon="-120.80981" />
      <trkpt lat="39.58329" lon="-120.80956" />
      <trkpt lat="39.58318" lon="-120.80954" />
      <trkpt lat="39.58315" lon="-120.80956" />
      <trkpt lat="39.583" lon="-120.80961" />
      <trkpt lat="39.58286" lon="-120.80971" />
      <trkpt lat="39.5828" lon="-120.80973" />
      <trkpt lat="39.58268" lon="-120.80987" />
      <trkpt lat="39.58254" lon="-120.80998" />
      <trkpt lat="39.58232" lon="-120.81002" />
      <trkpt lat="39.58225" lon="-120.81006" />
      <trkpt lat="39.58215" lon="-120.81009" />
      <trkpt lat="39.58189" lon="-120.81006" />
      <trkpt lat="39.58183" lon="-120.81009" />
      <trkpt lat="39.58181" lon="-120.81013" />
      <trkpt lat="39.58185" lon="-120.81018" />
      <trkpt lat="39.58213" lon="-120.8104" />
      <trkpt lat="39.58217" lon="-120.81046" />
      <trkpt lat="39.58226" lon="-120.8107" />
      <trkpt lat="39.58225" lon="-120.81082" />
      <trkpt lat="39.58227" lon="-120.81101" />
      <trkpt lat="39.58225" lon="-120.81123" />
      <trkpt lat="39.58219" lon="-120.81139" />
      <trkpt lat="39.58215" lon="-120.81143" />
      <trkpt lat="39.58211" lon="-120.81154" />
      <trkpt lat="39.58204" lon="-120.81162" />
      <trkpt lat="39.58193" lon="-120.81186" />
      <trkpt lat="39.58188" lon="-120.8119" />
      <trkpt lat="39.58167" lon="-120.81184" />
      <trkpt lat="39.58157" lon="-120.81183" />
      <trkpt lat="39.58145" lon="-120.81187" />
      <trkpt lat="39.58125" lon="-120.8119" />
      <trkpt lat="39.58072" lon="-120.8121" />
      <trkpt lat="39.58059" lon="-120.81212" />
      <trkpt lat="39.58025" lon="-120.81211" />
      <trkpt lat="39.58019" lon="-120.81213" />
      <trkpt lat="39.57996" lon="-120.81226" />
      <trkpt lat="39.57975" lon="-120.81231" />
      <trkpt lat="39.57954" lon="-120.81248" />
      <trkpt lat="39.57942" lon="-120.81261" />
      <trkpt lat="39.57942" lon="-120.81266" />
      <trkpt lat="39.57947" lon="-120.8128" />
      <trkpt lat="39.57947" lon="-120.81292" />
      <trkpt lat="39.57941" lon="-120.81335" />
      <trkpt lat="39.57941" lon="-120.81346" />
      <trkpt lat="39.57938" lon="-120.81364" />
      <trkpt lat="39.57934" lon="-120.81376" />
      <trkpt lat="39.57905" lon="-120.814" />
      <trkpt lat="39.57891" lon="-120.8142" />
      <trkpt lat="39.5787" lon="-120.81441" />
      <trkpt lat="39.57854" lon="-120.81452" />
      <trkpt lat="39.57841" lon="-120.81456" />
      <trkpt lat="39.57825" lon="-120.81454" />
      <trkpt lat="39.57802" lon="-120.8146" />
      <trkpt lat="39.57785" lon="-120.81459" />
      <trkpt lat="39.57766" lon="-120.81461" />
      <trkpt lat="39.57748" lon="-120.81461" />
      <trkpt lat="39.5773" lon="-120.81457" />
      <trkpt lat="39.57708" lon="-120.81459" />
      <trkpt lat="39.57697" lon="-120.81461" />
      <trkpt lat="39.57683" lon="-120.81472" />
      <trkpt lat="39.57679" lon="-120.81477" />
      <trkpt lat="39.5767" lon="-120.81483" />
      <trkpt lat="39.57655" lon="-120.81512" />
      <trkpt lat="39.57651" lon="-120.81525" />
      <trkpt lat="39.5765" lon="-120.81532" />
      <trkpt lat="39.57654" lon="-120.81578" />
      <trkpt lat="39.57657" lon="-120.81589" />
      <trkpt lat="39.57658" lon="-120.81622" />
      <trkpt lat="39.57662" lon="-120.81647" />
      <trkpt lat="39.57661" lon="-120.81659" />
      <trkpt lat="39.57651" lon="-120.817" />
      <trkpt lat="39.57646" lon="-120.81712" />
      <trkpt lat="39.57645" lon="-120.81724" />
      <trkpt lat="39.57632" lon="-120.81743" />
      <trkpt lat="39.57622" lon="-120.81762" />
      <trkpt lat="39.57609" lon="-120.81778" />
      <trkpt lat="39.5759" lon="-120.81793" />
      <trkpt lat="39.57566" lon="-120.81805" />
      <trkpt lat="39.57539" lon="-120.81814" />
      <trkpt lat="39.57528" lon="-120.81823" />
      <trkpt lat="39.57512" lon="-120.81826" />
      <trkpt lat="39.57505" lon="-120.81826" />
      <trkpt lat="39.57478" lon="-120.81802" />
      <trkpt lat="39.57467" lon="-120.81786" />
      <trkpt lat="39.57462" lon="-120.81771" />
      <trkpt lat="39.57458" lon="-120.81745" />
      <trkpt lat="39.57451" lon="-120.81727" />
      <trkpt lat="39.57444" lon="-120.81701" />
      <trkpt lat="39.57438" lon="-120.81693" />
      <trkpt lat="39.57433" lon="-120.81699" />
      <trkpt lat="39.57428" lon="-120.81714" />
      <trkpt lat="39.57421" lon="-120.8173" />
      <trkpt lat="39.57408" lon="-120.81778" />
      <trkpt lat="39.5739" lon="-120.81824" />
      <trkpt lat="39.57381" lon="-120.8184" />
      <trkpt lat="39.57365" lon="-120.81859" />
      <trkpt lat="39.57327" lon="-120.81896" />
      <trkpt lat="39.5732" lon="-120.81902" />
      <trkpt lat="39.57305" lon="-120.81904" />
      <trkpt lat="39.57299" lon="-120.81903" />
      <trkpt lat="39.57264" lon="-120.8189" />
      <trkpt lat="39.57243" lon="-120.81885" />
      <trkpt lat="39.57224" lon="-120.81876" />
      <trkpt lat="39.57197" lon="-120.81868" />
      <trkpt lat="39.57177" lon="-120.8186" />
      <trkpt lat="39.57163" lon="-120.81857" />
      <trkpt lat="39.57157" lon="-120.81857" />
      <trkpt lat="39.57155" lon="-120.8186" />
      <trkpt lat="39.57155" lon="-120.81867" />
      <trkpt lat="39.57156" lon="-120.81884" />
      <trkpt lat="39.57151" lon="-120.81927" />
      <trkpt lat="39.57145" lon="-120.81956" />
      <trkpt lat="39.57136" lon="-120.81974" />
      <trkpt lat="39.57121" lon="-120.81991" />
      <trkpt lat="39.57093" lon="-120.82006" />
      <trkpt lat="39.57086" lon="-120.82009" />
      <trkpt lat="39.57064" lon="-120.82012" />
      <trkpt lat="39.57054" lon="-120.82016" />
      <trkpt lat="39.57052" lon="-120.82022" />
      <trkpt lat="39.57033" lon="-120.82041" />
      <trkpt lat="39.57029" lon="-120.8205" />
      <trkpt lat="39.5703" lon="-120.82059" />
      <trkpt lat="39.57032" lon="-120.82069" />
      <trkpt lat="39.57043" lon="-120.82099" />
      <trkpt lat="39.57048" lon="-120.82107" />
    </trkseg>
  </trk>
</gpx>