<?xml version="1.0" encoding="UTF-8"?>
<gpx version="1.1" creator="strava-segment-scraper" xmlns="http://www.topografix.com/GPX/1/1">
  <trk>
    <name>Valley Floor to Glacier Point highpoint</name>
    <trkseg>
      <trkpt lat="37.71709" lon="-119.6521" />
      <trkpt lat="37.71687" lon="-119.6522" />
      <trkpt lat="37.7166" lon="-119.65244" />
      <trkpt lat="37.71641" lon="-119.65274" />
      <trkpt lat="37.71625" lon="-119.65308" />
      <trkpt lat="37.71618" lon="-119.65316" />
      <trkpt lat="37.71602" lon="-119.65367" />
      <trkpt lat="37.71593" lon="-119.65385" />
      <trkpt lat="37.71579" lon="-119.65449" />
      <trkpt lat="37.71573" lon="-119.65465" />
      <trkpt lat="37.71566" lon="-119.65498" />
      <trkpt lat="37.71547" lon="-119.65555" />
      <trkpt lat="37.71497" lon="-119.65657" />
      <trkpt lat="37.71488" lon="-119.65674" />
      <trkpt lat="37.71466" lon="-119.65706" />
      <trkpt lat="37.71451" lon="-119.65724" />
      <trkpt lat="37.71424" lon="-119.65766" />
      <trkpt lat="37.71401" lon="-119.65808" />
      <trkpt lat="37.71386" lon="-119.65845" />
      <trkpt lat="37.71369" lon="-119.65894" />
      <trkpt lat="37.71364" lon="-119.65903" />
      <trkpt lat="37.71345" lon="-119.65949" />
      <trkpt lat="37.71308" lon="-119.66016" />
      <trkpt lat="37.71289" lon="-119.66045" />
      <trkpt lat="37.7127" lon="-119.66081" />
      <trkpt lat="37.71263" lon="-119.66101" />
      <trkpt lat="37.71252" lon="-119.66124" />
      <trkpt lat="37.71247" lon="-119.66172" />
      <trkpt lat="37.71247" lon="-119.66199" />
      <trkpt lat="37.71255" lon="-119.66274" />
      <trkpt lat="37.71256" lon="-119.66295" />
      <trkpt lat="37.71259" lon="-119.6632" />
      <trkpt lat="37.71265" lon="-119.6634" />
      <trkpt lat="37.71267" lon="-119.6636" />
      <trkpt lat="37.71284" lon="-119.66424" />
      <trkpt lat="37.71293" lon="-119.66473" />
      <trkpt lat="37.71295" lon="-119.66493" />
      <trkpt lat="37.71297" lon="-119.66552" />
      <trkpt lat="37.71296" lon="-119.66592" />
      <trkpt lat="37.71294" lon="-119.66629" />
      <trkpt lat="37.71294" lon="-119.66661" />
      <trkpt lat="37.71297" lon="-119.66734" />
      <trkpt lat="37.71302" lon="-119.66765" />
      <trkpt lat="37.71312" lon="-119.6681" />
      <trkpt lat="37.71336" lon="-119.66872" />
      <trkpt lat="37.71344" lon="-119.669" />
      <trkpt lat="37.71351" lon="-119.66933" />
      <trkpt lat="37.71353" lon="-119.66958" />
      <trkpt lat="37.71352" lon="-119.66996" />
      <trkpt lat="37.71349" lon="-119.67018" />
      <trkpt lat="37.71335" lon="-119.67075" />
      <trkpt lat="37.71321" lon="-119.67161" />
      <trkpt lat="37.71322" lon="-119.67217" />
      <trkpt lat="37.71325" lon="-119.67253" />
      <trkpt lat="37.71331" lon="-119.67278" />
      <trkpt lat="37.71345" lon="-119.67312" />
      <trkpt lat="37.7136" lon="-119.67333" />
      <trkpt lat="37.71393" lon="-119.67374" />
      <trkpt lat="37.71408" lon="-119.67405" />
      <trkpt lat="37.71424" lon="-119.67443" />
      <trkpt lat="37.71436" lon="-119.67479" />
      <trkpt lat="37.71476" lon="-119.67587" />
      <trkpt lat="37.71495" lon="-119.6762" />
      <trkpt lat="37.71527" lon="-119.67658" />
      <trkpt lat="37.7154" lon="-119.67681" />
      <trkpt lat="37.7155" lon="-119.67711" />
      <trkpt lat="37.71553" lon="-119.67733" />
      <trkpt lat="37.71606" lon="-119.69317" />
      <trkpt lat="37.71598" lon="-119.69353" />
      <trkpt lat="37.7159" lon="-119.69376" />
      <trkpt lat="37.71576" lon="-119.69404" />
      <trkpt lat="37.7156" lon="-119.69433" />
      <trkpt lat="37.71549" lon="-119.6945" />
      <trkpt lat="37.71541" lon="-119.69467" />
      <trkpt lat="37.71526" lon="-119.69489" />
      <trkpt lat="37.71498" lon="-119.69562" />
      <trkpt lat="37.71493" lon="-119.69572" />
      <trkpt lat="37.71487" lon="-119.69593" />
      <trkpt lat="37.71467" lon="-119.69629" />
      <trkpt lat="37.7144" lon="-119.69669" />
      <trkpt lat="37.71414" lon="-119.69714" />
      <trkpt lat="37.71409" lon="-119.69728" />
      <trkpt lat="37.71402" lon="-119.69758" />
      <trkpt lat="37.71398" lon="-119.69789" />
      <trkpt lat="37.714" lon="-119.69795" />
      <trkpt lat="37.71401" lon="-119.69811" />
      <trkpt lat="37.71403" lon="-119.69881" />
      <trkpt lat="37.7141" lon="-119.69911" />
      <trkpt lat="37.71412" lon="-119.69937" />
      <trkpt lat="37.71417" lon="-119.69956" />
      <trkpt lat="37.71424" lon="-119.69972" />
      <trkpt lat="37.71428" lon="-119.69986" />
      <trkpt lat="37.71432" lon="-119.69993" />
      <trkpt lat="37.71449" lon="-119.70049" />
      <trkpt lat="37.7148" lon="-119.70121" />
      <trkpt lat="37.71505" lon="-119.70203" />
      <trkpt lat="37.71568" lon="-119.70394" />
      <trkpt lat="37.7158" lon="-119.70419" />
      <trkpt lat="37.71609" lon="-119.70459" />
      <trkpt lat="37.7163" lon="-119.70483" />
      <trkpt lat="37.71644" lon="-119.70512" />
      <trkpt lat="37.71654" lon="-119.70544" />
      <trkpt lat="37.71656" lon="-119.70559" />
      <trkpt lat="37.71656" lon="-119.70585" />
      <trkpt lat="37.71655" lon="-119.70607" />
      <trkpt lat="37.71649" lon="-119.70636" />
      <trkpt lat="37.71644" lon="-119.70653" />
      <trkpt lat="37.71635" lon="-119.70671" />
      <trkpt lat="37.71599" lon="-119.70721" />
      <trkpt lat="37.71531" lon="-119.70809" />
      <trkpt lat="37.71501" lon="-119.70844" />
      <trkpt lat="37.71482" lon="-119.70861" />
      <trkpt lat="37.71462" lon="-119.70874" />
      <trkpt lat="37.71408" lon="-119.70892" />
      <trkpt lat="37.71394" lon="-119.709" />
      <trkpt lat="37.71384" lon="-119.70911" />
      <trkpt lat="37.71356" lon="-119.70949" />
      <trkpt lat="37.71343" lon="-119.70963" />
      <trkpt lat="37.71329" lon="-119.70976" />
      <trkpt lat="37.7131" lon="-119.70985" />
      <trkpt lat="37.713" lon="-119.70989" />
      <trkpt lat="37.71284" lon="-119.70991" />
      <trkpt lat="37.71266" lon="-119.70992" />
      <trkpt lat="37.71257" lon="-119.70989" />
      <trkpt lat="37.71247" lon="-119.70983" />
      <trkpt lat="37.71204" lon="-119.70945" />
      <trkpt lat="37.71184" lon="-119.70931" />
      <trkpt lat="37.71161" lon="-119.70919" />
      <trkpt lat="37.71104" lon="-119.709" />
      <trkpt lat="37.71067" lon="-119.70892" />
      <trkpt lat="37.71042" lon="-119.70883" />
      <trkpt lat="37.71026" lon="-119.70875" />
      <trkpt lat="37.70991" lon="-119.70851" />
      <trkpt lat="37.70965" lon="-119.70837" />
      <trkpt lat="37.70955" lon="-119.70833" />
      <trkpt lat="37.70944" lon="-119.70832" />
      <trkpt lat="37.70932" lon="-119.70833" />
      <trkpt lat="37.70919" lon="-119.70836" />
      <trkpt lat="37.70908" lon="-119.70843" />
      <trkpt lat="37.70897" lon="-119.70851" />
      <trkpt lat="37.70854" lon="-119.70914" />
      <trkpt lat="37.70742" lon="-119.7102" />
      <trkpt lat="37.70699" lon="-119.71056" />
      <trkpt lat="37.70658" lon="-119.71094" />
      <trkpt lat="37.70648" lon="-119.71101" />
      <trkpt lat="37.70607" lon="-119.7112" />
      <trkpt lat="37.70574" lon="-119.71143" />
      <trkpt lat="37.70561" lon="-119.71155" />
      <trkpt lat="37.70541" lon="-119.71178" />
      <trkpt lat="37.70515" lon="-119.71198" />
      <trkpt lat="37.70494" lon="-119.71207" />
      <trkpt lat="37.70474" lon="-119.71213" />
      <trkpt lat="37.70374" lon="-119.71231" />
      <trkpt lat="37.70309" lon="-119.71234" />
      <trkpt lat="37.70275" lon="-119.71241" />
      <trkpt lat="37.70246" lon="-119.7125" />
      <trkpt lat="37.70209" lon="-119.71258" />
      <trkpt lat="37.70191" lon="-119.71258" />
      <trkpt lat="37.70176" lon="-119.71254" />
      <trkpt lat="37.70159" lon="-119.71246" />
      <trkpt lat="37.70144" lon="-119.71232" />
      <trkpt lat="37.70128" lon="-119.7121" />
      <trkpt lat="37.70093" lon="-119.71154" />
      <trkpt lat="37.70081" lon="-119.7114" />
      <trkpt lat="37.70063" lon="-119.71127" />
      <trkpt lat="37.69965" lon="-119.71087" />
      <trkpt lat="37.69951" lon="-119.71077" />
      <trkpt lat="37.69939" lon="-119.71064" />
      <trkpt lat="37.69926" lon="-119.71044" />
      <trkpt lat="37.69884" lon="-119.70959" />
      <trkpt lat="37.69878" lon="-119.70945" />
      <trkpt lat="37.69856" lon="-119.70862" />
      <trkpt lat="37.69849" lon="-119.70845" />
      <trkpt lat="37.69835" lon="-119.70824" />
      <trkpt lat="37.69818" lon="-119.70812" />
      <trkpt lat="37.69796" lon="-119.7081" />
      <trkpt lat="37.69784" lon="-119.70811" />
      <trkpt lat="37.69758" lon="-119.70818" />
      <trkpt lat="37.69715" lon="-119.70833" />
      <trkpt lat="37.69695" lon="-119.70836" />
      <trkpt lat="37.69689" lon="-119.70836" />
      <trkpt lat="37.69681" lon="-119.70835" />
      <trkpt lat="37.69655" lon="-119.70823" />
      <trkpt lat="37.69598" lon="-119.70786" />
      <trkpt lat="37.69585" lon="-119.70778" />
      <trkpt lat="37.69571" lon="-119.70773" />
      <trkpt lat="37.69548" lon="-119.7077" />
      <trkpt lat="37.69533" lon="-119.70772" />
      <trkpt lat="37.69454" lon="-119.70797" />
      <trkpt lat="37.69437" lon="-119.708" />
      <trkpt lat="37.69419" lon="-119.708" />
      <trkpt lat="37.6939" lon="-119.70794" />
      <trkpt lat="37.69372" lon="-119.70787" />
      <trkpt lat="37.69355" lon="-119.70777" />
      <trkpt lat="37.69339" lon="-119.70763" />
      <trkpt lat="37.69325" lon="-119.70746" />
      <trkpt lat="37.69312" lon="-119.70728" />
      <trkpt lat="37.69266" lon="-119.70656" />
      <trkpt lat="37.69247" lon="-119.70627" />
      <trkpt lat="37.69219" lon="-119.70573" />
      <trkpt lat="37.69199" lon="-119.70521" />
      <trkpt lat="37.69173" lon="-119.7046" />
      <trkpt lat="37.69163" lon="-119.70431" />
      <trkpt lat="37.69123" lon="-119.70335" />
      <trkpt lat="37.69118" lon="-119.70318" />
      <trkpt lat="37.69102" lon="-119.70282" />
      <trkpt lat="37.69094" lon="-119.7026" />
      <trkpt lat="37.6907" lon="-119.70215" />
      <trkpt lat="37.69068" lon="-119.70191" />
      <trkpt lat="37.69051" lon="-119.70149" />
      <trkpt lat="37.69039" lon="-119.7011" />
      <trkpt lat="37.6903" lon="-119.70093" />
      <trkpt lat="37.69008" lon="-119.70061" />
      <trkpt lat="37.68986" lon="-119.70001" />
      <trkpt lat="37.68974" lon="-119.6998" />
      <trkpt lat="37.68961" lon="-119.69966" />
      <trkpt lat="37.68947" lon="-119.69958" />
      <trkpt lat="37.68931" lon="-119.69953" />
      <trkpt lat="37.68924" lon="-119.69953" />
      <trkpt lat="37.68914" lon="-119.69954" />
      <trkpt lat="37.6891" lon="-119.69958" />
      <trkpt lat="37.6889" lon="-119.69976" />
      <trkpt lat="37.6881" lon="-119.70094" />
      <trkpt lat="37.68775" lon="-119.70127" />
      <trkpt lat="37.68753" lon="-119.70142" />
      <trkpt lat="37.68742" lon="-119.70151" />
      <trkpt lat="37.68724" lon="-119.70172" />
      <trkpt lat="37.68719" lon="-119.70185" />
      <trkpt lat="37.68718" lon="-119.70194" />
      <trkpt lat="37.68719" lon="-119.70234" />
      <trkpt lat="37.68723" lon="-119.70265" />
      <trkpt lat="37.68722" lon="-119.70284" />
      <trkpt lat="37.68717" lon="-119.70304" />
      <trkpt lat="37.68701" lon="-119.70341" />
      <trkpt lat="37.68693" lon="-119.70366" />
      <trkpt lat="37.6869" lon="-119.70391" />
      <trkpt lat="37.6868" lon="-119.70427" />
      <trkpt lat="37.68678" lon="-119.70454" />
      <trkpt lat="37.6866" lon="-119.70557" />
      <trkpt lat="37.68647" lon="-119.70613" />
      <trkpt lat="37.68626" lon="-119.70674" />
      <trkpt lat="37.68596" lon="-119.70731" />
      <trkpt lat="37.68544" lon="-119.70814" />
      <trkpt lat="37.68532" lon="-119.70843" />
      <trkpt lat="37.6852" lon="-119.70876" />
      <trkpt lat="37.68501" lon="-119.70908" />
      <trkpt lat="37.68495" lon="-119.70915" />
      <trkpt lat="37.68457" lon="-119.70946" />
      <trkpt lat="37.68403" lon="-119.70979" />
      <trkpt lat="37.68378" lon="-119.7099" />
      <trkpt lat="37.6836" lon="-119.70994" />
      <trkpt lat="37.68349" lon="-119.70995" />
      <trkpt lat="37.68321" lon="-119.70979" />
      <trkpt lat="37.68287" lon="-119.70957" />
      <trkpt lat="37.68273" lon="-119.70944" />
      <trkpt lat="37.6826" lon="-119.70929" />
      <trkpt lat="37.68224" lon="-119.70902" />
      <trkpt lat="37.68219" lon="-119.70895" />
      <trkpt lat="37.68208" lon="-119.70887" />
      <trkpt lat="37.68184" lon="-119.70863" />
      <trkpt lat="37.68153" lon="-119.70837" />
      <trkpt lat="37.68136" lon="-119.70826" />
      <trkpt lat="37.68116" lon="-119.70816" />
      <trkpt lat="37.68082" lon="-119.70804" />
      <trkpt lat="37.68058" lon="-119.70797" />
      <trkpt lat="37.68043" lon="-119.70796" />
      <trkpt lat="37.68031" lon="-119.70793" />
      <trkpt lat="37.67999" lon="-119.70791" />
      <trkpt lat="37.6798" lon="-119.70791" />
      <trkpt lat="37.6795" lon="-119.70796" />
      <trkpt lat="37.67922" lon="-119.70808" />
      <trkpt lat="37.67905" lon="-119.70819" />
      <trkpt lat="37.67887" lon="-119.70827" />
      <trkpt lat="37.67858" lon="-119.70831" />
      <trkpt lat="37.6784" lon="-119.70826" />
      <trkpt lat="37.67823" lon="-119.70807" />
      <trkpt lat="37.6781" lon="-119.70785" />
      <trkpt lat="37.678" lon="-119.70756" />
      <trkpt lat="37.6779" lon="-119.70716" />
      <trkpt lat="37.67781" lon="-119.70697" />
      <trkpt lat="37.67773" lon="-119.70683" />
      <trkpt lat="37.6776" lon="-119.7067" />
      <trkpt lat="37.67749" lon="-119.70664" />
      <trkpt lat="37.67729" lon="-119.7066" />
      <trkpt lat="37.67705" lon="-119.70659" />
      <trkpt lat="37.67655" lon="-119.7066" />
      <trkpt lat="37.67628" lon="-119.70662" />
      <trkpt lat="37.6761" lon="-119.70667" />
      <trkpt lat="37.67593" lon="-119.70676" />
      <trkpt lat="37.67581" lon="-119.70685" />
      <trkpt lat="37.67566" lon="-119.70701" />
      <trkpt lat="37.67528" lon="-119.70761" />
      <trkpt lat="37.67515" lon="-119.70777" />
      <trkpt lat="37.67504" lon="-119.70787" />
      <trkpt lat="37.67487" lon="-119.70796" />
      <trkpt lat="37.6747" lon="-119.70801" />
      <trkpt lat="37.67462" lon="-119.70801" />
      <trkpt lat="37.67421" lon="-119.70796" />
      <trkpt lat="37.67396" lon="-119.70798" />
      <trkpt lat="37.67316" lon="-119.70821" />
      <trkpt lat="37.67272" lon="-119.70837" />
      <trkpt lat="37.67242" lon="-119.70865" />
      <trkpt lat="37.67213" lon="-119.70905" />
      <trkpt lat="37.67194" lon="-119.70936" />
      <trkpt lat="37.67178" lon="-119.70953" />
      <trkpt lat="37.67163" lon="-119.70965" />
      <trkpt lat="37.6715" lon="-119.70971" />
      <trkpt lat="37.67136" lon="-119.70974" />
      <trkpt lat="37.67084" lon="-119.70974" />
      <trkpt lat="37.67071" lon="-119.70976" />
      <trkpt lat="37.6706" lon="-119.70981" />
      <trkpt lat="37.67045" lon="-119.70994" />
      <trkpt lat="37.67023" lon="-119.71027" />
      <trkpt lat="37.67014" lon="-119.71036" />
      <trkpt lat="37.67004" lon="-119.71043" />
      <trkpt lat="37.66963" lon="-119.71061" />
      <trkpt lat="37.66931" lon="-119.71083" />
      <trkpt lat="37.66913" lon="-119.71088" />
      <trkpt lat="37.66903" lon="-119.71089" />
      <trkpt lat="37.66872" lon="-119.71086" />
      <trkpt lat="37.66845" lon="-119.71088" />
      <trkpt lat="37.66834" lon="-119.7109" />
      <trkpt lat="37.66822" lon="-119.71096" />
      <trkpt lat="37.66811" lon="-119.71103" />
      <trkpt lat="37.66796" lon="-119.71119" />
      <trkpt lat="37.6678" lon="-119.71145" />
      <trkpt lat="37.66763" lon="-119.71186" />
      <trkpt lat="37.66743" lon="-119.71213" />
      <trkpt lat="37.66732" lon="-119.71224" />
      <trkpt lat="37.6672" lon="-119.71234" />
      <trkpt lat="37.66689" lon="-119.71251" />
      <trkpt lat="37.66669" lon="-119.71259" />
      <trkpt lat="37.66659" lon="-119.7126" />
      <trkpt lat="37.66638" lon="-119.71266" />
      <trkpt lat="37.66629" lon="-119.71266" />
      <trkpt lat="37.66606" lon="-119.71261" />
      <trkpt lat="37.66589" lon="-119.7125" />
      <trkpt lat="37.66571" lon="-119.71233" />
      <trkpt lat="37.66556" lon="-119.71212" />
      <trkpt lat="37.66534" lon="-119.71188" />
      <trkpt lat="37.66522" lon="-119.71173" />
      <trkpt lat="37.66506" lon="-119.7116" />
      <trkpt lat="37.66491" lon="-119.71143" />
      <trkpt lat="37.66487" lon="-119.71143" />
      <trkpt lat="37.66479" lon="-119.71138" />
      <trkpt lat="37.66468" lon="-119.71136" />
      <trkpt lat="37.66422" lon="-119.71113" />
      <trkpt lat="37.66394" lon="-119.71095" />
      <trkpt lat="37.66377" lon="-119.71085" />
      <trkpt lat="37.66373" lon="-119.7108" />
      <trkpt lat="37.66344" lon="-119.7106" />
      <trkpt lat="37.66333" lon="-119.7105" />
      <trkpt lat="37.66317" lon="-119.71041" />
      <trkpt lat="37.66313" lon="-119.71036" />
      <trkpt lat="37.66296" lon="-119.71031" />
      <trkpt lat="37.66262" lon="-119.71016" />
      <trkpt lat="37.66246" lon="-119.71015" />
      <trkpt lat="37.66222" lon="-119.71017" />
      <trkpt lat="37.66204" lon="-119.71025" />
      <trkpt lat="37.66168" lon="-119.71046" />
      <trkpt lat="37.66135" lon="-119.71064" />
      <trkpt lat="37.66122" lon="-119.71066" />
      <trkpt lat="37.66109" lon="-119.71076" />
      <trkpt lat="37.66099" lon="-119.71081" />
      <trkpt lat="37.66086" lon="-119.71093" />
      <trkpt lat="37.66048" lon="-119.71114" />
      <trkpt lat="37.66037" lon="-119.71123" />
      <trkpt lat="37.66004" lon="-119.71163" />
      <trkpt lat="37.6599" lon="-119.71176" />
      <trkpt lat="37.65977" lon="-119.71184" />
      <trkpt lat="37.65974" lon="-119.71187" />
      <trkpt lat="37.6596" lon="-119.71194" />
      <trkpt lat="37.65934" lon="-119.71202" />
      <trkpt lat="37.659" lon="-119.71205" />
      <trkpt lat="37.65881" lon="-119.71196" />
      <trkpt lat="37.65867" lon="-119.71192" />
      <trkpt lat="37.65853" lon="-119.71186" />
      <trkpt lat="37.65828" lon="-119.71164" />
      <trkpt lat="37.65797" lon="-119.71129" />
      <trkpt lat="37.65785" lon="-119.7112" />
      <trkpt lat="37.65769" lon="-119.71111" />
      <trkpt lat="37.65744" lon="-119.71103" />
      <trkpt lat="37.65721" lon="-119.71088" />
      <trkpt lat="37.65705" lon="-119.71073" />
      <trkpt lat="37.65679" lon="-119.71034" />
      <trkpt lat="37.65668" lon="-119.71023" />
      <trkpt lat="37.65661" lon="-119.71017" />
      <trkpt lat="37.65612" lon="-119.7099" />
      <trkpt lat="37.65599" lon="-119.7098" />
      <trkpt lat="37.65585" lon="-119.70963" />
      <trkpt lat="37.65577" lon="-119.70946" />
      <trkpt lat="37.65568" lon="-119.7092" />
      <trkpt lat="37.65566" lon="-119.70905" />
      <trkpt lat="37.65567" lon="-119.70875" />
      <trkpt lat="37.65569" lon="-119.70856" />
      <trkpt lat="37.65573" lon="-119.7081" />
      <trkpt lat="37.65573" lon="-119.70773" />
      <trkpt lat="37.65576" lon="-119.70744" />
      <trkpt lat="37.65576" lon="-119.70729" />
      <trkpt lat="37.65582" lon="-119.70695" />
      <trkpt lat="37.65584" lon="-119.70673" />
      <trkpt lat="37.65587" lon="-119.70668" />
      <trkpt lat="37.65593" lon="-119.70662" />
      <trkpt lat="37.65598" lon="-119.70642" />
      <trkpt lat="37.65584" lon="-119.70551" />
      <trkpt lat="37.65583" lon="-119.70512" />
      <trkpt lat="37.65573" lon="-119.70417" />
      <trkpt lat="37.65567" lon="-119.70398" />
      <trkpt lat="37.65554" lon="-119.70372" />
      <trkpt lat="37.65549" lon="-119.70365" />
      <trkpt lat="37.65504" lon="-119.70322" />
      <trkpt lat="37.65484" lon="-119.70307" />
      <trkpt lat="37.65437" lon="-119.70266" />
      <trkpt lat="37.65399" lon="-119.70254" />
      <trkpt lat="37.65382" lon="-119.70254" />
      <trkpt lat="37.65369" lon="-119.70257" />
      <trkpt lat="37.65343" lon="-119.70269" />
      <trkpt lat="37.65324" lon="-119.70281" />
      <trkpt lat="37.65289" lon="-119.7032" />
      <trkpt lat="37.65271" lon="-119.70327" />
      <trkpt lat="37.6526" lon="-119.70325" />
      <trkpt lat="37.6525" lon="-119.70318" />
      <trkpt lat="37.65245" lon="-119.70307" />
      <trkpt lat="37.65244" lon="-119.70294" />
      <trkpt lat="37.65248" lon="-119.70276" />
      <trkpt lat="37.65255" lon="-119.70263" />
      <trkpt lat="37.6527" lon="-119.70252" />
      <trkpt lat="37.65295" lon="-119.7024" />
      <trkpt lat="37.65301" lon="-119.70234" />
      <trkpt lat="37.6533" lon="-119.70222" />
      <trkpt lat="37.65337" lon="-119.70219" />
      <trkpt lat="37.65338" lon="-119.70215" />
      <trkpt lat="37.65341" lon="-119.70213" />
      <trkpt lat="37.65354" lon="-119.7021" />
      <trkpt lat="37.65378" lon="-119.70196" />
      <trkpt lat="37.65414" lon="-119.70188" />
      <trkpt lat="37.65437" lon="-119.70186" />
      <trkpt lat="37.6546" lon="-119.70195" />
      <trkpt lat="37.65473" lon="-119.70202" />
      <trkpt lat="37.65482" lon="-119.70211" />
      <trkpt lat="37.65495" lon="-119.7022" />
      <trkpt lat="37.65525" lon="-119.7025" />
      <trkpt lat="37.6554" lon="-119.7026" />
      <trkpt lat="37.65562" lon="-119.70272" />
      <trkpt lat="37.65587" lon="-119.70278" />
      <trkpt lat="37.656" lon="-119.70275" />
      <trkpt lat="37.6562" lon="-119.70274" />
      <trkpt lat="37.65643" lon="-119.70281" />
      <trkpt lat="37.65656" lon="-119.70287" />
      <trkpt lat="37.65666" lon="-119.70297" />
      <trkpt lat="37.65672" lon="-119.70304" />
      <trkpt lat="37.65685" lon="-119.70329" />
      <trkpt lat="37.65691" lon="-119.70362" />
      <trkpt lat="37.65693" lon="-119.7041" />
      <trkpt lat="37.65697" lon="-119.7043" />
      <trkpt lat="37.65705" lon="-119.70457" />
      <trkpt lat="37.65723" lon="-119.70494" />
      <trkpt lat="37.65733" lon="-119.70523" />
      <trkpt lat="37.65746" lon="-119.70598" />
      <trkpt lat="37.65751" lon="-119.70612" />
      <trkpt lat="37.6576" lon="-119.70629" />
      <trkpt lat="37.65774" lon="-119.70647" />
      <trkpt lat="37.65792" lon="-119.70665" />
      <trkpt lat="37.65815" lon="-119.70682" />
      <trkpt lat="37.65863" lon="-119.70703" />
      <trkpt lat="37.65898" lon="-119.70711" />
      <trkpt lat="37.65922" lon="-119.70713" />
      <trkpt lat="37.65938" lon="-119.70713" />
      <trkpt lat="37.65978" lon="-119.70704" />
      <trkpt lat="37.66009" lon="-119.70691" />
      <trkpt lat="37.66028" lon="-119.70677" />
      <trkpt lat="37.66047" lon="-119.70661" />
      <trkpt lat="37.66079" lon="-119.70645" />
      <trkpt lat="37.66111" lon="-119.70624" />
      <trkpt lat="37.66147" lon="-119.70604" />
      <trkpt lat="37.66216" lon="-119.70582" />
      <trkpt lat="37.66235" lon="-119.7058" />
      <trkpt lat="37.66258" lon="-119.7058" />
      <trkpt lat="37.66305" lon="-119.70579" />
      <trkpt lat="37.66343" lon="-119.70571" />
      <trkpt lat="37.66361" lon="-119.70563" />
      <trkpt lat="37.66377" lon="-119.70553" />
      <trkpt lat="37.66396" lon="-119.70538" />
      <trkpt lat="37.66413" lon="-119.7052" />
      <trkpt lat="37.66435" lon="-119.70485" />
      <trkpt lat="37.66449" lon="-119.70442" />
      <trkpt lat="37.6646" lon="-119.70392" />
      <trkpt lat="37.66462" lon="-119.70377" />
      <trkpt lat="37.66479" lon="-119.70288" />
      <trkpt lat="37.66484" lon="-119.70259" />
      <trkpt lat="37.66489" lon="-119.70239" />
      <trkpt lat="37.66498" lon="-119.70145" />
      <trkpt lat="37.66496" lon="-119.701" />
      <trkpt lat="37.66497" lon="-119.70062" />
      <trkpt lat="37.665" lon="-119.70003" />
      <trkpt lat="37.66512" lon="-119.69965" />
      <trkpt lat="37.66525" lon="-119.69943" />
      <trkpt lat="37.6654" lon="-119.6993" />
      <trkpt lat="37.66563" lon="-119.69921" />
      <trkpt lat="37.66587" lon="-119.69919" />
      <trkpt lat="37.66603" lon="-119.69915" />
      <trkpt lat="37.66639" lon="-119.69899" />
      <trkpt lat="37.66648" lon="-119.69893" />
      <trkpt lat="37.66659" lon="-119.69884" />
      <trkpt lat="37.66684" lon="-119.69873" />
      <trkpt lat="37.66695" lon="-119.69865" />
      <trkpt lat="37.66706" lon="-119.6986" />
      <trkpt lat="37.66722" lon="-119.69856" />
      <trkpt lat="37.66764" lon="-119.69853" />
      <trkpt lat="37.66809" lon="-119.69864" />
      <trkpt lat="37.66856" lon="-119.69887" />
      <trkpt lat="37.6688" lon="-119.69904" />
      <trkpt lat="37.66934" lon="-119.69936" />
      <trkpt lat="37.66976" lon="-119.69967" />
      <trkpt lat="37.67046" lon="-119.70005" />
      <trkpt lat="37.67091" lon="-119.70036" />
      <trkpt lat="37.67104" lon="-119.70042" />
      <trkpt lat="37.67126" lon="-119.70047" />
      <trkpt lat="37.67156" lon="-119.7005" />
      <trkpt lat="37.67194" lon="-119.70047" />
      <trkpt lat="37.67229" lon="-119.7004" />
      <trkpt lat="37.67249" lon="-119.70042" />
      <trkpt lat="37.67287" lon="-119.70039" />
      <trkpt lat="37.67342" lon="-119.70043" />
      <trkpt lat="37.67378" lon="-119.70037" />
      <trkpt lat="37.6739" lon="-119.70031" />
      <trkpt lat="37.67405" lon="-119.70021" />
      <trkpt lat="37.6742" lon="-119.70005" />
      <trkpt lat="37.67437" lon="-119.69973" />
      <trkpt lat="37.67442" lon="-119.69959" />
      <trkpt lat="37.67447" lon="-119.69938" />
      <trkpt lat="37.67447" lon="-119.69911" />
      <trkpt lat="37.67441" lon="-119.69861" />
      <trkpt lat="37.67426" lon="-119.69776" />
      <trkpt lat="37.67413" lon="-119.69713" />
      <trkpt lat="37.67398" lon="-119.69617" />
      <trkpt lat="37.67392" lon="-119.69596" />
      <trkpt lat="37.67382" lon="-119.69541" />
      <trkpt lat="37.67379" lon="-119.69509" />
      <trkpt lat="37.67357" lon="-119.69385" />
      <trkpt lat="37.67355" lon="-119.69345" />
      <trkpt lat="37.67362" lon="-119.69316" />
      <trkpt lat="37.67373" lon="-119.69296" />
      <trkpt lat="37.67391" lon="-119.69277" />
      <trkpt lat="37.67406" lon="-119.69268" />
      <trkpt lat="37.67443" lon="-119.69257" />
      <trkpt lat="37.67449" lon="-119.69254" />
      <trkpt lat="37.67473" lon="-119.69237" />
      <trkpt lat="37.67489" lon="-119.69221" />
      <trkpt lat="37.67497" lon="-119.69208" />
      <trkpt lat="37.67505" lon="-119.69183" />
      <trkpt lat="37.67507" lon="-119.69158" />
      <trkpt lat="37.67505" lon="-119.69144" />
      <trkpt lat="37.67495" lon="-119.69108" />
      <trkpt lat="37.67487" lon="-119.69089" />
      <trkpt lat="37.67473" lon="-119.69074" />
      <trkpt lat="37.67455" lon="-119.6906" />
      <trkpt lat="37.67439" lon="-119.69041" />
      <trkpt lat="37.67421" lon="-119.69003" />
      <trkpt lat="37.67408" lon="-119.68959" />
      <trkpt lat="37.67394" lon="-119.68931" />
      <trkpt lat="37.67385" lon="-119.68922" />
      <trkpt lat="37.67371" lon="-119.68912" />
      <trkpt lat="37.67359" lon="-119.68906" />
      <trkpt lat="37.67337" lon="-119.68902" />
      <trkpt lat="37.67323" lon="-119.68903" />
      <trkpt lat="37.67309" lon="-119.68906" />
      <trkpt lat="37.67301" lon="-119.68906" />
      <trkpt lat="37.67289" lon="-119.68912" />
      <trkpt lat="37.67273" lon="-119.68915" />
      <trkpt lat="37.67262" lon="-119.68916" />
      <trkpt lat="37.67254" lon="-119.68915" />
      <trkpt lat="37.67231" lon="-119.68904" />
      <trkpt lat="37.67215" lon="-119.6889" />
      <trkpt lat="37.6721" lon="-119.68882" />
      <trkpt lat="37.672" lon="-119.68849" />
      <trkpt lat="37.67197" lon="-119.68824" />
      <trkpt lat="37.67198" lon="-119.68808" />
      <trkpt lat="37.67204" lon="-119.68788" />
      <trkpt lat="37.67208" lon="-119.68779" />
      <trkpt lat="37.67222" lon="-119.68761" />
      <trkpt lat="37.67231" lon="-119.68753" />
      <trkpt lat="37.67301" lon="-119.68709" />
      <trkpt lat="37.6733" lon="-119.68687" />
      <trkpt lat="37.67348" lon="-119.6867" />
      <trkpt lat="37.67359" lon="-119.68653" />
      <trkpt lat="37.67371" lon="-119.68625" />
      <trkpt lat="37.67375" lon="-119.68604" />
      <trkpt lat="37.67375" lon="-119.68569" />
      <trkpt lat="37.6737" lon="-119.68545" />
      <trkpt lat="37.67361" lon="-119.68522" />
      <trkpt lat="37.6735" lon="-119.68505" />
      <trkpt lat="37.67336" lon="-119.68489" />
      <trkpt lat="37.6731" lon="-119.68474" />
      <trkpt lat="37.67245" lon="-119.68446" />
      <trkpt lat="37.67225" lon="-119.68435" />
      <trkpt lat="37.67216" lon="-119.68427" />
      <trkpt lat="37.67213" lon="-119.68422" />
      <trkpt lat="37.67201" lon="-119.68408" />
      <trkpt lat="37.67189" lon="-119.68386" />
      <trkpt lat="37.67181" lon="-119.68356" />
      <trkpt lat="37.67177" lon="-119.6833" />
      <trkpt lat="37.67177" lon="-119.6831" />
      <trkpt lat="37.6718" lon="-119.68292" />
      <trkpt lat="37.67185" lon="-119.68273" />
      <trkpt lat="37.67194" lon="-119.68251" />
      <trkpt lat="37.67201" lon="-119.68237" />
      <trkpt lat="37.67208" lon="-119.68229" />
      <trkpt lat="37.67222" lon="-119.68216" />
      <trkpt lat="37.67233" lon="-119.68204" />
      <trkpt lat="37.67256" lon="-119.68194" />
      <trkpt lat="37.67358" lon="-119.68181" />
      <trkpt lat="37.67377" lon="-119.68182" />
      <trkpt lat="37.67384" lon="-119.6818" />
      <trkpt lat="37.67399" lon="-119.68167" />
      <trkpt lat="37.67419" lon="-119.68144" />
      <trkpt lat="37.67432" lon="-119.68118" />
      <trkpt lat="37.6744" lon="-119.68087" />
      <trkpt lat="37.67442" lon="-119.68064" />
      <trkpt lat="37.67442" lon="-119.68029" />
      <trkpt lat="37.67438" lon="-119.68005" />
      <trkpt lat="37.67432" lon="-119.67981" />
      <trkpt lat="37.67421" lon="-119.67947" />
      <trkpt lat="37.67408" lon="-119.67892" />
      <trkpt lat="37.67397" lon="-119.67849" />
      <trkpt lat="37.6739" lon="-119.67833" />
      <trkpt lat="37.67381" lon="-119.67804" />
      <trkpt lat="37.6737" lon="-119.67784" />
      <trkpt lat="37.67351" lon="-119.67764" />
      <trkpt lat="37.67329" lon="-119.6775" />
      <trkpt lat="37.67303" lon="-119.6774" />
      <trkpt lat="37.67286" lon="-119.67741" />
      <trkpt lat="37.67274" lon="-119.67745" />
      <trkpt lat="37.67233" lon="-119.67754" />
      <trkpt lat="37.67176" lon="-119.67758" />
      <trkpt lat="37.67136" lon="-119.67765" />
      <trkpt lat="37.67107" lon="-119.67767" />
      <trkpt lat="37.67095" lon="-119.67764" />
      <trkpt lat="37.67076" lon="-119.67757" />
      <trkpt lat="37.6706" lon="-119.67746" />
      <trkpt lat="37.67047" lon="-119.6773" />
      <trkpt lat="37.67027" lon="-119.67699" />
      <trkpt lat="37.67023" lon="-119.67691" />
      <trkpt lat="37.67011" lon="-119.67641" />
      <trkpt lat="37.66997" lon="-119.67606" />
      <trkpt lat="37.66984" lon="-119.67584" />
      <trkpt lat="37.6696" lon="-119.67554" />
      <trkpt lat="37.66929" lon="-119.67535" />
      <trkpt lat="37.66913" lon="-119.67521" />
      <trkpt lat="37.66901" lon="-119.67503" />
      <trkpt lat="37.66894" lon="-119.67488" />
      <trkpt lat="37.66889" lon="-119.67465" />
      <trkpt lat="37.66888" lon="-119.67452" />
      <trkpt lat="37.66876" lon="-119.67382" />
      <trkpt lat="37.66872" lon="-119.6735" />
      <trkpt lat="37.66866" lon="-119.67318" />
      <trkpt lat="37.6685" lon="-119.67171" />
      <trkpt lat="37.66845" lon="-119.67149" />
      <trkpt lat="37.66838" lon="-119.67097" />
      <trkpt lat="37.66837" lon="-119.67075" />
      <trkpt lat="37.6683" lon="-119.67038" />
      <trkpt lat="37.66827" lon="-119.67027" />
      <trkpt lat="37.66816" lon="-119.67004" />
      <trkpt lat="37.66806" lon="-119.66988" />
      <trkpt lat="37.6679" lon="-119.66971" />
      <trkpt lat="37.6678" lon="-119.66962" />
      <trkpt lat="37.66752" lon="-119.66947" />
      <trkpt lat="37.6673" lon="-119.66943" />
      <trkpt lat="37.66711" lon="-119.66941" />
      <trkpt lat="37.66689" lon="-119.66946" />
      <trkpt lat="37.66633" lon="-119.66967" />
      <trkpt lat="37.66527" lon="-119.67002" />
      <trkpt lat="37.66497" lon="-119.67004" />
      <trkpt lat="37.66481" lon="-119.67003" />
      <trkpt lat="37.66465" lon="-119.66998" />
      <trkpt lat="37.66439" lon="-119.6698" />
      <trkpt lat="37.66424" lon="-119.66967" />
      <trkpt lat="37.66407" lon="-119.66946" />
      <trkpt lat="37.66393" lon="-119.66921" />
      <trkpt lat="37.66386" lon="-119.66901" />
      <trkpt lat="37.66381" lon="-119.6688" />
      <trkpt lat="37.66379" lon="-119.66859" />
      <trkpt lat="37.66381" lon="-119.66831" />
      <trkpt lat="37.66388" lon="-119.66803" />
      <trkpt lat="37.66427" lon="-119.66712" />
      <trkpt lat="37.66437" lon="-119.66669" />
      <trkpt lat="37.66438" lon="-119.66648" />
      <trkpt lat="37.66436" lon="-119.66628" />
      <trkpt lat="37.66432" lon="-119.66608" />
      <trkpt lat="37.6642" lon="-119.66577" />
      <trkpt lat="37.66414" lon="-119.66547" />
      <trkpt lat="37.66415" lon="-119.66523" />
      <trkpt lat="37.66418" lon="-119.66507" />
      <trkpt lat="37.6642" lon="-119.66496" />
      <trkpt lat="37.66431" lon="-119.66472" />
      <trkpt lat="37.66447" lon="-119.66456" />
      <trkpt lat="37.66454" lon="-119.66451" />
      <trkpt lat="37.66459" lon="-119.66452" />
      <trkpt lat="37.66476" lon="-119.66445" />
      <trkpt lat="37.66513" lon="-119.66442" />
      <trkpt lat="37.6653" lon="-119.66443" />
      <trkpt lat="37.66551" lon="-119.66439" />
      <trkpt lat="37.66563" lon="-119.66439" />
      <trkpt lat="37.66585" lon="-119.66434" />
      <trkpt lat="37.66616" lon="-119.66424" />
      <trkpt lat="37.66633" lon="-119.66416" />
      <trkpt lat="37.66648" lon="-119.66408" />
      <trkpt lat="37.66664" lon="-119.66395" />
      <trkpt lat="37.66692" lon="-119.66368" />
      <trkpt lat="37.66706" lon="-119.66349" />
      <trkpt lat="37.66723" lon="-119.66323" />
      <trkpt lat="37.66772" lon="-119.66209" />
      <trkpt lat="37.66797" lon="-119.66139" />
      <trkpt lat="37.66814" lon="-119.661" />
      <trkpt lat="37.66858" lon="-119.66014" />
      <trkpt lat="37.66885" lon="-119.65971" />
      <trkpt lat="37.66895" lon="-119.6596" />
      <trkpt lat="37.66916" lon="-119.65929" />
      <trkpt lat="37.66933" lon="-119.65907" />
      <trkpt lat="37.66961" lon="-119.65878" />
      <trkpt lat="37.66976" lon="-119.65862" />
      <trkpt lat="37.66981" lon="-119.65852" />
      <trkpt lat="37.67027" lon="-119.65809" />
      <trkpt lat="37.67098" lon="-119.65751" />
      <trkpt lat="37.67124" lon="-119.65728" />
      <trkpt lat="37.67174" lon="-119.65677" />
      <trkpt lat="37.67199" lon="-119.65647" />
      <trkpt lat="37.67201" lon="-119.6564" />
      <trkpt lat="37.67206" lon="-119.65628" />
      <trkpt lat="37.67243" lon="-119.65579" />
      <trkpt lat="37.67292" lon="-119.6549" />
      <trkpt lat="37.6731" lon="-119.65451" />
      <trkpt lat="37.67342" lon="-119.65368" />
      <trkpt lat="37.67356" lon="-119.65322" />
      <trkpt lat="37.67377" lon="-119.65239" />
      <trkpt lat="37.67378" lon="-119.65224" />
      <trkpt lat="37.6739" lon="-119.65182" />
      <trkpt lat="37.67391" lon="-119.65168" />
      <trkpt lat="37.67406" lon="-119.65113" />
      <trkpt lat="37.67419" lon="-119.65052" />
      <trkpt lat="37.67434" lon="-119.64975" />
      <trkpt lat="37.67438" lon="-119.64941" />
      <trkpt lat="37.67437" lon="-119.64888" />
      <trkpt lat="37.67432" lon="-119.64837" />
      <trkpt lat="37.67424" lon="-119.64807" />
      <trkpt lat="37.67407" lon="-119.64759" />
      <trkpt lat="37.67375" lon="-119.64693" />
      <trkpt lat="37.67325" lon="-119.64612" />
      <trkpt lat="37.67261" lon="-119.64494" />
      <trkpt lat="37.67228" lon="-119.6444" />
      <trkpt lat="37.67207" lon="-119.64395" />
      <trkpt lat="37.67194" lon="-119.64364" />
      <trkpt lat="37.67184" lon="-119.6433" />
      <trkpt lat="37.67173" lon="-119.64278" />
      <trkpt lat="37.67154" lon="-119.64114" />
      <trkpt lat="37.67159" lon="-119.64076" />
      <trkpt lat="37.67165" lon="-119.64058" />
      <trkpt lat="37.67172" lon="-119.64042" />
      <trkpt lat="37.67195" lon="-119.64017" />
      <trkpt lat="37.6722" lon="-119.63999" />
      <trkpt lat="37.67249" lon="-119.63992" />
      <trkpt lat="37.67277" lon="-119.63984" />
      <trkpt lat="37.67305" lon="-119.63969" />
      <trkpt lat="37.67328" lon="-119.63953" />
      <trkpt lat="37.67349" lon="-119.63927" />
      <trkpt lat="37.67358" lon="-119.63912" />
      <trkpt lat="37.67373" lon="-119.63881" />
      <trkpt lat="37.67378" lon="-119.63865" />
      <trkpt lat="37.67386" lon="-119.63831" />
      <trkpt lat="37.67391" lon="-119.63796" />
      <trkpt lat="37.67387" lon="-119.63743" />
      <trkpt lat="37.67384" lon="-119.63726" />
      <trkpt lat="37.67379" lon="-119.6371" />
      <trkpt lat="37.67368" lon="-119.63679" />
      <trkpt lat="37.67349" lon="-119.63652" />
      <trkpt lat="37.67329" lon="-119.63627" />
      <trkpt lat="37.67318" lon="-119.63617" />
      <trkpt lat="37.67294" lon="-119.63599" />
      <trkpt lat="37.67221" lon="-119.63553" />
      <trkpt lat="37.6719" lon="-119.63528" />
      <trkpt lat="37.67181" lon="-119.63518" />
      <trkpt lat="37.67165" lon="-119.63497" />
      <trkpt lat="37.67151" lon="-119.63474" />
      <trkpt lat="37.67132" lon="-119.63437" />
      <trkpt lat="37.67124" lon="-119.63408" />
      <trkpt lat="37.67118" lon="-119.63378" />
      <trkpt lat="37.67069" lon="-119.63014" />
      <trkpt lat="37.67053" lon="-119.62913" />
      <trkpt lat="37.67042" lon="-119.62811" />
      <trkpt lat="37.67024" lon="-119.62698" />
      <trkpt lat="37.67008" lon="-119.62652" />
      <trkpt lat="37.66984" lon="-119.62592" />
      <trkpt lat="37.66955" lon="-119.62531" />
      <trkpt lat="37.66919" lon="-119.62439" />
      <trkpt lat="37.66903" lon="-119.62391" />
      <trkpt lat="37.66886" lon="-119.62349" />
      <trkpt lat="37.66867" lon="-119.62293" />
      <trkpt lat="37.66849" lon="-119.62248" />
      <trkpt lat="37.66823" lon="-119.62173" />
      <trkpt lat="37.66775" lon="-119.62023" />
      <trkpt lat="37.66745" lon="-119.61884" />
      <trkpt lat="37.66718" lon="-119.61778" />
      <trkpt lat="37.66692" lon="-119.61685" />
      <trkpt lat="37.66649" lon="-119.61561" />
      <trkpt lat="37.66635" lon="-119.61501" />
      <trkpt lat="37.66632" lon="-119.61469" />
      <trkpt lat="37.66632" lon="-119.61435" />
      <trkpt lat="37.66638" lon="-119.61393" />
      <trkpt lat="37.66651" lon="-119.61352" />
      <trkpt lat="37.66664" lon="-119.61324" />
      <trkpt lat="37.66682" lon="-119.61292" />
      <trkpt lat="37.66702" lon="-119.61266" />
      <trkpt lat="37.66725" lon="-119.61242" />
      <trkpt lat="37.66788" lon="-119.61189" />
      <trkpt lat="37.66812" lon="-119.61171" />
      <trkpt lat="37.6687" lon="-119.61118" />
      <trkpt lat="37.66949" lon="-119.61051" />
      <trkpt lat="37.66961" lon="-119.61035" />
      <trkpt lat="37.66971" lon="-119.61018" />
      <trkpt lat="37.66983" lon="-119.60979" />
      <trkpt lat="37.66988" lon="-119.60941" />
      <trkpt lat="37.66987" lon="-119.6092" />
      <trkpt lat="37.66983" lon="-119.609" />
      <trkpt lat="37.66975" lon="-119.6088" />
      <trkpt lat="37.66964" lon="-119.60861" />
      <trkpt lat="37.66946" lon="-119.60833" />
      <trkpt lat="37.66807" lon="-119.60661" />
      <trkpt lat="37.66789" lon="-119.60634" />
      <trkpt lat="37.66764" lon="-119.60594" />
      <trkpt lat="37.66745" lon="-119.60552" />
      <trkpt lat="37.66733" lon="-119.60511" />
      <trkpt lat="37.66722" lon="-119.60453" />
      <trkpt lat="37.66716" lon="-119.60394" />
      <trkpt lat="37.66715" lon="-119.60358" />
      <trkpt lat="37.6672" lon="-119.60262" />
      <trkpt lat="37.66727" lon="-119.60208" />
      <trkpt lat="37.66735" lon="-119.60072" />
      <trkpt lat="37.66753" lon="-119.59854" />
      <trkpt lat="37.66757" lon="-119.59834" />
      <trkpt lat="37.66768" lon="-119.59792" />
      <trkpt lat="37.66805" lon="-119.59689" />
      <trkpt lat="37.66815" lon="-119.59657" />
      <trkpt lat="37.66822" lon="-119.59605" />
      <trkpt lat="37.66821" lon="-119.5955" />
      <trkpt lat="37.66809" lon="-119.59498" />
      <trkpt lat="37.66803" lon="-119.5946" />
      <trkpt lat="37.66796" lon="-119.59437" />
      <trkpt lat="37.66778" lon="-119.59363" />
      <trkpt lat="37.66774" lon="-119.59316" />
      <trkpt lat="37.66774" lon="-119.59281" />
      <trkpt lat="37.66776" lon="-119.59247" />
      <trkpt lat="37.66774" lon="-119.59219" />
      <trkpt lat="37.66778" lon="-119.59191" />
      <trkpt lat="37.66778" lon="-119.59172" />
      <trkpt lat="37.66783" lon="-119.59138" />
      <trkpt lat="37.66783" lon="-119.59122" />
      <trkpt lat="37.66787" lon="-119.59104" />
      <trkpt lat="37.66787" lon="-119.59074" />
      <trkpt lat="37.66794" lon="-119.58999" />
      <trkpt lat="37.66798" lon="-119.58914" />
      <trkpt lat="37.66812" lon="-119.58789" />
      <trkpt lat="37.66816" lon="-119.58764" />
      <trkpt lat="37.66828" lon="-119.58731" />
      <trkpt lat="37.66831" lon="-119.58715" />
      <trkpt lat="37.66847" lon="-119.58678" />
      <trkpt lat="37.66859" lon="-119.58656" />
      <trkpt lat="37.66898" lon="-119.58604" />
      <trkpt lat="37.66925" lon="-119.58581" />
      <trkpt lat="37.66938" lon="-119.58568" />
      <trkpt lat="37.66975" lon="-119.58542" />
      <trkpt lat="37.67004" lon="-119.58529" />
      <trkpt lat="37.67048" lon="-119.58515" />
      <trkpt lat="37.67084" lon="-119.58512" />
      <trkpt lat="37.67129" lon="-119.58515" />
      <trkpt lat="37.67166" lon="-119.58523" />
      <trkpt lat="37.67281" lon="-119.5856" />
      <trkpt lat="37.67304" lon="-119.58571" />
      <trkpt lat="37.67326" lon="-119.58586" />
      <trkpt lat="37.67337" lon="-119.58596" />
      <trkpt lat="37.67354" lon="-119.58621" />
      <trkpt lat="37.67366" lon="-119.58643" />
      <trkpt lat="37.67369" lon="-119.58651" />
      <trkpt lat="37.67378" lon="-119.58668" />
      <trkpt lat="37.67385" lon="-119.58685" />
      <trkpt lat="37.67404" lon="-119.58718" />
      <trkpt lat="37.67424" lon="-119.58739" />
      <trkpt lat="37.67445" lon="-119.58754" />
      <trkpt lat="37.67468" lon="-119.58763" />
      <trkpt lat="37.67472" lon="-119.58762" />
      <trkpt lat="37.67517" lon="-119.58769" />
      <trkpt lat="37.67569" lon="-119.5878" />
      <trkpt lat="37.67584" lon="-119.58785" />
      <trkpt lat="37.67619" lon="-119.58799" />
      <trkpt lat="37.67688" lon="-119.58836" />
      <trkpt lat="37.67715" lon="-119.58849" />
      <trkpt lat="37.67761" lon="-119.58865" />
      <trkpt lat="37.67787" lon="-119.58871" />
      <trkpt lat="37.67808" lon="-119.58874" />
      <trkpt lat="37.67854" lon="-119.58885" />
      <trkpt lat="37.67861" lon="-119.58885" />
      <trkpt lat="37.67881" lon="-119.58891" />
      <trkpt lat="37.67899" lon="-119.58899" />
      <trkpt lat="37.67942" lon="-119.58923" />
      <trkpt lat="37.67964" lon="-119.58933" />
      <trkpt lat="37.67981" lon="-119.58938" />
      <trkpt lat="37.68008" lon="-119.58936" />
      <trkpt lat="37.68019" lon="-119.58934" />
      <trkpt lat="37.68044" lon="-119.58925" />
      <trkpt lat="37.68074" lon="-119.58916" />
      <trkpt lat="37.68115" lon="-119.58909" />
      <trkpt lat="37.68137" lon="-119.58908" />
      <trkpt lat="37.68144" lon="-119.58906" />
      <trkpt lat="37.68153" lon="-119.58898" />
      <trkpt lat="37.68176" lon="-119.58883" />
      <trkpt lat="37.68196" lon="-119.58882" />
      <trkpt lat="37.68242" lon="-119.5887" />
      <trkpt lat="37.68258" lon="-119.58869" />
      <trkpt lat="37.68264" lon="-119.58869" />
      <trkpt lat="37.68271" lon="-119.58867" />
      <trkpt lat="37.68276" lon="-119.58868" />
      <trkpt lat="37.68315" lon="-119.58865" />
      <trkpt lat="37.68352" lon="-119.58868" />
      <trkpt lat="37.68395" lon="-119.58885" />
      <trkpt lat="37.68417" lon="-119.589" />
      <trkpt lat="37.68495" lon="-119.58943" />
      <trkpt lat="37.68528" lon="-119.58964" />
      <trkpt lat="37.68566" lon="-119.58984" />
      <trkpt lat="37.68582" lon="-119.58998" />
      <trkpt lat="37.68598" lon="-119.59006" />
      <trkpt lat="37.68619" lon="-119.59019" />
      <trkpt lat="37.68647" lon="-119.59022" />
      <trkpt lat="37.68658" lon="-119.5902" />
      <trkpt lat="37.68716" lon="-119.59036" />
      <trkpt lat="37.6873" lon="-119.59042" />
      <trkpt lat="37.68728" lon="-119.59037" />
      <trkpt lat="37.68745" lon="-119.59039" />
      <trkpt lat="37.68754" lon="-119.59038" />
      <trkpt lat="37.68771" lon="-119.59046" />
      <trkpt lat="37.68784" lon="-119.59046" />
      <trkpt lat="37.68802" lon="-119.59049" />
      <trkpt lat="37.68813" lon="-119.59048" />
      <trkpt lat="37.6882" lon="-119.5905" />
      <trkpt lat="37.68849" lon="-119.59046" />
      <trkpt lat="37.68861" lon="-119.59046" />
      <trkpt lat="37.68884" lon="-119.59038" />
      <trkpt lat="37.68901" lon="-119.59034" />
      <trkpt lat="37.68907" lon="-119.59035" />
      <trkpt lat="37.68928" lon="-119.5903" />
      <trkpt lat="37.6897" lon="-119.59025" />
      <trkpt lat="37.69001" lon="-119.5901" />
      <trkpt lat="37.69027" lon="-119.58988" />
      <trkpt lat="37.69038" lon="-119.58976" />
      <trkpt lat="37.69044" lon="-119.58964" />
      <trkpt lat="37.6905" lon="-119.58945" />
      <trkpt lat="37.69057" lon="-119.58909" />
      <trkpt lat="37.69061" lon="-119.58875" />
      <trkpt lat="37.6906" lon="-119.58868" />
      <trkpt lat="37.69066" lon="-119.58844" />
      <trkpt lat="37.6907" lon="-119.58805" />
      <trkpt lat="37.69076" lon="-119.58773" />
      <trkpt lat="37.69087" lon="-119.58746" />
      <trkpt lat="37.69096" lon="-119.58729" />
      <trkpt lat="37.69125" lon="-119.58695" />
      <trkpt lat="37.69128" lon="-119.58694" />
      <trkpt lat="37.69135" lon="-119.58688" />
      <trkpt lat="37.69153" lon="-119.5868" />
      <trkpt lat="37.69166" lon="-119.58677" />
      <trkpt lat="37.69189" lon="-119.58669" />
      <trkpt lat="37.69196" lon="-119.58665" />
      <trkpt lat="37.69212" lon="-119.58661" />
      <trkpt lat="37.69216" lon="-119.58658" />
      <trkpt lat="37.69265" lon="-119.58637" />
      <trkpt lat="37.69273" lon="-119.58635" />
      <trkpt lat="37.69302" lon="-119.58623" />
      <trkpt lat="37.69316" lon="-119.58621" />
      <trkpt lat="37.69376" lon="-119.58592" />
      <trkpt lat="37.69402" lon="-119.58587" />
      <trkpt lat="37.69423" lon="-119.58587" />
      <trkpt lat="37.69434" lon="-119.58589" />
      <trkpt lat="37.69453" lon="-119.58588" />
      <trkpt lat="37.69469" lon="-119.58595" />
      <trkpt lat="37.69479" lon="-119.58597" />
      <trkpt lat="37.69489" lon="-119.58605" />
      <trkpt lat="37.69517" lon="-119.58617" />
      <trkpt lat="37.69541" lon="-119.58622" />
      <trkpt lat="37.69558" lon="-119.58623" />
      <trkpt lat="37.69566" lon="-119.58626" />
      <trkpt lat="37.69586" lon="-119.58628" />
      <trkpt lat="37.69628" lon="-119.58632" />
      <trkpt lat="37.69671" lon="-119.58632" />
      <trkpt lat="37.69733" lon="-119.58638" />
      <trkpt lat="37.69803" lon="-119.5864" />
      <trkpt lat="37.69834" lon="-119.58642" />
      <trkpt lat="37.69876" lon="-119.5865" />
      <trkpt lat="37.69916" lon="-119.58649" />
      <trkpt lat="37.70022" lon="-119.58652" />
      <trkpt lat="37.70064" lon="-119.58655" />
      <trkpt lat="37.70121" lon="-119.58663" />
      <trkpt lat="37.70196" lon="-119.58681" />
      <trkpt lat="37.70248" lon="-119.58703" />
      <trkpt lat="37.70313" lon="-119.58724" />
      <trkpt lat="37.70364" lon="-119.58744" />
      <trkpt lat="37.70402" lon="-119.58755" />
      <trkpt lat="37.70496" lon="-119.58791" />
      <trkpt lat="37.70584" lon="-119.58821" />
      <trkpt lat="37.70719" lon="-119.58873" />
      <trkpt lat="37.70739" lon="-119.58877" />
      <trkpt lat="37.70778" lon="-119.58882" />
      <trkpt lat="37.70796" lon="-119.58883" />
      <trkpt lat="37.7089" lon="-119.58875" />
      <trkpt lat="37.70909" lon="-119.58872" />
      <trkpt lat="37.70967" lon="-119.58854" />
      <trkpt lat="37.71006" lon="-119.58837" />
      <trkpt lat="37.71051" lon="-119.58811" />
      <trkpt lat="37.71084" lon="-119.58791" />
      <trkpt lat="37.71106" lon="-119.58774" />
      <trkpt lat="37.71134" lon="-119.5875" />
      <trkpt lat="37.71174" lon="-119.58709" />
      <trkpt lat="37.71223" lon="-119.58649" />
      <trkpt lat="37.71247" lon="-119.58609" />
      <trkpt lat="37.71316" lon="-119.58486" />
      <trkpt lat="37.71346" lon="-119.58424" />
      <trkpt lat="37.7138" lon="-119.58368" />
      <trkpt lat="37.71404" lon="-119.58319" />
      <trkpt lat="37.7143" lon="-119.58276" />
      <trkpt lat="37.71438" lon="-119.58255" />
      <trkpt lat="37.7149" lon="-119.58165" />
      <trkpt lat="37.71517" lon="-119.58128" />
      <trkpt lat="37.71565" lon="-119.58069" />
      <trkpt lat="37.71621" lon="-119.58017" />
      <trkpt lat="37.71657" lon="-119.57974" />
      <trkpt lat="37.71676" lon="-119.57958" />
      <trkpt lat="37.71686" lon="-119.57951" />
      <trkpt lat="37.71717" lon="-119.57936" />
      <trkpt lat="37.71767" lon="-119.57918" />
      <trkpt lat="37.71822" lon="-119.57892" />
      <trkpt lat="37.7184" lon="-119.57887" />
      <trkpt lat="37.7185" lon="-119.57888" />
      <trkpt lat="37.71859" lon="-119.5789" />
      <trkpt lat="37.71868" lon="-119.57895" />
      <trkpt lat="37.71882" lon="-119.5791" />
      <trkpt lat="37.71894" lon="-119.57927" />
      <trkpt lat="37.71898" lon="-119.57937" />
      <trkpt lat="37.71901" lon="-119.57956" />
      <trkpt lat="37.71898" lon="-119.57988" />
      <trkpt lat="37.71898" lon="-119.58011" />
      <trkpt lat="37.71901" lon="-119.58024" />
      <trkpt lat="37.71912" lon="-119.58049" />
      <trkpt lat="37.71919" lon="-119.58058" />
      <trkpt lat="37.71928" lon="-119.58066" />
      <trkpt lat="37.71939" lon="-119.58071" />
      <trkpt lat="37.7195" lon="-119.58074" />
      <trkpt lat="37.71962" lon="-119.58076" />
      <trkpt lat="37.71974" lon="-119.58074" />
      <trkpt lat="37.71985" lon="-119.58068" />
    </trkseg>
  </trk>
</gpx>