<?xml version="1.0" encoding="UTF-8"?>
<gpx version="1.1" creator="strava-segment-scraper" xmlns="http://www.topografix.com/GPX/1/1">
  <trk>
    <name>Mt Vaca Loop From Gates Canyon Through Mix Canyon</name>
    <trkseg>
      <trkpt lat="38.37621" lon="-122.02584" />
      <trkpt lat="38.37618" lon="-122.02596" />
      <trkpt lat="38.37617" lon="-122.02616" />
      <trkpt lat="38.37621" lon="-122.02637" />
      <trkpt lat="38.37625" lon="-122.02649" />
      <trkpt lat="38.37643" lon="-122.02694" />
      <trkpt lat="38.3766" lon="-122.02727" />
      <trkpt lat="38.37686" lon="-122.02785" />
      <trkpt lat="38.37699" lon="-122.02818" />
      <trkpt lat="38.37762" lon="-122.02952" />
      <trkpt lat="38.37783" lon="-122.03002" />
      <trkpt lat="38.37788" lon="-122.0301" />
      <trkpt lat="38.37797" lon="-122.03017" />
      <trkpt lat="38.37828" lon="-122.03002" />
      <trkpt lat="38.37852" lon="-122.03004" />
      <trkpt lat="38.3787" lon="-122.03012" />
      <trkpt lat="38.37885" lon="-122.03031" />
      <trkpt lat="38.37898" lon="-122.03054" />
      <trkpt lat="38.37927" lon="-122.03114" />
      <trkpt lat="38.37976" lon="-122.032" />
      <trkpt lat="38.37991" lon="-122.03233" />
      <trkpt lat="38.38007" lon="-122.03256" />
      <trkpt lat="38.38013" lon="-122.03262" />
      <trkpt lat="38.38032" lon="-122.03274" />
      <trkpt lat="38.38061" lon="-122.03288" />
      <trkpt lat="38.38079" lon="-122.033" />
      <trkpt lat="38.38101" lon="-122.03316" />
      <trkpt lat="38.38121" lon="-122.03338" />
      <trkpt lat="38.38129" lon="-122.03353" />
      <trkpt lat="38.38149" lon="-122.03419" />
      <trkpt lat="38.38165" lon="-122.03449" />
      <trkpt lat="38.38202" lon="-122.03529" />
      <trkpt lat="38.3823" lon="-122.03607" />
      <trkpt lat="38.38232" lon="-122.03631" />
      <trkpt lat="38.38231" lon="-122.03657" />
      <trkpt lat="38.3822" lon="-122.03693" />
      <trkpt lat="38.38195" lon="-122.0374" />
      <trkpt lat="38.38165" lon="-122.038" />
      <trkpt lat="38.38142" lon="-122.03837" />
      <trkpt lat="38.38139" lon="-122.03849" />
      <trkpt lat="38.38139" lon="-122.03864" />
      <trkpt lat="38.38145" lon="-122.03887" />
      <trkpt lat="38.38162" lon="-122.03922" />
      <trkpt lat="38.38168" lon="-122.03945" />
      <trkpt lat="38.38169" lon="-122.03971" />
      <trkpt lat="38.38167" lon="-122.03983" />
      <trkpt lat="38.3817" lon="-122.04005" />
      <trkpt lat="38.38172" lon="-122.0407" />
      <trkpt lat="38.3817" lon="-122.04103" />
      <trkpt lat="38.38171" lon="-122.04126" />
      <trkpt lat="38.3817" lon="-122.04154" />
      <trkpt lat="38.38167" lon="-122.04171" />
      <trkpt lat="38.38159" lon="-122.04196" />
      <trkpt lat="38.38154" lon="-122.04205" />
      <trkpt lat="38.38138" lon="-122.04227" />
      <trkpt lat="38.38128" lon="-122.04254" />
      <trkpt lat="38.38125" lon="-122.04271" />
      <trkpt lat="38.38124" lon="-122.04286" />
      <trkpt lat="38.38119" lon="-122.04318" />
      <trkpt lat="38.38117" lon="-122.04348" />
      <trkpt lat="38.38112" lon="-122.0438" />
      <trkpt lat="38.38107" lon="-122.04459" />
      <trkpt lat="38.38105" lon="-122.04516" />
      <trkpt lat="38.38099" lon="-122.04572" />
      <trkpt lat="38.38085" lon="-122.04631" />
      <trkpt lat="38.38083" lon="-122.04648" />
      <trkpt lat="38.38087" lon="-122.04673" />
      <trkpt lat="38.38103" lon="-122.04733" />
      <trkpt lat="38.38113" lon="-122.04751" />
      <trkpt lat="38.38118" lon="-122.04764" />
      <trkpt lat="38.38128" lon="-122.04819" />
      <trkpt lat="38.38129" lon="-122.04828" />
      <trkpt lat="38.38125" lon="-122.04845" />
      <trkpt lat="38.38124" lon="-122.04889" />
      <trkpt lat="38.38111" lon="-122.04948" />
      <trkpt lat="38.3811" lon="-122.04994" />
      <trkpt lat="38.38117" lon="-122.05038" />
      <trkpt lat="38.38119" lon="-122.0507" />
      <trkpt lat="38.38133" lon="-122.05137" />
      <trkpt lat="38.38139" lon="-122.05168" />
      <trkpt lat="38.38142" lon="-122.05202" />
      <trkpt lat="38.38139" lon="-122.05234" />
      <trkpt lat="38.38129" lon="-122.05265" />
      <trkpt lat="38.38121" lon="-122.05295" />
      <trkpt lat="38.38105" lon="-122.0533" />
      <trkpt lat="38.38096" lon="-122.0537" />
      <trkpt lat="38.38087" lon="-122.054" />
      <trkpt lat="38.3807" lon="-122.05481" />
      <trkpt lat="38.38048" lon="-122.05551" />
      <trkpt lat="38.38044" lon="-122.05574" />
      <trkpt lat="38.38045" lon="-122.05584" />
      <trkpt lat="38.3805" lon="-122.05614" />
      <trkpt lat="38.38055" lon="-122.05631" />
      <trkpt lat="38.38063" lon="-122.05651" />
      <trkpt lat="38.38074" lon="-122.05672" />
      <trkpt lat="38.38104" lon="-122.05724" />
      <trkpt lat="38.38124" lon="-122.05752" />
      <trkpt lat="38.38141" lon="-122.05762" />
      <trkpt lat="38.38153" lon="-122.05763" />
      <trkpt lat="38.38171" lon="-122.0577" />
      <trkpt lat="38.38191" lon="-122.05799" />
      <trkpt lat="38.38195" lon="-122.05815" />
      <trkpt lat="38.38195" lon="-122.05846" />
      <trkpt lat="38.38201" lon="-122.05866" />
      <trkpt lat="38.38215" lon="-122.05887" />
      <trkpt lat="38.38222" lon="-122.05923" />
      <trkpt lat="38.3823" lon="-122.05945" />
      <trkpt lat="38.3824" lon="-122.05964" />
      <trkpt lat="38.38245" lon="-122.05969" />
      <trkpt lat="38.38256" lon="-122.05974" />
      <trkpt lat="38.38289" lon="-122.05975" />
      <trkpt lat="38.38306" lon="-122.05977" />
      <trkpt lat="38.38314" lon="-122.0598" />
      <trkpt lat="38.38329" lon="-122.05989" />
      <trkpt lat="38.3836" lon="-122.06012" />
      <trkpt lat="38.38414" lon="-122.06016" />
      <trkpt lat="38.38433" lon="-122.06022" />
      <trkpt lat="38.38452" lon="-122.06036" />
      <trkpt lat="38.38486" lon="-122.06067" />
      <trkpt lat="38.38509" lon="-122.06077" />
      <trkpt lat="38.38524" lon="-122.0609" />
      <trkpt lat="38.3854" lon="-122.06118" />
      <trkpt lat="38.38543" lon="-122.06126" />
      <trkpt lat="38.38544" lon="-122.06152" />
      <trkpt lat="38.38549" lon="-122.06159" />
      <trkpt lat="38.38559" lon="-122.06168" />
      <trkpt lat="38.38599" lon="-122.06172" />
      <trkpt lat="38.38619" lon="-122.06187" />
      <trkpt lat="38.38633" lon="-122.06194" />
      <trkpt lat="38.3865" lon="-122.06199" />
      <trkpt lat="38.3867" lon="-122.06215" />
      <trkpt lat="38.38701" lon="-122.06248" />
      <trkpt lat="38.38713" lon="-122.06257" />
      <trkpt lat="38.38727" lon="-122.06263" />
      <trkpt lat="38.38753" lon="-122.06269" />
      <trkpt lat="38.38774" lon="-122.06293" />
      <trkpt lat="38.3878" lon="-122.06297" />
      <trkpt lat="38.38801" lon="-122.06306" />
      <trkpt lat="38.38827" lon="-122.06309" />
      <trkpt lat="38.38845" lon="-122.06316" />
      <trkpt lat="38.3886" lon="-122.0633" />
      <trkpt lat="38.38868" lon="-122.06353" />
      <trkpt lat="38.38864" lon="-122.06408" />
      <trkpt lat="38.38857" lon="-122.0646" />
      <trkpt lat="38.38861" lon="-122.06499" />
      <trkpt lat="38.38862" lon="-122.06531" />
      <trkpt lat="38.38859" lon="-122.06555" />
      <trkpt lat="38.38847" lon="-122.06566" />
      <trkpt lat="38.38837" lon="-122.06579" />
      <trkpt lat="38.3883" lon="-122.06611" />
      <trkpt lat="38.38813" lon="-122.06649" />
      <trkpt lat="38.38805" lon="-122.06657" />
      <trkpt lat="38.38787" lon="-122.06679" />
      <trkpt lat="38.3876" lon="-122.06691" />
      <trkpt lat="38.38753" lon="-122.06698" />
      <trkpt lat="38.38746" lon="-122.06712" />
      <trkpt lat="38.38742" lon="-122.06723" />
      <trkpt lat="38.38741" lon="-122.06734" />
      <trkpt lat="38.38749" lon="-122.06768" />
      <trkpt lat="38.38751" lon="-122.06787" />
      <trkpt lat="38.3874" lon="-122.06844" />
      <trkpt lat="38.38733" lon="-122.06887" />
      <trkpt lat="38.38735" lon="-122.06899" />
      <trkpt lat="38.38742" lon="-122.06915" />
      <trkpt lat="38.38743" lon="-122.06928" />
      <trkpt lat="38.38739" lon="-122.06947" />
      <trkpt lat="38.38738" lon="-122.06966" />
      <trkpt lat="38.38742" lon="-122.0698" />
      <trkpt lat="38.3877" lon="-122.07014" />
      <trkpt lat="38.3878" lon="-122.07029" />
      <trkpt lat="38.38789" lon="-122.07047" />
      <trkpt lat="38.38813" lon="-122.07073" />
      <trkpt lat="38.38816" lon="-122.07089" />
      <trkpt lat="38.38811" lon="-122.07103" />
      <trkpt lat="38.38794" lon="-122.07133" />
      <trkpt lat="38.38794" lon="-122.07161" />
      <trkpt lat="38.38802" lon="-122.07181" />
      <trkpt lat="38.38809" lon="-122.07206" />
      <trkpt lat="38.38814" lon="-122.07218" />
      <trkpt lat="38.38824" lon="-122.07235" />
      <trkpt lat="38.38825" lon="-122.07252" />
      <trkpt lat="38.38823" lon="-122.07281" />
      <trkpt lat="38.38826" lon="-122.0729" />
      <trkpt lat="38.38848" lon="-122.07306" />
      <trkpt lat="38.38858" lon="-122.07315" />
      <trkpt lat="38.38873" lon="-122.07333" />
      <trkpt lat="38.3888" lon="-122.07344" />
      <trkpt lat="38.38885" lon="-122.07357" />
      <trkpt lat="38.38895" lon="-122.07375" />
      <trkpt lat="38.38898" lon="-122.07382" />
      <trkpt lat="38.38905" lon="-122.07419" />
      <trkpt lat="38.38903" lon="-122.0743" />
      <trkpt lat="38.38894" lon="-122.07461" />
      <trkpt lat="38.38897" lon="-122.07484" />
      <trkpt lat="38.38895" lon="-122.07515" />
      <trkpt lat="38.38896" lon="-122.07525" />
      <trkpt lat="38.38899" lon="-122.07531" />
      <trkpt lat="38.38909" lon="-122.0754" />
      <trkpt lat="38.38914" lon="-122.07548" />
      <trkpt lat="38.38917" lon="-122.07557" />
      <trkpt lat="38.38914" lon="-122.07587" />
      <trkpt lat="38.38917" lon="-122.07611" />
      <trkpt lat="38.38922" lon="-122.07624" />
      <trkpt lat="38.38922" lon="-122.07636" />
      <trkpt lat="38.38915" lon="-122.07656" />
      <trkpt lat="38.38911" lon="-122.07681" />
      <trkpt lat="38.38914" lon="-122.07689" />
      <trkpt lat="38.3893" lon="-122.07709" />
      <trkpt lat="38.38937" lon="-122.07724" />
      <trkpt lat="38.38937" lon="-122.07792" />
      <trkpt lat="38.38935" lon="-122.07809" />
      <trkpt lat="38.38937" lon="-122.0783" />
      <trkpt lat="38.38939" lon="-122.07837" />
      <trkpt lat="38.38946" lon="-122.0785" />
      <trkpt lat="38.38958" lon="-122.0786" />
      <trkpt lat="38.38963" lon="-122.07874" />
      <trkpt lat="38.38963" lon="-122.0789" />
      <trkpt lat="38.38966" lon="-122.07898" />
      <trkpt lat="38.38977" lon="-122.0791" />
      <trkpt lat="38.38995" lon="-122.07923" />
      <trkpt lat="38.38997" lon="-122.07927" />
      <trkpt lat="38.38997" lon="-122.07934" />
      <trkpt lat="38.38994" lon="-122.0794" />
      <trkpt lat="38.3899" lon="-122.07942" />
      <trkpt lat="38.38975" lon="-122.07939" />
      <trkpt lat="38.38945" lon="-122.07942" />
      <trkpt lat="38.38937" lon="-122.0794" />
      <trkpt lat="38.38925" lon="-122.07933" />
      <trkpt lat="38.38919" lon="-122.07927" />
      <trkpt lat="38.38909" lon="-122.07909" />
      <trkpt lat="38.38902" lon="-122.07878" />
      <trkpt lat="38.38899" lon="-122.0787" />
      <trkpt lat="38.38894" lon="-122.07863" />
      <trkpt lat="38.38885" lon="-122.07854" />
      <trkpt lat="38.38877" lon="-122.0785" />
      <trkpt lat="38.38858" lon="-122.07845" />
      <trkpt lat="38.38853" lon="-122.07846" />
      <trkpt lat="38.38848" lon="-122.07852" />
      <trkpt lat="38.38849" lon="-122.07858" />
      <trkpt lat="38.38865" lon="-122.07894" />
      <trkpt lat="38.38871" lon="-122.07923" />
      <trkpt lat="38.38869" lon="-122.07937" />
      <trkpt lat="38.38866" lon="-122.07944" />
      <trkpt lat="38.38856" lon="-122.07961" />
      <trkpt lat="38.3885" lon="-122.07975" />
      <trkpt lat="38.38853" lon="-122.07989" />
      <trkpt lat="38.38861" lon="-122.08012" />
      <trkpt lat="38.38861" lon="-122.0802" />
      <trkpt lat="38.38857" lon="-122.08023" />
      <trkpt lat="38.38851" lon="-122.08021" />
      <trkpt lat="38.38837" lon="-122.08001" />
      <trkpt lat="38.38829" lon="-122.07976" />
      <trkpt lat="38.38816" lon="-122.07952" />
      <trkpt lat="38.3881" lon="-122.07928" />
      <trkpt lat="38.38804" lon="-122.07915" />
      <trkpt lat="38.38798" lon="-122.07911" />
      <trkpt lat="38.38786" lon="-122.07909" />
      <trkpt lat="38.38781" lon="-122.07911" />
      <trkpt lat="38.38769" lon="-122.07925" />
      <trkpt lat="38.38765" lon="-122.07933" />
      <trkpt lat="38.38766" lon="-122.07935" />
      <trkpt lat="38.38778" lon="-122.07941" />
      <trkpt lat="38.38789" lon="-122.07944" />
      <trkpt lat="38.38794" lon="-122.0795" />
      <trkpt lat="38.38797" lon="-122.07958" />
      <trkpt lat="38.38797" lon="-122.07967" />
      <trkpt lat="38.38795" lon="-122.07973" />
      <trkpt lat="38.3879" lon="-122.07984" />
      <trkpt lat="38.38786" lon="-122.07988" />
      <trkpt lat="38.38764" lon="-122.07996" />
      <trkpt lat="38.38759" lon="-122.08001" />
      <trkpt lat="38.38734" lon="-122.08045" />
      <trkpt lat="38.3873" lon="-122.08059" />
      <trkpt lat="38.3873" lon="-122.08065" />
      <trkpt lat="38.38732" lon="-122.0807" />
      <trkpt lat="38.3874" lon="-122.08079" />
      <trkpt lat="38.38758" lon="-122.08093" />
      <trkpt lat="38.38766" lon="-122.08103" />
      <trkpt lat="38.38772" lon="-122.08122" />
      <trkpt lat="38.38775" lon="-122.08135" />
      <trkpt lat="38.38775" lon="-122.08146" />
      <trkpt lat="38.3877" lon="-122.08162" />
      <trkpt lat="38.38764" lon="-122.08168" />
      <trkpt lat="38.38753" lon="-122.0817" />
      <trkpt lat="38.38739" lon="-122.08168" />
      <trkpt lat="38.38727" lon="-122.08162" />
      <trkpt lat="38.38708" lon="-122.08163" />
      <trkpt lat="38.38694" lon="-122.08154" />
      <trkpt lat="38.38688" lon="-122.08154" />
      <trkpt lat="38.38683" lon="-122.08159" />
      <trkpt lat="38.38671" lon="-122.08174" />
      <trkpt lat="38.38666" lon="-122.0819" />
      <trkpt lat="38.38665" lon="-122.08198" />
      <trkpt lat="38.38667" lon="-122.08212" />
      <trkpt lat="38.38668" lon="-122.08242" />
      <trkpt lat="38.38652" lon="-122.08303" />
      <trkpt lat="38.38641" lon="-122.08328" />
      <trkpt lat="38.38622" lon="-122.08363" />
      <trkpt lat="38.38589" lon="-122.08404" />
      <trkpt lat="38.3856" lon="-122.08454" />
      <trkpt lat="38.38556" lon="-122.08464" />
      <trkpt lat="38.38549" lon="-122.08501" />
      <trkpt lat="38.38543" lon="-122.0852" />
      <trkpt lat="38.3853" lon="-122.08536" />
      <trkpt lat="38.38504" lon="-122.08547" />
      <trkpt lat="38.38496" lon="-122.08548" />
      <trkpt lat="38.38471" lon="-122.08543" />
      <trkpt lat="38.38465" lon="-122.08549" />
      <trkpt lat="38.38455" lon="-122.08564" />
      <trkpt lat="38.38457" lon="-122.08579" />
      <trkpt lat="38.38472" lon="-122.08601" />
      <trkpt lat="38.38501" lon="-122.08623" />
      <trkpt lat="38.38512" lon="-122.08635" />
      <trkpt lat="38.38519" lon="-122.08648" />
      <trkpt lat="38.38526" lon="-122.08677" />
      <trkpt lat="38.38548" lon="-122.08733" />
      <trkpt lat="38.38556" lon="-122.08747" />
      <trkpt lat="38.38577" lon="-122.08775" />
      <trkpt lat="38.38575" lon="-122.08794" />
      <trkpt lat="38.38571" lon="-122.08805" />
      <trkpt lat="38.38566" lon="-122.0881" />
      <trkpt lat="38.38561" lon="-122.08812" />
      <trkpt lat="38.38549" lon="-122.08814" />
      <trkpt lat="38.38535" lon="-122.08811" />
      <trkpt lat="38.38509" lon="-122.08798" />
      <trkpt lat="38.38492" lon="-122.08795" />
      <trkpt lat="38.3847" lon="-122.08785" />
      <trkpt lat="38.3846" lon="-122.08783" />
      <trkpt lat="38.38451" lon="-122.08788" />
      <trkpt lat="38.38444" lon="-122.08795" />
      <trkpt lat="38.38432" lon="-122.08811" />
      <trkpt lat="38.38422" lon="-122.08833" />
      <trkpt lat="38.38416" lon="-122.08854" />
      <trkpt lat="38.38413" lon="-122.08864" />
      <trkpt lat="38.38414" lon="-122.08873" />
      <trkpt lat="38.38431" lon="-122.08893" />
      <trkpt lat="38.38445" lon="-122.08899" />
      <trkpt lat="38.38459" lon="-122.08902" />
      <trkpt lat="38.38468" lon="-122.08912" />
      <trkpt lat="38.38471" lon="-122.08927" />
      <trkpt lat="38.38471" lon="-122.08938" />
      <trkpt lat="38.38474" lon="-122.0895" />
      <trkpt lat="38.38479" lon="-122.08961" />
      <trkpt lat="38.38523" lon="-122.09008" />
      <trkpt lat="38.38583" lon="-122.09056" />
      <trkpt lat="38.3862" lon="-122.09094" />
      <trkpt lat="38.38646" lon="-122.09115" />
      <trkpt lat="38.38701" lon="-122.0915" />
      <trkpt lat="38.38722" lon="-122.09157" />
      <trkpt lat="38.38732" lon="-122.09164" />
      <trkpt lat="38.3874" lon="-122.09172" />
      <trkpt lat="38.38785" lon="-122.0923" />
      <trkpt lat="38.38809" lon="-122.09255" />
      <trkpt lat="38.38821" lon="-122.09259" />
      <trkpt lat="38.38835" lon="-122.09261" />
      <trkpt lat="38.38845" lon="-122.09269" />
      <trkpt lat="38.38853" lon="-122.09288" />
      <trkpt lat="38.38857" lon="-122.09312" />
      <trkpt lat="38.38862" lon="-122.09324" />
      <trkpt lat="38.38875" lon="-122.09339" />
      <trkpt lat="38.38885" lon="-122.09346" />
      <trkpt lat="38.38917" lon="-122.09355" />
      <trkpt lat="38.3893" lon="-122.09367" />
      <trkpt lat="38.38932" lon="-122.09384" />
      <trkpt lat="38.38927" lon="-122.09408" />
      <trkpt lat="38.38931" lon="-122.09425" />
      <trkpt lat="38.38941" lon="-122.09436" />
      <trkpt lat="38.38976" lon="-122.09439" />
      <trkpt lat="38.38988" lon="-122.09445" />
      <trkpt lat="38.39008" lon="-122.0946" />
      <trkpt lat="38.39032" lon="-122.09469" />
      <trkpt lat="38.39054" lon="-122.09482" />
      <trkpt lat="38.39081" lon="-122.09494" />
      <trkpt lat="38.391" lon="-122.09497" />
      <trkpt lat="38.39121" lon="-122.09496" />
      <trkpt lat="38.39132" lon="-122.09499" />
      <trkpt lat="38.3916" lon="-122.09534" />
      <trkpt lat="38.39189" lon="-122.09557" />
      <trkpt lat="38.39198" lon="-122.09571" />
      <trkpt lat="38.39237" lon="-122.09623" />
      <trkpt lat="38.39257" lon="-122.09668" />
      <trkpt lat="38.39274" lon="-122.09696" />
      <trkpt lat="38.39294" lon="-122.09716" />
      <trkpt lat="38.39325" lon="-122.09754" />
      <trkpt lat="38.39344" lon="-122.09781" />
      <trkpt lat="38.39357" lon="-122.09812" />
      <trkpt lat="38.39386" lon="-122.09847" />
      <trkpt lat="38.39392" lon="-122.09859" />
      <trkpt lat="38.39401" lon="-122.09895" />
      <trkpt lat="38.39408" lon="-122.09904" />
      <trkpt lat="38.39413" lon="-122.09908" />
      <trkpt lat="38.39431" lon="-122.09915" />
      <trkpt lat="38.39466" lon="-122.09935" />
      <trkpt lat="38.39594" lon="-122.10015" />
      <trkpt lat="38.39615" lon="-122.10026" />
      <trkpt lat="38.39658" lon="-122.10053" />
      <trkpt lat="38.39682" lon="-122.10062" />
      <trkpt lat="38.39699" lon="-122.1007" />
      <trkpt lat="38.39705" lon="-122.1008" />
      <trkpt lat="38.39712" lon="-122.1011" />
      <trkpt lat="38.39719" lon="-122.10125" />
      <trkpt lat="38.39752" lon="-122.10185" />
      <trkpt lat="38.39763" lon="-122.10203" />
      <trkpt lat="38.39783" lon="-122.10252" />
      <trkpt lat="38.39796" lon="-122.10275" />
      <trkpt lat="38.39808" lon="-122.10288" />
      <trkpt lat="38.39828" lon="-122.10297" />
      <trkpt lat="38.39852" lon="-122.10314" />
      <trkpt lat="38.39882" lon="-122.10342" />
      <trkpt lat="38.39905" lon="-122.10377" />
      <trkpt lat="38.39933" lon="-122.10412" />
      <trkpt lat="38.39946" lon="-122.10436" />
      <trkpt lat="38.39962" lon="-122.10459" />
      <trkpt lat="38.39969" lon="-122.10468" />
      <trkpt lat="38.39982" lon="-122.10481" />
      <trkpt lat="38.40031" lon="-122.10507" />
      <trkpt lat="38.40055" lon="-122.10524" />
      <trkpt lat="38.4008" lon="-122.10544" />
      <trkpt lat="38.40103" lon="-122.1057" />
      <trkpt lat="38.40163" lon="-122.10644" />
      <trkpt lat="38.40171" lon="-122.10666" />
      <trkpt lat="38.40177" lon="-122.10716" />
      <trkpt lat="38.40185" lon="-122.1073" />
      <trkpt lat="38.40197" lon="-122.10742" />
      <trkpt lat="38.4023" lon="-122.10766" />
      <trkpt lat="38.40274" lon="-122.10803" />
      <trkpt lat="38.40292" lon="-122.10815" />
      <trkpt lat="38.40323" lon="-122.10816" />
      <trkpt lat="38.40373" lon="-122.10847" />
      <trkpt lat="38.40394" lon="-122.10867" />
      <trkpt lat="38.40422" lon="-122.10926" />
      <trkpt lat="38.40428" lon="-122.10934" />
      <trkpt lat="38.40447" lon="-122.10948" />
      <trkpt lat="38.40459" lon="-122.1095" />
      <trkpt lat="38.40512" lon="-122.10946" />
      <trkpt lat="38.40545" lon="-122.10959" />
      <trkpt lat="38.40569" lon="-122.10958" />
      <trkpt lat="38.4058" lon="-122.1096" />
      <trkpt lat="38.40608" lon="-122.10987" />
      <trkpt lat="38.40623" lon="-122.1099" />
      <trkpt lat="38.40673" lon="-122.10973" />
      <trkpt lat="38.40716" lon="-122.10964" />
      <trkpt lat="38.40725" lon="-122.10964" />
      <trkpt lat="38.40743" lon="-122.10969" />
      <trkpt lat="38.40761" lon="-122.10981" />
      <trkpt lat="38.4079" lon="-122.11005" />
      <trkpt lat="38.40851" lon="-122.11047" />
      <trkpt lat="38.40863" lon="-122.11059" />
      <trkpt lat="38.40888" lon="-122.1109" />
      <trkpt lat="38.4091" lon="-122.11102" />
      <trkpt lat="38.40939" lon="-122.1111" />
      <trkpt lat="38.40957" lon="-122.11122" />
      <trkpt lat="38.40966" lon="-122.11143" />
      <trkpt lat="38.40966" lon="-122.11198" />
      <trkpt lat="38.40969" lon="-122.11206" />
      <trkpt lat="38.40974" lon="-122.11208" />
      <trkpt lat="38.40976" lon="-122.11207" />
      <trkpt lat="38.40985" lon="-122.11202" />
      <trkpt lat="38.41012" lon="-122.11171" />
      <trkpt lat="38.41034" lon="-122.11154" />
      <trkpt lat="38.41045" lon="-122.11138" />
      <trkpt lat="38.41049" lon="-122.11115" />
      <trkpt lat="38.41061" lon="-122.11103" />
      <trkpt lat="38.41082" lon="-122.11097" />
      <trkpt lat="38.41092" lon="-122.11096" />
      <trkpt lat="38.41106" lon="-122.11099" />
      <trkpt lat="38.41124" lon="-122.11106" />
      <trkpt lat="38.41133" lon="-122.11106" />
      <trkpt lat="38.41142" lon="-122.11104" />
      <trkpt lat="38.41159" lon="-122.11099" />
      <trkpt lat="38.41165" lon="-122.11094" />
      <trkpt lat="38.41174" lon="-122.11085" />
      <trkpt lat="38.412" lon="-122.11042" />
      <trkpt lat="38.41213" lon="-122.11028" />
      <trkpt lat="38.4122" lon="-122.11026" />
      <trkpt lat="38.41237" lon="-122.11027" />
      <trkpt lat="38.41259" lon="-122.11021" />
      <trkpt lat="38.4127" lon="-122.11016" />
      <trkpt lat="38.41282" lon="-122.11008" />
      <trkpt lat="38.4129" lon="-122.10997" />
      <trkpt lat="38.41299" lon="-122.10978" />
      <trkpt lat="38.41301" lon="-122.10967" />
      <trkpt lat="38.41306" lon="-122.1093" />
      <trkpt lat="38.41305" lon="-122.10897" />
      <trkpt lat="38.41312" lon="-122.10871" />
      <trkpt lat="38.41323" lon="-122.10849" />
      <trkpt lat="38.41334" lon="-122.10807" />
      <trkpt lat="38.41359" lon="-122.1075" />
      <trkpt lat="38.41363" lon="-122.10724" />
      <trkpt lat="38.4138" lon="-122.10681" />
      <trkpt lat="38.4138" lon="-122.10663" />
      <trkpt lat="38.41376" lon="-122.10649" />
      <trkpt lat="38.41371" lon="-122.10641" />
      <trkpt lat="38.4136" lon="-122.10613" />
      <trkpt lat="38.41359" lon="-122.10593" />
      <trkpt lat="38.41364" lon="-122.10557" />
      <trkpt lat="38.41365" lon="-122.10533" />
      <trkpt lat="38.41378" lon="-122.10496" />
      <trkpt lat="38.4139" lon="-122.10477" />
      <trkpt lat="38.41392" lon="-122.10467" />
      <trkpt lat="38.4139" lon="-122.10457" />
      <trkpt lat="38.41377" lon="-122.1043" />
      <trkpt lat="38.41372" lon="-122.10411" />
      <trkpt lat="38.41359" lon="-122.10385" />
      <trkpt lat="38.4135" lon="-122.10358" />
      <trkpt lat="38.41341" lon="-122.1034" />
      <trkpt lat="38.41335" lon="-122.10333" />
      <trkpt lat="38.41325" lon="-122.10306" />
      <trkpt lat="38.41321" lon="-122.10299" />
      <trkpt lat="38.41307" lon="-122.1029" />
      <trkpt lat="38.41295" lon="-122.10288" />
      <trkpt lat="38.41275" lon="-122.10289" />
      <trkpt lat="38.41269" lon="-122.10284" />
      <trkpt lat="38.41268" lon="-122.10274" />
      <trkpt lat="38.41271" lon="-122.10225" />
      <trkpt lat="38.41268" lon="-122.10203" />
      <trkpt lat="38.41261" lon="-122.10183" />
      <trkpt lat="38.4126" lon="-122.10173" />
      <trkpt lat="38.41261" lon="-122.10163" />
      <trkpt lat="38.41272" lon="-122.10132" />
      <trkpt lat="38.41272" lon="-122.10118" />
      <trkpt lat="38.41268" lon="-122.10105" />
      <trkpt lat="38.41259" lon="-122.10088" />
      <trkpt lat="38.41252" lon="-122.10068" />
      <trkpt lat="38.41246" lon="-122.10034" />
      <trkpt lat="38.41242" lon="-122.1" />
      <trkpt lat="38.41235" lon="-122.09977" />
      <trkpt lat="38.41226" lon="-122.09959" />
      <trkpt lat="38.41225" lon="-122.0995" />
      <trkpt lat="38.41231" lon="-122.09945" />
      <trkpt lat="38.41235" lon="-122.09945" />
      <trkpt lat="38.41238" lon="-122.09947" />
      <trkpt lat="38.41255" lon="-122.09971" />
      <trkpt lat="38.41274" lon="-122.09988" />
      <trkpt lat="38.41286" lon="-122.09998" />
      <trkpt lat="38.41309" lon="-122.10011" />
      <trkpt lat="38.4134" lon="-122.1003" />
      <trkpt lat="38.4135" lon="-122.1003" />
      <trkpt lat="38.41363" lon="-122.10023" />
      <trkpt lat="38.41368" lon="-122.10011" />
      <trkpt lat="38.41369" lon="-122.09996" />
      <trkpt lat="38.41368" lon="-122.09992" />
      <trkpt lat="38.41366" lon="-122.09987" />
      <trkpt lat="38.41342" lon="-122.09954" />
      <trkpt lat="38.41334" lon="-122.09933" />
      <trkpt lat="38.41311" lon="-122.09896" />
      <trkpt lat="38.41305" lon="-122.0987" />
      <trkpt lat="38.41302" lon="-122.09833" />
      <trkpt lat="38.41298" lon="-122.09824" />
      <trkpt lat="38.41282" lon="-122.09799" />
      <trkpt lat="38.41255" lon="-122.09768" />
      <trkpt lat="38.41225" lon="-122.09741" />
      <trkpt lat="38.4121" lon="-122.09732" />
      <trkpt lat="38.41183" lon="-122.09725" />
      <trkpt lat="38.41167" lon="-122.09718" />
      <trkpt lat="38.41164" lon="-122.09715" />
      <trkpt lat="38.41145" lon="-122.09683" />
      <trkpt lat="38.4113" lon="-122.09652" />
      <trkpt lat="38.41126" lon="-122.09636" />
      <trkpt lat="38.41124" lon="-122.0961" />
      <trkpt lat="38.4112" lon="-122.09596" />
      <trkpt lat="38.41118" lon="-122.09587" />
      <trkpt lat="38.41102" lon="-122.09554" />
      <trkpt lat="38.41095" lon="-122.09534" />
      <trkpt lat="38.41094" lon="-122.09515" />
      <trkpt lat="38.41096" lon="-122.09506" />
      <trkpt lat="38.41099" lon="-122.09501" />
      <trkpt lat="38.41108" lon="-122.09492" />
      <trkpt lat="38.41131" lon="-122.09477" />
      <trkpt lat="38.41135" lon="-122.0947" />
      <trkpt lat="38.41134" lon="-122.09459" />
      <trkpt lat="38.41129" lon="-122.09452" />
      <trkpt lat="38.41117" lon="-122.09442" />
      <trkpt lat="38.41117" lon="-122.09438" />
      <trkpt lat="38.41122" lon="-122.0943" />
      <trkpt lat="38.41125" lon="-122.0943" />
      <trkpt lat="38.41132" lon="-122.09434" />
      <trkpt lat="38.41137" lon="-122.09439" />
      <trkpt lat="38.41165" lon="-122.09456" />
      <trkpt lat="38.41176" lon="-122.09457" />
      <trkpt lat="38.41189" lon="-122.09454" />
      <trkpt lat="38.4122" lon="-122.09463" />
      <trkpt lat="38.41227" lon="-122.09462" />
      <trkpt lat="38.41232" lon="-122.09456" />
      <trkpt lat="38.41234" lon="-122.09449" />
      <trkpt lat="38.41232" lon="-122.09438" />
      <trkpt lat="38.41217" lon="-122.09414" />
      <trkpt lat="38.41214" lon="-122.09403" />
      <trkpt lat="38.41208" lon="-122.09394" />
      <trkpt lat="38.41159" lon="-122.09325" />
      <trkpt lat="38.4114" lon="-122.09274" />
      <trkpt lat="38.41129" lon="-122.09258" />
      <trkpt lat="38.41124" lon="-122.09252" />
      <trkpt lat="38.41108" lon="-122.09241" />
      <trkpt lat="38.41077" lon="-122.09228" />
      <trkpt lat="38.41053" lon="-122.09211" />
      <trkpt lat="38.41036" lon="-122.09179" />
      <trkpt lat="38.41015" lon="-122.09152" />
      <trkpt lat="38.41008" lon="-122.09147" />
      <trkpt lat="38.4098" lon="-122.09138" />
      <trkpt lat="38.4096" lon="-122.09127" />
      <trkpt lat="38.40938" lon="-122.09102" />
      <trkpt lat="38.40923" lon="-122.09094" />
      <trkpt lat="38.40912" lon="-122.09093" />
      <trkpt lat="38.40907" lon="-122.0909" />
      <trkpt lat="38.40903" lon="-122.09086" />
      <trkpt lat="38.40899" lon="-122.09076" />
      <trkpt lat="38.40896" lon="-122.09062" />
      <trkpt lat="38.40903" lon="-122.08985" />
      <trkpt lat="38.409" lon="-122.08967" />
      <trkpt lat="38.40896" lon="-122.0895" />
      <trkpt lat="38.40882" lon="-122.08919" />
      <trkpt lat="38.40879" lon="-122.08896" />
      <trkpt lat="38.40878" lon="-122.0887" />
      <trkpt lat="38.4088" lon="-122.08849" />
      <trkpt lat="38.40893" lon="-122.08795" />
      <trkpt lat="38.40893" lon="-122.08745" />
      <trkpt lat="38.40898" lon="-122.08731" />
      <trkpt lat="38.40907" lon="-122.08712" />
      <trkpt lat="38.40911" lon="-122.08702" />
      <trkpt lat="38.40911" lon="-122.08692" />
      <trkpt lat="38.40908" lon="-122.08683" />
      <trkpt lat="38.40892" lon="-122.08658" />
      <trkpt lat="38.40889" lon="-122.08648" />
      <trkpt lat="38.40885" lon="-122.08615" />
      <trkpt lat="38.40876" lon="-122.08594" />
      <trkpt lat="38.40867" lon="-122.08562" />
      <trkpt lat="38.40857" lon="-122.08507" />
      <trkpt lat="38.40858" lon="-122.08486" />
      <trkpt lat="38.40862" lon="-122.08471" />
      <trkpt lat="38.40873" lon="-122.08454" />
      <trkpt lat="38.40879" lon="-122.08439" />
      <trkpt lat="38.40881" lon="-122.08429" />
      <trkpt lat="38.4088" lon="-122.08417" />
      <trkpt lat="38.40872" lon="-122.08402" />
      <trkpt lat="38.40824" lon="-122.08354" />
      <trkpt lat="38.40817" lon="-122.08335" />
      <trkpt lat="38.40815" lon="-122.08319" />
      <trkpt lat="38.40815" lon="-122.08291" />
      <trkpt lat="38.40814" lon="-122.08278" />
      <trkpt lat="38.40811" lon="-122.08263" />
      <trkpt lat="38.40804" lon="-122.08249" />
      <trkpt lat="38.40784" lon="-122.08231" />
      <trkpt lat="38.40779" lon="-122.08219" />
      <trkpt lat="38.40779" lon="-122.08204" />
      <trkpt lat="38.40784" lon="-122.08188" />
      <trkpt lat="38.40786" lon="-122.08174" />
      <trkpt lat="38.40783" lon="-122.08137" />
      <trkpt lat="38.40794" lon="-122.08114" />
      <trkpt lat="38.40811" lon="-122.0809" />
      <trkpt lat="38.40816" lon="-122.08057" />
      <trkpt lat="38.40823" lon="-122.08037" />
      <trkpt lat="38.40835" lon="-122.0802" />
      <trkpt lat="38.40858" lon="-122.08" />
      <trkpt lat="38.40869" lon="-122.07988" />
      <trkpt lat="38.40894" lon="-122.07955" />
      <trkpt lat="38.40906" lon="-122.07946" />
      <trkpt lat="38.40928" lon="-122.07936" />
      <trkpt lat="38.40935" lon="-122.07927" />
      <trkpt lat="38.40935" lon="-122.07908" />
      <trkpt lat="38.40925" lon="-122.07857" />
      <trkpt lat="38.40926" lon="-122.07846" />
      <trkpt lat="38.40956" lon="-122.07798" />
      <trkpt lat="38.40972" lon="-122.07765" />
      <trkpt lat="38.40975" lon="-122.07754" />
      <trkpt lat="38.40978" lon="-122.07718" />
      <trkpt lat="38.40986" lon="-122.07694" />
      <trkpt lat="38.40989" lon="-122.07666" />
      <trkpt lat="38.40989" lon="-122.07653" />
      <trkpt lat="38.4097" lon="-122.07582" />
      <trkpt lat="38.40957" lon="-122.07541" />
      <trkpt lat="38.40931" lon="-122.07483" />
      <trkpt lat="38.4093" lon="-122.0746" />
      <trkpt lat="38.40935" lon="-122.0741" />
      <trkpt lat="38.40932" lon="-122.07396" />
      <trkpt lat="38.4093" lon="-122.07392" />
      <trkpt lat="38.40914" lon="-122.07374" />
      <trkpt lat="38.40894" lon="-122.07365" />
      <trkpt lat="38.40891" lon="-122.07357" />
      <trkpt lat="38.40888" lon="-122.07327" />
      <trkpt lat="38.40889" lon="-122.07289" />
      <trkpt lat="38.40896" lon="-122.07258" />
      <trkpt lat="38.40915" lon="-122.07236" />
      <trkpt lat="38.4093" lon="-122.07228" />
      <trkpt lat="38.40949" lon="-122.07222" />
      <trkpt lat="38.4096" lon="-122.07215" />
      <trkpt lat="38.40989" lon="-122.07172" />
      <trkpt lat="38.40993" lon="-122.07165" />
      <trkpt lat="38.40998" lon="-122.07148" />
      <trkpt lat="38.40982" lon="-122.07007" />
      <trkpt lat="38.40981" lon="-122.06968" />
      <trkpt lat="38.4097" lon="-122.06934" />
      <trkpt lat="38.40967" lon="-122.06916" />
      <trkpt lat="38.4097" lon="-122.06893" />
      <trkpt lat="38.40983" lon="-122.06832" />
      <trkpt lat="38.40984" lon="-122.06816" />
      <trkpt lat="38.4097" lon="-122.06706" />
      <trkpt lat="38.40976" lon="-122.06653" />
      <trkpt lat="38.40977" lon="-122.06614" />
      <trkpt lat="38.40975" lon="-122.06591" />
      <trkpt lat="38.40973" lon="-122.06574" />
      <trkpt lat="38.40967" lon="-122.0655" />
      <trkpt lat="38.40952" lon="-122.06508" />
      <trkpt lat="38.40944" lon="-122.06444" />
      <trkpt lat="38.40946" lon="-122.0642" />
      <trkpt lat="38.40973" lon="-122.0635" />
      <trkpt lat="38.4099" lon="-122.06296" />
      <trkpt lat="38.40997" lon="-122.06263" />
      <trkpt lat="38.41" lon="-122.06223" />
      <trkpt lat="38.41006" lon="-122.06188" />
      <trkpt lat="38.41009" lon="-122.06171" />
      <trkpt lat="38.41021" lon="-122.06134" />
      <trkpt lat="38.41025" lon="-122.06086" />
      <trkpt lat="38.41021" lon="-122.06018" />
      <trkpt lat="38.41033" lon="-122.05972" />
      <trkpt lat="38.41036" lon="-122.05928" />
      <trkpt lat="38.41047" lon="-122.05902" />
      <trkpt lat="38.41055" lon="-122.05892" />
      <trkpt lat="38.4106" lon="-122.05884" />
      <trkpt lat="38.41065" lon="-122.05855" />
      <trkpt lat="38.41066" lon="-122.05815" />
      <trkpt lat="38.4106" lon="-122.05745" />
      <trkpt lat="38.41073" lon="-122.05718" />
      <trkpt lat="38.41081" lon="-122.05706" />
      <trkpt lat="38.41085" lon="-122.05694" />
      <trkpt lat="38.41084" lon="-122.05681" />
      <trkpt lat="38.41081" lon="-122.05667" />
      <trkpt lat="38.41058" lon="-122.05618" />
      <trkpt lat="38.41057" lon="-122.05604" />
      <trkpt lat="38.41066" lon="-122.05582" />
      <trkpt lat="38.41082" lon="-122.05553" />
      <trkpt lat="38.41094" lon="-122.05502" />
      <trkpt lat="38.41094" lon="-122.05492" />
      <trkpt lat="38.41091" lon="-122.05476" />
      <trkpt lat="38.41081" lon="-122.05442" />
      <trkpt lat="38.41081" lon="-122.05422" />
      <trkpt lat="38.41096" lon="-122.05389" />
      <trkpt lat="38.41097" lon="-122.05375" />
      <trkpt lat="38.4109" lon="-122.05339" />
      <trkpt lat="38.41085" lon="-122.05286" />
      <trkpt lat="38.41077" lon="-122.05261" />
      <trkpt lat="38.41062" lon="-122.05204" />
      <trkpt lat="38.41055" lon="-122.05155" />
      <trkpt lat="38.41039" lon="-122.05094" />
      <trkpt lat="38.41033" lon="-122.05079" />
      <trkpt lat="38.41017" lon="-122.0505" />
      <trkpt lat="38.41" lon="-122.05032" />
      <trkpt lat="38.40991" lon="-122.05026" />
      <trkpt lat="38.4093" lon="-122.04998" />
      <trkpt lat="38.40911" lon="-122.04993" />
      <trkpt lat="38.40903" lon="-122.04978" />
      <trkpt lat="38.40905" lon="-122.04962" />
      <trkpt lat="38.40906" lon="-122.04937" />
      <trkpt lat="38.40898" lon="-122.04914" />
      <trkpt lat="38.40876" lon="-122.04862" />
      <trkpt lat="38.40854" lon="-122.04819" />
      <trkpt lat="38.40841" lon="-122.0479" />
      <trkpt lat="38.40824" lon="-122.0474" />
      <trkpt lat="38.40812" lon="-122.04683" />
      <trkpt lat="38.40803" lon="-122.0466" />
      <trkpt lat="38.4078" lon="-122.04612" />
      <trkpt lat="38.40767" lon="-122.04572" />
      <trkpt lat="38.40743" lon="-122.0452" />
      <trkpt lat="38.40724" lon="-122.04464" />
      <trkpt lat="38.40714" lon="-122.04442" />
      <trkpt lat="38.40706" lon="-122.04432" />
      <trkpt lat="38.407" lon="-122.04427" />
      <trkpt lat="38.40682" lon="-122.0442" />
      <trkpt lat="38.40667" lon="-122.0442" />
      <trkpt lat="38.4064" lon="-122.04423" />
      <trkpt lat="38.40621" lon="-122.04419" />
      <trkpt lat="38.40576" lon="-122.04399" />
      <trkpt lat="38.40537" lon="-122.04377" />
      <trkpt lat="38.40522" lon="-122.04361" />
      <trkpt lat="38.40491" lon="-122.04306" />
      <trkpt lat="38.40486" lon="-122.04291" />
      <trkpt lat="38.40486" lon="-122.04275" />
      <trkpt lat="38.40482" lon="-122.04265" />
      <trkpt lat="38.40479" lon="-122.04263" />
      <trkpt lat="38.40433" lon="-122.04248" />
      <trkpt lat="38.40402" lon="-122.04239" />
      <trkpt lat="38.40365" lon="-122.04237" />
      <trkpt lat="38.40325" lon="-122.04228" />
      <trkpt lat="38.40289" lon="-122.04225" />
      <trkpt lat="38.4026" lon="-122.0422" />
      <trkpt lat="38.40209" lon="-122.04216" />
      <trkpt lat="38.40165" lon="-122.04205" />
      <trkpt lat="38.40155" lon="-122.04199" />
      <trkpt lat="38.40136" lon="-122.04193" />
      <trkpt lat="38.40103" lon="-122.04179" />
      <trkpt lat="38.40072" lon="-122.04163" />
      <trkpt lat="38.40062" lon="-122.04156" />
      <trkpt lat="38.40041" lon="-122.04134" />
      <trkpt lat="38.40007" lon="-122.04093" />
      <trkpt lat="38.39983" lon="-122.04076" />
      <trkpt lat="38.39927" lon="-122.04054" />
      <trkpt lat="38.39879" lon="-122.04036" />
      <trkpt lat="38.39817" lon="-122.04018" />
      <trkpt lat="38.3979" lon="-122.04009" />
      <trkpt lat="38.39744" lon="-122.0399" />
      <trkpt lat="38.39708" lon="-122.03978" />
      <trkpt lat="38.39664" lon="-122.03957" />
      <trkpt lat="38.39622" lon="-122.03939" />
      <trkpt lat="38.39595" lon="-122.03931" />
      <trkpt lat="38.39561" lon="-122.03917" />
      <trkpt lat="38.39533" lon="-122.03909" />
      <trkpt lat="38.39518" lon="-122.03898" />
      <trkpt lat="38.39499" lon="-122.0388" />
      <trkpt lat="38.39458" lon="-122.03829" />
      <trkpt lat="38.39421" lon="-122.03785" />
      <trkpt lat="38.39398" lon="-122.03771" />
      <trkpt lat="38.39256" lon="-122.03718" />
      <trkpt lat="38.3922" lon="-122.03699" />
      <trkpt lat="38.39198" lon="-122.03693" />
      <trkpt lat="38.39158" lon="-122.03678" />
      <trkpt lat="38.39127" lon="-122.03663" />
      <trkpt lat="38.391" lon="-122.03647" />
      <trkpt lat="38.39024" lon="-122.03617" />
      <trkpt lat="38.38981" lon="-122.03596" />
      <trkpt lat="38.38966" lon="-122.03584" />
      <trkpt lat="38.38958" lon="-122.03573" />
      <trkpt lat="38.38934" lon="-122.03528" />
      <trkpt lat="38.3891" lon="-122.03473" />
      <trkpt lat="38.38898" lon="-122.03453" />
      <trkpt lat="38.38876" lon="-122.03431" />
      <trkpt lat="38.38866" lon="-122.03424" />
      <trkpt lat="38.38845" lon="-122.03413" />
      <trkpt lat="38.38807" lon="-122.03391" />
      <trkpt lat="38.38779" lon="-122.03381" />
      <trkpt lat="38.38743" lon="-122.03372" />
      <trkpt lat="38.38722" lon="-122.03364" />
      <trkpt lat="38.38691" lon="-122.0335" />
      <trkpt lat="38.3862" lon="-122.03311" />
      <trkpt lat="38.38606" lon="-122.03302" />
      <trkpt lat="38.38559" lon="-122.0326" />
      <trkpt lat="38.38474" lon="-122.03196" />
      <trkpt lat="38.38411" lon="-122.03136" />
      <trkpt lat="38.38372" lon="-122.0309" />
      <trkpt lat="38.38331" lon="-122.03053" />
      <trkpt lat="38.38243" lon="-122.02983" />
      <trkpt lat="38.38228" lon="-122.02974" />
      <trkpt lat="38.38183" lon="-122.02939" />
      <trkpt lat="38.38127" lon="-122.02899" />
      <trkpt lat="38.38093" lon="-122.02879" />
      <trkpt lat="38.3806" lon="-122.02849" />
      <trkpt lat="38.38042" lon="-122.02838" />
      <trkpt lat="38.3803" lon="-122.02827" />
      <trkpt lat="38.37984" lon="-122.02799" />
      <trkpt lat="38.37937" lon="-122.02767" />
      <trkpt lat="38.37909" lon="-122.02745" />
      <trkpt lat="38.37891" lon="-122.02734" />
      <trkpt lat="38.3784" lon="-122.02696" />
      <trkpt lat="38.37796" lon="-122.02667" />
      <trkpt lat="38.37735" lon="-122.0263" />
      <trkpt lat="38.37715" lon="-122.02626" />
      <trkpt lat="38.37661" lon="-122.02585" />
      <trkpt lat="38.37634" lon="-122.0257" />
      <trkpt lat="38.3762" lon="-122.02572" />
      <trkpt lat="38.37617" lon="-122.0258" />
    </trkseg>
  </trk>
</gpx>