<?xml version="1.0" encoding="UTF-8"?>
<gpx version="1.1" creator="strava-segment-scraper" xmlns="http://www.topografix.com/GPX/1/1">
  <trk>
    <name>Wellbarn FKT route</name>
    <trkseg>
      <trkpt lat="37.04952" lon="-119.56519" />
      <trkpt lat="37.05021" lon="-119.56531" />
      <trkpt lat="37.05095" lon="-119.56555" />
      <trkpt lat="37.05136" lon="-119.56562" />
      <trkpt lat="37.05189" lon="-119.56574" />
      <trkpt lat="37.05318" lon="-119.56613" />
      <trkpt lat="37.05331" lon="-119.56614" />
      <trkpt lat="37.05358" lon="-119.56609" />
      <trkpt lat="37.05373" lon="-119.56609" />
      <trkpt lat="37.05388" lon="-119.56617" />
      <trkpt lat="37.054" lon="-119.56631" />
      <trkpt lat="37.05433" lon="-119.56687" />
      <trkpt lat="37.05449" lon="-119.56707" />
      <trkpt lat="37.05452" lon="-119.56708" />
      <trkpt lat="37.05462" lon="-119.56717" />
      <trkpt lat="37.05469" lon="-119.56731" />
      <trkpt lat="37.05472" lon="-119.56745" />
      <trkpt lat="37.05472" lon="-119.56774" />
      <trkpt lat="37.05474" lon="-119.56783" />
      <trkpt lat="37.05486" lon="-119.56803" />
      <trkpt lat="37.05496" lon="-119.56833" />
      <trkpt lat="37.05509" lon="-119.56859" />
      <trkpt lat="37.05511" lon="-119.56879" />
      <trkpt lat="37.05509" lon="-119.56895" />
      <trkpt lat="37.055" lon="-119.56913" />
      <trkpt lat="37.055" lon="-119.56922" />
      <trkpt lat="37.05513" lon="-119.56945" />
      <trkpt lat="37.05519" lon="-119.56962" />
      <trkpt lat="37.05524" lon="-119.56981" />
      <trkpt lat="37.05529" lon="-119.56997" />
      <trkpt lat="37.05535" lon="-119.57029" />
      <trkpt lat="37.05554" lon="-119.57072" />
      <trkpt lat="37.05557" lon="-119.57089" />
      <trkpt lat="37.05555" lon="-119.57108" />
      <trkpt lat="37.05546" lon="-119.57144" />
      <trkpt lat="37.05534" lon="-119.5716" />
      <trkpt lat="37.05524" lon="-119.57169" />
      <trkpt lat="37.05516" lon="-119.57178" />
      <trkpt lat="37.05508" lon="-119.57204" />
      <trkpt lat="37.05519" lon="-119.57245" />
      <trkpt lat="37.05522" lon="-119.57262" />
      <trkpt lat="37.05526" lon="-119.57325" />
      <trkpt lat="37.05524" lon="-119.57341" />
      <trkpt lat="37.05512" lon="-119.57372" />
      <trkpt lat="37.05521" lon="-119.5743" />
      <trkpt lat="37.05519" lon="-119.57454" />
      <trkpt lat="37.05515" lon="-119.57469" />
      <trkpt lat="37.05502" lon="-119.5748" />
      <trkpt lat="37.05465" lon="-119.57486" />
      <trkpt lat="37.05447" lon="-119.57491" />
      <trkpt lat="37.05436" lon="-119.57497" />
      <trkpt lat="37.05421" lon="-119.57517" />
      <trkpt lat="37.05409" lon="-119.57528" />
      <trkpt lat="37.05393" lon="-119.57532" />
      <trkpt lat="37.05379" lon="-119.57532" />
      <trkpt lat="37.05377" lon="-119.57534" />
      <trkpt lat="37.05372" lon="-119.5755" />
      <trkpt lat="37.05369" lon="-119.57579" />
      <trkpt lat="37.05361" lon="-119.5761" />
      <trkpt lat="37.05352" lon="-119.5762" />
      <trkpt lat="37.0534" lon="-119.57627" />
      <trkpt lat="37.05333" lon="-119.57633" />
      <trkpt lat="37.05333" lon="-119.57641" />
      <trkpt lat="37.05337" lon="-119.57655" />
      <trkpt lat="37.05342" lon="-119.57687" />
      <trkpt lat="37.05341" lon="-119.57694" />
      <trkpt lat="37.05343" lon="-119.57701" />
      <trkpt lat="37.05337" lon="-119.57726" />
      <trkpt lat="37.05337" lon="-119.57742" />
      <trkpt lat="37.05366" lon="-119.57783" />
      <trkpt lat="37.05378" lon="-119.57842" />
      <trkpt lat="37.05376" lon="-119.5786" />
      <trkpt lat="37.05367" lon="-119.57879" />
      <trkpt lat="37.05352" lon="-119.57908" />
      <trkpt lat="37.05339" lon="-119.57924" />
      <trkpt lat="37.05336" lon="-119.57958" />
      <trkpt lat="37.05333" lon="-119.57965" />
      <trkpt lat="37.05319" lon="-119.5798" />
      <trkpt lat="37.05312" lon="-119.57992" />
      <trkpt lat="37.05313" lon="-119.58007" />
      <trkpt lat="37.05323" lon="-119.58026" />
      <trkpt lat="37.05324" lon="-119.58033" />
      <trkpt lat="37.05324" lon="-119.58056" />
      <trkpt lat="37.05319" lon="-119.58073" />
      <trkpt lat="37.05304" lon="-119.581" />
      <trkpt lat="37.05305" lon="-119.58118" />
      <trkpt lat="37.05309" lon="-119.58131" />
      <trkpt lat="37.05333" lon="-119.58169" />
      <trkpt lat="37.05345" lon="-119.58191" />
      <trkpt lat="37.05351" lon="-119.58213" />
      <trkpt lat="37.05353" lon="-119.58227" />
      <trkpt lat="37.05356" lon="-119.5823" />
      <trkpt lat="37.05367" lon="-119.58228" />
      <trkpt lat="37.05373" lon="-119.58218" />
      <trkpt lat="37.05374" lon="-119.58207" />
      <trkpt lat="37.05372" lon="-119.58199" />
      <trkpt lat="37.05352" lon="-119.5817" />
      <trkpt lat="37.05341" lon="-119.58144" />
      <trkpt lat="37.05334" lon="-119.58118" />
      <trkpt lat="37.0534" lon="-119.58113" />
      <trkpt lat="37.05359" lon="-119.58104" />
      <trkpt lat="37.05366" lon="-119.58099" />
      <trkpt lat="37.05405" lon="-119.58101" />
      <trkpt lat="37.0541" lon="-119.58097" />
      <trkpt lat="37.05413" lon="-119.58092" />
      <trkpt lat="37.05416" lon="-119.58078" />
      <trkpt lat="37.05415" lon="-119.58038" />
      <trkpt lat="37.05418" lon="-119.5802" />
      <trkpt lat="37.05419" lon="-119.58017" />
      <trkpt lat="37.05425" lon="-119.58013" />
      <trkpt lat="37.05432" lon="-119.58016" />
      <trkpt lat="37.05437" lon="-119.58023" />
      <trkpt lat="37.05437" lon="-119.58027" />
      <trkpt lat="37.05431" lon="-119.58042" />
      <trkpt lat="37.05431" lon="-119.58049" />
      <trkpt lat="37.05433" lon="-119.5806" />
      <trkpt lat="37.05435" lon="-119.58065" />
      <trkpt lat="37.05447" lon="-119.58074" />
      <trkpt lat="37.05457" lon="-119.58086" />
      <trkpt lat="37.05461" lon="-119.58114" />
      <trkpt lat="37.05461" lon="-119.58205" />
      <trkpt lat="37.05465" lon="-119.58214" />
      <trkpt lat="37.05469" lon="-119.5822" />
      <trkpt lat="37.05486" lon="-119.58239" />
      <trkpt lat="37.0551" lon="-119.58269" />
      <trkpt lat="37.05535" lon="-119.58288" />
      <trkpt lat="37.05555" lon="-119.58298" />
      <trkpt lat="37.05571" lon="-119.58298" />
      <trkpt lat="37.05579" lon="-119.58296" />
      <trkpt lat="37.05605" lon="-119.58281" />
      <trkpt lat="37.05643" lon="-119.5825" />
      <trkpt lat="37.05654" lon="-119.58243" />
      <trkpt lat="37.05658" lon="-119.58238" />
      <trkpt lat="37.05674" lon="-119.58227" />
      <trkpt lat="37.05689" lon="-119.58213" />
      <trkpt lat="37.05701" lon="-119.58205" />
      <trkpt lat="37.05719" lon="-119.58199" />
      <trkpt lat="37.05725" lon="-119.58199" />
      <trkpt lat="37.05728" lon="-119.582" />
      <trkpt lat="37.05743" lon="-119.5821" />
      <trkpt lat="37.05752" lon="-119.58224" />
      <trkpt lat="37.05769" lon="-119.5829" />
      <trkpt lat="37.05777" lon="-119.58301" />
      <trkpt lat="37.0584" lon="-119.58309" />
      <trkpt lat="37.05862" lon="-119.58309" />
      <trkpt lat="37.05881" lon="-119.5831" />
      <trkpt lat="37.0592" lon="-119.58316" />
      <trkpt lat="37.05939" lon="-119.5832" />
      <trkpt lat="37.05944" lon="-119.58323" />
      <trkpt lat="37.05947" lon="-119.5832" />
      <trkpt lat="37.05935" lon="-119.58301" />
      <trkpt lat="37.05923" lon="-119.58293" />
      <trkpt lat="37.05912" lon="-119.58281" />
      <trkpt lat="37.05917" lon="-119.58267" />
      <trkpt lat="37.05932" lon="-119.58246" />
      <trkpt lat="37.05936" lon="-119.58235" />
      <trkpt lat="37.05961" lon="-119.58205" />
      <trkpt lat="37.05968" lon="-119.58172" />
      <trkpt lat="37.0597" lon="-119.58166" />
      <trkpt lat="37.05977" lon="-119.58161" />
      <trkpt lat="37.05985" lon="-119.58149" />
      <trkpt lat="37.0599" lon="-119.58148" />
      <trkpt lat="37.06003" lon="-119.58149" />
      <trkpt lat="37.06008" lon="-119.58148" />
      <trkpt lat="37.06021" lon="-119.58132" />
      <trkpt lat="37.06054" lon="-119.58144" />
      <trkpt lat="37.0607" lon="-119.58142" />
      <trkpt lat="37.0609" lon="-119.58133" />
      <trkpt lat="37.06118" lon="-119.58159" />
      <trkpt lat="37.06124" lon="-119.58162" />
      <trkpt lat="37.06131" lon="-119.58162" />
      <trkpt lat="37.06133" lon="-119.58159" />
      <trkpt lat="37.06131" lon="-119.58146" />
      <trkpt lat="37.06134" lon="-119.58139" />
      <trkpt lat="37.06151" lon="-119.58132" />
      <trkpt lat="37.06161" lon="-119.58132" />
      <trkpt lat="37.06165" lon="-119.58127" />
      <trkpt lat="37.06166" lon="-119.58123" />
      <trkpt lat="37.06165" lon="-119.58114" />
      <trkpt lat="37.06157" lon="-119.58088" />
      <trkpt lat="37.06155" lon="-119.58067" />
      <trkpt lat="37.06156" lon="-119.58045" />
      <trkpt lat="37.06154" lon="-119.58033" />
      <trkpt lat="37.0615" lon="-119.58023" />
      <trkpt lat="37.0614" lon="-119.58006" />
      <trkpt lat="37.06131" lon="-119.57986" />
      <trkpt lat="37.06086" lon="-119.57948" />
      <trkpt lat="37.06061" lon="-119.57913" />
      <trkpt lat="37.0604" lon="-119.57887" />
      <trkpt lat="37.06028" lon="-119.5786" />
      <trkpt lat="37.06023" lon="-119.57843" />
      <trkpt lat="37.06016" lon="-119.5783" />
      <trkpt lat="37.05979" lon="-119.57774" />
      <trkpt lat="37.05977" lon="-119.57765" />
      <trkpt lat="37.05976" lon="-119.57748" />
      <trkpt lat="37.05983" lon="-119.57721" />
      <trkpt lat="37.05982" lon="-119.57694" />
      <trkpt lat="37.05989" lon="-119.57632" />
      <trkpt lat="37.05996" lon="-119.57616" />
      <trkpt lat="37.06007" lon="-119.576" />
      <trkpt lat="37.06016" lon="-119.57583" />
      <trkpt lat="37.06018" lon="-119.57567" />
      <trkpt lat="37.06018" lon="-119.57542" />
      <trkpt lat="37.0602" lon="-119.57528" />
      <trkpt lat="37.06031" lon="-119.57513" />
      <trkpt lat="37.06034" lon="-119.57511" />
      <trkpt lat="37.06053" lon="-119.57507" />
      <trkpt lat="37.06062" lon="-119.57501" />
      <trkpt lat="37.06077" lon="-119.57473" />
      <trkpt lat="37.06085" lon="-119.57464" />
      <trkpt lat="37.06094" lon="-119.57459" />
      <trkpt lat="37.06107" lon="-119.57454" />
      <trkpt lat="37.06133" lon="-119.57455" />
      <trkpt lat="37.06152" lon="-119.57439" />
      <trkpt lat="37.06161" lon="-119.57429" />
      <trkpt lat="37.06173" lon="-119.5741" />
      <trkpt lat="37.06176" lon="-119.57402" />
      <trkpt lat="37.06194" lon="-119.57369" />
      <trkpt lat="37.06194" lon="-119.57362" />
      <trkpt lat="37.06192" lon="-119.57356" />
      <trkpt lat="37.06175" lon="-119.57314" />
      <trkpt lat="37.06174" lon="-119.57301" />
      <trkpt lat="37.06168" lon="-119.57283" />
      <trkpt lat="37.06169" lon="-119.57267" />
      <trkpt lat="37.06178" lon="-119.57236" />
      <trkpt lat="37.06187" lon="-119.57222" />
      <trkpt lat="37.06193" lon="-119.57218" />
      <trkpt lat="37.06198" lon="-119.57211" />
      <trkpt lat="37.0621" lon="-119.57209" />
      <trkpt lat="37.06226" lon="-119.57216" />
      <trkpt lat="37.06233" lon="-119.57218" />
      <trkpt lat="37.0624" lon="-119.57215" />
      <trkpt lat="37.06248" lon="-119.57204" />
      <trkpt lat="37.06251" lon="-119.57195" />
      <trkpt lat="37.06251" lon="-119.57184" />
      <trkpt lat="37.06243" lon="-119.57176" />
      <trkpt lat="37.06234" lon="-119.57176" />
      <trkpt lat="37.06216" lon="-119.57181" />
      <trkpt lat="37.06211" lon="-119.57178" />
      <trkpt lat="37.06208" lon="-119.57173" />
      <trkpt lat="37.06208" lon="-119.57165" />
      <trkpt lat="37.06213" lon="-119.5715" />
      <trkpt lat="37.06214" lon="-119.57133" />
      <trkpt lat="37.06218" lon="-119.5712" />
      <trkpt lat="37.06235" lon="-119.57083" />
      <trkpt lat="37.06236" lon="-119.57066" />
      <trkpt lat="37.06231" lon="-119.57047" />
      <trkpt lat="37.06225" lon="-119.57034" />
      <trkpt lat="37.06217" lon="-119.57008" />
      <trkpt lat="37.06211" lon="-119.56999" />
      <trkpt lat="37.06208" lon="-119.56991" />
      <trkpt lat="37.06202" lon="-119.56971" />
      <trkpt lat="37.06197" lon="-119.56962" />
      <trkpt lat="37.0619" lon="-119.56956" />
      <trkpt lat="37.06184" lon="-119.5695" />
      <trkpt lat="37.06186" lon="-119.56933" />
      <trkpt lat="37.06178" lon="-119.56918" />
      <trkpt lat="37.06185" lon="-119.56883" />
      <trkpt lat="37.06184" lon="-119.5687" />
      <trkpt lat="37.06175" lon="-119.5685" />
      <trkpt lat="37.06172" lon="-119.56833" />
      <trkpt lat="37.0617" lon="-119.56798" />
      <trkpt lat="37.06179" lon="-119.56785" />
      <trkpt lat="37.06187" lon="-119.56769" />
      <trkpt lat="37.06187" lon="-119.56761" />
      <trkpt lat="37.0619" lon="-119.56754" />
      <trkpt lat="37.062" lon="-119.56756" />
      <trkpt lat="37.06215" lon="-119.56757" />
      <trkpt lat="37.06231" lon="-119.56764" />
      <trkpt lat="37.06244" lon="-119.56767" />
      <trkpt lat="37.06256" lon="-119.56768" />
      <trkpt lat="37.06269" lon="-119.56767" />
      <trkpt lat="37.06285" lon="-119.56749" />
      <trkpt lat="37.06297" lon="-119.56746" />
      <trkpt lat="37.06311" lon="-119.56735" />
      <trkpt lat="37.06323" lon="-119.5672" />
      <trkpt lat="37.06329" lon="-119.56715" />
      <trkpt lat="37.06339" lon="-119.56684" />
      <trkpt lat="37.0634" lon="-119.56669" />
      <trkpt lat="37.06339" lon="-119.56644" />
      <trkpt lat="37.06335" lon="-119.56634" />
      <trkpt lat="37.06326" lon="-119.56627" />
      <trkpt lat="37.06309" lon="-119.56626" />
      <trkpt lat="37.06303" lon="-119.5662" />
      <trkpt lat="37.06283" lon="-119.56608" />
      <trkpt lat="37.06278" lon="-119.56594" />
      <trkpt lat="37.06279" lon="-119.56586" />
      <trkpt lat="37.06277" lon="-119.5658" />
      <trkpt lat="37.06282" lon="-119.56572" />
      <trkpt lat="37.06285" lon="-119.56574" />
      <trkpt lat="37.06295" lon="-119.56567" />
      <trkpt lat="37.06298" lon="-119.56548" />
      <trkpt lat="37.06305" lon="-119.56543" />
      <trkpt lat="37.06311" lon="-119.56533" />
      <trkpt lat="37.06317" lon="-119.56504" />
      <trkpt lat="37.06323" lon="-119.56494" />
      <trkpt lat="37.06333" lon="-119.56481" />
      <trkpt lat="37.06337" lon="-119.56469" />
      <trkpt lat="37.06335" lon="-119.56463" />
      <trkpt lat="37.06323" lon="-119.56452" />
      <trkpt lat="37.06319" lon="-119.56445" />
      <trkpt lat="37.06317" lon="-119.56432" />
      <trkpt lat="37.06321" lon="-119.56422" />
      <trkpt lat="37.06327" lon="-119.56418" />
      <trkpt lat="37.06329" lon="-119.56412" />
      <trkpt lat="37.06327" lon="-119.56396" />
      <trkpt lat="37.06319" lon="-119.56365" />
      <trkpt lat="37.06308" lon="-119.56336" />
      <trkpt lat="37.063" lon="-119.56308" />
      <trkpt lat="37.06288" lon="-119.56282" />
      <trkpt lat="37.06281" lon="-119.56272" />
      <trkpt lat="37.06266" lon="-119.56218" />
      <trkpt lat="37.06266" lon="-119.56207" />
      <trkpt lat="37.06269" lon="-119.56202" />
      <trkpt lat="37.06264" lon="-119.56189" />
      <trkpt lat="37.06256" lon="-119.56179" />
      <trkpt lat="37.06257" lon="-119.56163" />
      <trkpt lat="37.06271" lon="-119.56139" />
      <trkpt lat="37.0628" lon="-119.56139" />
      <trkpt lat="37.06293" lon="-119.56136" />
      <trkpt lat="37.06299" lon="-119.56132" />
      <trkpt lat="37.06309" lon="-119.56113" />
      <trkpt lat="37.06321" lon="-119.56073" />
      <trkpt lat="37.0632" lon="-119.56069" />
      <trkpt lat="37.06324" lon="-119.56066" />
      <trkpt lat="37.06333" lon="-119.56063" />
      <trkpt lat="37.06338" lon="-119.56056" />
      <trkpt lat="37.06339" lon="-119.56051" />
      <trkpt lat="37.06347" lon="-119.56045" />
      <trkpt lat="37.06348" lon="-119.56031" />
      <trkpt lat="37.06352" lon="-119.56019" />
      <trkpt lat="37.06354" lon="-119.56017" />
      <trkpt lat="37.0636" lon="-119.56017" />
      <trkpt lat="37.06374" lon="-119.56022" />
      <trkpt lat="37.0638" lon="-119.56019" />
      <trkpt lat="37.06388" lon="-119.56002" />
      <trkpt lat="37.06404" lon="-119.56" />
      <trkpt lat="37.06411" lon="-119.55992" />
      <trkpt lat="37.06415" lon="-119.5597" />
      <trkpt lat="37.06413" lon="-119.5595" />
      <trkpt lat="37.06414" lon="-119.5594" />
      <trkpt lat="37.06426" lon="-119.55937" />
      <trkpt lat="37.06437" lon="-119.55932" />
      <trkpt lat="37.06447" lon="-119.55909" />
      <trkpt lat="37.06451" lon="-119.55893" />
      <trkpt lat="37.06453" lon="-119.55892" />
      <trkpt lat="37.06458" lon="-119.55894" />
      <trkpt lat="37.06468" lon="-119.55894" />
      <trkpt lat="37.06474" lon="-119.5589" />
      <trkpt lat="37.0648" lon="-119.55877" />
      <trkpt lat="37.06481" lon="-119.55851" />
      <trkpt lat="37.06486" lon="-119.55846" />
      <trkpt lat="37.06495" lon="-119.55846" />
      <trkpt lat="37.06512" lon="-119.55858" />
      <trkpt lat="37.0652" lon="-119.55859" />
      <trkpt lat="37.06527" lon="-119.55858" />
      <trkpt lat="37.06536" lon="-119.55853" />
      <trkpt lat="37.06547" lon="-119.5585" />
      <trkpt lat="37.06553" lon="-119.55844" />
      <trkpt lat="37.06562" lon="-119.55851" />
      <trkpt lat="37.06576" lon="-119.55856" />
      <trkpt lat="37.06584" lon="-119.55852" />
      <trkpt lat="37.06591" lon="-119.55843" />
      <trkpt lat="37.06601" lon="-119.55839" />
      <trkpt lat="37.06609" lon="-119.55827" />
      <trkpt lat="37.06615" lon="-119.55821" />
      <trkpt lat="37.06618" lon="-119.55808" />
      <trkpt lat="37.06621" lon="-119.55806" />
      <trkpt lat="37.06626" lon="-119.55786" />
      <trkpt lat="37.0663" lon="-119.55779" />
      <trkpt lat="37.06633" lon="-119.55765" />
      <trkpt lat="37.06635" lon="-119.55752" />
      <trkpt lat="37.06651" lon="-119.55735" />
      <trkpt lat="37.06653" lon="-119.55728" />
      <trkpt lat="37.06659" lon="-119.55669" />
      <trkpt lat="37.06661" lon="-119.55663" />
      <trkpt lat="37.06669" lon="-119.55661" />
      <trkpt lat="37.06686" lon="-119.55678" />
      <trkpt lat="37.06689" lon="-119.55678" />
      <trkpt lat="37.06699" lon="-119.55672" />
      <trkpt lat="37.06704" lon="-119.55668" />
      <trkpt lat="37.06713" lon="-119.55652" />
      <trkpt lat="37.06719" lon="-119.55638" />
      <trkpt lat="37.06724" lon="-119.55617" />
      <trkpt lat="37.06734" lon="-119.556" />
      <trkpt lat="37.06739" lon="-119.55595" />
      <trkpt lat="37.06742" lon="-119.5559" />
      <trkpt lat="37.06748" lon="-119.5559" />
      <trkpt lat="37.06764" lon="-119.55576" />
      <trkpt lat="37.06768" lon="-119.5557" />
      <trkpt lat="37.06772" lon="-119.55568" />
      <trkpt lat="37.06777" lon="-119.55579" />
      <trkpt lat="37.06784" lon="-119.55582" />
      <trkpt lat="37.0679" lon="-119.55582" />
      <trkpt lat="37.06805" lon="-119.55576" />
      <trkpt lat="37.06812" lon="-119.55569" />
      <trkpt lat="37.06817" lon="-119.55567" />
      <trkpt lat="37.06828" lon="-119.55579" />
      <trkpt lat="37.06832" lon="-119.55581" />
      <trkpt lat="37.06837" lon="-119.55581" />
      <trkpt lat="37.06841" lon="-119.55578" />
      <trkpt lat="37.06857" lon="-119.55578" />
      <trkpt lat="37.0688" lon="-119.55574" />
      <trkpt lat="37.06886" lon="-119.55575" />
      <trkpt lat="37.06897" lon="-119.55581" />
      <trkpt lat="37.06907" lon="-119.55581" />
      <trkpt lat="37.06912" lon="-119.55578" />
      <trkpt lat="37.06918" lon="-119.55577" />
      <trkpt lat="37.06927" lon="-119.55577" />
      <trkpt lat="37.06936" lon="-119.55565" />
      <trkpt lat="37.06947" lon="-119.55565" />
      <trkpt lat="37.06956" lon="-119.55559" />
      <trkpt lat="37.06971" lon="-119.55557" />
      <trkpt lat="37.06984" lon="-119.5554" />
      <trkpt lat="37.06991" lon="-119.55528" />
      <trkpt lat="37.06999" lon="-119.55529" />
      <trkpt lat="37.07011" lon="-119.55542" />
      <trkpt lat="37.07021" lon="-119.55545" />
      <trkpt lat="37.07033" lon="-119.55552" />
      <trkpt lat="37.07041" lon="-119.55554" />
      <trkpt lat="37.07054" lon="-119.55552" />
      <trkpt lat="37.0706" lon="-119.55544" />
      <trkpt lat="37.07066" lon="-119.55527" />
      <trkpt lat="37.07069" lon="-119.55513" />
      <trkpt lat="37.07068" lon="-119.55508" />
      <trkpt lat="37.07072" lon="-119.55501" />
      <trkpt lat="37.07075" lon="-119.55488" />
      <trkpt lat="37.07075" lon="-119.55482" />
      <trkpt lat="37.0708" lon="-119.55475" />
      <trkpt lat="37.07084" lon="-119.55473" />
      <trkpt lat="37.07084" lon="-119.55469" />
      <trkpt lat="37.07087" lon="-119.55465" />
      <trkpt lat="37.07108" lon="-119.55466" />
      <trkpt lat="37.07117" lon="-119.55447" />
      <trkpt lat="37.07123" lon="-119.55449" />
      <trkpt lat="37.07127" lon="-119.55448" />
      <trkpt lat="37.07132" lon="-119.55445" />
      <trkpt lat="37.07133" lon="-119.5544" />
      <trkpt lat="37.07137" lon="-119.55435" />
      <trkpt lat="37.07143" lon="-119.55432" />
      <trkpt lat="37.07146" lon="-119.55443" />
      <trkpt lat="37.07157" lon="-119.5545" />
      <trkpt lat="37.07169" lon="-119.55462" />
      <trkpt lat="37.07178" lon="-119.55457" />
      <trkpt lat="37.0718" lon="-119.55458" />
      <trkpt lat="37.07191" lon="-119.55437" />
      <trkpt lat="37.072" lon="-119.55428" />
      <trkpt lat="37.07208" lon="-119.55416" />
      <trkpt lat="37.07215" lon="-119.55413" />
      <trkpt lat="37.07221" lon="-119.55406" />
      <trkpt lat="37.07222" lon="-119.55397" />
      <trkpt lat="37.0722" lon="-119.55385" />
      <trkpt lat="37.07222" lon="-119.55382" />
      <trkpt lat="37.07226" lon="-119.55386" />
      <trkpt lat="37.07236" lon="-119.55398" />
      <trkpt lat="37.07242" lon="-119.55409" />
      <trkpt lat="37.07254" lon="-119.55417" />
      <trkpt lat="37.07256" lon="-119.5542" />
      <trkpt lat="37.07257" lon="-119.55435" />
      <trkpt lat="37.07254" lon="-119.55444" />
      <trkpt lat="37.07254" lon="-119.55452" />
      <trkpt lat="37.07257" lon="-119.55458" />
      <trkpt lat="37.07266" lon="-119.5547" />
      <trkpt lat="37.07282" lon="-119.55475" />
      <trkpt lat="37.07292" lon="-119.55466" />
      <trkpt lat="37.07306" lon="-119.55437" />
      <trkpt lat="37.07311" lon="-119.55431" />
      <trkpt lat="37.07328" lon="-119.55423" />
      <trkpt lat="37.07338" lon="-119.55421" />
      <trkpt lat="37.07353" lon="-119.55423" />
      <trkpt lat="37.07364" lon="-119.55427" />
      <trkpt lat="37.07369" lon="-119.55431" />
      <trkpt lat="37.07381" lon="-119.55435" />
      <trkpt lat="37.07392" lon="-119.55445" />
      <trkpt lat="37.0741" lon="-119.55447" />
      <trkpt lat="37.07432" lon="-119.55408" />
      <trkpt lat="37.07443" lon="-119.55366" />
      <trkpt lat="37.07449" lon="-119.55365" />
      <trkpt lat="37.07478" lon="-119.55377" />
      <trkpt lat="37.07509" lon="-119.55372" />
      <trkpt lat="37.07521" lon="-119.55367" />
      <trkpt lat="37.07526" lon="-119.55355" />
      <trkpt lat="37.07522" lon="-119.55334" />
      <trkpt lat="37.07512" lon="-119.5532" />
      <trkpt lat="37.07508" lon="-119.55308" />
      <trkpt lat="37.07509" lon="-119.553" />
      <trkpt lat="37.07513" lon="-119.55299" />
      <trkpt lat="37.0755" lon="-119.55282" />
      <trkpt lat="37.07561" lon="-119.55268" />
      <trkpt lat="37.07563" lon="-119.55262" />
      <trkpt lat="37.0756" lon="-119.55244" />
      <trkpt lat="37.07562" lon="-119.55242" />
      <trkpt lat="37.0757" lon="-119.55247" />
      <trkpt lat="37.07579" lon="-119.55244" />
      <trkpt lat="37.07586" lon="-119.55231" />
      <trkpt lat="37.07598" lon="-119.55216" />
      <trkpt lat="37.07607" lon="-119.55209" />
      <trkpt lat="37.07616" lon="-119.55205" />
      <trkpt lat="37.07632" lon="-119.55192" />
      <trkpt lat="37.07645" lon="-119.55185" />
      <trkpt lat="37.0765" lon="-119.55186" />
      <trkpt lat="37.07661" lon="-119.5521" />
      <trkpt lat="37.0767" lon="-119.55224" />
      <trkpt lat="37.07678" lon="-119.55231" />
      <trkpt lat="37.07685" lon="-119.55235" />
      <trkpt lat="37.07704" lon="-119.55233" />
      <trkpt lat="37.07711" lon="-119.55228" />
      <trkpt lat="37.07728" lon="-119.55223" />
      <trkpt lat="37.07735" lon="-119.55216" />
      <trkpt lat="37.07739" lon="-119.55216" />
      <trkpt lat="37.07775" lon="-119.55225" />
      <trkpt lat="37.07796" lon="-119.55228" />
      <trkpt lat="37.07803" lon="-119.55226" />
      <trkpt lat="37.07819" lon="-119.55229" />
      <trkpt lat="37.07831" lon="-119.55218" />
      <trkpt lat="37.07841" lon="-119.55201" />
      <trkpt lat="37.07845" lon="-119.552" />
      <trkpt lat="37.0786" lon="-119.55201" />
      <trkpt lat="37.07861" lon="-119.55199" />
      <trkpt lat="37.07884" lon="-119.55196" />
      <trkpt lat="37.07897" lon="-119.55203" />
      <trkpt lat="37.07909" lon="-119.55203" />
      <trkpt lat="37.07919" lon="-119.55201" />
      <trkpt lat="37.07932" lon="-119.55192" />
      <trkpt lat="37.07944" lon="-119.55194" />
      <trkpt lat="37.07969" lon="-119.55212" />
      <trkpt lat="37.0799" lon="-119.55216" />
      <trkpt lat="37.08005" lon="-119.55216" />
      <trkpt lat="37.08046" lon="-119.55201" />
      <trkpt lat="37.08073" lon="-119.55195" />
      <trkpt lat="37.08083" lon="-119.55196" />
      <trkpt lat="37.08087" lon="-119.55201" />
      <trkpt lat="37.08091" lon="-119.55202" />
      <trkpt lat="37.08097" lon="-119.55201" />
      <trkpt lat="37.08111" lon="-119.55202" />
      <trkpt lat="37.08129" lon="-119.5521" />
      <trkpt lat="37.0814" lon="-119.55211" />
      <trkpt lat="37.08155" lon="-119.55226" />
      <trkpt lat="37.08157" lon="-119.5524" />
      <trkpt lat="37.08161" lon="-119.55247" />
      <trkpt lat="37.08162" lon="-119.55264" />
      <trkpt lat="37.08164" lon="-119.55277" />
      <trkpt lat="37.08172" lon="-119.55296" />
      <trkpt lat="37.08178" lon="-119.55327" />
      <trkpt lat="37.08181" lon="-119.55349" />
      <trkpt lat="37.08198" lon="-119.5542" />
      <trkpt lat="37.08206" lon="-119.55425" />
      <trkpt lat="37.08207" lon="-119.55425" />
      <trkpt lat="37.08232" lon="-119.55404" />
      <trkpt lat="37.08252" lon="-119.55382" />
      <trkpt lat="37.08264" lon="-119.55375" />
      <trkpt lat="37.08274" lon="-119.55379" />
      <trkpt lat="37.08296" lon="-119.55413" />
      <trkpt lat="37.08294" lon="-119.55425" />
      <trkpt lat="37.08294" lon="-119.55446" />
      <trkpt lat="37.08305" lon="-119.55508" />
      <trkpt lat="37.08328" lon="-119.55542" />
      <trkpt lat="37.08333" lon="-119.55547" />
      <trkpt lat="37.0834" lon="-119.55551" />
      <trkpt lat="37.0835" lon="-119.55549" />
      <trkpt lat="37.08357" lon="-119.55552" />
      <trkpt lat="37.08366" lon="-119.55575" />
      <trkpt lat="37.08382" lon="-119.55596" />
      <trkpt lat="37.08405" lon="-119.55604" />
      <trkpt lat="37.08428" lon="-119.5562" />
      <trkpt lat="37.08453" lon="-119.55645" />
      <trkpt lat="37.0846" lon="-119.55654" />
      <trkpt lat="37.08468" lon="-119.55668" />
      <trkpt lat="37.08476" lon="-119.5567" />
      <trkpt lat="37.08479" lon="-119.55669" />
      <trkpt lat="37.08487" lon="-119.55664" />
      <trkpt lat="37.08495" lon="-119.55648" />
      <trkpt lat="37.085" lon="-119.55647" />
      <trkpt lat="37.08506" lon="-119.55656" />
      <trkpt lat="37.08519" lon="-119.55666" />
      <trkpt lat="37.08526" lon="-119.55668" />
      <trkpt lat="37.08532" lon="-119.55666" />
      <trkpt lat="37.08534" lon="-119.55663" />
      <trkpt lat="37.08539" lon="-119.55658" />
      <trkpt lat="37.08546" lon="-119.55656" />
      <trkpt lat="37.08551" lon="-119.55659" />
      <trkpt lat="37.0857" lon="-119.55657" />
      <trkpt lat="37.08573" lon="-119.55664" />
      <trkpt lat="37.08568" lon="-119.55667" />
      <trkpt lat="37.08554" lon="-119.55687" />
      <trkpt lat="37.08544" lon="-119.5571" />
      <trkpt lat="37.08543" lon="-119.55726" />
      <trkpt lat="37.0855" lon="-119.55741" />
      <trkpt lat="37.08561" lon="-119.55745" />
      <trkpt lat="37.08587" lon="-119.55738" />
      <trkpt lat="37.08593" lon="-119.55741" />
      <trkpt lat="37.086" lon="-119.55748" />
      <trkpt lat="37.0861" lon="-119.55751" />
      <trkpt lat="37.08617" lon="-119.5575" />
      <trkpt lat="37.08627" lon="-119.55746" />
      <trkpt lat="37.08642" lon="-119.55732" />
      <trkpt lat="37.08648" lon="-119.55723" />
      <trkpt lat="37.08667" lon="-119.55713" />
      <trkpt lat="37.08671" lon="-119.55722" />
      <trkpt lat="37.0867" lon="-119.5574" />
      <trkpt lat="37.08683" lon="-119.55774" />
      <trkpt lat="37.08687" lon="-119.5578" />
      <trkpt lat="37.08709" lon="-119.55788" />
      <trkpt lat="37.08716" lon="-119.55788" />
      <trkpt lat="37.08732" lon="-119.55777" />
      <trkpt lat="37.08752" lon="-119.55755" />
      <trkpt lat="37.08769" lon="-119.55747" />
      <trkpt lat="37.08785" lon="-119.55721" />
      <trkpt lat="37.08809" lon="-119.55712" />
      <trkpt lat="37.08811" lon="-119.5571" />
      <trkpt lat="37.08817" lon="-119.55707" />
      <trkpt lat="37.08826" lon="-119.55708" />
      <trkpt lat="37.08832" lon="-119.55707" />
      <trkpt lat="37.08841" lon="-119.55696" />
      <trkpt lat="37.08845" lon="-119.55682" />
      <trkpt lat="37.08852" lon="-119.5567" />
      <trkpt lat="37.08866" lon="-119.55659" />
      <trkpt lat="37.08871" lon="-119.55649" />
      <trkpt lat="37.08872" lon="-119.55641" />
      <trkpt lat="37.08868" lon="-119.55626" />
      <trkpt lat="37.08861" lon="-119.5561" />
      <trkpt lat="37.08861" lon="-119.556" />
      <trkpt lat="37.08864" lon="-119.55594" />
      <trkpt lat="37.08866" lon="-119.55593" />
      <trkpt lat="37.08874" lon="-119.55597" />
      <trkpt lat="37.08885" lon="-119.556" />
      <trkpt lat="37.08891" lon="-119.55598" />
      <trkpt lat="37.08895" lon="-119.55596" />
      <trkpt lat="37.08925" lon="-119.55568" />
      <trkpt lat="37.08932" lon="-119.55564" />
      <trkpt lat="37.08938" lon="-119.55567" />
      <trkpt lat="37.08952" lon="-119.5559" />
      <trkpt lat="37.08958" lon="-119.55593" />
      <trkpt lat="37.0897" lon="-119.55592" />
      <trkpt lat="37.08977" lon="-119.5559" />
      <trkpt lat="37.08993" lon="-119.5558" />
      <trkpt lat="37.09" lon="-119.55564" />
      <trkpt lat="37.0901" lon="-119.55552" />
      <trkpt lat="37.09034" lon="-119.55539" />
      <trkpt lat="37.09069" lon="-119.55511" />
      <trkpt lat="37.09082" lon="-119.55495" />
      <trkpt lat="37.09093" lon="-119.55473" />
      <trkpt lat="37.09095" lon="-119.5547" />
      <trkpt lat="37.09112" lon="-119.55465" />
      <trkpt lat="37.09114" lon="-119.55466" />
      <trkpt lat="37.09116" lon="-119.55468" />
      <trkpt lat="37.09115" lon="-119.55471" />
      <trkpt lat="37.09103" lon="-119.5548" />
      <trkpt lat="37.09103" lon="-119.55489" />
      <trkpt lat="37.09096" lon="-119.55499" />
      <trkpt lat="37.09096" lon="-119.555" />
      <trkpt lat="37.09097" lon="-119.55501" />
      <trkpt lat="37.09107" lon="-119.555" />
      <trkpt lat="37.09114" lon="-119.55491" />
      <trkpt lat="37.0913" lon="-119.55482" />
      <trkpt lat="37.09133" lon="-119.55477" />
      <trkpt lat="37.09145" lon="-119.55468" />
      <trkpt lat="37.09151" lon="-119.55459" />
      <trkpt lat="37.09159" lon="-119.55457" />
      <trkpt lat="37.09194" lon="-119.55481" />
      <trkpt lat="37.092" lon="-119.55487" />
      <trkpt lat="37.092" lon="-119.55501" />
      <trkpt lat="37.09203" lon="-119.55503" />
      <trkpt lat="37.09214" lon="-119.55505" />
      <trkpt lat="37.09218" lon="-119.55504" />
      <trkpt lat="37.0924" lon="-119.5549" />
      <trkpt lat="37.09244" lon="-119.55481" />
      <trkpt lat="37.09249" lon="-119.55465" />
      <trkpt lat="37.09252" lon="-119.55442" />
      <trkpt lat="37.09257" lon="-119.55432" />
      <trkpt lat="37.09263" lon="-119.55429" />
      <trkpt lat="37.09271" lon="-119.55415" />
      <trkpt lat="37.09296" lon="-119.55402" />
      <trkpt lat="37.09304" lon="-119.55394" />
      <trkpt lat="37.09314" lon="-119.55392" />
      <trkpt lat="37.09319" lon="-119.55389" />
      <trkpt lat="37.09328" lon="-119.5537" />
      <trkpt lat="37.0933" lon="-119.55351" />
      <trkpt lat="37.09336" lon="-119.55344" />
      <trkpt lat="37.09342" lon="-119.55332" />
      <trkpt lat="37.09355" lon="-119.55322" />
      <trkpt lat="37.09365" lon="-119.55317" />
      <trkpt lat="37.09372" lon="-119.55308" />
      <trkpt lat="37.09379" lon="-119.55303" />
      <trkpt lat="37.09393" lon="-119.55298" />
      <trkpt lat="37.09398" lon="-119.55297" />
      <trkpt lat="37.09411" lon="-119.55303" />
      <trkpt lat="37.0942" lon="-119.55295" />
      <trkpt lat="37.09425" lon="-119.55294" />
      <trkpt lat="37.09446" lon="-119.55307" />
      <trkpt lat="37.09457" lon="-119.5533" />
      <trkpt lat="37.09464" lon="-119.55339" />
      <trkpt lat="37.0947" lon="-119.55352" />
      <trkpt lat="37.09478" lon="-119.55352" />
      <trkpt lat="37.09482" lon="-119.55351" />
      <trkpt lat="37.09489" lon="-119.55342" />
      <trkpt lat="37.09514" lon="-119.55334" />
      <trkpt lat="37.09519" lon="-119.55328" />
      <trkpt lat="37.0952" lon="-119.55317" />
      <trkpt lat="37.09523" lon="-119.55312" />
      <trkpt lat="37.09534" lon="-119.55304" />
      <trkpt lat="37.09546" lon="-119.55304" />
      <trkpt lat="37.09559" lon="-119.55308" />
      <trkpt lat="37.09572" lon="-119.55308" />
      <trkpt lat="37.09597" lon="-119.55299" />
      <trkpt lat="37.09599" lon="-119.55287" />
      <trkpt lat="37.09596" lon="-119.55274" />
      <trkpt lat="37.09579" lon="-119.5526" />
      <trkpt lat="37.09574" lon="-119.5525" />
      <trkpt lat="37.09577" lon="-119.55191" />
      <trkpt lat="37.09588" lon="-119.55174" />
      <trkpt lat="37.09595" lon="-119.55166" />
      <trkpt lat="37.09586" lon="-119.55146" />
      <trkpt lat="37.09584" lon="-119.55137" />
      <trkpt lat="37.09595" lon="-119.55125" />
      <trkpt lat="37.09593" lon="-119.55115" />
      <trkpt lat="37.09606" lon="-119.55103" />
      <trkpt lat="37.09605" lon="-119.55092" />
      <trkpt lat="37.09606" lon="-119.55084" />
      <trkpt lat="37.09627" lon="-119.5506" />
      <trkpt lat="37.09645" lon="-119.55053" />
      <trkpt lat="37.09674" lon="-119.55032" />
      <trkpt lat="37.09684" lon="-119.55032" />
      <trkpt lat="37.09706" lon="-119.55053" />
      <trkpt lat="37.0972" lon="-119.55053" />
      <trkpt lat="37.09775" lon="-119.55074" />
      <trkpt lat="37.09783" lon="-119.55079" />
      <trkpt lat="37.0979" lon="-119.55085" />
      <trkpt lat="37.09812" lon="-119.55113" />
      <trkpt lat="37.09818" lon="-119.55117" />
      <trkpt lat="37.09824" lon="-119.55118" />
      <trkpt lat="37.09832" lon="-119.55117" />
      <trkpt lat="37.09832" lon="-119.55098" />
      <trkpt lat="37.09834" lon="-119.55091" />
      <trkpt lat="37.09842" lon="-119.5508" />
      <trkpt lat="37.09845" lon="-119.55069" />
      <trkpt lat="37.09847" lon="-119.55054" />
      <trkpt lat="37.09849" lon="-119.55048" />
      <trkpt lat="37.09855" lon="-119.55045" />
      <trkpt lat="37.09875" lon="-119.55038" />
      <trkpt lat="37.09893" lon="-119.55019" />
      <trkpt lat="37.09902" lon="-119.55003" />
      <trkpt lat="37.09903" lon="-119.54999" />
      <trkpt lat="37.09897" lon="-119.54997" />
      <trkpt lat="37.09892" lon="-119.54998" />
      <trkpt lat="37.09888" lon="-119.54994" />
      <trkpt lat="37.09888" lon="-119.5499" />
      <trkpt lat="37.09893" lon="-119.54982" />
      <trkpt lat="37.0991" lon="-119.54966" />
      <trkpt lat="37.09921" lon="-119.54935" />
      <trkpt lat="37.0992" lon="-119.5493" />
      <trkpt lat="37.09906" lon="-119.54922" />
      <trkpt lat="37.09887" lon="-119.54892" />
      <trkpt lat="37.09885" lon="-119.54883" />
      <trkpt lat="37.09888" lon="-119.54872" />
      <trkpt lat="37.09896" lon="-119.54863" />
      <trkpt lat="37.09896" lon="-119.54859" />
      <trkpt lat="37.09896" lon="-119.54838" />
      <trkpt lat="37.0989" lon="-119.54835" />
      <trkpt lat="37.09882" lon="-119.54826" />
      <trkpt lat="37.0988" lon="-119.54816" />
      <trkpt lat="37.09873" lon="-119.548" />
      <trkpt lat="37.09873" lon="-119.54792" />
      <trkpt lat="37.09874" lon="-119.54778" />
      <trkpt lat="37.09878" lon="-119.5477" />
      <trkpt lat="37.0988" lon="-119.54763" />
      <trkpt lat="37.09884" lon="-119.54727" />
      <trkpt lat="37.09882" lon="-119.54718" />
      <trkpt lat="37.09883" lon="-119.54711" />
      <trkpt lat="37.09886" lon="-119.54696" />
      <trkpt lat="37.09891" lon="-119.54686" />
      <trkpt lat="37.09887" lon="-119.54672" />
      <trkpt lat="37.0989" lon="-119.54663" />
      <trkpt lat="37.09892" lon="-119.54641" />
      <trkpt lat="37.09897" lon="-119.54628" />
      <trkpt lat="37.09896" lon="-119.54609" />
      <trkpt lat="37.0991" lon="-119.54591" />
      <trkpt lat="37.09923" lon="-119.54579" />
      <trkpt lat="37.09923" lon="-119.54567" />
      <trkpt lat="37.09918" lon="-119.54557" />
      <trkpt lat="37.09915" lon="-119.54541" />
      <trkpt lat="37.09915" lon="-119.54536" />
      <trkpt lat="37.09925" lon="-119.54531" />
      <trkpt lat="37.0994" lon="-119.54529" />
      <trkpt lat="37.09943" lon="-119.54524" />
      <trkpt lat="37.09945" lon="-119.54509" />
      <trkpt lat="37.09961" lon="-119.54493" />
      <trkpt lat="37.09972" lon="-119.54474" />
      <trkpt lat="37.09986" lon="-119.5446" />
      <trkpt lat="37.09993" lon="-119.54438" />
      <trkpt lat="37.09991" lon="-119.54426" />
      <trkpt lat="37.10002" lon="-119.54406" />
      <trkpt lat="37.10005" lon="-119.5438" />
      <trkpt lat="37.10008" lon="-119.54374" />
      <trkpt lat="37.10019" lon="-119.54362" />
      <trkpt lat="37.10028" lon="-119.54361" />
      <trkpt lat="37.10035" lon="-119.54354" />
      <trkpt lat="37.10048" lon="-119.54322" />
      <trkpt lat="37.10063" lon="-119.54317" />
      <trkpt lat="37.10068" lon="-119.54309" />
      <trkpt lat="37.10075" lon="-119.54275" />
      <trkpt lat="37.10079" lon="-119.54267" />
      <trkpt lat="37.10089" lon="-119.54256" />
      <trkpt lat="37.10099" lon="-119.54262" />
      <trkpt lat="37.10107" lon="-119.54277" />
      <trkpt lat="37.10108" lon="-119.54283" />
      <trkpt lat="37.10113" lon="-119.54291" />
      <trkpt lat="37.10119" lon="-119.54298" />
      <trkpt lat="37.10125" lon="-119.54309" />
      <trkpt lat="37.10141" lon="-119.54341" />
      <trkpt lat="37.10154" lon="-119.54357" />
      <trkpt lat="37.10159" lon="-119.54387" />
      <trkpt lat="37.10162" lon="-119.54394" />
      <trkpt lat="37.10177" lon="-119.54404" />
      <trkpt lat="37.10182" lon="-119.54399" />
      <trkpt lat="37.10192" lon="-119.54398" />
      <trkpt lat="37.10205" lon="-119.54399" />
      <trkpt lat="37.1021" lon="-119.54402" />
      <trkpt lat="37.10226" lon="-119.54424" />
      <trkpt lat="37.10228" lon="-119.54425" />
      <trkpt lat="37.10233" lon="-119.54422" />
      <trkpt lat="37.1024" lon="-119.54413" />
      <trkpt lat="37.10242" lon="-119.54415" />
      <trkpt lat="37.10249" lon="-119.54427" />
      <trkpt lat="37.10252" lon="-119.54436" />
      <trkpt lat="37.10261" lon="-119.54446" />
      <trkpt lat="37.10277" lon="-119.54454" />
      <trkpt lat="37.10291" lon="-119.54464" />
      <trkpt lat="37.10305" lon="-119.5447" />
      <trkpt lat="37.10311" lon="-119.54457" />
      <trkpt lat="37.10317" lon="-119.54439" />
      <trkpt lat="37.10324" lon="-119.54426" />
      <trkpt lat="37.10327" lon="-119.54423" />
      <trkpt lat="37.10329" lon="-119.54427" />
      <trkpt lat="37.1033" lon="-119.5444" />
      <trkpt lat="37.10327" lon="-119.54467" />
      <trkpt lat="37.1032" lon="-119.54493" />
      <trkpt lat="37.10314" lon="-119.54502" />
      <trkpt lat="37.10298" lon="-119.54496" />
      <trkpt lat="37.1025" lon="-119.54487" />
      <trkpt lat="37.10246" lon="-119.54487" />
      <trkpt lat="37.10239" lon="-119.54495" />
      <trkpt lat="37.10227" lon="-119.54506" />
      <trkpt lat="37.10205" lon="-119.54519" />
      <trkpt lat="37.10198" lon="-119.54522" />
      <trkpt lat="37.10188" lon="-119.54515" />
      <trkpt lat="37.10174" lon="-119.54524" />
      <trkpt lat="37.10163" lon="-119.54527" />
      <trkpt lat="37.1016" lon="-119.54533" />
      <trkpt lat="37.10159" lon="-119.54547" />
      <trkpt lat="37.10161" lon="-119.54593" />
      <trkpt lat="37.1016" lon="-119.54604" />
      <trkpt lat="37.10157" lon="-119.54606" />
      <trkpt lat="37.10148" lon="-119.54607" />
      <trkpt lat="37.1013" lon="-119.54593" />
      <trkpt lat="37.10118" lon="-119.54589" />
      <trkpt lat="37.10089" lon="-119.54607" />
      <trkpt lat="37.1009" lon="-119.54613" />
      <trkpt lat="37.10108" lon="-119.54636" />
      <trkpt lat="37.10124" lon="-119.54653" />
      <trkpt lat="37.10141" lon="-119.54667" />
      <trkpt lat="37.10146" lon="-119.54668" />
      <trkpt lat="37.10156" lon="-119.54668" />
      <trkpt lat="37.10165" lon="-119.54666" />
      <trkpt lat="37.10171" lon="-119.54661" />
      <trkpt lat="37.10183" lon="-119.54647" />
      <trkpt lat="37.1019" lon="-119.54624" />
      <trkpt lat="37.10198" lon="-119.54613" />
      <trkpt lat="37.10227" lon="-119.5461" />
      <trkpt lat="37.10244" lon="-119.54599" />
      <trkpt lat="37.10297" lon="-119.54604" />
      <trkpt lat="37.10301" lon="-119.54606" />
      <trkpt lat="37.10318" lon="-119.5463" />
      <trkpt lat="37.10337" lon="-119.54648" />
      <trkpt lat="37.10348" lon="-119.54653" />
      <trkpt lat="37.10361" lon="-119.54652" />
      <trkpt lat="37.10365" lon="-119.54655" />
      <trkpt lat="37.10369" lon="-119.54654" />
      <trkpt lat="37.10375" lon="-119.54647" />
      <trkpt lat="37.10381" lon="-119.5463" />
      <trkpt lat="37.10385" lon="-119.54625" />
      <trkpt lat="37.10394" lon="-119.54618" />
      <trkpt lat="37.10395" lon="-119.54612" />
      <trkpt lat="37.10394" lon="-119.54593" />
      <trkpt lat="37.10404" lon="-119.54587" />
      <trkpt lat="37.10411" lon="-119.54585" />
      <trkpt lat="37.10423" lon="-119.54584" />
      <trkpt lat="37.10434" lon="-119.54587" />
      <trkpt lat="37.10454" lon="-119.54566" />
      <trkpt lat="37.1047" lon="-119.54557" />
      <trkpt lat="37.10474" lon="-119.54545" />
      <trkpt lat="37.10474" lon="-119.54536" />
      <trkpt lat="37.10477" lon="-119.54519" />
      <trkpt lat="37.1048" lon="-119.54516" />
      <trkpt lat="37.10482" lon="-119.54517" />
      <trkpt lat="37.10486" lon="-119.54545" />
      <trkpt lat="37.10497" lon="-119.54571" />
      <trkpt lat="37.105" lon="-119.54584" />
      <trkpt lat="37.10489" lon="-119.5461" />
      <trkpt lat="37.10483" lon="-119.54639" />
      <trkpt lat="37.10482" lon="-119.54653" />
      <trkpt lat="37.10473" lon="-119.54659" />
      <trkpt lat="37.10458" lon="-119.54704" />
      <trkpt lat="37.10443" lon="-119.54725" />
      <trkpt lat="37.10429" lon="-119.5474" />
      <trkpt lat="37.10422" lon="-119.54739" />
      <trkpt lat="37.10412" lon="-119.5474" />
      <trkpt lat="37.10405" lon="-119.54745" />
      <trkpt lat="37.10391" lon="-119.54766" />
      <trkpt lat="37.10383" lon="-119.54782" />
      <trkpt lat="37.10374" lon="-119.54789" />
      <trkpt lat="37.10367" lon="-119.5479" />
      <trkpt lat="37.10352" lon="-119.54786" />
      <trkpt lat="37.10346" lon="-119.54786" />
      <trkpt lat="37.10341" lon="-119.54787" />
      <trkpt lat="37.10339" lon="-119.54791" />
      <trkpt lat="37.10344" lon="-119.54799" />
      <trkpt lat="37.1037" lon="-119.54833" />
      <trkpt lat="37.10385" lon="-119.5486" />
      <trkpt lat="37.10389" lon="-119.54873" />
      <trkpt lat="37.10389" lon="-119.54895" />
      <trkpt lat="37.10395" lon="-119.54916" />
      <trkpt lat="37.10398" lon="-119.54917" />
      <trkpt lat="37.10401" lon="-119.54917" />
      <trkpt lat="37.10408" lon="-119.54911" />
      <trkpt lat="37.10416" lon="-119.54915" />
      <trkpt lat="37.10424" lon="-119.54917" />
      <trkpt lat="37.10455" lon="-119.54918" />
      <trkpt lat="37.10473" lon="-119.54921" />
      <trkpt lat="37.10487" lon="-119.54928" />
      <trkpt lat="37.10498" lon="-119.54944" />
      <trkpt lat="37.10494" lon="-119.54958" />
      <trkpt lat="37.10495" lon="-119.54977" />
      <trkpt lat="37.10506" lon="-119.55037" />
      <trkpt lat="37.10505" lon="-119.55049" />
      <trkpt lat="37.10499" lon="-119.55058" />
      <trkpt lat="37.10481" lon="-119.55065" />
      <trkpt lat="37.1047" lon="-119.55075" />
      <trkpt lat="37.10461" lon="-119.55096" />
      <trkpt lat="37.10454" lon="-119.55128" />
      <trkpt lat="37.10454" lon="-119.55159" />
      <trkpt lat="37.10474" lon="-119.55216" />
      <trkpt lat="37.10491" lon="-119.55254" />
      <trkpt lat="37.10504" lon="-119.5527" />
      <trkpt lat="37.1051" lon="-119.55285" />
      <trkpt lat="37.10509" lon="-119.55292" />
      <trkpt lat="37.10512" lon="-119.55314" />
      <trkpt lat="37.10521" lon="-119.55333" />
      <trkpt lat="37.10523" lon="-119.55346" />
      <trkpt lat="37.1051" lon="-119.55376" />
      <trkpt lat="37.10502" lon="-119.55428" />
      <trkpt lat="37.10502" lon="-119.55448" />
      <trkpt lat="37.10514" lon="-119.55496" />
      <trkpt lat="37.10519" lon="-119.5551" />
      <trkpt lat="37.10515" lon="-119.55536" />
      <trkpt lat="37.10517" lon="-119.55558" />
      <trkpt lat="37.10528" lon="-119.55575" />
      <trkpt lat="37.10552" lon="-119.55603" />
      <trkpt lat="37.10567" lon="-119.55616" />
      <trkpt lat="37.10577" lon="-119.55632" />
      <trkpt lat="37.10578" lon="-119.5564" />
      <trkpt lat="37.10576" lon="-119.55658" />
      <trkpt lat="37.1056" lon="-119.5569" />
      <trkpt lat="37.10547" lon="-119.55739" />
      <trkpt lat="37.10535" lon="-119.55755" />
      <trkpt lat="37.10518" lon="-119.55788" />
      <trkpt lat="37.10499" lon="-119.5581" />
      <trkpt lat="37.10476" lon="-119.55825" />
      <trkpt lat="37.10458" lon="-119.55839" />
      <trkpt lat="37.10444" lon="-119.55881" />
      <trkpt lat="37.10434" lon="-119.55903" />
      <trkpt lat="37.1043" lon="-119.55915" />
      <trkpt lat="37.10435" lon="-119.55933" />
      <trkpt lat="37.10434" lon="-119.55943" />
      <trkpt lat="37.10416" lon="-119.55966" />
      <trkpt lat="37.10407" lon="-119.55987" />
      <trkpt lat="37.10402" lon="-119.55997" />
      <trkpt lat="37.10395" lon="-119.56004" />
      <trkpt lat="37.1039" lon="-119.56019" />
      <trkpt lat="37.10392" lon="-119.5604" />
      <trkpt lat="37.10404" lon="-119.56073" />
      <trkpt lat="37.10405" lon="-119.56083" />
      <trkpt lat="37.10414" lon="-119.56099" />
      <trkpt lat="37.10429" lon="-119.56102" />
      <trkpt lat="37.10437" lon="-119.56101" />
      <trkpt lat="37.1045" lon="-119.56104" />
      <trkpt lat="37.10472" lon="-119.56099" />
      <trkpt lat="37.10475" lon="-119.56104" />
      <trkpt lat="37.10474" lon="-119.56108" />
      <trkpt lat="37.10452" lon="-119.56129" />
      <trkpt lat="37.10436" lon="-119.5613" />
      <trkpt lat="37.1043" lon="-119.56129" />
      <trkpt lat="37.10417" lon="-119.56132" />
      <trkpt lat="37.10399" lon="-119.56132" />
      <trkpt lat="37.10383" lon="-119.56128" />
      <trkpt lat="37.10371" lon="-119.56122" />
      <trkpt lat="37.1036" lon="-119.56114" />
      <trkpt lat="37.10344" lon="-119.561" />
      <trkpt lat="37.10331" lon="-119.56076" />
      <trkpt lat="37.10323" lon="-119.56057" />
      <trkpt lat="37.10309" lon="-119.56006" />
      <trkpt lat="37.10301" lon="-119.56002" />
      <trkpt lat="37.10288" lon="-119.55991" />
      <trkpt lat="37.10283" lon="-119.55991" />
      <trkpt lat="37.1027" lon="-119.55985" />
      <trkpt lat="37.10253" lon="-119.55987" />
      <trkpt lat="37.10251" lon="-119.55986" />
      <trkpt lat="37.10245" lon="-119.55977" />
      <trkpt lat="37.10238" lon="-119.55973" />
      <trkpt lat="37.10193" lon="-119.5597" />
      <trkpt lat="37.10186" lon="-119.55972" />
      <trkpt lat="37.10176" lon="-119.55971" />
      <trkpt lat="37.10151" lon="-119.55946" />
      <trkpt lat="37.10148" lon="-119.55946" />
      <trkpt lat="37.10137" lon="-119.55955" />
      <trkpt lat="37.10136" lon="-119.55964" />
      <trkpt lat="37.10138" lon="-119.55969" />
      <trkpt lat="37.10144" lon="-119.55977" />
      <trkpt lat="37.10156" lon="-119.55987" />
      <trkpt lat="37.10167" lon="-119.56006" />
      <trkpt lat="37.1018" lon="-119.56014" />
      <trkpt lat="37.10193" lon="-119.56017" />
      <trkpt lat="37.1021" lon="-119.56016" />
      <trkpt lat="37.10225" lon="-119.56012" />
      <trkpt lat="37.10237" lon="-119.56014" />
      <trkpt lat="37.10247" lon="-119.56022" />
      <trkpt lat="37.10257" lon="-119.56034" />
      <trkpt lat="37.10269" lon="-119.56045" />
      <trkpt lat="37.10271" lon="-119.56055" />
      <trkpt lat="37.10265" lon="-119.56067" />
      <trkpt lat="37.10255" lon="-119.56082" />
      <trkpt lat="37.10253" lon="-119.561" />
      <trkpt lat="37.10248" lon="-119.56112" />
      <trkpt lat="37.10256" lon="-119.56134" />
      <trkpt lat="37.10255" lon="-119.56154" />
      <trkpt lat="37.10265" lon="-119.56182" />
      <trkpt lat="37.10269" lon="-119.56205" />
      <trkpt lat="37.10268" lon="-119.56208" />
      <trkpt lat="37.10255" lon="-119.56212" />
      <trkpt lat="37.10239" lon="-119.5622" />
      <trkpt lat="37.10239" lon="-119.56223" />
      <trkpt lat="37.10243" lon="-119.56232" />
      <trkpt lat="37.10241" lon="-119.56243" />
      <trkpt lat="37.10226" lon="-119.56243" />
      <trkpt lat="37.10221" lon="-119.56247" />
      <trkpt lat="37.10215" lon="-119.5626" />
      <trkpt lat="37.10211" lon="-119.56259" />
      <trkpt lat="37.10205" lon="-119.56262" />
      <trkpt lat="37.10197" lon="-119.56274" />
      <trkpt lat="37.10176" lon="-119.56284" />
      <trkpt lat="37.10166" lon="-119.5629" />
      <trkpt lat="37.10158" lon="-119.56299" />
      <trkpt lat="37.10154" lon="-119.563" />
      <trkpt lat="37.10145" lon="-119.56316" />
      <trkpt lat="37.10145" lon="-119.56335" />
      <trkpt lat="37.10148" lon="-119.5634" />
      <trkpt lat="37.10147" lon="-119.56347" />
      <trkpt lat="37.10141" lon="-119.56351" />
      <trkpt lat="37.10143" lon="-119.5637" />
      <trkpt lat="37.1014" lon="-119.56372" />
      <trkpt lat="37.10134" lon="-119.5637" />
      <trkpt lat="37.10126" lon="-119.56361" />
      <trkpt lat="37.1009" lon="-119.56344" />
      <trkpt lat="37.10081" lon="-119.56343" />
      <trkpt lat="37.10068" lon="-119.56343" />
      <trkpt lat="37.10057" lon="-119.56345" />
      <trkpt lat="37.10049" lon="-119.56354" />
      <trkpt lat="37.10038" lon="-119.56361" />
      <trkpt lat="37.10034" lon="-119.56361" />
      <trkpt lat="37.10018" lon="-119.56357" />
      <trkpt lat="37.09989" lon="-119.56353" />
      <trkpt lat="37.09977" lon="-119.56348" />
      <trkpt lat="37.0997" lon="-119.56343" />
      <trkpt lat="37.09961" lon="-119.56332" />
      <trkpt lat="37.09957" lon="-119.56323" />
      <trkpt lat="37.09947" lon="-119.56311" />
      <trkpt lat="37.09934" lon="-119.563" />
      <trkpt lat="37.09925" lon="-119.56295" />
      <trkpt lat="37.09915" lon="-119.56294" />
      <trkpt lat="37.09883" lon="-119.56294" />
      <trkpt lat="37.09876" lon="-119.56294" />
      <trkpt lat="37.09861" lon="-119.56299" />
      <trkpt lat="37.09848" lon="-119.563" />
      <trkpt lat="37.09828" lon="-119.56287" />
      <trkpt lat="37.09818" lon="-119.56282" />
      <trkpt lat="37.09773" lon="-119.56277" />
      <trkpt lat="37.09762" lon="-119.5627" />
      <trkpt lat="37.09748" lon="-119.56259" />
      <trkpt lat="37.09744" lon="-119.56257" />
      <trkpt lat="37.09737" lon="-119.56259" />
      <trkpt lat="37.09734" lon="-119.56262" />
      <trkpt lat="37.09728" lon="-119.56276" />
      <trkpt lat="37.0972" lon="-119.5632" />
      <trkpt lat="37.09714" lon="-119.56337" />
      <trkpt lat="37.09706" lon="-119.56354" />
      <trkpt lat="37.09691" lon="-119.56373" />
      <trkpt lat="37.09675" lon="-119.56381" />
      <trkpt lat="37.09664" lon="-119.56383" />
      <trkpt lat="37.09642" lon="-119.56377" />
      <trkpt lat="37.0961" lon="-119.56373" />
      <trkpt lat="37.09597" lon="-119.56369" />
      <trkpt lat="37.09538" lon="-119.56389" />
      <trkpt lat="37.09529" lon="-119.56389" />
      <trkpt lat="37.0951" lon="-119.56386" />
      <trkpt lat="37.09498" lon="-119.56386" />
      <trkpt lat="37.09477" lon="-119.564" />
      <trkpt lat="37.09459" lon="-119.56414" />
      <trkpt lat="37.09451" lon="-119.56417" />
      <trkpt lat="37.09419" lon="-119.5642" />
      <trkpt lat="37.09403" lon="-119.56424" />
      <trkpt lat="37.09373" lon="-119.56424" />
      <trkpt lat="37.09363" lon="-119.56415" />
      <trkpt lat="37.09361" lon="-119.56404" />
      <trkpt lat="37.09362" lon="-119.56399" />
      <trkpt lat="37.09384" lon="-119.56372" />
      <trkpt lat="37.09385" lon="-119.56354" />
      <trkpt lat="37.09393" lon="-119.56346" />
      <trkpt lat="37.09398" lon="-119.56339" />
      <trkpt lat="37.09398" lon="-119.56305" />
      <trkpt lat="37.094" lon="-119.56297" />
      <trkpt lat="37.0941" lon="-119.56279" />
      <trkpt lat="37.09425" lon="-119.56265" />
      <trkpt lat="37.09426" lon="-119.56257" />
      <trkpt lat="37.09423" lon="-119.56255" />
      <trkpt lat="37.09415" lon="-119.56256" />
      <trkpt lat="37.09402" lon="-119.56261" />
      <trkpt lat="37.09389" lon="-119.56263" />
      <trkpt lat="37.09356" lon="-119.56282" />
      <trkpt lat="37.09338" lon="-119.56289" />
      <trkpt lat="37.09316" lon="-119.56302" />
      <trkpt lat="37.09305" lon="-119.5631" />
      <trkpt lat="37.09294" lon="-119.56315" />
      <trkpt lat="37.09272" lon="-119.56333" />
      <trkpt lat="37.09261" lon="-119.56346" />
      <trkpt lat="37.09248" lon="-119.56346" />
      <trkpt lat="37.09236" lon="-119.56323" />
      <trkpt lat="37.09234" lon="-119.5631" />
      <trkpt lat="37.09242" lon="-119.56299" />
      <trkpt lat="37.09253" lon="-119.56294" />
      <trkpt lat="37.09265" lon="-119.56293" />
      <trkpt lat="37.09271" lon="-119.56288" />
      <trkpt lat="37.09276" lon="-119.56269" />
      <trkpt lat="37.09274" lon="-119.56254" />
      <trkpt lat="37.09262" lon="-119.56232" />
      <trkpt lat="37.09257" lon="-119.56219" />
      <trkpt lat="37.09252" lon="-119.56193" />
      <trkpt lat="37.09259" lon="-119.56154" />
      <trkpt lat="37.09252" lon="-119.56105" />
      <trkpt lat="37.09248" lon="-119.5606" />
      <trkpt lat="37.09248" lon="-119.56039" />
      <trkpt lat="37.0925" lon="-119.56025" />
      <trkpt lat="37.09237" lon="-119.55958" />
      <trkpt lat="37.09237" lon="-119.55949" />
      <trkpt lat="37.09247" lon="-119.55939" />
      <trkpt lat="37.0926" lon="-119.55919" />
      <trkpt lat="37.0928" lon="-119.559" />
      <trkpt lat="37.093" lon="-119.5589" />
      <trkpt lat="37.09313" lon="-119.55885" />
      <trkpt lat="37.09328" lon="-119.55872" />
      <trkpt lat="37.09333" lon="-119.55857" />
      <trkpt lat="37.09333" lon="-119.55852" />
      <trkpt lat="37.09327" lon="-119.55843" />
      <trkpt lat="37.09313" lon="-119.55829" />
      <trkpt lat="37.09313" lon="-119.55824" />
      <trkpt lat="37.09314" lon="-119.5582" />
      <trkpt lat="37.0933" lon="-119.55804" />
      <trkpt lat="37.09357" lon="-119.55795" />
      <trkpt lat="37.09361" lon="-119.55792" />
      <trkpt lat="37.09365" lon="-119.55782" />
      <trkpt lat="37.0938" lon="-119.55761" />
      <trkpt lat="37.09393" lon="-119.55748" />
      <trkpt lat="37.09409" lon="-119.55717" />
      <trkpt lat="37.09437" lon="-119.55702" />
      <trkpt lat="37.09447" lon="-119.55691" />
      <trkpt lat="37.09452" lon="-119.55675" />
      <trkpt lat="37.09447" lon="-119.55654" />
      <trkpt lat="37.09446" lon="-119.55642" />
      <trkpt lat="37.09451" lon="-119.55635" />
      <trkpt lat="37.09481" lon="-119.55624" />
      <trkpt lat="37.09486" lon="-119.55618" />
      <trkpt lat="37.09483" lon="-119.55609" />
      <trkpt lat="37.09478" lon="-119.55603" />
      <trkpt lat="37.09476" lon="-119.55586" />
      <trkpt lat="37.09507" lon="-119.55562" />
      <trkpt lat="37.09511" lon="-119.55558" />
      <trkpt lat="37.09509" lon="-119.55552" />
      <trkpt lat="37.09495" lon="-119.55523" />
      <trkpt lat="37.09484" lon="-119.5552" />
      <trkpt lat="37.09457" lon="-119.55517" />
      <trkpt lat="37.0945" lon="-119.55515" />
      <trkpt lat="37.09444" lon="-119.55509" />
      <trkpt lat="37.09437" lon="-119.55499" />
      <trkpt lat="37.09426" lon="-119.55489" />
      <trkpt lat="37.09417" lon="-119.5547" />
      <trkpt lat="37.09413" lon="-119.55455" />
      <trkpt lat="37.09402" lon="-119.55449" />
      <trkpt lat="37.09388" lon="-119.55453" />
      <trkpt lat="37.09382" lon="-119.55456" />
      <trkpt lat="37.09378" lon="-119.55466" />
      <trkpt lat="37.09373" lon="-119.55468" />
      <trkpt lat="37.09368" lon="-119.55467" />
      <trkpt lat="37.09362" lon="-119.55465" />
      <trkpt lat="37.09354" lon="-119.55457" />
      <trkpt lat="37.09345" lon="-119.55442" />
      <trkpt lat="37.0934" lon="-119.55438" />
      <trkpt lat="37.09315" lon="-119.55439" />
      <trkpt lat="37.09303" lon="-119.55437" />
      <trkpt lat="37.09293" lon="-119.55433" />
      <trkpt lat="37.0929" lon="-119.55429" />
      <trkpt lat="37.0929" lon="-119.55425" />
      <trkpt lat="37.093" lon="-119.55411" />
      <trkpt lat="37.09302" lon="-119.55391" />
      <trkpt lat="37.09299" lon="-119.5539" />
      <trkpt lat="37.09289" lon="-119.554" />
      <trkpt lat="37.09281" lon="-119.55403" />
      <trkpt lat="37.09269" lon="-119.55411" />
      <trkpt lat="37.09265" lon="-119.55417" />
      <trkpt lat="37.09262" lon="-119.55427" />
      <trkpt lat="37.09252" lon="-119.55438" />
      <trkpt lat="37.09249" lon="-119.55464" />
      <trkpt lat="37.09243" lon="-119.55487" />
      <trkpt lat="37.09238" lon="-119.55492" />
      <trkpt lat="37.09231" lon="-119.55495" />
      <trkpt lat="37.09214" lon="-119.55505" />
      <trkpt lat="37.09206" lon="-119.55508" />
      <trkpt lat="37.092" lon="-119.55508" />
      <trkpt lat="37.09199" lon="-119.55504" />
      <trkpt lat="37.09202" lon="-119.555" />
      <trkpt lat="37.09203" lon="-119.55492" />
      <trkpt lat="37.092" lon="-119.55486" />
      <trkpt lat="37.09167" lon="-119.55462" />
      <trkpt lat="37.09192" lon="-119.55477" />
      <trkpt lat="37.09173" lon="-119.55463" />
      <trkpt lat="37.09163" lon="-119.55458" />
      <trkpt lat="37.09149" lon="-119.55467" />
      <trkpt lat="37.09135" lon="-119.55482" />
      <trkpt lat="37.09111" lon="-119.55493" />
      <trkpt lat="37.09104" lon="-119.55502" />
      <trkpt lat="37.09094" lon="-119.55504" />
      <trkpt lat="37.09093" lon="-119.55498" />
      <trkpt lat="37.09098" lon="-119.55495" />
      <trkpt lat="37.09101" lon="-119.55484" />
      <trkpt lat="37.09111" lon="-119.55467" />
      <trkpt lat="37.09102" lon="-119.55467" />
      <trkpt lat="37.0909" lon="-119.55475" />
      <trkpt lat="37.09082" lon="-119.55484" />
      <trkpt lat="37.09077" lon="-119.55499" />
      <trkpt lat="37.09048" lon="-119.55524" />
      <trkpt lat="37.09006" lon="-119.55546" />
      <trkpt lat="37.08996" lon="-119.55562" />
      <trkpt lat="37.08995" lon="-119.5557" />
      <trkpt lat="37.08988" lon="-119.55579" />
      <trkpt lat="37.08976" lon="-119.55586" />
      <trkpt lat="37.08961" lon="-119.5559" />
      <trkpt lat="37.08949" lon="-119.55588" />
      <trkpt lat="37.08939" lon="-119.55574" />
      <trkpt lat="37.0893" lon="-119.55565" />
      <trkpt lat="37.08923" lon="-119.55568" />
      <trkpt lat="37.08915" lon="-119.55574" />
      <trkpt lat="37.08897" lon="-119.55592" />
      <trkpt lat="37.08882" lon="-119.55603" />
      <trkpt lat="37.0887" lon="-119.55597" />
      <trkpt lat="37.08865" lon="-119.55592" />
      <trkpt lat="37.0886" lon="-119.55591" />
      <trkpt lat="37.08858" lon="-119.55594" />
      <trkpt lat="37.08855" lon="-119.55606" />
      <trkpt lat="37.08863" lon="-119.55626" />
      <trkpt lat="37.08864" lon="-119.55643" />
      <trkpt lat="37.08862" lon="-119.55648" />
      <trkpt lat="37.08853" lon="-119.55658" />
      <trkpt lat="37.08841" lon="-119.55666" />
      <trkpt lat="37.08838" lon="-119.55683" />
      <trkpt lat="37.08833" lon="-119.55697" />
      <trkpt lat="37.0883" lon="-119.55701" />
      <trkpt lat="37.08823" lon="-119.55705" />
      <trkpt lat="37.0881" lon="-119.55706" />
      <trkpt lat="37.088" lon="-119.55714" />
      <trkpt lat="37.08785" lon="-119.55719" />
      <trkpt lat="37.08776" lon="-119.55736" />
      <trkpt lat="37.08761" lon="-119.55751" />
      <trkpt lat="37.08755" lon="-119.55753" />
      <trkpt lat="37.08744" lon="-119.55763" />
      <trkpt lat="37.08732" lon="-119.55772" />
      <trkpt lat="37.08721" lon="-119.55777" />
      <trkpt lat="37.08717" lon="-119.55782" />
      <trkpt lat="37.08711" lon="-119.55784" />
      <trkpt lat="37.08686" lon="-119.55778" />
      <trkpt lat="37.0868" lon="-119.55771" />
      <trkpt lat="37.08667" lon="-119.5573" />
      <trkpt lat="37.08669" lon="-119.55711" />
      <trkpt lat="37.08663" lon="-119.55708" />
      <trkpt lat="37.08659" lon="-119.55713" />
      <trkpt lat="37.08649" lon="-119.55719" />
      <trkpt lat="37.08636" lon="-119.55738" />
      <trkpt lat="37.08629" lon="-119.55744" />
      <trkpt lat="37.08616" lon="-119.55751" />
      <trkpt lat="37.08607" lon="-119.55752" />
      <trkpt lat="37.086" lon="-119.5575" />
      <trkpt lat="37.08587" lon="-119.55738" />
      <trkpt lat="37.0856" lon="-119.55744" />
      <trkpt lat="37.08549" lon="-119.55737" />
      <trkpt lat="37.08545" lon="-119.55732" />
      <trkpt lat="37.08541" lon="-119.55718" />
      <trkpt lat="37.08542" lon="-119.55707" />
      <trkpt lat="37.08546" lon="-119.55698" />
      <trkpt lat="37.08562" lon="-119.55669" />
      <trkpt lat="37.08565" lon="-119.55659" />
      <trkpt lat="37.08562" lon="-119.55657" />
      <trkpt lat="37.0855" lon="-119.55659" />
      <trkpt lat="37.08539" lon="-119.55656" />
      <trkpt lat="37.0853" lon="-119.55666" />
      <trkpt lat="37.08521" lon="-119.55669" />
      <trkpt lat="37.08511" lon="-119.55664" />
      <trkpt lat="37.08499" lon="-119.55652" />
      <trkpt lat="37.08491" lon="-119.55648" />
      <trkpt lat="37.08484" lon="-119.55662" />
      <trkpt lat="37.08473" lon="-119.55669" />
      <trkpt lat="37.08466" lon="-119.5567" />
      <trkpt lat="37.08462" lon="-119.55669" />
      <trkpt lat="37.08451" lon="-119.55652" />
      <trkpt lat="37.08434" lon="-119.5563" />
      <trkpt lat="37.08407" lon="-119.5561" />
      <trkpt lat="37.08381" lon="-119.55598" />
      <trkpt lat="37.08376" lon="-119.55591" />
      <trkpt lat="37.08377" lon="-119.55587" />
      <trkpt lat="37.08365" lon="-119.55573" />
      <trkpt lat="37.08354" lon="-119.55549" />
      <trkpt lat="37.08352" lon="-119.55548" />
      <trkpt lat="37.08336" lon="-119.5555" />
      <trkpt lat="37.08332" lon="-119.55547" />
      <trkpt lat="37.08318" lon="-119.55531" />
      <trkpt lat="37.08305" lon="-119.55511" />
      <trkpt lat="37.08298" lon="-119.55493" />
      <trkpt lat="37.08292" lon="-119.55461" />
      <trkpt lat="37.08293" lon="-119.55431" />
      <trkpt lat="37.0829" lon="-119.55422" />
      <trkpt lat="37.08294" lon="-119.55419" />
      <trkpt lat="37.0829" lon="-119.55415" />
      <trkpt lat="37.0828" lon="-119.55393" />
      <trkpt lat="37.08269" lon="-119.55382" />
      <trkpt lat="37.08258" lon="-119.55379" />
      <trkpt lat="37.08241" lon="-119.55402" />
      <trkpt lat="37.08207" lon="-119.55429" />
      <trkpt lat="37.08205" lon="-119.5543" />
      <trkpt lat="37.08202" lon="-119.55428" />
      <trkpt lat="37.08196" lon="-119.55422" />
      <trkpt lat="37.08191" lon="-119.55396" />
      <trkpt lat="37.0818" lon="-119.55361" />
      <trkpt lat="37.08166" lon="-119.55299" />
      <trkpt lat="37.08153" lon="-119.55265" />
      <trkpt lat="37.08153" lon="-119.55247" />
      <trkpt lat="37.08145" lon="-119.55234" />
      <trkpt lat="37.08144" lon="-119.55225" />
      <trkpt lat="37.08133" lon="-119.55213" />
      <trkpt lat="37.08108" lon="-119.55205" />
      <trkpt lat="37.0809" lon="-119.55204" />
      <trkpt lat="37.08081" lon="-119.552" />
      <trkpt lat="37.08067" lon="-119.55198" />
      <trkpt lat="37.08043" lon="-119.55205" />
      <trkpt lat="37.08022" lon="-119.55217" />
      <trkpt lat="37.07994" lon="-119.55225" />
      <trkpt lat="37.07983" lon="-119.55225" />
      <trkpt lat="37.07969" lon="-119.55222" />
      <trkpt lat="37.07936" lon="-119.55199" />
      <trkpt lat="37.07913" lon="-119.55211" />
      <trkpt lat="37.07903" lon="-119.55212" />
      <trkpt lat="37.07897" lon="-119.55212" />
      <trkpt lat="37.07882" lon="-119.55206" />
      <trkpt lat="37.07873" lon="-119.55205" />
      <trkpt lat="37.07856" lon="-119.55209" />
      <trkpt lat="37.07837" lon="-119.55217" />
      <trkpt lat="37.07824" lon="-119.55231" />
      <trkpt lat="37.07816" lon="-119.55237" />
      <trkpt lat="37.07766" lon="-119.55234" />
      <trkpt lat="37.07736" lon="-119.55225" />
      <trkpt lat="37.07725" lon="-119.55228" />
      <trkpt lat="37.07703" lon="-119.55238" />
      <trkpt lat="37.07683" lon="-119.5524" />
      <trkpt lat="37.0767" lon="-119.55231" />
      <trkpt lat="37.07657" lon="-119.55214" />
      <trkpt lat="37.07649" lon="-119.55197" />
      <trkpt lat="37.07642" lon="-119.55193" />
      <trkpt lat="37.07635" lon="-119.55194" />
      <trkpt lat="37.07592" lon="-119.55231" />
      <trkpt lat="37.0758" lon="-119.55247" />
      <trkpt lat="37.07577" lon="-119.55254" />
      <trkpt lat="37.07572" lon="-119.55258" />
      <trkpt lat="37.07563" lon="-119.55255" />
      <trkpt lat="37.0756" lon="-119.55259" />
      <trkpt lat="37.07564" lon="-119.55271" />
      <trkpt lat="37.0756" lon="-119.55281" />
      <trkpt lat="37.0751" lon="-119.55311" />
      <trkpt lat="37.07508" lon="-119.5532" />
      <trkpt lat="37.07511" lon="-119.5533" />
      <trkpt lat="37.07521" lon="-119.55342" />
      <trkpt lat="37.07522" lon="-119.55348" />
      <trkpt lat="37.07519" lon="-119.55365" />
      <trkpt lat="37.07486" lon="-119.55383" />
      <trkpt lat="37.07473" lon="-119.55386" />
      <trkpt lat="37.07447" lon="-119.55375" />
      <trkpt lat="37.07442" lon="-119.55375" />
      <trkpt lat="37.07436" lon="-119.55383" />
      <trkpt lat="37.07435" lon="-119.55395" />
      <trkpt lat="37.07427" lon="-119.5542" />
      <trkpt lat="37.07416" lon="-119.55444" />
      <trkpt lat="37.07408" lon="-119.55455" />
      <trkpt lat="37.07391" lon="-119.55456" />
      <trkpt lat="37.07385" lon="-119.55454" />
      <trkpt lat="37.07381" lon="-119.55448" />
      <trkpt lat="37.07368" lon="-119.55442" />
      <trkpt lat="37.07341" lon="-119.55433" />
      <trkpt lat="37.07326" lon="-119.55429" />
      <trkpt lat="37.07302" lon="-119.5544" />
      <trkpt lat="37.07287" lon="-119.55473" />
      <trkpt lat="37.0728" lon="-119.55481" />
      <trkpt lat="37.07275" lon="-119.55482" />
      <trkpt lat="37.07255" lon="-119.5547" />
      <trkpt lat="37.07249" lon="-119.55459" />
      <trkpt lat="37.07247" lon="-119.55451" />
      <trkpt lat="37.07252" lon="-119.55439" />
      <trkpt lat="37.07254" lon="-119.55428" />
      <trkpt lat="37.07254" lon="-119.55424" />
      <trkpt lat="37.07251" lon="-119.55419" />
      <trkpt lat="37.07248" lon="-119.55419" />
      <trkpt lat="37.07239" lon="-119.55411" />
      <trkpt lat="37.07228" lon="-119.55398" />
      <trkpt lat="37.07216" lon="-119.5539" />
      <trkpt lat="37.07217" lon="-119.55409" />
      <trkpt lat="37.07211" lon="-119.55417" />
      <trkpt lat="37.07192" lon="-119.55434" />
      <trkpt lat="37.07172" lon="-119.55467" />
      <trkpt lat="37.07167" lon="-119.5547" />
      <trkpt lat="37.07163" lon="-119.55469" />
      <trkpt lat="37.07155" lon="-119.5546" />
      <trkpt lat="37.07144" lon="-119.55454" />
      <trkpt lat="37.07137" lon="-119.5544" />
      <trkpt lat="37.07124" lon="-119.55456" />
      <trkpt lat="37.07119" lon="-119.55458" />
      <trkpt lat="37.07114" lon="-119.55456" />
      <trkpt lat="37.07111" lon="-119.55465" />
      <trkpt lat="37.07106" lon="-119.55472" />
      <trkpt lat="37.071" lon="-119.55474" />
      <trkpt lat="37.07084" lon="-119.55475" />
      <trkpt lat="37.07081" lon="-119.55477" />
      <trkpt lat="37.07073" lon="-119.55491" />
      <trkpt lat="37.07069" lon="-119.55533" />
      <trkpt lat="37.07064" lon="-119.55555" />
      <trkpt lat="37.0706" lon="-119.55562" />
      <trkpt lat="37.07052" lon="-119.55566" />
      <trkpt lat="37.07037" lon="-119.55563" />
      <trkpt lat="37.07027" lon="-119.55556" />
      <trkpt lat="37.07016" lon="-119.5555" />
      <trkpt lat="37.07005" lon="-119.55538" />
      <trkpt lat="37.06996" lon="-119.55537" />
      <trkpt lat="37.0699" lon="-119.55545" />
      <trkpt lat="37.06979" lon="-119.55556" />
      <trkpt lat="37.06967" lon="-119.55557" />
      <trkpt lat="37.06935" lon="-119.55569" />
      <trkpt lat="37.06924" lon="-119.55582" />
      <trkpt lat="37.06915" lon="-119.55582" />
      <trkpt lat="37.06907" lon="-119.55587" />
      <trkpt lat="37.06891" lon="-119.55582" />
      <trkpt lat="37.06852" lon="-119.5558" />
      <trkpt lat="37.06842" lon="-119.55582" />
      <trkpt lat="37.06834" lon="-119.55582" />
      <trkpt lat="37.06821" lon="-119.55571" />
      <trkpt lat="37.06816" lon="-119.55574" />
      <trkpt lat="37.06811" lon="-119.55583" />
      <trkpt lat="37.06807" lon="-119.55586" />
      <trkpt lat="37.06789" lon="-119.55593" />
      <trkpt lat="37.06787" lon="-119.55593" />
      <trkpt lat="37.06783" lon="-119.5559" />
      <trkpt lat="37.0678" lon="-119.55585" />
      <trkpt lat="37.06773" lon="-119.55581" />
      <trkpt lat="37.06767" lon="-119.55588" />
      <trkpt lat="37.06757" lon="-119.55589" />
      <trkpt lat="37.06748" lon="-119.55598" />
      <trkpt lat="37.06735" lon="-119.55607" />
      <trkpt lat="37.06721" lon="-119.55628" />
      <trkpt lat="37.06718" lon="-119.55646" />
      <trkpt lat="37.06709" lon="-119.55669" />
      <trkpt lat="37.06697" lon="-119.55684" />
      <trkpt lat="37.06691" lon="-119.55686" />
      <trkpt lat="37.06688" lon="-119.55684" />
      <trkpt lat="37.06682" lon="-119.55675" />
      <trkpt lat="37.0667" lon="-119.55666" />
      <trkpt lat="37.06664" lon="-119.55668" />
      <trkpt lat="37.06659" lon="-119.55677" />
      <trkpt lat="37.06653" lon="-119.55705" />
      <trkpt lat="37.06654" lon="-119.55722" />
      <trkpt lat="37.06649" lon="-119.55737" />
      <trkpt lat="37.06635" lon="-119.55751" />
      <trkpt lat="37.06617" lon="-119.55784" />
      <trkpt lat="37.06613" lon="-119.55797" />
      <trkpt lat="37.0661" lon="-119.55819" />
      <trkpt lat="37.06605" lon="-119.55833" />
      <trkpt lat="37.06598" lon="-119.55846" />
      <trkpt lat="37.06574" lon="-119.55864" />
      <trkpt lat="37.06566" lon="-119.55862" />
      <trkpt lat="37.06556" lon="-119.55856" />
      <trkpt lat="37.06551" lon="-119.55856" />
      <trkpt lat="37.0654" lon="-119.55859" />
      <trkpt lat="37.06524" lon="-119.55868" />
      <trkpt lat="37.06512" lon="-119.55867" />
      <trkpt lat="37.065" lon="-119.55856" />
      <trkpt lat="37.06487" lon="-119.55856" />
      <trkpt lat="37.0648" lon="-119.55867" />
      <trkpt lat="37.06476" lon="-119.55891" />
      <trkpt lat="37.06468" lon="-119.55902" />
      <trkpt lat="37.06457" lon="-119.55901" />
      <trkpt lat="37.0645" lon="-119.55899" />
      <trkpt lat="37.06445" lon="-119.55901" />
      <trkpt lat="37.06434" lon="-119.55937" />
      <trkpt lat="37.06419" lon="-119.55946" />
      <trkpt lat="37.06408" lon="-119.5595" />
      <trkpt lat="37.06409" lon="-119.55967" />
      <trkpt lat="37.06411" lon="-119.5597" />
      <trkpt lat="37.06413" lon="-119.55978" />
      <trkpt lat="37.06411" lon="-119.55996" />
      <trkpt lat="37.06409" lon="-119.56" />
      <trkpt lat="37.06395" lon="-119.56009" />
      <trkpt lat="37.06385" lon="-119.56009" />
      <trkpt lat="37.0638" lon="-119.56011" />
      <trkpt lat="37.06373" lon="-119.56025" />
      <trkpt lat="37.06365" lon="-119.56029" />
      <trkpt lat="37.06356" lon="-119.56024" />
      <trkpt lat="37.0635" lon="-119.56025" />
      <trkpt lat="37.06342" lon="-119.56036" />
      <trkpt lat="37.06342" lon="-119.56043" />
      <trkpt lat="37.06337" lon="-119.56053" />
      <trkpt lat="37.06333" lon="-119.56057" />
      <trkpt lat="37.0633" lon="-119.56065" />
      <trkpt lat="37.06316" lon="-119.56074" />
      <trkpt lat="37.06317" lon="-119.56078" />
      <trkpt lat="37.06304" lon="-119.56124" />
      <trkpt lat="37.06299" lon="-119.56131" />
      <trkpt lat="37.06295" lon="-119.56143" />
      <trkpt lat="37.0628" lon="-119.56146" />
      <trkpt lat="37.06271" lon="-119.56146" />
      <trkpt lat="37.06268" lon="-119.56148" />
      <trkpt lat="37.06255" lon="-119.56168" />
      <trkpt lat="37.06253" lon="-119.56183" />
      <trkpt lat="37.06254" lon="-119.56186" />
      <trkpt lat="37.06253" lon="-119.56187" />
      <trkpt lat="37.06257" lon="-119.56185" />
      <trkpt lat="37.06255" lon="-119.56183" />
      <trkpt lat="37.06258" lon="-119.56183" />
      <trkpt lat="37.06255" lon="-119.56184" />
      <trkpt lat="37.06258" lon="-119.56187" />
      <trkpt lat="37.06254" lon="-119.56183" />
      <trkpt lat="37.06262" lon="-119.56196" />
      <trkpt lat="37.0626" lon="-119.56215" />
      <trkpt lat="37.06261" lon="-119.5622" />
      <trkpt lat="37.06265" lon="-119.56226" />
      <trkpt lat="37.06277" lon="-119.56264" />
      <trkpt lat="37.06293" lon="-119.56286" />
      <trkpt lat="37.06318" lon="-119.5635" />
      <trkpt lat="37.06331" lon="-119.56408" />
      <trkpt lat="37.06328" lon="-119.5642" />
      <trkpt lat="37.06316" lon="-119.56434" />
      <trkpt lat="37.06315" lon="-119.5644" />
      <trkpt lat="37.06316" lon="-119.56445" />
      <trkpt lat="37.06339" lon="-119.56467" />
      <trkpt lat="37.0634" lon="-119.56489" />
      <trkpt lat="37.06338" lon="-119.56497" />
      <trkpt lat="37.06336" lon="-119.56495" />
      <trkpt lat="37.06333" lon="-119.56495" />
      <trkpt lat="37.06329" lon="-119.56504" />
      <trkpt lat="37.06321" lon="-119.56513" />
      <trkpt lat="37.0632" lon="-119.56526" />
      <trkpt lat="37.06312" lon="-119.56546" />
      <trkpt lat="37.063" lon="-119.56554" />
      <trkpt lat="37.06293" lon="-119.56572" />
      <trkpt lat="37.06276" lon="-119.56577" />
      <trkpt lat="37.06275" lon="-119.56585" />
      <trkpt lat="37.06275" lon="-119.56594" />
      <trkpt lat="37.06276" lon="-119.56603" />
      <trkpt lat="37.06279" lon="-119.56607" />
      <trkpt lat="37.06304" lon="-119.56624" />
      <trkpt lat="37.06327" lon="-119.56629" />
      <trkpt lat="37.06336" lon="-119.5664" />
      <trkpt lat="37.06338" lon="-119.56674" />
      <trkpt lat="37.06337" lon="-119.56693" />
      <trkpt lat="37.06325" lon="-119.56718" />
      <trkpt lat="37.06314" lon="-119.56733" />
      <trkpt lat="37.06302" lon="-119.56746" />
      <trkpt lat="37.06289" lon="-119.56753" />
      <trkpt lat="37.0627" lon="-119.56767" />
      <trkpt lat="37.06251" lon="-119.5677" />
      <trkpt lat="37.06238" lon="-119.56766" />
      <trkpt lat="37.06224" lon="-119.56759" />
      <trkpt lat="37.06215" lon="-119.56756" />
      <trkpt lat="37.06203" lon="-119.56757" />
      <trkpt lat="37.06192" lon="-119.56756" />
      <trkpt lat="37.06184" lon="-119.5676" />
      <trkpt lat="37.06181" lon="-119.56776" />
      <trkpt lat="37.06171" lon="-119.56791" />
      <trkpt lat="37.06169" lon="-119.56798" />
      <trkpt lat="37.06175" lon="-119.56841" />
      <trkpt lat="37.06192" lon="-119.56878" />
      <trkpt lat="37.0619" lon="-119.56892" />
      <trkpt lat="37.06182" lon="-119.56916" />
      <trkpt lat="37.06183" lon="-119.56922" />
      <trkpt lat="37.0619" lon="-119.56936" />
      <trkpt lat="37.06188" lon="-119.56951" />
      <trkpt lat="37.0619" lon="-119.56956" />
      <trkpt lat="37.06203" lon="-119.56968" />
      <trkpt lat="37.0621" lon="-119.56983" />
      <trkpt lat="37.06213" lon="-119.57001" />
      <trkpt lat="37.06236" lon="-119.57054" />
      <trkpt lat="37.06241" lon="-119.57078" />
      <trkpt lat="37.06239" lon="-119.57094" />
      <trkpt lat="37.06227" lon="-119.57119" />
      <trkpt lat="37.06222" lon="-119.57133" />
      <trkpt lat="37.0622" lon="-119.57153" />
      <trkpt lat="37.06215" lon="-119.57167" />
      <trkpt lat="37.06214" lon="-119.57173" />
      <trkpt lat="37.06217" lon="-119.57178" />
      <trkpt lat="37.06226" lon="-119.5718" />
      <trkpt lat="37.06242" lon="-119.57177" />
      <trkpt lat="37.06248" lon="-119.57177" />
      <trkpt lat="37.06251" lon="-119.57181" />
      <trkpt lat="37.06253" lon="-119.5719" />
      <trkpt lat="37.06247" lon="-119.57211" />
      <trkpt lat="37.06239" lon="-119.57224" />
      <trkpt lat="37.0623" lon="-119.57225" />
      <trkpt lat="37.06219" lon="-119.57221" />
      <trkpt lat="37.0621" lon="-119.5722" />
      <trkpt lat="37.06193" lon="-119.5724" />
      <trkpt lat="37.06178" lon="-119.57251" />
      <trkpt lat="37.06173" lon="-119.5726" />
      <trkpt lat="37.06171" lon="-119.57268" />
      <trkpt lat="37.06171" lon="-119.57292" />
      <trkpt lat="37.06175" lon="-119.57302" />
      <trkpt lat="37.06178" lon="-119.5732" />
      <trkpt lat="37.06183" lon="-119.57337" />
      <trkpt lat="37.0619" lon="-119.57355" />
      <trkpt lat="37.06198" lon="-119.5737" />
      <trkpt lat="37.062" lon="-119.57385" />
      <trkpt lat="37.06181" lon="-119.57413" />
      <trkpt lat="37.06176" lon="-119.57424" />
      <trkpt lat="37.06153" lon="-119.57447" />
      <trkpt lat="37.06136" lon="-119.5746" />
      <trkpt lat="37.06129" lon="-119.57463" />
      <trkpt lat="37.06114" lon="-119.57459" />
      <trkpt lat="37.06099" lon="-119.57463" />
      <trkpt lat="37.06079" lon="-119.57477" />
      <trkpt lat="37.06061" lon="-119.57503" />
      <trkpt lat="37.06056" lon="-119.57507" />
      <trkpt lat="37.0603" lon="-119.57511" />
      <trkpt lat="37.06023" lon="-119.57515" />
      <trkpt lat="37.06019" lon="-119.57519" />
      <trkpt lat="37.06013" lon="-119.57539" />
      <trkpt lat="37.06012" lon="-119.57582" />
      <trkpt lat="37.06006" lon="-119.57596" />
      <trkpt lat="37.05993" lon="-119.57613" />
      <trkpt lat="37.05987" lon="-119.57626" />
      <trkpt lat="37.05986" lon="-119.57633" />
      <trkpt lat="37.05984" lon="-119.57661" />
      <trkpt lat="37.05979" lon="-119.57685" />
      <trkpt lat="37.05979" lon="-119.57719" />
      <trkpt lat="37.05973" lon="-119.57749" />
      <trkpt lat="37.05975" lon="-119.57773" />
      <trkpt lat="37.05981" lon="-119.57781" />
      <trkpt lat="37.05992" lon="-119.57791" />
      <trkpt lat="37.06019" lon="-119.57831" />
      <trkpt lat="37.06042" lon="-119.57888" />
      <trkpt lat="37.06051" lon="-119.579" />
      <trkpt lat="37.06095" lon="-119.57953" />
      <trkpt lat="37.06117" lon="-119.5797" />
      <trkpt lat="37.06136" lon="-119.57986" />
      <trkpt lat="37.0614" lon="-119.57992" />
      <trkpt lat="37.0615" lon="-119.58014" />
      <trkpt lat="37.06163" lon="-119.58034" />
      <trkpt lat="37.06166" lon="-119.5806" />
      <trkpt lat="37.06165" lon="-119.58092" />
      <trkpt lat="37.06171" lon="-119.58114" />
      <trkpt lat="37.0617" lon="-119.58128" />
      <trkpt lat="37.06161" lon="-119.58131" />
      <trkpt lat="37.06153" lon="-119.5813" />
      <trkpt lat="37.06139" lon="-119.58136" />
      <trkpt lat="37.06135" lon="-119.58145" />
      <trkpt lat="37.06137" lon="-119.58158" />
      <trkpt lat="37.06136" lon="-119.58161" />
      <trkpt lat="37.06133" lon="-119.58162" />
      <trkpt lat="37.0613" lon="-119.58163" />
      <trkpt lat="37.06121" lon="-119.58158" />
      <trkpt lat="37.06098" lon="-119.58138" />
      <trkpt lat="37.06085" lon="-119.5813" />
      <trkpt lat="37.06075" lon="-119.58133" />
      <trkpt lat="37.06058" lon="-119.58143" />
      <trkpt lat="37.0605" lon="-119.58144" />
      <trkpt lat="37.06012" lon="-119.58136" />
      <trkpt lat="37.06006" lon="-119.58147" />
      <trkpt lat="37.05999" lon="-119.58152" />
      <trkpt lat="37.0599" lon="-119.58152" />
      <trkpt lat="37.05983" lon="-119.58156" />
      <trkpt lat="37.05967" lon="-119.58184" />
      <trkpt lat="37.05965" lon="-119.58199" />
      <trkpt lat="37.0596" lon="-119.58213" />
      <trkpt lat="37.05937" lon="-119.58234" />
      <trkpt lat="37.0593" lon="-119.58251" />
      <trkpt lat="37.05911" lon="-119.58279" />
      <trkpt lat="37.05926" lon="-119.58293" />
      <trkpt lat="37.05937" lon="-119.58299" />
      <trkpt lat="37.05955" lon="-119.58325" />
      <trkpt lat="37.05959" lon="-119.58325" />
      <trkpt lat="37.0596" lon="-119.58327" />
      <trkpt lat="37.05946" lon="-119.58326" />
      <trkpt lat="37.0587" lon="-119.58307" />
      <trkpt lat="37.0585" lon="-119.58308" />
      <trkpt lat="37.05835" lon="-119.58307" />
      <trkpt lat="37.05777" lon="-119.58299" />
      <trkpt lat="37.0577" lon="-119.58297" />
      <trkpt lat="37.05762" lon="-119.58289" />
      <trkpt lat="37.0575" lon="-119.58231" />
      <trkpt lat="37.05743" lon="-119.58213" />
      <trkpt lat="37.05727" lon="-119.58202" />
      <trkpt lat="37.05708" lon="-119.58205" />
      <trkpt lat="37.05696" lon="-119.58211" />
      <trkpt lat="37.05662" lon="-119.58239" />
      <trkpt lat="37.05644" lon="-119.5825" />
      <trkpt lat="37.05628" lon="-119.58263" />
      <trkpt lat="37.05578" lon="-119.58295" />
      <trkpt lat="37.05568" lon="-119.58298" />
      <trkpt lat="37.05555" lon="-119.58299" />
      <trkpt lat="37.05544" lon="-119.58294" />
      <trkpt lat="37.05531" lon="-119.58288" />
      <trkpt lat="37.05517" lon="-119.58277" />
      <trkpt lat="37.05506" lon="-119.58266" />
      <trkpt lat="37.05495" lon="-119.58247" />
      <trkpt lat="37.05471" lon="-119.58218" />
      <trkpt lat="37.05464" lon="-119.58206" />
      <trkpt lat="37.05462" lon="-119.582" />
      <trkpt lat="37.0546" lon="-119.58171" />
      <trkpt lat="37.05461" lon="-119.5814" />
      <trkpt lat="37.05458" lon="-119.58092" />
      <trkpt lat="37.05452" lon="-119.58077" />
      <trkpt lat="37.05433" lon="-119.5806" />
      <trkpt lat="37.0543" lon="-119.58055" />
      <trkpt lat="37.05429" lon="-119.58048" />
      <trkpt lat="37.05431" lon="-119.58039" />
      <trkpt lat="37.0543" lon="-119.58017" />
      <trkpt lat="37.05423" lon="-119.5801" />
      <trkpt lat="37.05417" lon="-119.58012" />
      <trkpt lat="37.05413" lon="-119.58016" />
      <trkpt lat="37.05411" lon="-119.58022" />
      <trkpt lat="37.05411" lon="-119.58048" />
      <trkpt lat="37.05415" lon="-119.58078" />
      <trkpt lat="37.05412" lon="-119.58092" />
      <trkpt lat="37.05403" lon="-119.581" />
      <trkpt lat="37.05393" lon="-119.58102" />
      <trkpt lat="37.05374" lon="-119.58101" />
      <trkpt lat="37.0536" lon="-119.58103" />
      <trkpt lat="37.0535" lon="-119.58107" />
      <trkpt lat="37.05339" lon="-119.58116" />
      <trkpt lat="37.05336" lon="-119.58128" />
      <trkpt lat="37.05338" lon="-119.5814" />
      <trkpt lat="37.05353" lon="-119.58172" />
      <trkpt lat="37.0537" lon="-119.58197" />
      <trkpt lat="37.05373" lon="-119.58211" />
      <trkpt lat="37.05369" lon="-119.58224" />
      <trkpt lat="37.05357" lon="-119.5823" />
      <trkpt lat="37.05352" lon="-119.58226" />
      <trkpt lat="37.05346" lon="-119.58191" />
      <trkpt lat="37.05338" lon="-119.58171" />
      <trkpt lat="37.05317" lon="-119.58139" />
      <trkpt lat="37.05313" lon="-119.58119" />
      <trkpt lat="37.05306" lon="-119.58103" />
      <trkpt lat="37.05306" lon="-119.58098" />
      <trkpt lat="37.05312" lon="-119.5808" />
      <trkpt lat="37.0532" lon="-119.58068" />
      <trkpt lat="37.05326" lon="-119.58054" />
      <trkpt lat="37.05326" lon="-119.58034" />
      <trkpt lat="37.05323" lon="-119.58019" />
      <trkpt lat="37.05318" lon="-119.58005" />
      <trkpt lat="37.05316" lon="-119.57986" />
      <trkpt lat="37.05318" lon="-119.57981" />
      <trkpt lat="37.0533" lon="-119.57964" />
      <trkpt lat="37.05331" lon="-119.57959" />
      <trkpt lat="37.0533" lon="-119.57948" />
      <trkpt lat="37.05332" lon="-119.57928" />
      <trkpt lat="37.05346" lon="-119.57906" />
      <trkpt lat="37.05354" lon="-119.57899" />
      <trkpt lat="37.05375" lon="-119.5786" />
      <trkpt lat="37.05377" lon="-119.57854" />
      <trkpt lat="37.05368" lon="-119.57797" />
      <trkpt lat="37.05343" lon="-119.57758" />
      <trkpt lat="37.0534" lon="-119.57749" />
      <trkpt lat="37.05338" lon="-119.5772" />
      <trkpt lat="37.05345" lon="-119.57696" />
      <trkpt lat="37.05344" lon="-119.57684" />
      <trkpt lat="37.05341" lon="-119.57671" />
      <trkpt lat="37.05339" lon="-119.57667" />
      <trkpt lat="37.0534" lon="-119.57653" />
      <trkpt lat="37.05337" lon="-119.57644" />
      <trkpt lat="37.05337" lon="-119.57635" />
      <trkpt lat="37.05361" lon="-119.57603" />
      <trkpt lat="37.05366" lon="-119.5759" />
      <trkpt lat="37.05372" lon="-119.57541" />
      <trkpt lat="37.05379" lon="-119.57528" />
      <trkpt lat="37.05399" lon="-119.5752" />
      <trkpt lat="37.05417" lon="-119.57502" />
      <trkpt lat="37.05434" lon="-119.57488" />
      <trkpt lat="37.05487" lon="-119.57477" />
      <trkpt lat="37.05499" lon="-119.57472" />
      <trkpt lat="37.05507" lon="-119.57459" />
      <trkpt lat="37.05507" lon="-119.57447" />
      <trkpt lat="37.05511" lon="-119.57426" />
      <trkpt lat="37.05512" lon="-119.574" />
      <trkpt lat="37.05519" lon="-119.57369" />
      <trkpt lat="37.05527" lon="-119.57347" />
      <trkpt lat="37.05529" lon="-119.57329" />
      <trkpt lat="37.05526" lon="-119.57312" />
      <trkpt lat="37.05528" lon="-119.57293" />
      <trkpt lat="37.05522" lon="-119.57257" />
      <trkpt lat="37.05522" lon="-119.57251" />
      <trkpt lat="37.05515" lon="-119.57206" />
      <trkpt lat="37.05517" lon="-119.57193" />
      <trkpt lat="37.05521" lon="-119.57182" />
      <trkpt lat="37.05529" lon="-119.57168" />
      <trkpt lat="37.05542" lon="-119.57154" />
      <trkpt lat="37.0555" lon="-119.57125" />
      <trkpt lat="37.05551" lon="-119.57091" />
      <trkpt lat="37.05546" lon="-119.57062" />
      <trkpt lat="37.05525" lon="-119.56998" />
      <trkpt lat="37.05521" lon="-119.56979" />
      <trkpt lat="37.05497" lon="-119.56915" />
      <trkpt lat="37.05511" lon="-119.56883" />
      <trkpt lat="37.0551" lon="-119.56869" />
      <trkpt lat="37.05502" lon="-119.56848" />
      <trkpt lat="37.05493" lon="-119.5683" />
      <trkpt lat="37.05478" lon="-119.56798" />
      <trkpt lat="37.05469" lon="-119.56782" />
      <trkpt lat="37.05466" lon="-119.56741" />
      <trkpt lat="37.0546" lon="-119.56725" />
      <trkpt lat="37.05425" lon="-119.56685" />
      <trkpt lat="37.05414" lon="-119.56668" />
      <trkpt lat="37.05408" lon="-119.56656" />
      <trkpt lat="37.05398" lon="-119.56639" />
      <trkpt lat="37.05385" lon="-119.56622" />
      <trkpt lat="37.05371" lon="-119.56614" />
      <trkpt lat="37.05362" lon="-119.56612" />
      <trkpt lat="37.05326" lon="-119.5662" />
      <trkpt lat="37.05315" lon="-119.56619" />
      <trkpt lat="37.05254" lon="-119.56599" />
      <trkpt lat="37.05159" lon="-119.56575" />
      <trkpt lat="37.05082" lon="-119.56559" />
      <trkpt lat="37.05022" lon="-119.5654" />
      <trkpt lat="37.04976" lon="-119.56533" />
      <trkpt lat="37.04958" lon="-119.56532" />
    </trkseg>
  </trk>
</gpx>