<?xml version="1.0" encoding="UTF-8"?>
<gpx version="1.1" creator="strava-segment-scraper" xmlns="http://www.topografix.com/GPX/1/1">
  <trk>
    <name>Use It or Lose It!</name>
    <trkseg>
      <trkpt lat="37.93259" lon="-122.40525" />
      <trkpt lat="37.9326" lon="-122.40524" />
      <trkpt lat="37.93262" lon="-122.40527" />
      <trkpt lat="37.93263" lon="-122.40669" />
      <trkpt lat="37.93265" lon="-122.40721" />
      <trkpt lat="37.93376" lon="-122.4238" />
      <trkpt lat="37.93382" lon="-122.42452" />
      <trkpt lat="37.93384" lon="-122.42504" />
      <trkpt lat="37.93391" lon="-122.42572" />
      <trkpt lat="37.93395" lon="-122.42647" />
      <trkpt lat="37.93401" lon="-122.42705" />
      <trkpt lat="37.93406" lon="-122.42726" />
      <trkpt lat="37.93422" lon="-122.43074" />
      <trkpt lat="37.93438" lon="-122.43308" />
      <trkpt lat="37.93494" lon="-122.44141" />
      <trkpt lat="37.93509" lon="-122.4431" />
      <trkpt lat="37.93512" lon="-122.44361" />
      <trkpt lat="37.9351" lon="-122.44367" />
      <trkpt lat="37.93514" lon="-122.44423" />
      <trkpt lat="37.93522" lon="-122.44493" />
      <trkpt lat="37.93524" lon="-122.44565" />
      <trkpt lat="37.93537" lon="-122.44687" />
      <trkpt lat="37.93543" lon="-122.44842" />
      <trkpt lat="37.93551" lon="-122.4493" />
      <trkpt lat="37.93559" lon="-122.44998" />
      <trkpt lat="37.93578" lon="-122.45123" />
      <trkpt lat="37.93605" lon="-122.45257" />
      <trkpt lat="37.93626" lon="-122.45345" />
      <trkpt lat="37.93652" lon="-122.45441" />
      <trkpt lat="37.94092" lon="-122.46853" />
      <trkpt lat="37.9412" lon="-122.46955" />
      <trkpt lat="37.94135" lon="-122.47024" />
      <trkpt lat="37.94147" lon="-122.47091" />
      <trkpt lat="37.94269" lon="-122.47776" />
    </trkseg>
  </trk>
</gpx>