<?xml version="1.0" encoding="UTF-8"?>
<gpx version="1.1" creator="strava-segment-scraper" xmlns="http://www.topografix.com/GPX/1/1">
  <trk>
    <name>Mc Adams decent to Green horn</name>
    <trkseg>
      <trkpt lat="41.72379" lon="-122.74594" />
      <trkpt lat="41.72401" lon="-122.74537" />
      <trkpt lat="41.72421" lon="-122.74469" />
      <trkpt lat="41.72441" lon="-122.74373" />
      <trkpt lat="41.72469" lon="-122.74292" />
      <trkpt lat="41.725" lon="-122.74234" />
      <trkpt lat="41.72522" lon="-122.74198" />
      <trkpt lat="41.72556" lon="-122.74167" />
      <trkpt lat="41.72626" lon="-122.74132" />
      <trkpt lat="41.72632" lon="-122.74105" />
      <trkpt lat="41.72619" lon="-122.74081" />
      <trkpt lat="41.72604" lon="-122.74065" />
      <trkpt lat="41.72561" lon="-122.73996" />
      <trkpt lat="41.72547" lon="-122.73969" />
      <trkpt lat="41.72532" lon="-122.73906" />
      <trkpt lat="41.72531" lon="-122.73855" />
      <trkpt lat="41.72543" lon="-122.73731" />
      <trkpt lat="41.72543" lon="-122.73636" />
      <trkpt lat="41.72557" lon="-122.73566" />
      <trkpt lat="41.72576" lon="-122.73525" />
      <trkpt lat="41.72584" lon="-122.73513" />
      <trkpt lat="41.72619" lon="-122.7347" />
      <trkpt lat="41.7265" lon="-122.73436" />
      <trkpt lat="41.7269" lon="-122.73382" />
      <trkpt lat="41.72732" lon="-122.73357" />
      <trkpt lat="41.72744" lon="-122.73355" />
      <trkpt lat="41.72784" lon="-122.73352" />
      <trkpt lat="41.72821" lon="-122.73356" />
      <trkpt lat="41.72854" lon="-122.73342" />
      <trkpt lat="41.72852" lon="-122.73258" />
      <trkpt lat="41.72868" lon="-122.73186" />
      <trkpt lat="41.72892" lon="-122.73129" />
      <trkpt lat="41.72921" lon="-122.73092" />
      <trkpt lat="41.72942" lon="-122.73071" />
      <trkpt lat="41.72973" lon="-122.73011" />
      <trkpt lat="41.73001" lon="-122.72886" />
      <trkpt lat="41.73007" lon="-122.72872" />
      <trkpt lat="41.73034" lon="-122.7284" />
      <trkpt lat="41.73059" lon="-122.72828" />
      <trkpt lat="41.73124" lon="-122.7279" />
      <trkpt lat="41.73171" lon="-122.72759" />
      <trkpt lat="41.73193" lon="-122.7273" />
      <trkpt lat="41.73191" lon="-122.72707" />
      <trkpt lat="41.73168" lon="-122.72691" />
      <trkpt lat="41.73118" lon="-122.7266" />
      <trkpt lat="41.73083" lon="-122.72616" />
      <trkpt lat="41.73076" lon="-122.72602" />
      <trkpt lat="41.73031" lon="-122.72532" />
      <trkpt lat="41.73011" lon="-122.72488" />
      <trkpt lat="41.73018" lon="-122.7246" />
      <trkpt lat="41.73036" lon="-122.72441" />
      <trkpt lat="41.73084" lon="-122.72375" />
      <trkpt lat="41.73107" lon="-122.72327" />
      <trkpt lat="41.73116" lon="-122.72282" />
      <trkpt lat="41.73107" lon="-122.72261" />
      <trkpt lat="41.73086" lon="-122.72259" />
      <trkpt lat="41.73064" lon="-122.72265" />
      <trkpt lat="41.73029" lon="-122.72253" />
      <trkpt lat="41.73011" lon="-122.72228" />
      <trkpt lat="41.72988" lon="-122.72185" />
      <trkpt lat="41.7298" lon="-122.72139" />
      <trkpt lat="41.72986" lon="-122.72124" />
      <trkpt lat="41.72989" lon="-122.72046" />
      <trkpt lat="41.72989" lon="-122.71967" />
      <trkpt lat="41.72995" lon="-122.71952" />
      <trkpt lat="41.73003" lon="-122.71895" />
      <trkpt lat="41.72984" lon="-122.71857" />
      <trkpt lat="41.72936" lon="-122.71774" />
      <trkpt lat="41.72916" lon="-122.71707" />
      <trkpt lat="41.72908" lon="-122.71594" />
      <trkpt lat="41.72907" lon="-122.71517" />
      <trkpt lat="41.72875" lon="-122.71451" />
      <trkpt lat="41.72853" lon="-122.71399" />
      <trkpt lat="41.72843" lon="-122.71317" />
      <trkpt lat="41.72851" lon="-122.71212" />
      <trkpt lat="41.7287" lon="-122.71105" />
      <trkpt lat="41.72886" lon="-122.70996" />
      <trkpt lat="41.72893" lon="-122.70919" />
      <trkpt lat="41.7288" lon="-122.70852" />
      <trkpt lat="41.72853" lon="-122.70811" />
      <trkpt lat="41.72818" lon="-122.7073" />
      <trkpt lat="41.72783" lon="-122.70628" />
      <trkpt lat="41.72762" lon="-122.70541" />
      <trkpt lat="41.7274" lon="-122.70475" />
      <trkpt lat="41.72688" lon="-122.70344" />
      <trkpt lat="41.72662" lon="-122.70302" />
      <trkpt lat="41.72617" lon="-122.70264" />
      <trkpt lat="41.72532" lon="-122.70215" />
      <trkpt lat="41.7249" lon="-122.70179" />
      <trkpt lat="41.72455" lon="-122.70131" />
      <trkpt lat="41.72447" lon="-122.70118" />
      <trkpt lat="41.72413" lon="-122.70053" />
      <trkpt lat="41.72385" lon="-122.70011" />
      <trkpt lat="41.7236" lon="-122.69983" />
      <trkpt lat="41.72326" lon="-122.6993" />
      <trkpt lat="41.72297" lon="-122.69826" />
      <trkpt lat="41.72288" lon="-122.69767" />
      <trkpt lat="41.72283" lon="-122.69696" />
      <trkpt lat="41.72282" lon="-122.69613" />
      <trkpt lat="41.72277" lon="-122.69529" />
      <trkpt lat="41.72235" lon="-122.69353" />
      <trkpt lat="41.72212" lon="-122.69273" />
      <trkpt lat="41.7218" lon="-122.69195" />
      <trkpt lat="41.7213" lon="-122.69032" />
      <trkpt lat="41.72112" lon="-122.6898" />
      <trkpt lat="41.72021" lon="-122.68736" />
      <trkpt lat="41.71997" lon="-122.68649" />
      <trkpt lat="41.7196" lon="-122.68498" />
      <trkpt lat="41.71924" lon="-122.6836" />
      <trkpt lat="41.71907" lon="-122.68278" />
      <trkpt lat="41.71898" lon="-122.68193" />
      <trkpt lat="41.71887" lon="-122.67998" />
      <trkpt lat="41.71876" lon="-122.67904" />
      <trkpt lat="41.71845" lon="-122.67737" />
      <trkpt lat="41.71818" lon="-122.67684" />
      <trkpt lat="41.71795" lon="-122.67658" />
      <trkpt lat="41.71772" lon="-122.67611" />
      <trkpt lat="41.71759" lon="-122.67555" />
      <trkpt lat="41.71754" lon="-122.67481" />
      <trkpt lat="41.71752" lon="-122.67328" />
      <trkpt lat="41.71752" lon="-122.67248" />
      <trkpt lat="41.71755" lon="-122.67159" />
      <trkpt lat="41.71755" lon="-122.67059" />
      <trkpt lat="41.71752" lon="-122.66981" />
      <trkpt lat="41.71746" lon="-122.66916" />
      <trkpt lat="41.71736" lon="-122.66848" />
      <trkpt lat="41.71732" lon="-122.66777" />
      <trkpt lat="41.71724" lon="-122.66703" />
      <trkpt lat="41.71711" lon="-122.66633" />
    </trkseg>
  </trk>
</gpx>