<?xml version="1.0" encoding="UTF-8"?>
<gpx version="1.1" creator="strava-segment-scraper" xmlns="http://www.topografix.com/GPX/1/1">
  <trk>
    <name>AMBBR - Full Spooner to Last Feed Zone</name>
    <trkseg>
      <trkpt lat="39.18771" lon="-119.92735" />
      <trkpt lat="39.18704" lon="-119.92718" />
      <trkpt lat="39.18691" lon="-119.92716" />
      <trkpt lat="39.18675" lon="-119.92717" />
      <trkpt lat="39.18607" lon="-119.92729" />
      <trkpt lat="39.18563" lon="-119.92729" />
      <trkpt lat="39.18535" lon="-119.92722" />
      <trkpt lat="39.18474" lon="-119.927" />
      <trkpt lat="39.18453" lon="-119.92694" />
      <trkpt lat="39.18429" lon="-119.9269" />
      <trkpt lat="39.18376" lon="-119.92688" />
      <trkpt lat="39.18353" lon="-119.92681" />
      <trkpt lat="39.18329" lon="-119.9267" />
      <trkpt lat="39.18238" lon="-119.9261" />
      <trkpt lat="39.18175" lon="-119.92582" />
      <trkpt lat="39.18153" lon="-119.92574" />
      <trkpt lat="39.18114" lon="-119.92565" />
      <trkpt lat="39.17983" lon="-119.92542" />
      <trkpt lat="39.17957" lon="-119.92537" />
      <trkpt lat="39.17927" lon="-119.92527" />
      <trkpt lat="39.17881" lon="-119.92506" />
      <trkpt lat="39.17849" lon="-119.92488" />
      <trkpt lat="39.17729" lon="-119.92409" />
      <trkpt lat="39.17688" lon="-119.92389" />
      <trkpt lat="39.17664" lon="-119.92383" />
      <trkpt lat="39.17608" lon="-119.92376" />
      <trkpt lat="39.1758" lon="-119.92366" />
      <trkpt lat="39.17553" lon="-119.92354" />
      <trkpt lat="39.17513" lon="-119.92332" />
      <trkpt lat="39.17478" lon="-119.92323" />
      <trkpt lat="39.17449" lon="-119.92323" />
      <trkpt lat="39.17423" lon="-119.92327" />
      <trkpt lat="39.17416" lon="-119.9233" />
      <trkpt lat="39.17401" lon="-119.92336" />
      <trkpt lat="39.17378" lon="-119.9235" />
      <trkpt lat="39.17192" lon="-119.92514" />
      <trkpt lat="39.1717" lon="-119.92532" />
      <trkpt lat="39.17122" lon="-119.92563" />
      <trkpt lat="39.17095" lon="-119.92573" />
      <trkpt lat="39.17068" lon="-119.92578" />
      <trkpt lat="39.16992" lon="-119.92587" />
      <trkpt lat="39.16959" lon="-119.92592" />
      <trkpt lat="39.16934" lon="-119.92599" />
      <trkpt lat="39.16893" lon="-119.92616" />
      <trkpt lat="39.16871" lon="-119.92628" />
      <trkpt lat="39.16849" lon="-119.92643" />
      <trkpt lat="39.16816" lon="-119.92669" />
      <trkpt lat="39.16783" lon="-119.92697" />
      <trkpt lat="39.16763" lon="-119.92717" />
      <trkpt lat="39.16737" lon="-119.92747" />
      <trkpt lat="39.16717" lon="-119.92775" />
      <trkpt lat="39.16672" lon="-119.92851" />
      <trkpt lat="39.1665" lon="-119.92883" />
      <trkpt lat="39.16625" lon="-119.92915" />
      <trkpt lat="39.16597" lon="-119.92944" />
      <trkpt lat="39.1657" lon="-119.92967" />
      <trkpt lat="39.16517" lon="-119.93001" />
      <trkpt lat="39.16465" lon="-119.93021" />
      <trkpt lat="39.1642" lon="-119.93029" />
      <trkpt lat="39.16404" lon="-119.9303" />
      <trkpt lat="39.16363" lon="-119.93029" />
      <trkpt lat="39.1633" lon="-119.93023" />
      <trkpt lat="39.16212" lon="-119.92999" />
      <trkpt lat="39.16152" lon="-119.92988" />
      <trkpt lat="39.16091" lon="-119.92987" />
      <trkpt lat="39.16044" lon="-119.92998" />
      <trkpt lat="39.15961" lon="-119.93032" />
      <trkpt lat="39.15915" lon="-119.93046" />
      <trkpt lat="39.15888" lon="-119.93052" />
      <trkpt lat="39.15849" lon="-119.93057" />
      <trkpt lat="39.15816" lon="-119.93059" />
      <trkpt lat="39.15772" lon="-119.93057" />
      <trkpt lat="39.15727" lon="-119.93052" />
      <trkpt lat="39.15683" lon="-119.93042" />
      <trkpt lat="39.15533" lon="-119.92997" />
      <trkpt lat="39.15444" lon="-119.92971" />
      <trkpt lat="39.15379" lon="-119.92944" />
      <trkpt lat="39.15318" lon="-119.92907" />
      <trkpt lat="39.15288" lon="-119.92885" />
      <trkpt lat="39.15283" lon="-119.92879" />
      <trkpt lat="39.15261" lon="-119.92861" />
      <trkpt lat="39.1525" lon="-119.9285" />
      <trkpt lat="39.15221" lon="-119.92818" />
      <trkpt lat="39.1518" lon="-119.92772" />
      <trkpt lat="39.15154" lon="-119.92738" />
      <trkpt lat="39.15139" lon="-119.92725" />
      <trkpt lat="39.15126" lon="-119.92716" />
      <trkpt lat="39.15101" lon="-119.92706" />
      <trkpt lat="39.15084" lon="-119.92703" />
      <trkpt lat="39.15037" lon="-119.92707" />
      <trkpt lat="39.15019" lon="-119.92706" />
      <trkpt lat="39.14996" lon="-119.92702" />
      <trkpt lat="39.1492" lon="-119.92703" />
      <trkpt lat="39.14889" lon="-119.92705" />
      <trkpt lat="39.14829" lon="-119.92702" />
      <trkpt lat="39.14808" lon="-119.92696" />
      <trkpt lat="39.14764" lon="-119.92678" />
      <trkpt lat="39.14733" lon="-119.92661" />
      <trkpt lat="39.14717" lon="-119.92655" />
      <trkpt lat="39.14701" lon="-119.92649" />
      <trkpt lat="39.1468" lon="-119.92644" />
      <trkpt lat="39.14673" lon="-119.92643" />
      <trkpt lat="39.14605" lon="-119.92646" />
      <trkpt lat="39.14585" lon="-119.92645" />
      <trkpt lat="39.14565" lon="-119.92642" />
      <trkpt lat="39.14528" lon="-119.92625" />
      <trkpt lat="39.14525" lon="-119.92621" />
      <trkpt lat="39.14508" lon="-119.92609" />
      <trkpt lat="39.14486" lon="-119.9259" />
      <trkpt lat="39.14468" lon="-119.92577" />
      <trkpt lat="39.14446" lon="-119.9257" />
      <trkpt lat="39.14422" lon="-119.92573" />
      <trkpt lat="39.14407" lon="-119.92581" />
      <trkpt lat="39.14391" lon="-119.92595" />
      <trkpt lat="39.14371" lon="-119.92608" />
      <trkpt lat="39.14362" lon="-119.92613" />
      <trkpt lat="39.14338" lon="-119.92619" />
      <trkpt lat="39.14323" lon="-119.92619" />
      <trkpt lat="39.14305" lon="-119.92615" />
      <trkpt lat="39.14288" lon="-119.92608" />
      <trkpt lat="39.14268" lon="-119.92598" />
      <trkpt lat="39.14183" lon="-119.92552" />
      <trkpt lat="39.14097" lon="-119.92502" />
      <trkpt lat="39.14055" lon="-119.92484" />
      <trkpt lat="39.14032" lon="-119.92478" />
      <trkpt lat="39.14015" lon="-119.92478" />
      <trkpt lat="39.13994" lon="-119.92482" />
      <trkpt lat="39.13982" lon="-119.92486" />
      <trkpt lat="39.13971" lon="-119.92493" />
      <trkpt lat="39.13951" lon="-119.92513" />
      <trkpt lat="39.13888" lon="-119.92598" />
      <trkpt lat="39.13856" lon="-119.9265" />
      <trkpt lat="39.13816" lon="-119.92704" />
      <trkpt lat="39.13788" lon="-119.92738" />
      <trkpt lat="39.13744" lon="-119.92781" />
      <trkpt lat="39.13574" lon="-119.92928" />
      <trkpt lat="39.13424" lon="-119.93052" />
      <trkpt lat="39.1335" lon="-119.93105" />
      <trkpt lat="39.13293" lon="-119.93134" />
      <trkpt lat="39.13269" lon="-119.93143" />
      <trkpt lat="39.13235" lon="-119.93156" />
      <trkpt lat="39.13196" lon="-119.93163" />
      <trkpt lat="39.13164" lon="-119.93168" />
      <trkpt lat="39.13131" lon="-119.9317" />
      <trkpt lat="39.13022" lon="-119.93172" />
      <trkpt lat="39.12996" lon="-119.93172" />
      <trkpt lat="39.12957" lon="-119.93167" />
      <trkpt lat="39.1293" lon="-119.9316" />
      <trkpt lat="39.1289" lon="-119.93142" />
      <trkpt lat="39.12864" lon="-119.93125" />
      <trkpt lat="39.12839" lon="-119.93104" />
      <trkpt lat="39.12816" lon="-119.93081" />
      <trkpt lat="39.12788" lon="-119.93063" />
      <trkpt lat="39.12759" lon="-119.9305" />
      <trkpt lat="39.12654" lon="-119.93016" />
      <trkpt lat="39.12608" lon="-119.9301" />
      <trkpt lat="39.12559" lon="-119.93008" />
      <trkpt lat="39.12492" lon="-119.92995" />
      <trkpt lat="39.12391" lon="-119.92964" />
      <trkpt lat="39.12273" lon="-119.92912" />
      <trkpt lat="39.12212" lon="-119.9288" />
      <trkpt lat="39.12136" lon="-119.92833" />
      <trkpt lat="39.12056" lon="-119.92776" />
      <trkpt lat="39.11971" lon="-119.92713" />
      <trkpt lat="39.11928" lon="-119.92692" />
      <trkpt lat="39.1189" lon="-119.92677" />
      <trkpt lat="39.11854" lon="-119.92666" />
      <trkpt lat="39.11799" lon="-119.92653" />
      <trkpt lat="39.11724" lon="-119.92647" />
      <trkpt lat="39.11672" lon="-119.92648" />
      <trkpt lat="39.11572" lon="-119.92641" />
      <trkpt lat="39.11526" lon="-119.92632" />
      <trkpt lat="39.11498" lon="-119.92614" />
      <trkpt lat="39.11478" lon="-119.92592" />
      <trkpt lat="39.11465" lon="-119.9257" />
      <trkpt lat="39.11456" lon="-119.92544" />
      <trkpt lat="39.11448" lon="-119.925" />
      <trkpt lat="39.11437" lon="-119.92464" />
      <trkpt lat="39.1142" lon="-119.92433" />
      <trkpt lat="39.11398" lon="-119.92411" />
      <trkpt lat="39.11374" lon="-119.92396" />
      <trkpt lat="39.11262" lon="-119.92317" />
      <trkpt lat="39.11211" lon="-119.92287" />
      <trkpt lat="39.11178" lon="-119.92273" />
      <trkpt lat="39.11144" lon="-119.92264" />
      <trkpt lat="39.11057" lon="-119.92252" />
      <trkpt lat="39.109" lon="-119.92239" />
      <trkpt lat="39.10856" lon="-119.92228" />
      <trkpt lat="39.10816" lon="-119.92204" />
      <trkpt lat="39.10782" lon="-119.92175" />
      <trkpt lat="39.10763" lon="-119.92155" />
      <trkpt lat="39.10742" lon="-119.92127" />
      <trkpt lat="39.10633" lon="-119.91946" />
      <trkpt lat="39.10543" lon="-119.9178" />
      <trkpt lat="39.10508" lon="-119.91728" />
      <trkpt lat="39.10461" lon="-119.91671" />
      <trkpt lat="39.10403" lon="-119.91611" />
      <trkpt lat="39.10372" lon="-119.91572" />
      <trkpt lat="39.10363" lon="-119.91557" />
      <trkpt lat="39.10353" lon="-119.91531" />
      <trkpt lat="39.1033" lon="-119.91455" />
      <trkpt lat="39.10322" lon="-119.91435" />
      <trkpt lat="39.10263" lon="-119.91328" />
    </trkseg>
  </trk>
</gpx>