<?xml version="1.0" encoding="UTF-8"?>
<gpx version="1.1" creator="strava-segment-scraper" xmlns="http://www.topografix.com/GPX/1/1">
  <trk>
    <name>Natz TT South from turn around</name>
    <trkseg>
      <trkpt lat="39.79176" lon="-120.33462" />
      <trkpt lat="39.79178" lon="-120.33442" />
      <trkpt lat="39.79174" lon="-120.32987" />
      <trkpt lat="39.7917" lon="-120.32941" />
      <trkpt lat="39.79162" lon="-120.32911" />
      <trkpt lat="39.79155" lon="-120.32898" />
      <trkpt lat="39.7914" lon="-120.32875" />
      <trkpt lat="39.78842" lon="-120.32495" />
      <trkpt lat="39.78813" lon="-120.32461" />
      <trkpt lat="39.78803" lon="-120.32452" />
      <trkpt lat="39.78791" lon="-120.32445" />
      <trkpt lat="39.78779" lon="-120.32441" />
      <trkpt lat="39.78753" lon="-120.32438" />
      <trkpt lat="39.78435" lon="-120.32443" />
      <trkpt lat="39.78097" lon="-120.32444" />
      <trkpt lat="39.77578" lon="-120.32436" />
      <trkpt lat="39.77435" lon="-120.32438" />
      <trkpt lat="39.76843" lon="-120.32438" />
      <trkpt lat="39.76717" lon="-120.32439" />
      <trkpt lat="39.7666" lon="-120.32439" />
      <trkpt lat="39.76637" lon="-120.32436" />
      <trkpt lat="39.76615" lon="-120.32428" />
      <trkpt lat="39.76595" lon="-120.32414" />
      <trkpt lat="39.76381" lon="-120.32234" />
      <trkpt lat="39.75903" lon="-120.3184" />
      <trkpt lat="39.75875" lon="-120.31809" />
      <trkpt lat="39.75858" lon="-120.31785" />
      <trkpt lat="39.75759" lon="-120.31624" />
      <trkpt lat="39.75727" lon="-120.31575" />
      <trkpt lat="39.75709" lon="-120.31553" />
      <trkpt lat="39.75688" lon="-120.31535" />
      <trkpt lat="39.75665" lon="-120.31525" />
      <trkpt lat="39.75653" lon="-120.31522" />
      <trkpt lat="39.75628" lon="-120.3152" />
      <trkpt lat="39.75314" lon="-120.31521" />
      <trkpt lat="39.75266" lon="-120.3152" />
      <trkpt lat="39.75243" lon="-120.31515" />
      <trkpt lat="39.75232" lon="-120.31509" />
      <trkpt lat="39.75211" lon="-120.31494" />
      <trkpt lat="39.75203" lon="-120.31483" />
    </trkseg>
  </trk>
</gpx>