<?xml version="1.0" encoding="UTF-8"?>
<gpx version="1.1" creator="strava-segment-scraper" xmlns="http://www.topografix.com/GPX/1/1">
  <trk>
    <name>Mt. Hough Full DH</name>
    <trkseg>
      <trkpt lat="40.0436" lon="-120.89016" />
      <trkpt lat="40.04387" lon="-120.89045" />
      <trkpt lat="40.04422" lon="-120.89073" />
      <trkpt lat="40.04434" lon="-120.8908" />
      <trkpt lat="40.04441" lon="-120.89077" />
      <trkpt lat="40.04454" lon="-120.89081" />
      <trkpt lat="40.04472" lon="-120.89081" />
      <trkpt lat="40.04486" lon="-120.89088" />
      <trkpt lat="40.045" lon="-120.89089" />
      <trkpt lat="40.04518" lon="-120.89086" />
      <trkpt lat="40.04522" lon="-120.89087" />
      <trkpt lat="40.04533" lon="-120.89084" />
      <trkpt lat="40.04537" lon="-120.89085" />
      <trkpt lat="40.04545" lon="-120.89081" />
      <trkpt lat="40.04564" lon="-120.8908" />
      <trkpt lat="40.04583" lon="-120.89083" />
      <trkpt lat="40.04593" lon="-120.89089" />
      <trkpt lat="40.04605" lon="-120.89088" />
      <trkpt lat="40.04616" lon="-120.89089" />
      <trkpt lat="40.04617" lon="-120.89093" />
      <trkpt lat="40.04616" lon="-120.89096" />
      <trkpt lat="40.0461" lon="-120.891" />
      <trkpt lat="40.04599" lon="-120.89115" />
      <trkpt lat="40.04582" lon="-120.89128" />
      <trkpt lat="40.04571" lon="-120.89134" />
      <trkpt lat="40.04556" lon="-120.89139" />
      <trkpt lat="40.04544" lon="-120.89147" />
      <trkpt lat="40.04537" lon="-120.8915" />
      <trkpt lat="40.04519" lon="-120.89164" />
      <trkpt lat="40.04529" lon="-120.89171" />
      <trkpt lat="40.04546" lon="-120.89175" />
      <trkpt lat="40.04562" lon="-120.89182" />
      <trkpt lat="40.04567" lon="-120.89187" />
      <trkpt lat="40.04567" lon="-120.8919" />
      <trkpt lat="40.04563" lon="-120.89193" />
      <trkpt lat="40.04551" lon="-120.89194" />
      <trkpt lat="40.0454" lon="-120.89198" />
      <trkpt lat="40.04518" lon="-120.89216" />
      <trkpt lat="40.04508" lon="-120.89223" />
      <trkpt lat="40.04502" lon="-120.89223" />
      <trkpt lat="40.04491" lon="-120.89228" />
      <trkpt lat="40.04467" lon="-120.89226" />
      <trkpt lat="40.04465" lon="-120.89233" />
      <trkpt lat="40.04495" lon="-120.89247" />
      <trkpt lat="40.04496" lon="-120.89251" />
      <trkpt lat="40.04499" lon="-120.89252" />
      <trkpt lat="40.04499" lon="-120.89256" />
      <trkpt lat="40.04487" lon="-120.89256" />
      <trkpt lat="40.04473" lon="-120.89262" />
      <trkpt lat="40.04429" lon="-120.89287" />
      <trkpt lat="40.04419" lon="-120.8929" />
      <trkpt lat="40.04411" lon="-120.89292" />
      <trkpt lat="40.04398" lon="-120.89291" />
      <trkpt lat="40.04376" lon="-120.89296" />
      <trkpt lat="40.04362" lon="-120.89294" />
      <trkpt lat="40.04348" lon="-120.89295" />
      <trkpt lat="40.04341" lon="-120.89292" />
      <trkpt lat="40.04312" lon="-120.89286" />
      <trkpt lat="40.04297" lon="-120.89287" />
      <trkpt lat="40.0429" lon="-120.89282" />
      <trkpt lat="40.04261" lon="-120.89277" />
      <trkpt lat="40.04249" lon="-120.89268" />
      <trkpt lat="40.04246" lon="-120.89259" />
      <trkpt lat="40.04236" lon="-120.8925" />
      <trkpt lat="40.04222" lon="-120.89244" />
      <trkpt lat="40.04206" lon="-120.89243" />
      <trkpt lat="40.04191" lon="-120.8924" />
      <trkpt lat="40.04179" lon="-120.8923" />
      <trkpt lat="40.04176" lon="-120.89224" />
      <trkpt lat="40.04165" lon="-120.89216" />
      <trkpt lat="40.04159" lon="-120.89216" />
      <trkpt lat="40.0413" lon="-120.89198" />
      <trkpt lat="40.04124" lon="-120.89191" />
      <trkpt lat="40.04115" lon="-120.89174" />
      <trkpt lat="40.04106" lon="-120.89163" />
      <trkpt lat="40.04102" lon="-120.89149" />
      <trkpt lat="40.04098" lon="-120.89139" />
      <trkpt lat="40.04088" lon="-120.89128" />
      <trkpt lat="40.04069" lon="-120.89112" />
      <trkpt lat="40.04061" lon="-120.89101" />
      <trkpt lat="40.04054" lon="-120.89089" />
      <trkpt lat="40.04041" lon="-120.89073" />
      <trkpt lat="40.04036" lon="-120.89063" />
      <trkpt lat="40.04027" lon="-120.89034" />
      <trkpt lat="40.04027" lon="-120.89026" />
      <trkpt lat="40.04023" lon="-120.89019" />
      <trkpt lat="40.04023" lon="-120.89012" />
      <trkpt lat="40.04016" lon="-120.8899" />
      <trkpt lat="40.04008" lon="-120.88978" />
      <trkpt lat="40.04003" lon="-120.88962" />
      <trkpt lat="40.03991" lon="-120.88938" />
      <trkpt lat="40.03984" lon="-120.88925" />
      <trkpt lat="40.03976" lon="-120.8892" />
      <trkpt lat="40.03961" lon="-120.88903" />
      <trkpt lat="40.03947" lon="-120.88881" />
      <trkpt lat="40.03937" lon="-120.88855" />
      <trkpt lat="40.03928" lon="-120.88853" />
      <trkpt lat="40.03919" lon="-120.88845" />
      <trkpt lat="40.03902" lon="-120.88802" />
      <trkpt lat="40.03894" lon="-120.88773" />
      <trkpt lat="40.03882" lon="-120.88751" />
      <trkpt lat="40.03876" lon="-120.88745" />
      <trkpt lat="40.03872" lon="-120.88737" />
      <trkpt lat="40.03869" lon="-120.88729" />
      <trkpt lat="40.03865" lon="-120.8871" />
      <trkpt lat="40.03863" lon="-120.88696" />
      <trkpt lat="40.03867" lon="-120.88673" />
      <trkpt lat="40.03864" lon="-120.88654" />
      <trkpt lat="40.0386" lon="-120.88638" />
      <trkpt lat="40.03856" lon="-120.8863" />
      <trkpt lat="40.03857" lon="-120.88609" />
      <trkpt lat="40.03855" lon="-120.886" />
      <trkpt lat="40.03847" lon="-120.88582" />
      <trkpt lat="40.03834" lon="-120.88543" />
      <trkpt lat="40.03828" lon="-120.88533" />
      <trkpt lat="40.03809" lon="-120.88502" />
      <trkpt lat="40.0379" lon="-120.88478" />
      <trkpt lat="40.03781" lon="-120.88461" />
      <trkpt lat="40.03767" lon="-120.88418" />
      <trkpt lat="40.03759" lon="-120.884" />
      <trkpt lat="40.03757" lon="-120.88392" />
      <trkpt lat="40.03762" lon="-120.88344" />
      <trkpt lat="40.03773" lon="-120.88312" />
      <trkpt lat="40.03778" lon="-120.88303" />
      <trkpt lat="40.03779" lon="-120.88289" />
      <trkpt lat="40.03775" lon="-120.88263" />
      <trkpt lat="40.03768" lon="-120.88249" />
      <trkpt lat="40.03762" lon="-120.88246" />
      <trkpt lat="40.03754" lon="-120.88231" />
      <trkpt lat="40.03747" lon="-120.8823" />
      <trkpt lat="40.03727" lon="-120.88215" />
      <trkpt lat="40.03701" lon="-120.8819" />
      <trkpt lat="40.03694" lon="-120.88186" />
      <trkpt lat="40.03685" lon="-120.88173" />
      <trkpt lat="40.03676" lon="-120.88146" />
      <trkpt lat="40.03671" lon="-120.88104" />
      <trkpt lat="40.03666" lon="-120.88085" />
      <trkpt lat="40.03656" lon="-120.88064" />
      <trkpt lat="40.03645" lon="-120.88056" />
      <trkpt lat="40.03633" lon="-120.88056" />
      <trkpt lat="40.03626" lon="-120.88052" />
      <trkpt lat="40.03616" lon="-120.88052" />
      <trkpt lat="40.03611" lon="-120.88049" />
      <trkpt lat="40.03608" lon="-120.88044" />
      <trkpt lat="40.03599" lon="-120.88036" />
      <trkpt lat="40.03597" lon="-120.88031" />
      <trkpt lat="40.03591" lon="-120.88028" />
      <trkpt lat="40.03582" lon="-120.88017" />
      <trkpt lat="40.03577" lon="-120.88002" />
      <trkpt lat="40.03574" lon="-120.87982" />
      <trkpt lat="40.03566" lon="-120.87956" />
      <trkpt lat="40.03561" lon="-120.8793" />
      <trkpt lat="40.03557" lon="-120.87922" />
      <trkpt lat="40.03554" lon="-120.87878" />
      <trkpt lat="40.03549" lon="-120.8786" />
      <trkpt lat="40.03546" lon="-120.87852" />
      <trkpt lat="40.03533" lon="-120.8783" />
      <trkpt lat="40.0353" lon="-120.87821" />
      <trkpt lat="40.03523" lon="-120.87818" />
      <trkpt lat="40.03519" lon="-120.87812" />
      <trkpt lat="40.0351" lon="-120.87813" />
      <trkpt lat="40.03491" lon="-120.8781" />
      <trkpt lat="40.03472" lon="-120.87797" />
      <trkpt lat="40.03457" lon="-120.87794" />
      <trkpt lat="40.03454" lon="-120.87785" />
      <trkpt lat="40.03437" lon="-120.87773" />
      <trkpt lat="40.03428" lon="-120.87756" />
      <trkpt lat="40.03407" lon="-120.87723" />
      <trkpt lat="40.03399" lon="-120.87719" />
      <trkpt lat="40.03392" lon="-120.87712" />
      <trkpt lat="40.03385" lon="-120.87693" />
      <trkpt lat="40.03375" lon="-120.87678" />
      <trkpt lat="40.03369" lon="-120.87671" />
      <trkpt lat="40.03358" lon="-120.87669" />
      <trkpt lat="40.03336" lon="-120.87643" />
      <trkpt lat="40.03332" lon="-120.87635" />
      <trkpt lat="40.03331" lon="-120.87625" />
      <trkpt lat="40.03327" lon="-120.87616" />
      <trkpt lat="40.03304" lon="-120.87588" />
      <trkpt lat="40.03296" lon="-120.87583" />
      <trkpt lat="40.0329" lon="-120.87577" />
      <trkpt lat="40.03285" lon="-120.87569" />
      <trkpt lat="40.0326" lon="-120.87553" />
      <trkpt lat="40.03241" lon="-120.87557" />
      <trkpt lat="40.03234" lon="-120.87561" />
      <trkpt lat="40.03231" lon="-120.87557" />
      <trkpt lat="40.03218" lon="-120.87558" />
      <trkpt lat="40.03212" lon="-120.87556" />
      <trkpt lat="40.03189" lon="-120.87562" />
      <trkpt lat="40.03167" lon="-120.87562" />
      <trkpt lat="40.03155" lon="-120.8756" />
      <trkpt lat="40.03143" lon="-120.87561" />
      <trkpt lat="40.03122" lon="-120.87551" />
      <trkpt lat="40.03102" lon="-120.87538" />
      <trkpt lat="40.03083" lon="-120.87532" />
      <trkpt lat="40.03079" lon="-120.87519" />
      <trkpt lat="40.0307" lon="-120.8751" />
      <trkpt lat="40.03065" lon="-120.87506" />
      <trkpt lat="40.03055" lon="-120.87495" />
      <trkpt lat="40.0305" lon="-120.8749" />
      <trkpt lat="40.03036" lon="-120.87474" />
      <trkpt lat="40.03028" lon="-120.87461" />
      <trkpt lat="40.03022" lon="-120.87457" />
      <trkpt lat="40.03013" lon="-120.87443" />
      <trkpt lat="40.03011" lon="-120.87435" />
      <trkpt lat="40.03002" lon="-120.87422" />
      <trkpt lat="40.02979" lon="-120.87399" />
      <trkpt lat="40.02969" lon="-120.87395" />
      <trkpt lat="40.02965" lon="-120.87391" />
      <trkpt lat="40.02951" lon="-120.87379" />
      <trkpt lat="40.02939" lon="-120.87364" />
      <trkpt lat="40.02933" lon="-120.87334" />
      <trkpt lat="40.0293" lon="-120.87303" />
      <trkpt lat="40.0293" lon="-120.87287" />
      <trkpt lat="40.02928" lon="-120.87266" />
      <trkpt lat="40.02924" lon="-120.87253" />
      <trkpt lat="40.02913" lon="-120.87239" />
      <trkpt lat="40.02906" lon="-120.87237" />
      <trkpt lat="40.02895" lon="-120.87222" />
      <trkpt lat="40.02888" lon="-120.87207" />
      <trkpt lat="40.02868" lon="-120.87189" />
      <trkpt lat="40.02864" lon="-120.87178" />
      <trkpt lat="40.02851" lon="-120.8716" />
      <trkpt lat="40.02843" lon="-120.87144" />
      <trkpt lat="40.02827" lon="-120.8713" />
      <trkpt lat="40.0282" lon="-120.8712" />
      <trkpt lat="40.02813" lon="-120.87109" />
      <trkpt lat="40.02801" lon="-120.87086" />
      <trkpt lat="40.0278" lon="-120.87053" />
      <trkpt lat="40.02767" lon="-120.87037" />
      <trkpt lat="40.02761" lon="-120.87036" />
      <trkpt lat="40.02749" lon="-120.87019" />
      <trkpt lat="40.02739" lon="-120.87008" />
      <trkpt lat="40.02719" lon="-120.87002" />
      <trkpt lat="40.02715" lon="-120.86998" />
      <trkpt lat="40.02709" lon="-120.86996" />
      <trkpt lat="40.02688" lon="-120.86972" />
      <trkpt lat="40.02671" lon="-120.86962" />
      <trkpt lat="40.02647" lon="-120.86952" />
      <trkpt lat="40.02641" lon="-120.86947" />
      <trkpt lat="40.02634" lon="-120.86935" />
      <trkpt lat="40.02631" lon="-120.86927" />
      <trkpt lat="40.02631" lon="-120.86898" />
      <trkpt lat="40.02627" lon="-120.8689" />
      <trkpt lat="40.02627" lon="-120.86876" />
      <trkpt lat="40.0264" lon="-120.86852" />
      <trkpt lat="40.0265" lon="-120.86825" />
      <trkpt lat="40.02668" lon="-120.86811" />
      <trkpt lat="40.02676" lon="-120.868" />
      <trkpt lat="40.02679" lon="-120.86793" />
      <trkpt lat="40.02686" lon="-120.86782" />
      <trkpt lat="40.02699" lon="-120.86776" />
      <trkpt lat="40.02705" lon="-120.86769" />
      <trkpt lat="40.02718" lon="-120.86766" />
      <trkpt lat="40.02731" lon="-120.86768" />
      <trkpt lat="40.02757" lon="-120.86751" />
      <trkpt lat="40.02776" lon="-120.86742" />
      <trkpt lat="40.02809" lon="-120.86728" />
      <trkpt lat="40.02824" lon="-120.86728" />
      <trkpt lat="40.0284" lon="-120.86736" />
      <trkpt lat="40.02866" lon="-120.86759" />
      <trkpt lat="40.02893" lon="-120.86773" />
      <trkpt lat="40.02913" lon="-120.86787" />
      <trkpt lat="40.02923" lon="-120.86791" />
      <trkpt lat="40.02931" lon="-120.86789" />
      <trkpt lat="40.02938" lon="-120.8679" />
      <trkpt lat="40.02949" lon="-120.86783" />
      <trkpt lat="40.02967" lon="-120.86757" />
      <trkpt lat="40.02969" lon="-120.8675" />
      <trkpt lat="40.02966" lon="-120.86733" />
      <trkpt lat="40.02957" lon="-120.86724" />
      <trkpt lat="40.02949" lon="-120.86728" />
      <trkpt lat="40.02931" lon="-120.8673" />
      <trkpt lat="40.02927" lon="-120.86728" />
      <trkpt lat="40.02918" lon="-120.8672" />
      <trkpt lat="40.02919" lon="-120.86701" />
      <trkpt lat="40.02918" lon="-120.86684" />
      <trkpt lat="40.02916" lon="-120.86678" />
      <trkpt lat="40.02923" lon="-120.86659" />
      <trkpt lat="40.02925" lon="-120.86642" />
      <trkpt lat="40.02922" lon="-120.86638" />
      <trkpt lat="40.02916" lon="-120.86634" />
      <trkpt lat="40.02905" lon="-120.86633" />
      <trkpt lat="40.02886" lon="-120.86619" />
      <trkpt lat="40.02882" lon="-120.86614" />
      <trkpt lat="40.02869" lon="-120.86617" />
      <trkpt lat="40.02863" lon="-120.86616" />
      <trkpt lat="40.0284" lon="-120.86601" />
      <trkpt lat="40.02799" lon="-120.86576" />
      <trkpt lat="40.02791" lon="-120.86576" />
      <trkpt lat="40.02777" lon="-120.86564" />
      <trkpt lat="40.02766" lon="-120.86563" />
      <trkpt lat="40.02744" lon="-120.86552" />
      <trkpt lat="40.02738" lon="-120.86538" />
      <trkpt lat="40.02726" lon="-120.8653" />
      <trkpt lat="40.02718" lon="-120.8652" />
      <trkpt lat="40.02694" lon="-120.86502" />
      <trkpt lat="40.02683" lon="-120.8649" />
      <trkpt lat="40.02675" lon="-120.86473" />
      <trkpt lat="40.02656" lon="-120.86456" />
      <trkpt lat="40.0265" lon="-120.86449" />
      <trkpt lat="40.0264" lon="-120.86429" />
      <trkpt lat="40.02636" lon="-120.86413" />
      <trkpt lat="40.02623" lon="-120.86395" />
      <trkpt lat="40.02614" lon="-120.86375" />
      <trkpt lat="40.02588" lon="-120.86361" />
      <trkpt lat="40.02583" lon="-120.86354" />
      <trkpt lat="40.02575" lon="-120.8635" />
      <trkpt lat="40.02557" lon="-120.86332" />
      <trkpt lat="40.02555" lon="-120.86323" />
      <trkpt lat="40.02546" lon="-120.86306" />
      <trkpt lat="40.02539" lon="-120.86302" />
      <trkpt lat="40.02532" lon="-120.863" />
      <trkpt lat="40.02526" lon="-120.86295" />
      <trkpt lat="40.02509" lon="-120.86271" />
      <trkpt lat="40.02508" lon="-120.86263" />
      <trkpt lat="40.02494" lon="-120.86258" />
      <trkpt lat="40.02476" lon="-120.86247" />
      <trkpt lat="40.02467" lon="-120.86246" />
      <trkpt lat="40.0246" lon="-120.86243" />
      <trkpt lat="40.0245" lon="-120.86246" />
      <trkpt lat="40.02432" lon="-120.86244" />
      <trkpt lat="40.02428" lon="-120.86242" />
      <trkpt lat="40.02419" lon="-120.86243" />
      <trkpt lat="40.02401" lon="-120.86234" />
      <trkpt lat="40.02387" lon="-120.86237" />
      <trkpt lat="40.02373" lon="-120.86233" />
      <trkpt lat="40.02363" lon="-120.86225" />
      <trkpt lat="40.02338" lon="-120.86215" />
      <trkpt lat="40.02338" lon="-120.86205" />
      <trkpt lat="40.0233" lon="-120.86192" />
      <trkpt lat="40.0232" lon="-120.86182" />
      <trkpt lat="40.02318" lon="-120.86175" />
      <trkpt lat="40.02311" lon="-120.86172" />
      <trkpt lat="40.02306" lon="-120.86176" />
      <trkpt lat="40.02295" lon="-120.8618" />
      <trkpt lat="40.02273" lon="-120.86182" />
      <trkpt lat="40.02261" lon="-120.8619" />
      <trkpt lat="40.02255" lon="-120.86199" />
      <trkpt lat="40.02246" lon="-120.86207" />
      <trkpt lat="40.02239" lon="-120.86211" />
      <trkpt lat="40.02223" lon="-120.86214" />
      <trkpt lat="40.02211" lon="-120.86218" />
      <trkpt lat="40.02193" lon="-120.86213" />
      <trkpt lat="40.02181" lon="-120.86213" />
      <trkpt lat="40.0218" lon="-120.8621" />
      <trkpt lat="40.02175" lon="-120.86211" />
      <trkpt lat="40.0216" lon="-120.8621" />
      <trkpt lat="40.02153" lon="-120.86211" />
      <trkpt lat="40.02149" lon="-120.86209" />
      <trkpt lat="40.02142" lon="-120.86214" />
      <trkpt lat="40.0214" lon="-120.8622" />
      <trkpt lat="40.02118" lon="-120.86229" />
      <trkpt lat="40.02111" lon="-120.86227" />
      <trkpt lat="40.02098" lon="-120.86207" />
      <trkpt lat="40.02088" lon="-120.86203" />
      <trkpt lat="40.02083" lon="-120.86206" />
      <trkpt lat="40.02081" lon="-120.86212" />
      <trkpt lat="40.02084" lon="-120.86226" />
      <trkpt lat="40.02084" lon="-120.86233" />
      <trkpt lat="40.02073" lon="-120.86235" />
      <trkpt lat="40.02062" lon="-120.86223" />
      <trkpt lat="40.02037" lon="-120.86207" />
      <trkpt lat="40.02025" lon="-120.86197" />
      <trkpt lat="40.02" lon="-120.86192" />
      <trkpt lat="40.01981" lon="-120.86198" />
      <trkpt lat="40.01975" lon="-120.86201" />
      <trkpt lat="40.01965" lon="-120.86204" />
      <trkpt lat="40.01954" lon="-120.86203" />
      <trkpt lat="40.01949" lon="-120.86205" />
      <trkpt lat="40.01934" lon="-120.8622" />
      <trkpt lat="40.01921" lon="-120.86226" />
      <trkpt lat="40.01912" lon="-120.86217" />
      <trkpt lat="40.01913" lon="-120.86202" />
      <trkpt lat="40.01909" lon="-120.8619" />
      <trkpt lat="40.01905" lon="-120.86189" />
      <trkpt lat="40.01898" lon="-120.86205" />
      <trkpt lat="40.01885" lon="-120.86217" />
      <trkpt lat="40.01877" lon="-120.86234" />
      <trkpt lat="40.01868" lon="-120.86244" />
      <trkpt lat="40.01863" lon="-120.86246" />
      <trkpt lat="40.01857" lon="-120.8624" />
      <trkpt lat="40.01854" lon="-120.86233" />
      <trkpt lat="40.01848" lon="-120.86207" />
      <trkpt lat="40.01823" lon="-120.8615" />
      <trkpt lat="40.01818" lon="-120.86143" />
      <trkpt lat="40.01809" lon="-120.86122" />
      <trkpt lat="40.01801" lon="-120.86117" />
      <trkpt lat="40.01791" lon="-120.86104" />
      <trkpt lat="40.01775" lon="-120.86112" />
      <trkpt lat="40.0178" lon="-120.86138" />
      <trkpt lat="40.01781" lon="-120.86157" />
      <trkpt lat="40.01779" lon="-120.86164" />
      <trkpt lat="40.0177" lon="-120.86172" />
      <trkpt lat="40.01728" lon="-120.86198" />
      <trkpt lat="40.0172" lon="-120.862" />
      <trkpt lat="40.01712" lon="-120.86199" />
      <trkpt lat="40.01707" lon="-120.86196" />
      <trkpt lat="40.01701" lon="-120.86197" />
      <trkpt lat="40.01694" lon="-120.86201" />
      <trkpt lat="40.0169" lon="-120.862" />
      <trkpt lat="40.01682" lon="-120.86192" />
      <trkpt lat="40.01672" lon="-120.86188" />
      <trkpt lat="40.01658" lon="-120.86193" />
      <trkpt lat="40.01642" lon="-120.8618" />
      <trkpt lat="40.01634" lon="-120.86164" />
      <trkpt lat="40.01632" lon="-120.86162" />
      <trkpt lat="40.01621" lon="-120.86162" />
      <trkpt lat="40.01613" lon="-120.86168" />
      <trkpt lat="40.01602" lon="-120.86168" />
      <trkpt lat="40.01599" lon="-120.86167" />
      <trkpt lat="40.01592" lon="-120.8616" />
      <trkpt lat="40.01583" lon="-120.86136" />
      <trkpt lat="40.0158" lon="-120.86132" />
      <trkpt lat="40.01562" lon="-120.86128" />
      <trkpt lat="40.01556" lon="-120.86125" />
      <trkpt lat="40.01553" lon="-120.86114" />
      <trkpt lat="40.01539" lon="-120.86102" />
      <trkpt lat="40.01518" lon="-120.86097" />
      <trkpt lat="40.015" lon="-120.86088" />
      <trkpt lat="40.01492" lon="-120.86081" />
      <trkpt lat="40.01481" lon="-120.86075" />
      <trkpt lat="40.01467" lon="-120.86074" />
      <trkpt lat="40.01448" lon="-120.86069" />
      <trkpt lat="40.01435" lon="-120.86056" />
      <trkpt lat="40.01429" lon="-120.86053" />
      <trkpt lat="40.01422" lon="-120.86054" />
      <trkpt lat="40.0141" lon="-120.8605" />
      <trkpt lat="40.01403" lon="-120.86043" />
      <trkpt lat="40.01376" lon="-120.86034" />
      <trkpt lat="40.01363" lon="-120.86024" />
      <trkpt lat="40.01351" lon="-120.86009" />
      <trkpt lat="40.01342" lon="-120.86001" />
      <trkpt lat="40.01324" lon="-120.85996" />
      <trkpt lat="40.01308" lon="-120.85996" />
      <trkpt lat="40.01297" lon="-120.85993" />
      <trkpt lat="40.01291" lon="-120.85993" />
      <trkpt lat="40.01297" lon="-120.85984" />
      <trkpt lat="40.01286" lon="-120.85985" />
      <trkpt lat="40.01262" lon="-120.8598" />
      <trkpt lat="40.01237" lon="-120.8598" />
      <trkpt lat="40.01223" lon="-120.85994" />
      <trkpt lat="40.01209" lon="-120.85998" />
      <trkpt lat="40.012" lon="-120.86004" />
      <trkpt lat="40.01182" lon="-120.86007" />
      <trkpt lat="40.01163" lon="-120.86015" />
      <trkpt lat="40.01156" lon="-120.86017" />
      <trkpt lat="40.01151" lon="-120.86013" />
      <trkpt lat="40.01139" lon="-120.86014" />
      <trkpt lat="40.01135" lon="-120.86017" />
      <trkpt lat="40.0111" lon="-120.86022" />
      <trkpt lat="40.01102" lon="-120.8603" />
      <trkpt lat="40.01099" lon="-120.86042" />
      <trkpt lat="40.01091" lon="-120.86061" />
      <trkpt lat="40.01063" lon="-120.86084" />
      <trkpt lat="40.01048" lon="-120.86099" />
      <trkpt lat="40.01038" lon="-120.86106" />
      <trkpt lat="40.01027" lon="-120.86107" />
      <trkpt lat="40.01007" lon="-120.86104" />
      <trkpt lat="40.00997" lon="-120.86111" />
      <trkpt lat="40.00985" lon="-120.86112" />
      <trkpt lat="40.00974" lon="-120.86109" />
      <trkpt lat="40.00958" lon="-120.86098" />
      <trkpt lat="40.00953" lon="-120.86096" />
      <trkpt lat="40.00941" lon="-120.86101" />
      <trkpt lat="40.00916" lon="-120.86121" />
      <trkpt lat="40.00876" lon="-120.8614" />
      <trkpt lat="40.00864" lon="-120.86148" />
      <trkpt lat="40.00854" lon="-120.86149" />
      <trkpt lat="40.00848" lon="-120.86152" />
      <trkpt lat="40.0082" lon="-120.8617" />
      <trkpt lat="40.00806" lon="-120.86183" />
      <trkpt lat="40.00768" lon="-120.86234" />
      <trkpt lat="40.0076" lon="-120.86241" />
      <trkpt lat="40.00721" lon="-120.86263" />
      <trkpt lat="40.00686" lon="-120.8627" />
      <trkpt lat="40.00654" lon="-120.86286" />
      <trkpt lat="40.00631" lon="-120.86303" />
      <trkpt lat="40.00589" lon="-120.86346" />
      <trkpt lat="40.00583" lon="-120.8635" />
      <trkpt lat="40.00573" lon="-120.86352" />
      <trkpt lat="40.00566" lon="-120.86352" />
      <trkpt lat="40.00558" lon="-120.86349" />
      <trkpt lat="40.00547" lon="-120.8634" />
      <trkpt lat="40.00536" lon="-120.86323" />
      <trkpt lat="40.00531" lon="-120.86313" />
      <trkpt lat="40.00519" lon="-120.86305" />
      <trkpt lat="40.00508" lon="-120.86279" />
      <trkpt lat="40.00508" lon="-120.86271" />
      <trkpt lat="40.00495" lon="-120.86238" />
      <trkpt lat="40.0049" lon="-120.86231" />
      <trkpt lat="40.00481" lon="-120.86209" />
      <trkpt lat="40.00456" lon="-120.86165" />
      <trkpt lat="40.00447" lon="-120.86156" />
      <trkpt lat="40.00428" lon="-120.86143" />
      <trkpt lat="40.00395" lon="-120.86112" />
      <trkpt lat="40.0037" lon="-120.861" />
      <trkpt lat="40.00363" lon="-120.861" />
      <trkpt lat="40.00353" lon="-120.86097" />
      <trkpt lat="40.00347" lon="-120.86098" />
      <trkpt lat="40.00331" lon="-120.86096" />
      <trkpt lat="40.0031" lon="-120.86096" />
      <trkpt lat="40.00302" lon="-120.86095" />
      <trkpt lat="40.00281" lon="-120.86098" />
      <trkpt lat="40.00253" lon="-120.86105" />
      <trkpt lat="40.00245" lon="-120.86109" />
      <trkpt lat="40.00226" lon="-120.86122" />
      <trkpt lat="40.00213" lon="-120.86122" />
      <trkpt lat="40.00197" lon="-120.86117" />
      <trkpt lat="40.00181" lon="-120.86116" />
      <trkpt lat="40.0016" lon="-120.86119" />
      <trkpt lat="40.00144" lon="-120.86116" />
      <trkpt lat="40.00137" lon="-120.86117" />
      <trkpt lat="40.00132" lon="-120.86116" />
      <trkpt lat="40.00119" lon="-120.86121" />
      <trkpt lat="40.00106" lon="-120.86165" />
      <trkpt lat="40.00103" lon="-120.86183" />
      <trkpt lat="40.00102" lon="-120.86201" />
      <trkpt lat="40.00097" lon="-120.86215" />
      <trkpt lat="40.00089" lon="-120.86228" />
      <trkpt lat="40.00089" lon="-120.86243" />
      <trkpt lat="40.00088" lon="-120.8625" />
      <trkpt lat="40.00077" lon="-120.8627" />
      <trkpt lat="40.00071" lon="-120.8627" />
      <trkpt lat="40.00058" lon="-120.86262" />
      <trkpt lat="40.00039" lon="-120.86242" />
      <trkpt lat="40.00028" lon="-120.86217" />
      <trkpt lat="40.00009" lon="-120.86188" />
      <trkpt lat="39.99985" lon="-120.86188" />
      <trkpt lat="39.99979" lon="-120.86185" />
      <trkpt lat="39.99979" lon="-120.86176" />
      <trkpt lat="39.99974" lon="-120.86162" />
      <trkpt lat="39.9997" lon="-120.86155" />
      <trkpt lat="39.9996" lon="-120.86144" />
      <trkpt lat="39.99954" lon="-120.86129" />
      <trkpt lat="39.99949" lon="-120.86125" />
      <trkpt lat="39.99938" lon="-120.86125" />
      <trkpt lat="39.99929" lon="-120.86113" />
      <trkpt lat="39.99923" lon="-120.86112" />
      <trkpt lat="39.9992" lon="-120.86116" />
      <trkpt lat="39.99918" lon="-120.86122" />
      <trkpt lat="39.99905" lon="-120.86172" />
      <trkpt lat="39.99908" lon="-120.86202" />
      <trkpt lat="39.99913" lon="-120.86233" />
      <trkpt lat="39.99909" lon="-120.86261" />
      <trkpt lat="39.99898" lon="-120.8626" />
      <trkpt lat="39.99889" lon="-120.86238" />
      <trkpt lat="39.99884" lon="-120.86232" />
      <trkpt lat="39.99874" lon="-120.86206" />
      <trkpt lat="39.99873" lon="-120.86199" />
      <trkpt lat="39.99862" lon="-120.86182" />
      <trkpt lat="39.99837" lon="-120.86158" />
      <trkpt lat="39.99825" lon="-120.86151" />
      <trkpt lat="39.99816" lon="-120.8615" />
      <trkpt lat="39.99812" lon="-120.86164" />
      <trkpt lat="39.99813" lon="-120.86173" />
      <trkpt lat="39.99809" lon="-120.8619" />
      <trkpt lat="39.99808" lon="-120.86207" />
      <trkpt lat="39.99809" lon="-120.86214" />
      <trkpt lat="39.99813" lon="-120.86219" />
      <trkpt lat="39.99814" lon="-120.86224" />
      <trkpt lat="39.99811" lon="-120.86227" />
      <trkpt lat="39.99807" lon="-120.86227" />
      <trkpt lat="39.99798" lon="-120.86213" />
      <trkpt lat="39.99793" lon="-120.86208" />
      <trkpt lat="39.99763" lon="-120.86187" />
      <trkpt lat="39.9975" lon="-120.86183" />
      <trkpt lat="39.99743" lon="-120.86182" />
      <trkpt lat="39.99739" lon="-120.86172" />
      <trkpt lat="39.99726" lon="-120.86172" />
      <trkpt lat="39.99727" lon="-120.86184" />
      <trkpt lat="39.9973" lon="-120.86186" />
      <trkpt lat="39.99731" lon="-120.86197" />
      <trkpt lat="39.99727" lon="-120.8624" />
      <trkpt lat="39.99728" lon="-120.86263" />
      <trkpt lat="39.99727" lon="-120.86272" />
      <trkpt lat="39.99712" lon="-120.86302" />
      <trkpt lat="39.99699" lon="-120.86322" />
      <trkpt lat="39.99692" lon="-120.86341" />
      <trkpt lat="39.99686" lon="-120.86353" />
      <trkpt lat="39.99675" lon="-120.86362" />
      <trkpt lat="39.99668" lon="-120.86364" />
      <trkpt lat="39.99658" lon="-120.86362" />
      <trkpt lat="39.99654" lon="-120.86365" />
      <trkpt lat="39.99639" lon="-120.86391" />
      <trkpt lat="39.99636" lon="-120.86408" />
      <trkpt lat="39.99632" lon="-120.86411" />
      <trkpt lat="39.99621" lon="-120.86408" />
      <trkpt lat="39.99612" lon="-120.86398" />
      <trkpt lat="39.99592" lon="-120.8638" />
      <trkpt lat="39.99585" lon="-120.86377" />
      <trkpt lat="39.99571" lon="-120.86383" />
      <trkpt lat="39.99565" lon="-120.86389" />
      <trkpt lat="39.99553" lon="-120.86418" />
      <trkpt lat="39.99544" lon="-120.86431" />
      <trkpt lat="39.99545" lon="-120.86438" />
      <trkpt lat="39.99554" lon="-120.86466" />
      <trkpt lat="39.99567" lon="-120.86494" />
      <trkpt lat="39.99573" lon="-120.86511" />
      <trkpt lat="39.99589" lon="-120.86568" />
      <trkpt lat="39.99612" lon="-120.86602" />
      <trkpt lat="39.99624" lon="-120.86627" />
      <trkpt lat="39.99626" lon="-120.86638" />
      <trkpt lat="39.99626" lon="-120.86649" />
      <trkpt lat="39.99624" lon="-120.86655" />
      <trkpt lat="39.99604" lon="-120.86675" />
      <trkpt lat="39.99598" lon="-120.86677" />
      <trkpt lat="39.99564" lon="-120.86705" />
      <trkpt lat="39.99548" lon="-120.86713" />
      <trkpt lat="39.99541" lon="-120.86718" />
      <trkpt lat="39.99533" lon="-120.86727" />
      <trkpt lat="39.9953" lon="-120.86746" />
      <trkpt lat="39.99514" lon="-120.86795" />
      <trkpt lat="39.99505" lon="-120.86812" />
      <trkpt lat="39.99504" lon="-120.86822" />
      <trkpt lat="39.99505" lon="-120.86831" />
      <trkpt lat="39.99508" lon="-120.86839" />
      <trkpt lat="39.99526" lon="-120.86858" />
      <trkpt lat="39.99534" lon="-120.86876" />
      <trkpt lat="39.9954" lon="-120.86898" />
      <trkpt lat="39.99541" lon="-120.86906" />
      <trkpt lat="39.99539" lon="-120.8691" />
      <trkpt lat="39.99535" lon="-120.8691" />
      <trkpt lat="39.99525" lon="-120.86917" />
      <trkpt lat="39.99506" lon="-120.86924" />
      <trkpt lat="39.99501" lon="-120.86919" />
      <trkpt lat="39.99491" lon="-120.86914" />
      <trkpt lat="39.99488" lon="-120.86906" />
      <trkpt lat="39.99483" lon="-120.86902" />
      <trkpt lat="39.99475" lon="-120.86904" />
      <trkpt lat="39.99474" lon="-120.86909" />
      <trkpt lat="39.99478" lon="-120.86927" />
      <trkpt lat="39.99479" lon="-120.86939" />
      <trkpt lat="39.99475" lon="-120.87" />
      <trkpt lat="39.99467" lon="-120.87013" />
      <trkpt lat="39.99462" lon="-120.87038" />
      <trkpt lat="39.99456" lon="-120.87051" />
      <trkpt lat="39.99454" lon="-120.87059" />
      <trkpt lat="39.99457" lon="-120.87072" />
      <trkpt lat="39.99458" lon="-120.8708" />
      <trkpt lat="39.99453" lon="-120.87118" />
      <trkpt lat="39.99439" lon="-120.8715" />
      <trkpt lat="39.99439" lon="-120.87155" />
      <trkpt lat="39.99443" lon="-120.87158" />
      <trkpt lat="39.99449" lon="-120.87154" />
      <trkpt lat="39.99474" lon="-120.87148" />
      <trkpt lat="39.99479" lon="-120.87176" />
      <trkpt lat="39.99477" lon="-120.87182" />
      <trkpt lat="39.99468" lon="-120.87201" />
      <trkpt lat="39.99464" lon="-120.87206" />
      <trkpt lat="39.99455" lon="-120.87213" />
      <trkpt lat="39.99454" lon="-120.87217" />
      <trkpt lat="39.99456" lon="-120.87227" />
      <trkpt lat="39.99461" lon="-120.87233" />
      <trkpt lat="39.99472" lon="-120.87236" />
      <trkpt lat="39.99478" lon="-120.87248" />
      <trkpt lat="39.99478" lon="-120.87269" />
      <trkpt lat="39.99476" lon="-120.87278" />
      <trkpt lat="39.99469" lon="-120.87292" />
      <trkpt lat="39.99459" lon="-120.87298" />
      <trkpt lat="39.99453" lon="-120.87307" />
      <trkpt lat="39.99451" lon="-120.87312" />
      <trkpt lat="39.9945" lon="-120.87326" />
      <trkpt lat="39.99447" lon="-120.87331" />
      <trkpt lat="39.99442" lon="-120.87333" />
      <trkpt lat="39.99436" lon="-120.87338" />
      <trkpt lat="39.99425" lon="-120.87345" />
      <trkpt lat="39.99407" lon="-120.87387" />
      <trkpt lat="39.99402" lon="-120.8739" />
      <trkpt lat="39.99397" lon="-120.87388" />
      <trkpt lat="39.99378" lon="-120.87365" />
      <trkpt lat="39.99358" lon="-120.87355" />
      <trkpt lat="39.99346" lon="-120.87346" />
      <trkpt lat="39.99341" lon="-120.87345" />
      <trkpt lat="39.99331" lon="-120.87349" />
      <trkpt lat="39.99311" lon="-120.8735" />
      <trkpt lat="39.99303" lon="-120.87349" />
      <trkpt lat="39.99298" lon="-120.87346" />
      <trkpt lat="39.9928" lon="-120.87346" />
      <trkpt lat="39.99275" lon="-120.87343" />
      <trkpt lat="39.99262" lon="-120.87346" />
      <trkpt lat="39.99248" lon="-120.87354" />
      <trkpt lat="39.99244" lon="-120.87358" />
      <trkpt lat="39.99235" lon="-120.87372" />
      <trkpt lat="39.99223" lon="-120.87382" />
      <trkpt lat="39.99194" lon="-120.8742" />
      <trkpt lat="39.99179" lon="-120.87435" />
      <trkpt lat="39.9915" lon="-120.87459" />
      <trkpt lat="39.99139" lon="-120.87479" />
      <trkpt lat="39.99118" lon="-120.87505" />
      <trkpt lat="39.99092" lon="-120.87521" />
      <trkpt lat="39.9908" lon="-120.87522" />
      <trkpt lat="39.99068" lon="-120.87528" />
      <trkpt lat="39.99049" lon="-120.87529" />
      <trkpt lat="39.99032" lon="-120.87527" />
      <trkpt lat="39.99026" lon="-120.8753" />
      <trkpt lat="39.99004" lon="-120.87565" />
      <trkpt lat="39.98992" lon="-120.87577" />
      <trkpt lat="39.98985" lon="-120.87592" />
      <trkpt lat="39.98967" lon="-120.87614" />
      <trkpt lat="39.98963" lon="-120.87616" />
      <trkpt lat="39.98958" lon="-120.87615" />
      <trkpt lat="39.98954" lon="-120.87612" />
      <trkpt lat="39.98953" lon="-120.87606" />
      <trkpt lat="39.98953" lon="-120.876" />
      <trkpt lat="39.9896" lon="-120.87585" />
      <trkpt lat="39.98959" lon="-120.87579" />
      <trkpt lat="39.98955" lon="-120.87576" />
      <trkpt lat="39.98951" lon="-120.87575" />
      <trkpt lat="39.98927" lon="-120.87587" />
      <trkpt lat="39.98915" lon="-120.87603" />
      <trkpt lat="39.9891" lon="-120.87642" />
      <trkpt lat="39.9891" lon="-120.87658" />
      <trkpt lat="39.98914" lon="-120.87676" />
      <trkpt lat="39.98916" lon="-120.87683" />
      <trkpt lat="39.98927" lon="-120.87697" />
      <trkpt lat="39.98927" lon="-120.87702" />
      <trkpt lat="39.98923" lon="-120.87705" />
      <trkpt lat="39.98918" lon="-120.87703" />
      <trkpt lat="39.98905" lon="-120.87691" />
      <trkpt lat="39.98884" lon="-120.87682" />
      <trkpt lat="39.98872" lon="-120.87673" />
      <trkpt lat="39.98867" lon="-120.87667" />
      <trkpt lat="39.98863" lon="-120.87661" />
      <trkpt lat="39.9886" lon="-120.87645" />
      <trkpt lat="39.98855" lon="-120.87604" />
      <trkpt lat="39.98838" lon="-120.87599" />
      <trkpt lat="39.98826" lon="-120.87594" />
      <trkpt lat="39.98823" lon="-120.87588" />
      <trkpt lat="39.98821" lon="-120.8758" />
      <trkpt lat="39.98822" lon="-120.8756" />
      <trkpt lat="39.9882" lon="-120.87555" />
      <trkpt lat="39.98815" lon="-120.87555" />
      <trkpt lat="39.9881" lon="-120.87557" />
      <trkpt lat="39.98805" lon="-120.87563" />
      <trkpt lat="39.98801" lon="-120.87571" />
      <trkpt lat="39.988" lon="-120.87579" />
      <trkpt lat="39.98802" lon="-120.87604" />
      <trkpt lat="39.98802" lon="-120.87652" />
      <trkpt lat="39.98788" lon="-120.87689" />
      <trkpt lat="39.98784" lon="-120.87709" />
      <trkpt lat="39.98785" lon="-120.87729" />
      <trkpt lat="39.98783" lon="-120.8775" />
      <trkpt lat="39.98787" lon="-120.87781" />
      <trkpt lat="39.98786" lon="-120.8779" />
      <trkpt lat="39.98783" lon="-120.87798" />
      <trkpt lat="39.98768" lon="-120.87829" />
      <trkpt lat="39.98753" lon="-120.87852" />
      <trkpt lat="39.98746" lon="-120.87869" />
      <trkpt lat="39.98731" lon="-120.87893" />
      <trkpt lat="39.98717" lon="-120.87942" />
      <trkpt lat="39.98716" lon="-120.87961" />
      <trkpt lat="39.98722" lon="-120.87989" />
      <trkpt lat="39.98723" lon="-120.88003" />
      <trkpt lat="39.9872" lon="-120.88073" />
      <trkpt lat="39.98725" lon="-120.88098" />
      <trkpt lat="39.98729" lon="-120.88108" />
      <trkpt lat="39.98735" lon="-120.88113" />
      <trkpt lat="39.98742" lon="-120.88126" />
      <trkpt lat="39.98744" lon="-120.88136" />
      <trkpt lat="39.98758" lon="-120.88168" />
      <trkpt lat="39.98759" lon="-120.88175" />
      <trkpt lat="39.98758" lon="-120.8819" />
      <trkpt lat="39.98762" lon="-120.88226" />
      <trkpt lat="39.9877" lon="-120.88241" />
      <trkpt lat="39.98775" lon="-120.88258" />
      <trkpt lat="39.98788" lon="-120.88283" />
      <trkpt lat="39.98798" lon="-120.88297" />
      <trkpt lat="39.98805" lon="-120.88302" />
      <trkpt lat="39.98827" lon="-120.88333" />
      <trkpt lat="39.98835" lon="-120.88336" />
      <trkpt lat="39.98839" lon="-120.88342" />
      <trkpt lat="39.98834" lon="-120.8835" />
      <trkpt lat="39.98831" lon="-120.88375" />
      <trkpt lat="39.98832" lon="-120.88387" />
      <trkpt lat="39.98844" lon="-120.88416" />
      <trkpt lat="39.98854" lon="-120.88454" />
      <trkpt lat="39.98854" lon="-120.88472" />
      <trkpt lat="39.98859" lon="-120.88485" />
      <trkpt lat="39.98863" lon="-120.88491" />
      <trkpt lat="39.98859" lon="-120.88498" />
      <trkpt lat="39.98846" lon="-120.88499" />
      <trkpt lat="39.98838" lon="-120.8849" />
      <trkpt lat="39.9883" lon="-120.88488" />
      <trkpt lat="39.98818" lon="-120.88478" />
      <trkpt lat="39.98811" lon="-120.88476" />
      <trkpt lat="39.98798" lon="-120.88469" />
      <trkpt lat="39.98788" lon="-120.88461" />
      <trkpt lat="39.98779" lon="-120.88449" />
      <trkpt lat="39.98773" lon="-120.88445" />
      <trkpt lat="39.98745" lon="-120.88416" />
      <trkpt lat="39.98738" lon="-120.88413" />
      <trkpt lat="39.98713" lon="-120.88411" />
      <trkpt lat="39.987" lon="-120.88405" />
      <trkpt lat="39.98695" lon="-120.88401" />
      <trkpt lat="39.9869" lon="-120.884" />
      <trkpt lat="39.98687" lon="-120.88403" />
      <trkpt lat="39.98687" lon="-120.88411" />
      <trkpt lat="39.98699" lon="-120.88438" />
      <trkpt lat="39.98703" lon="-120.88453" />
      <trkpt lat="39.98701" lon="-120.8849" />
      <trkpt lat="39.98699" lon="-120.88497" />
      <trkpt lat="39.98686" lon="-120.88504" />
      <trkpt lat="39.98675" lon="-120.88512" />
      <trkpt lat="39.98671" lon="-120.88518" />
      <trkpt lat="39.98669" lon="-120.88523" />
      <trkpt lat="39.98668" lon="-120.8853" />
      <trkpt lat="39.98671" lon="-120.8855" />
      <trkpt lat="39.98669" lon="-120.88592" />
      <trkpt lat="39.98663" lon="-120.88609" />
      <trkpt lat="39.98654" lon="-120.88625" />
      <trkpt lat="39.98647" lon="-120.88629" />
      <trkpt lat="39.98613" lon="-120.88629" />
      <trkpt lat="39.98605" lon="-120.88632" />
      <trkpt lat="39.98596" lon="-120.88632" />
      <trkpt lat="39.98589" lon="-120.8863" />
      <trkpt lat="39.98575" lon="-120.88622" />
      <trkpt lat="39.98567" lon="-120.8862" />
      <trkpt lat="39.98547" lon="-120.88605" />
      <trkpt lat="39.98526" lon="-120.88595" />
      <trkpt lat="39.98518" lon="-120.88597" />
      <trkpt lat="39.98473" lon="-120.886" />
      <trkpt lat="39.98462" lon="-120.88602" />
      <trkpt lat="39.9846" lon="-120.88614" />
      <trkpt lat="39.9847" lon="-120.88669" />
      <trkpt lat="39.98471" lon="-120.88691" />
      <trkpt lat="39.98475" lon="-120.88695" />
      <trkpt lat="39.98483" lon="-120.88713" />
      <trkpt lat="39.98483" lon="-120.88725" />
      <trkpt lat="39.98479" lon="-120.88731" />
      <trkpt lat="39.98472" lon="-120.88728" />
      <trkpt lat="39.98449" lon="-120.8873" />
      <trkpt lat="39.98443" lon="-120.88729" />
      <trkpt lat="39.9843" lon="-120.88728" />
      <trkpt lat="39.98396" lon="-120.88734" />
      <trkpt lat="39.98388" lon="-120.88734" />
      <trkpt lat="39.9838" lon="-120.88732" />
      <trkpt lat="39.98343" lon="-120.8874" />
      <trkpt lat="39.98334" lon="-120.88739" />
      <trkpt lat="39.98321" lon="-120.88741" />
      <trkpt lat="39.98311" lon="-120.88744" />
      <trkpt lat="39.98305" lon="-120.88755" />
      <trkpt lat="39.98303" lon="-120.88765" />
      <trkpt lat="39.98304" lon="-120.88805" />
      <trkpt lat="39.98309" lon="-120.88835" />
      <trkpt lat="39.98317" lon="-120.88867" />
      <trkpt lat="39.98319" lon="-120.88897" />
      <trkpt lat="39.98321" lon="-120.88916" />
      <trkpt lat="39.98301" lon="-120.88935" />
      <trkpt lat="39.9829" lon="-120.88958" />
      <trkpt lat="39.98289" lon="-120.88981" />
      <trkpt lat="39.98284" lon="-120.89029" />
      <trkpt lat="39.98273" lon="-120.89076" />
      <trkpt lat="39.98264" lon="-120.89103" />
      <trkpt lat="39.98255" lon="-120.89119" />
      <trkpt lat="39.98253" lon="-120.89131" />
      <trkpt lat="39.98254" lon="-120.89146" />
      <trkpt lat="39.98258" lon="-120.89157" />
      <trkpt lat="39.98295" lon="-120.89188" />
      <trkpt lat="39.98315" lon="-120.892" />
      <trkpt lat="39.98326" lon="-120.8921" />
      <trkpt lat="39.98331" lon="-120.89221" />
      <trkpt lat="39.98333" lon="-120.89237" />
      <trkpt lat="39.98333" lon="-120.89253" />
      <trkpt lat="39.98323" lon="-120.89293" />
      <trkpt lat="39.98324" lon="-120.89305" />
      <trkpt lat="39.98324" lon="-120.89319" />
      <trkpt lat="39.9832" lon="-120.89337" />
      <trkpt lat="39.98317" lon="-120.89374" />
      <trkpt lat="39.98318" lon="-120.8939" />
      <trkpt lat="39.98316" lon="-120.89415" />
      <trkpt lat="39.98318" lon="-120.89424" />
      <trkpt lat="39.98311" lon="-120.89464" />
      <trkpt lat="39.98312" lon="-120.89488" />
      <trkpt lat="39.98314" lon="-120.895" />
      <trkpt lat="39.98306" lon="-120.89523" />
      <trkpt lat="39.98308" lon="-120.89531" />
      <trkpt lat="39.98304" lon="-120.89557" />
      <trkpt lat="39.98303" lon="-120.89582" />
      <trkpt lat="39.98303" lon="-120.89591" />
      <trkpt lat="39.98315" lon="-120.8963" />
      <trkpt lat="39.98324" lon="-120.8965" />
      <trkpt lat="39.98324" lon="-120.89663" />
      <trkpt lat="39.98322" lon="-120.89692" />
      <trkpt lat="39.98318" lon="-120.89712" />
      <trkpt lat="39.98321" lon="-120.89727" />
      <trkpt lat="39.98325" lon="-120.89732" />
      <trkpt lat="39.98323" lon="-120.89762" />
      <trkpt lat="39.98322" lon="-120.8977" />
      <trkpt lat="39.98313" lon="-120.89799" />
      <trkpt lat="39.98306" lon="-120.89835" />
      <trkpt lat="39.98311" lon="-120.89843" />
      <trkpt lat="39.98314" lon="-120.89871" />
      <trkpt lat="39.98313" lon="-120.89893" />
      <trkpt lat="39.98314" lon="-120.89941" />
      <trkpt lat="39.9831" lon="-120.89966" />
      <trkpt lat="39.98295" lon="-120.89993" />
      <trkpt lat="39.98285" lon="-120.90004" />
      <trkpt lat="39.98274" lon="-120.90013" />
      <trkpt lat="39.98273" lon="-120.90017" />
      <trkpt lat="39.98276" lon="-120.90021" />
      <trkpt lat="39.98279" lon="-120.90021" />
      <trkpt lat="39.98294" lon="-120.90018" />
      <trkpt lat="39.98299" lon="-120.90014" />
      <trkpt lat="39.98318" lon="-120.89998" />
      <trkpt lat="39.98325" lon="-120.89986" />
      <trkpt lat="39.98337" lon="-120.89974" />
      <trkpt lat="39.98348" lon="-120.89945" />
      <trkpt lat="39.98348" lon="-120.89933" />
      <trkpt lat="39.98352" lon="-120.89903" />
      <trkpt lat="39.9836" lon="-120.89863" />
      <trkpt lat="39.98362" lon="-120.8985" />
      <trkpt lat="39.98364" lon="-120.89845" />
      <trkpt lat="39.98369" lon="-120.89841" />
      <trkpt lat="39.98383" lon="-120.89834" />
      <trkpt lat="39.98396" lon="-120.89821" />
      <trkpt lat="39.98414" lon="-120.89791" />
      <trkpt lat="39.98417" lon="-120.8978" />
      <trkpt lat="39.98424" lon="-120.89769" />
      <trkpt lat="39.98439" lon="-120.89735" />
      <trkpt lat="39.98447" lon="-120.89708" />
      <trkpt lat="39.98444" lon="-120.89689" />
      <trkpt lat="39.98444" lon="-120.89683" />
      <trkpt lat="39.98447" lon="-120.89672" />
      <trkpt lat="39.98457" lon="-120.89673" />
      <trkpt lat="39.98463" lon="-120.8968" />
      <trkpt lat="39.98476" lon="-120.89681" />
      <trkpt lat="39.98497" lon="-120.89668" />
      <trkpt lat="39.98509" lon="-120.89665" />
      <trkpt lat="39.98525" lon="-120.89657" />
      <trkpt lat="39.98537" lon="-120.89654" />
      <trkpt lat="39.98556" lon="-120.89656" />
      <trkpt lat="39.98562" lon="-120.8966" />
      <trkpt lat="39.98569" lon="-120.89671" />
      <trkpt lat="39.98569" lon="-120.89676" />
      <trkpt lat="39.98567" lon="-120.89681" />
      <trkpt lat="39.98555" lon="-120.89703" />
      <trkpt lat="39.9854" lon="-120.8971" />
      <trkpt lat="39.98521" lon="-120.89725" />
      <trkpt lat="39.98497" lon="-120.89753" />
      <trkpt lat="39.98491" lon="-120.89769" />
      <trkpt lat="39.98468" lon="-120.89812" />
      <trkpt lat="39.98463" lon="-120.8983" />
      <trkpt lat="39.98453" lon="-120.89851" />
      <trkpt lat="39.98451" lon="-120.89878" />
      <trkpt lat="39.98452" lon="-120.8992" />
      <trkpt lat="39.98456" lon="-120.89952" />
      <trkpt lat="39.98471" lon="-120.89996" />
      <trkpt lat="39.98473" lon="-120.90019" />
      <trkpt lat="39.98472" lon="-120.90032" />
      <trkpt lat="39.98471" lon="-120.90043" />
      <trkpt lat="39.98454" lon="-120.90081" />
      <trkpt lat="39.98451" lon="-120.90091" />
      <trkpt lat="39.98445" lon="-120.90125" />
      <trkpt lat="39.98434" lon="-120.90163" />
      <trkpt lat="39.9843" lon="-120.90188" />
      <trkpt lat="39.98429" lon="-120.9022" />
      <trkpt lat="39.98431" lon="-120.90235" />
      <trkpt lat="39.98432" lon="-120.9024" />
      <trkpt lat="39.98446" lon="-120.90259" />
      <trkpt lat="39.9845" lon="-120.90276" />
      <trkpt lat="39.98443" lon="-120.90304" />
      <trkpt lat="39.98431" lon="-120.90365" />
      <trkpt lat="39.98427" lon="-120.90399" />
      <trkpt lat="39.98421" lon="-120.9043" />
      <trkpt lat="39.98415" lon="-120.90471" />
      <trkpt lat="39.98406" lon="-120.90514" />
    </trkseg>
  </trk>
</gpx>