<?xml version="1.0" encoding="UTF-8"?>
<gpx version="1.1" creator="strava-segment-scraper" xmlns="http://www.topografix.com/GPX/1/1">
  <trk>
    <name>Humboldt Road</name>
    <trkseg>
      <trkpt lat="39.73965" lon="-121.78253" />
      <trkpt lat="39.73988" lon="-121.78065" />
      <trkpt lat="39.73997" lon="-121.7802" />
      <trkpt lat="39.74003" lon="-121.77999" />
      <trkpt lat="39.7401" lon="-121.77978" />
      <trkpt lat="39.74038" lon="-121.77918" />
      <trkpt lat="39.74105" lon="-121.77796" />
      <trkpt lat="39.74114" lon="-121.77773" />
      <trkpt lat="39.74119" lon="-121.77754" />
      <trkpt lat="39.74128" lon="-121.77671" />
      <trkpt lat="39.74143" lon="-121.77563" />
      <trkpt lat="39.74159" lon="-121.77463" />
      <trkpt lat="39.74172" lon="-121.77404" />
      <trkpt lat="39.74193" lon="-121.77323" />
      <trkpt lat="39.74205" lon="-121.77294" />
      <trkpt lat="39.74226" lon="-121.77254" />
      <trkpt lat="39.7427" lon="-121.77179" />
      <trkpt lat="39.74292" lon="-121.77134" />
      <trkpt lat="39.74371" lon="-121.76925" />
      <trkpt lat="39.74389" lon="-121.76852" />
      <trkpt lat="39.74404" lon="-121.76767" />
      <trkpt lat="39.74408" lon="-121.76697" />
      <trkpt lat="39.74401" lon="-121.76573" />
      <trkpt lat="39.74397" lon="-121.76404" />
      <trkpt lat="39.74401" lon="-121.76313" />
      <trkpt lat="39.744" lon="-121.76289" />
      <trkpt lat="39.74408" lon="-121.76149" />
      <trkpt lat="39.74414" lon="-121.76107" />
      <trkpt lat="39.74424" lon="-121.76058" />
      <trkpt lat="39.74466" lon="-121.75904" />
      <trkpt lat="39.74493" lon="-121.75783" />
      <trkpt lat="39.74551" lon="-121.75611" />
      <trkpt lat="39.74583" lon="-121.75529" />
      <trkpt lat="39.74641" lon="-121.75389" />
      <trkpt lat="39.74657" lon="-121.75356" />
      <trkpt lat="39.74685" lon="-121.75307" />
      <trkpt lat="39.7472" lon="-121.75258" />
      <trkpt lat="39.74742" lon="-121.75232" />
      <trkpt lat="39.7475" lon="-121.75219" />
      <trkpt lat="39.74767" lon="-121.75183" />
      <trkpt lat="39.74802" lon="-121.75096" />
      <trkpt lat="39.74823" lon="-121.75055" />
      <trkpt lat="39.74874" lon="-121.74973" />
      <trkpt lat="39.74886" lon="-121.74947" />
      <trkpt lat="39.74896" lon="-121.7492" />
      <trkpt lat="39.74901" lon="-121.74892" />
      <trkpt lat="39.74913" lon="-121.74784" />
      <trkpt lat="39.74921" lon="-121.74733" />
      <trkpt lat="39.7493" lon="-121.74701" />
      <trkpt lat="39.74938" lon="-121.74681" />
      <trkpt lat="39.74964" lon="-121.74635" />
      <trkpt lat="39.75011" lon="-121.74563" />
      <trkpt lat="39.75053" lon="-121.74505" />
      <trkpt lat="39.75124" lon="-121.74415" />
      <trkpt lat="39.7514" lon="-121.744" />
      <trkpt lat="39.75177" lon="-121.74373" />
      <trkpt lat="39.75229" lon="-121.74342" />
      <trkpt lat="39.75241" lon="-121.74332" />
      <trkpt lat="39.75252" lon="-121.74321" />
      <trkpt lat="39.7527" lon="-121.74293" />
      <trkpt lat="39.75301" lon="-121.74236" />
      <trkpt lat="39.75307" lon="-121.74222" />
      <trkpt lat="39.75325" lon="-121.74164" />
      <trkpt lat="39.75339" lon="-121.74102" />
      <trkpt lat="39.75354" lon="-121.7406" />
      <trkpt lat="39.75389" lon="-121.73988" />
      <trkpt lat="39.75425" lon="-121.7392" />
      <trkpt lat="39.75445" lon="-121.73867" />
      <trkpt lat="39.75461" lon="-121.7381" />
      <trkpt lat="39.75475" lon="-121.73781" />
      <trkpt lat="39.75489" lon="-121.73764" />
      <trkpt lat="39.75564" lon="-121.73708" />
      <trkpt lat="39.75633" lon="-121.73659" />
      <trkpt lat="39.75685" lon="-121.73626" />
      <trkpt lat="39.75719" lon="-121.7361" />
      <trkpt lat="39.75739" lon="-121.73606" />
      <trkpt lat="39.75782" lon="-121.73606" />
      <trkpt lat="39.75803" lon="-121.73602" />
      <trkpt lat="39.75877" lon="-121.73582" />
      <trkpt lat="39.75943" lon="-121.73556" />
      <trkpt lat="39.75974" lon="-121.73548" />
      <trkpt lat="39.75992" lon="-121.73545" />
      <trkpt lat="39.76055" lon="-121.73549" />
      <trkpt lat="39.76078" lon="-121.73553" />
      <trkpt lat="39.76127" lon="-121.73569" />
    </trkseg>
  </trk>
</gpx>