<?xml version="1.0" encoding="UTF-8"?>
<gpx version="1.1" creator="strava-segment-scraper" xmlns="http://www.topografix.com/GPX/1/1">
  <trk>
    <name>Mountain View Rd West (last section)</name>
    <trkseg>
      <trkpt lat="38.964" lon="-123.52129" />
      <trkpt lat="38.96402" lon="-123.52147" />
      <trkpt lat="38.964" lon="-123.52166" />
      <trkpt lat="38.96396" lon="-123.52185" />
      <trkpt lat="38.96385" lon="-123.52221" />
      <trkpt lat="38.96373" lon="-123.52255" />
      <trkpt lat="38.96356" lon="-123.52287" />
      <trkpt lat="38.96341" lon="-123.52305" />
      <trkpt lat="38.96327" lon="-123.52317" />
      <trkpt lat="38.96294" lon="-123.52338" />
      <trkpt lat="38.96222" lon="-123.52371" />
      <trkpt lat="38.96194" lon="-123.5239" />
      <trkpt lat="38.96181" lon="-123.52401" />
      <trkpt lat="38.96165" lon="-123.5242" />
      <trkpt lat="38.9614" lon="-123.52455" />
      <trkpt lat="38.9613" lon="-123.52481" />
      <trkpt lat="38.96127" lon="-123.52499" />
      <trkpt lat="38.96125" lon="-123.52566" />
      <trkpt lat="38.96117" lon="-123.52614" />
      <trkpt lat="38.96112" lon="-123.52633" />
      <trkpt lat="38.96095" lon="-123.52676" />
      <trkpt lat="38.96067" lon="-123.52736" />
      <trkpt lat="38.96058" lon="-123.52751" />
      <trkpt lat="38.96041" lon="-123.52769" />
      <trkpt lat="38.96022" lon="-123.52782" />
      <trkpt lat="38.95967" lon="-123.52814" />
      <trkpt lat="38.95952" lon="-123.52818" />
      <trkpt lat="38.95941" lon="-123.52818" />
      <trkpt lat="38.95925" lon="-123.52811" />
      <trkpt lat="38.95877" lon="-123.52779" />
      <trkpt lat="38.95804" lon="-123.52736" />
      <trkpt lat="38.95778" lon="-123.52722" />
      <trkpt lat="38.95764" lon="-123.52716" />
      <trkpt lat="38.95748" lon="-123.52717" />
      <trkpt lat="38.95734" lon="-123.52726" />
      <trkpt lat="38.95725" lon="-123.5274" />
      <trkpt lat="38.95719" lon="-123.52755" />
      <trkpt lat="38.95713" lon="-123.52771" />
      <trkpt lat="38.95707" lon="-123.528" />
      <trkpt lat="38.95701" lon="-123.52851" />
      <trkpt lat="38.957" lon="-123.52883" />
      <trkpt lat="38.95701" lon="-123.52899" />
      <trkpt lat="38.9572" lon="-123.53019" />
      <trkpt lat="38.9572" lon="-123.53034" />
      <trkpt lat="38.95709" lon="-123.53098" />
      <trkpt lat="38.95701" lon="-123.53159" />
      <trkpt lat="38.95692" lon="-123.53189" />
      <trkpt lat="38.95651" lon="-123.53237" />
      <trkpt lat="38.95644" lon="-123.53252" />
      <trkpt lat="38.95628" lon="-123.53291" />
      <trkpt lat="38.95617" lon="-123.53331" />
      <trkpt lat="38.95615" lon="-123.53345" />
      <trkpt lat="38.95617" lon="-123.53373" />
      <trkpt lat="38.95631" lon="-123.5344" />
      <trkpt lat="38.95635" lon="-123.53482" />
      <trkpt lat="38.95635" lon="-123.53512" />
      <trkpt lat="38.95646" lon="-123.5355" />
      <trkpt lat="38.95656" lon="-123.53576" />
      <trkpt lat="38.95669" lon="-123.53599" />
      <trkpt lat="38.95683" lon="-123.53615" />
      <trkpt lat="38.95695" lon="-123.53622" />
      <trkpt lat="38.95714" lon="-123.53636" />
      <trkpt lat="38.95722" lon="-123.53646" />
      <trkpt lat="38.95725" lon="-123.53654" />
      <trkpt lat="38.95725" lon="-123.5368" />
      <trkpt lat="38.95704" lon="-123.53729" />
      <trkpt lat="38.95701" lon="-123.53742" />
      <trkpt lat="38.95702" lon="-123.53756" />
      <trkpt lat="38.95719" lon="-123.53821" />
      <trkpt lat="38.95721" lon="-123.53834" />
      <trkpt lat="38.9572" lon="-123.53848" />
      <trkpt lat="38.95712" lon="-123.53876" />
      <trkpt lat="38.957" lon="-123.53903" />
      <trkpt lat="38.95686" lon="-123.53923" />
      <trkpt lat="38.95669" lon="-123.5394" />
      <trkpt lat="38.95625" lon="-123.53966" />
      <trkpt lat="38.95575" lon="-123.53989" />
      <trkpt lat="38.95533" lon="-123.5401" />
      <trkpt lat="38.95501" lon="-123.54019" />
      <trkpt lat="38.9546" lon="-123.54036" />
      <trkpt lat="38.95431" lon="-123.54043" />
      <trkpt lat="38.95414" lon="-123.54049" />
      <trkpt lat="38.95383" lon="-123.54071" />
      <trkpt lat="38.95336" lon="-123.54115" />
      <trkpt lat="38.95313" lon="-123.54141" />
      <trkpt lat="38.95289" lon="-123.54181" />
      <trkpt lat="38.95267" lon="-123.54233" />
      <trkpt lat="38.95254" lon="-123.54253" />
      <trkpt lat="38.95238" lon="-123.54269" />
      <trkpt lat="38.95224" lon="-123.54281" />
      <trkpt lat="38.95208" lon="-123.54289" />
      <trkpt lat="38.95177" lon="-123.54301" />
      <trkpt lat="38.95147" lon="-123.54308" />
      <trkpt lat="38.95112" lon="-123.54313" />
      <trkpt lat="38.95084" lon="-123.54314" />
      <trkpt lat="38.95059" lon="-123.54311" />
      <trkpt lat="38.95045" lon="-123.54312" />
      <trkpt lat="38.95014" lon="-123.54317" />
      <trkpt lat="38.94996" lon="-123.54325" />
      <trkpt lat="38.94964" lon="-123.54333" />
      <trkpt lat="38.94948" lon="-123.54337" />
      <trkpt lat="38.94906" lon="-123.54338" />
      <trkpt lat="38.94873" lon="-123.54341" />
      <trkpt lat="38.94843" lon="-123.54348" />
      <trkpt lat="38.94828" lon="-123.54353" />
      <trkpt lat="38.94813" lon="-123.54361" />
      <trkpt lat="38.94784" lon="-123.5438" />
      <trkpt lat="38.94768" lon="-123.54391" />
      <trkpt lat="38.94747" lon="-123.5441" />
      <trkpt lat="38.94721" lon="-123.54427" />
      <trkpt lat="38.94633" lon="-123.54489" />
      <trkpt lat="38.94619" lon="-123.54499" />
      <trkpt lat="38.94566" lon="-123.54527" />
      <trkpt lat="38.94547" lon="-123.54538" />
      <trkpt lat="38.94534" lon="-123.54548" />
      <trkpt lat="38.94524" lon="-123.54558" />
      <trkpt lat="38.94512" lon="-123.54585" />
      <trkpt lat="38.94511" lon="-123.54592" />
      <trkpt lat="38.94512" lon="-123.54634" />
      <trkpt lat="38.94527" lon="-123.54686" />
      <trkpt lat="38.94532" lon="-123.54713" />
      <trkpt lat="38.94535" lon="-123.5474" />
      <trkpt lat="38.94532" lon="-123.54776" />
      <trkpt lat="38.94514" lon="-123.54809" />
      <trkpt lat="38.94496" lon="-123.54823" />
      <trkpt lat="38.94443" lon="-123.5487" />
      <trkpt lat="38.94418" lon="-123.54914" />
      <trkpt lat="38.94388" lon="-123.54975" />
      <trkpt lat="38.94384" lon="-123.54989" />
      <trkpt lat="38.94382" lon="-123.55011" />
      <trkpt lat="38.94383" lon="-123.5508" />
      <trkpt lat="38.94391" lon="-123.55121" />
      <trkpt lat="38.94399" lon="-123.55151" />
      <trkpt lat="38.94418" lon="-123.55183" />
      <trkpt lat="38.94433" lon="-123.552" />
    </trkseg>
  </trk>
</gpx>