<?xml version="1.0" encoding="UTF-8"?>
<gpx version="1.1" creator="strava-segment-scraper" xmlns="http://www.topografix.com/GPX/1/1">
  <trk>
    <name>Bike shop to Sands point</name>
    <trkseg>
      <trkpt lat="36.97881" lon="-121.90286" />
      <trkpt lat="36.97916" lon="-121.90266" />
      <trkpt lat="36.97932" lon="-121.90259" />
      <trkpt lat="36.97946" lon="-121.90255" />
      <trkpt lat="36.97964" lon="-121.90252" />
      <trkpt lat="36.97991" lon="-121.90256" />
      <trkpt lat="36.98015" lon="-121.90266" />
      <trkpt lat="36.98143" lon="-121.90252" />
      <trkpt lat="36.98156" lon="-121.90244" />
      <trkpt lat="36.98166" lon="-121.90233" />
      <trkpt lat="36.98172" lon="-121.90222" />
      <trkpt lat="36.98176" lon="-121.90212" />
      <trkpt lat="36.98183" lon="-121.90203" />
      <trkpt lat="36.982" lon="-121.90189" />
      <trkpt lat="36.98213" lon="-121.90177" />
      <trkpt lat="36.9824" lon="-121.90168" />
      <trkpt lat="36.9826" lon="-121.90168" />
      <trkpt lat="36.98263" lon="-121.90171" />
      <trkpt lat="36.98261" lon="-121.90182" />
      <trkpt lat="36.98254" lon="-121.90193" />
      <trkpt lat="36.98247" lon="-121.90196" />
      <trkpt lat="36.9824" lon="-121.90202" />
      <trkpt lat="36.98234" lon="-121.90215" />
      <trkpt lat="36.98225" lon="-121.90255" />
      <trkpt lat="36.98228" lon="-121.90262" />
      <trkpt lat="36.98267" lon="-121.90306" />
      <trkpt lat="36.98288" lon="-121.90323" />
      <trkpt lat="36.98327" lon="-121.90337" />
      <trkpt lat="36.98359" lon="-121.90339" />
      <trkpt lat="36.98372" lon="-121.90343" />
      <trkpt lat="36.98429" lon="-121.90365" />
      <trkpt lat="36.98444" lon="-121.90372" />
      <trkpt lat="36.98461" lon="-121.90388" />
      <trkpt lat="36.9848" lon="-121.90393" />
      <trkpt lat="36.98488" lon="-121.904" />
      <trkpt lat="36.98507" lon="-121.90406" />
      <trkpt lat="36.98531" lon="-121.90418" />
      <trkpt lat="36.98575" lon="-121.90446" />
      <trkpt lat="36.98598" lon="-121.90456" />
      <trkpt lat="36.98618" lon="-121.90462" />
      <trkpt lat="36.98642" lon="-121.90477" />
      <trkpt lat="36.98665" lon="-121.90488" />
      <trkpt lat="36.98682" lon="-121.90494" />
      <trkpt lat="36.9873" lon="-121.90522" />
      <trkpt lat="36.98748" lon="-121.90529" />
      <trkpt lat="36.98753" lon="-121.90533" />
      <trkpt lat="36.98758" lon="-121.90534" />
      <trkpt lat="36.98772" lon="-121.90548" />
      <trkpt lat="36.98813" lon="-121.90561" />
      <trkpt lat="36.98829" lon="-121.90565" />
      <trkpt lat="36.98838" lon="-121.90564" />
      <trkpt lat="36.98865" lon="-121.90572" />
      <trkpt lat="36.98909" lon="-121.90586" />
      <trkpt lat="36.98917" lon="-121.90591" />
      <trkpt lat="36.98938" lon="-121.90599" />
      <trkpt lat="36.9899" lon="-121.9061" />
      <trkpt lat="36.99016" lon="-121.90622" />
      <trkpt lat="36.9903" lon="-121.90631" />
      <trkpt lat="36.99073" lon="-121.90653" />
      <trkpt lat="36.99095" lon="-121.90671" />
      <trkpt lat="36.99108" lon="-121.90679" />
      <trkpt lat="36.99124" lon="-121.90686" />
      <trkpt lat="36.99138" lon="-121.90695" />
      <trkpt lat="36.99143" lon="-121.90694" />
      <trkpt lat="36.99155" lon="-121.90697" />
      <trkpt lat="36.99171" lon="-121.90695" />
      <trkpt lat="36.99196" lon="-121.90688" />
      <trkpt lat="36.99218" lon="-121.9066" />
      <trkpt lat="36.99222" lon="-121.90657" />
      <trkpt lat="36.99233" lon="-121.90654" />
      <trkpt lat="36.99242" lon="-121.90655" />
      <trkpt lat="36.99276" lon="-121.90653" />
      <trkpt lat="36.99289" lon="-121.90656" />
      <trkpt lat="36.99305" lon="-121.90657" />
      <trkpt lat="36.99313" lon="-121.90661" />
      <trkpt lat="36.99358" lon="-121.90661" />
      <trkpt lat="36.99389" lon="-121.90645" />
      <trkpt lat="36.99408" lon="-121.90629" />
      <trkpt lat="36.99422" lon="-121.90613" />
      <trkpt lat="36.99457" lon="-121.90585" />
      <trkpt lat="36.99494" lon="-121.90578" />
      <trkpt lat="36.99518" lon="-121.90577" />
      <trkpt lat="36.99522" lon="-121.9058" />
      <trkpt lat="36.99535" lon="-121.90582" />
      <trkpt lat="36.99548" lon="-121.90588" />
      <trkpt lat="36.99566" lon="-121.90595" />
      <trkpt lat="36.99584" lon="-121.90597" />
      <trkpt lat="36.99601" lon="-121.90601" />
      <trkpt lat="36.99605" lon="-121.90605" />
      <trkpt lat="36.99623" lon="-121.90613" />
      <trkpt lat="36.99635" lon="-121.90617" />
      <trkpt lat="36.99648" lon="-121.90618" />
      <trkpt lat="36.99671" lon="-121.90625" />
      <trkpt lat="36.99694" lon="-121.90638" />
      <trkpt lat="36.99711" lon="-121.90651" />
      <trkpt lat="36.99718" lon="-121.90651" />
      <trkpt lat="36.99733" lon="-121.90658" />
      <trkpt lat="36.99754" lon="-121.9066" />
      <trkpt lat="36.9977" lon="-121.90656" />
      <trkpt lat="36.99782" lon="-121.90648" />
      <trkpt lat="36.99806" lon="-121.90637" />
      <trkpt lat="36.99815" lon="-121.90631" />
      <trkpt lat="36.99822" lon="-121.90622" />
      <trkpt lat="36.99842" lon="-121.90614" />
      <trkpt lat="36.99857" lon="-121.90609" />
      <trkpt lat="36.99859" lon="-121.9061" />
      <trkpt lat="36.99898" lon="-121.906" />
      <trkpt lat="36.99936" lon="-121.90586" />
      <trkpt lat="36.99964" lon="-121.90579" />
      <trkpt lat="36.99977" lon="-121.90576" />
      <trkpt lat="36.99986" lon="-121.90575" />
      <trkpt lat="36.99993" lon="-121.90573" />
      <trkpt lat="37.00009" lon="-121.90572" />
      <trkpt lat="37.00023" lon="-121.90576" />
      <trkpt lat="37.00028" lon="-121.90575" />
      <trkpt lat="37.00034" lon="-121.90576" />
      <trkpt lat="37.00036" lon="-121.90579" />
      <trkpt lat="37.00043" lon="-121.90578" />
      <trkpt lat="37.00054" lon="-121.90582" />
      <trkpt lat="37.00079" lon="-121.90586" />
      <trkpt lat="37.00088" lon="-121.90591" />
      <trkpt lat="37.001" lon="-121.90595" />
      <trkpt lat="37.0011" lon="-121.90604" />
      <trkpt lat="37.00125" lon="-121.90613" />
      <trkpt lat="37.00135" lon="-121.90622" />
      <trkpt lat="37.00186" lon="-121.90649" />
      <trkpt lat="37.00195" lon="-121.90652" />
      <trkpt lat="37.00208" lon="-121.90649" />
      <trkpt lat="37.0022" lon="-121.9065" />
      <trkpt lat="37.00242" lon="-121.90649" />
      <trkpt lat="37.00256" lon="-121.90645" />
      <trkpt lat="37.00283" lon="-121.90643" />
      <trkpt lat="37.00308" lon="-121.90639" />
      <trkpt lat="37.00315" lon="-121.90636" />
      <trkpt lat="37.00339" lon="-121.9063" />
      <trkpt lat="37.0035" lon="-121.9063" />
      <trkpt lat="37.00376" lon="-121.90621" />
      <trkpt lat="37.00414" lon="-121.90621" />
      <trkpt lat="37.0045" lon="-121.90616" />
      <trkpt lat="37.00478" lon="-121.90621" />
      <trkpt lat="37.00493" lon="-121.9062" />
      <trkpt lat="37.00519" lon="-121.90624" />
      <trkpt lat="37.00551" lon="-121.90637" />
      <trkpt lat="37.00556" lon="-121.90641" />
      <trkpt lat="37.00572" lon="-121.90674" />
      <trkpt lat="37.00581" lon="-121.90686" />
      <trkpt lat="37.00604" lon="-121.90713" />
      <trkpt lat="37.00619" lon="-121.90719" />
      <trkpt lat="37.0063" lon="-121.90728" />
      <trkpt lat="37.00651" lon="-121.90733" />
      <trkpt lat="37.00675" lon="-121.9073" />
      <trkpt lat="37.00681" lon="-121.90731" />
      <trkpt lat="37.00712" lon="-121.9072" />
      <trkpt lat="37.00735" lon="-121.90708" />
      <trkpt lat="37.00745" lon="-121.90699" />
      <trkpt lat="37.00757" lon="-121.90692" />
      <trkpt lat="37.00772" lon="-121.90684" />
      <trkpt lat="37.00783" lon="-121.9068" />
      <trkpt lat="37.00816" lon="-121.9066" />
      <trkpt lat="37.00856" lon="-121.90646" />
      <trkpt lat="37.00897" lon="-121.90643" />
      <trkpt lat="37.00911" lon="-121.90645" />
      <trkpt lat="37.00928" lon="-121.90645" />
      <trkpt lat="37.00944" lon="-121.9065" />
      <trkpt lat="37.00946" lon="-121.90652" />
      <trkpt lat="37.00962" lon="-121.90657" />
      <trkpt lat="37.00997" lon="-121.90658" />
      <trkpt lat="37.01011" lon="-121.90656" />
      <trkpt lat="37.01049" lon="-121.90637" />
      <trkpt lat="37.0106" lon="-121.90628" />
      <trkpt lat="37.01081" lon="-121.90623" />
      <trkpt lat="37.01107" lon="-121.90619" />
      <trkpt lat="37.0112" lon="-121.90621" />
      <trkpt lat="37.01152" lon="-121.90638" />
      <trkpt lat="37.01189" lon="-121.9065" />
      <trkpt lat="37.0123" lon="-121.9064" />
      <trkpt lat="37.01243" lon="-121.90629" />
      <trkpt lat="37.01251" lon="-121.90625" />
      <trkpt lat="37.01278" lon="-121.9062" />
      <trkpt lat="37.01301" lon="-121.90624" />
      <trkpt lat="37.01332" lon="-121.90626" />
      <trkpt lat="37.01366" lon="-121.90617" />
      <trkpt lat="37.01391" lon="-121.90604" />
      <trkpt lat="37.01426" lon="-121.90572" />
      <trkpt lat="37.01456" lon="-121.90547" />
      <trkpt lat="37.01467" lon="-121.90541" />
      <trkpt lat="37.01477" lon="-121.90542" />
      <trkpt lat="37.01488" lon="-121.90538" />
      <trkpt lat="37.01514" lon="-121.90539" />
      <trkpt lat="37.01541" lon="-121.90551" />
    </trkseg>
  </trk>
</gpx>