<?xml version="1.0" encoding="UTF-8"?>
<gpx version="1.1" creator="strava-segment-scraper" xmlns="http://www.topografix.com/GPX/1/1">
  <trk>
    <name>Adin Pass to Canby</name>
    <trkseg>
      <trkpt lat="41.34624" lon="-120.92339" />
      <trkpt lat="41.34646" lon="-120.92506" />
      <trkpt lat="41.34666" lon="-120.92592" />
      <trkpt lat="41.34689" lon="-120.92658" />
      <trkpt lat="41.34721" lon="-120.92722" />
      <trkpt lat="41.34769" lon="-120.92793" />
      <trkpt lat="41.34824" lon="-120.92853" />
      <trkpt lat="41.34875" lon="-120.92892" />
      <trkpt lat="41.34927" lon="-120.92923" />
      <trkpt lat="41.34994" lon="-120.9296" />
      <trkpt lat="41.35033" lon="-120.92986" />
      <trkpt lat="41.3507" lon="-120.93018" />
      <trkpt lat="41.35116" lon="-120.93068" />
      <trkpt lat="41.35154" lon="-120.93126" />
      <trkpt lat="41.35283" lon="-120.93374" />
      <trkpt lat="41.35299" lon="-120.93409" />
      <trkpt lat="41.35328" lon="-120.93483" />
      <trkpt lat="41.35334" lon="-120.93503" />
      <trkpt lat="41.35347" lon="-120.9356" />
      <trkpt lat="41.35387" lon="-120.93764" />
      <trkpt lat="41.35396" lon="-120.93799" />
      <trkpt lat="41.35423" lon="-120.9388" />
      <trkpt lat="41.35455" lon="-120.93959" />
      <trkpt lat="41.35506" lon="-120.94068" />
      <trkpt lat="41.35539" lon="-120.94131" />
      <trkpt lat="41.35582" lon="-120.94227" />
      <trkpt lat="41.35607" lon="-120.94297" />
      <trkpt lat="41.35639" lon="-120.94407" />
      <trkpt lat="41.35665" lon="-120.94478" />
      <trkpt lat="41.35699" lon="-120.94545" />
      <trkpt lat="41.3573" lon="-120.94591" />
      <trkpt lat="41.35777" lon="-120.94645" />
      <trkpt lat="41.35827" lon="-120.94689" />
      <trkpt lat="41.35945" lon="-120.94785" />
      <trkpt lat="41.36017" lon="-120.94849" />
      <trkpt lat="41.36107" lon="-120.9494" />
      <trkpt lat="41.36177" lon="-120.95018" />
      <trkpt lat="41.36498" lon="-120.95363" />
      <trkpt lat="41.36558" lon="-120.95426" />
      <trkpt lat="41.36578" lon="-120.95442" />
      <trkpt lat="41.36605" lon="-120.95462" />
      <trkpt lat="41.36647" lon="-120.95486" />
      <trkpt lat="41.36684" lon="-120.95501" />
      <trkpt lat="41.37128" lon="-120.95617" />
      <trkpt lat="41.37196" lon="-120.95622" />
      <trkpt lat="41.37237" lon="-120.95615" />
      <trkpt lat="41.37251" lon="-120.9561" />
      <trkpt lat="41.37279" lon="-120.95599" />
      <trkpt lat="41.37438" lon="-120.95513" />
      <trkpt lat="41.37475" lon="-120.95487" />
      <trkpt lat="41.37498" lon="-120.95464" />
      <trkpt lat="41.37508" lon="-120.95452" />
      <trkpt lat="41.37546" lon="-120.95396" />
      <trkpt lat="41.37573" lon="-120.95331" />
      <trkpt lat="41.37596" lon="-120.95263" />
      <trkpt lat="41.37615" lon="-120.95213" />
      <trkpt lat="41.37639" lon="-120.95168" />
      <trkpt lat="41.37677" lon="-120.95115" />
      <trkpt lat="41.37688" lon="-120.95105" />
      <trkpt lat="41.37732" lon="-120.95071" />
      <trkpt lat="41.37756" lon="-120.95057" />
      <trkpt lat="41.3779" lon="-120.95041" />
      <trkpt lat="41.37837" lon="-120.95032" />
      <trkpt lat="41.37893" lon="-120.95035" />
      <trkpt lat="41.38023" lon="-120.95062" />
      <trkpt lat="41.38048" lon="-120.95066" />
      <trkpt lat="41.38072" lon="-120.95068" />
      <trkpt lat="41.38111" lon="-120.95068" />
      <trkpt lat="41.38171" lon="-120.95057" />
      <trkpt lat="41.38229" lon="-120.95034" />
      <trkpt lat="41.38262" lon="-120.95016" />
      <trkpt lat="41.38348" lon="-120.94961" />
      <trkpt lat="41.38403" lon="-120.94931" />
      <trkpt lat="41.38425" lon="-120.94922" />
      <trkpt lat="41.38461" lon="-120.94911" />
      <trkpt lat="41.38497" lon="-120.94904" />
      <trkpt lat="41.38558" lon="-120.94896" />
      <trkpt lat="41.38643" lon="-120.94875" />
      <trkpt lat="41.3869" lon="-120.94858" />
      <trkpt lat="41.38748" lon="-120.94833" />
      <trkpt lat="41.38782" lon="-120.94816" />
      <trkpt lat="41.38837" lon="-120.94783" />
      <trkpt lat="41.389" lon="-120.94737" />
      <trkpt lat="41.38941" lon="-120.94702" />
      <trkpt lat="41.38973" lon="-120.94672" />
      <trkpt lat="41.39015" lon="-120.94627" />
      <trkpt lat="41.39046" lon="-120.9459" />
      <trkpt lat="41.394" lon="-120.94127" />
      <trkpt lat="41.39647" lon="-120.93809" />
      <trkpt lat="41.40059" lon="-120.93271" />
      <trkpt lat="41.40107" lon="-120.93211" />
      <trkpt lat="41.40157" lon="-120.93153" />
      <trkpt lat="41.4021" lon="-120.93101" />
      <trkpt lat="41.4025" lon="-120.9307" />
      <trkpt lat="41.4032" lon="-120.93025" />
      <trkpt lat="41.40376" lon="-120.92995" />
      <trkpt lat="41.4045" lon="-120.92953" />
      <trkpt lat="41.40477" lon="-120.92936" />
      <trkpt lat="41.40511" lon="-120.92911" />
      <trkpt lat="41.40559" lon="-120.92873" />
      <trkpt lat="41.40604" lon="-120.92832" />
      <trkpt lat="41.40652" lon="-120.9278" />
      <trkpt lat="41.41184" lon="-120.92101" />
      <trkpt lat="41.41228" lon="-120.92038" />
      <trkpt lat="41.41254" lon="-120.91991" />
      <trkpt lat="41.41296" lon="-120.91899" />
      <trkpt lat="41.41764" lon="-120.90716" />
      <trkpt lat="41.41794" lon="-120.90649" />
      <trkpt lat="41.41826" lon="-120.90585" />
      <trkpt lat="41.41851" lon="-120.90543" />
      <trkpt lat="41.4187" lon="-120.90513" />
      <trkpt lat="41.41914" lon="-120.90454" />
      <trkpt lat="41.41954" lon="-120.90406" />
      <trkpt lat="41.41988" lon="-120.9037" />
      <trkpt lat="41.4207" lon="-120.90295" />
      <trkpt lat="41.4216" lon="-120.90216" />
      <trkpt lat="41.42212" lon="-120.90162" />
      <trkpt lat="41.42254" lon="-120.90116" />
      <trkpt lat="41.42317" lon="-120.90036" />
      <trkpt lat="41.42946" lon="-120.8911" />
      <trkpt lat="41.43605" lon="-120.88144" />
      <trkpt lat="41.43733" lon="-120.87949" />
      <trkpt lat="41.43821" lon="-120.87822" />
      <trkpt lat="41.43911" lon="-120.87698" />
      <trkpt lat="41.44019" lon="-120.87536" />
    </trkseg>
  </trk>
</gpx>