<?xml version="1.0" encoding="UTF-8"?>
<gpx version="1.1" creator="strava-segment-scraper" xmlns="http://www.topografix.com/GPX/1/1">
  <trk>
    <name>Golden Gate Park 1 Big Lap</name>
    <trkseg>
      <trkpt lat="37.76418" lon="-122.50996" />
      <trkpt lat="37.76417" lon="-122.51009" />
      <trkpt lat="37.76418" lon="-122.51019" />
      <trkpt lat="37.76433" lon="-122.51021" />
      <trkpt lat="37.76452" lon="-122.51016" />
      <trkpt lat="37.76472" lon="-122.51014" />
      <trkpt lat="37.76529" lon="-122.5101" />
      <trkpt lat="37.76589" lon="-122.51017" />
      <trkpt lat="37.7663" lon="-122.51017" />
      <trkpt lat="37.76724" lon="-122.51025" />
      <trkpt lat="37.76763" lon="-122.51029" />
      <trkpt lat="37.76815" lon="-122.5104" />
      <trkpt lat="37.76893" lon="-122.51064" />
      <trkpt lat="37.76934" lon="-122.51072" />
      <trkpt lat="37.76992" lon="-122.51077" />
      <trkpt lat="37.7703" lon="-122.51083" />
      <trkpt lat="37.77033" lon="-122.5108" />
      <trkpt lat="37.77032" lon="-122.51059" />
      <trkpt lat="37.77028" lon="-122.51035" />
      <trkpt lat="37.77024" lon="-122.51009" />
      <trkpt lat="37.77018" lon="-122.50993" />
      <trkpt lat="37.76998" lon="-122.50946" />
      <trkpt lat="37.76987" lon="-122.50926" />
      <trkpt lat="37.76975" lon="-122.50906" />
      <trkpt lat="37.76939" lon="-122.50856" />
      <trkpt lat="37.7691" lon="-122.50821" />
      <trkpt lat="37.76859" lon="-122.5078" />
      <trkpt lat="37.76804" lon="-122.50731" />
      <trkpt lat="37.76788" lon="-122.5072" />
      <trkpt lat="37.76714" lon="-122.50685" />
      <trkpt lat="37.76697" lon="-122.50671" />
      <trkpt lat="37.76686" lon="-122.5065" />
      <trkpt lat="37.76676" lon="-122.50608" />
      <trkpt lat="37.76687" lon="-122.5056" />
      <trkpt lat="37.76695" lon="-122.50536" />
      <trkpt lat="37.76707" lon="-122.50467" />
      <trkpt lat="37.76726" lon="-122.5041" />
      <trkpt lat="37.76732" lon="-122.50385" />
      <trkpt lat="37.76742" lon="-122.5031" />
      <trkpt lat="37.76756" lon="-122.50265" />
      <trkpt lat="37.76783" lon="-122.5015" />
      <trkpt lat="37.76799" lon="-122.50101" />
      <trkpt lat="37.76817" lon="-122.50062" />
      <trkpt lat="37.76843" lon="-122.49994" />
      <trkpt lat="37.76863" lon="-122.4992" />
      <trkpt lat="37.76878" lon="-122.49875" />
      <trkpt lat="37.76895" lon="-122.49807" />
      <trkpt lat="37.7691" lon="-122.49763" />
      <trkpt lat="37.76923" lon="-122.49694" />
      <trkpt lat="37.76924" lon="-122.49667" />
      <trkpt lat="37.76931" lon="-122.49619" />
      <trkpt lat="37.76936" lon="-122.49594" />
      <trkpt lat="37.76945" lon="-122.49565" />
      <trkpt lat="37.76949" lon="-122.49542" />
      <trkpt lat="37.76955" lon="-122.49518" />
      <trkpt lat="37.76975" lon="-122.49473" />
      <trkpt lat="37.77018" lon="-122.49394" />
      <trkpt lat="37.77039" lon="-122.49348" />
      <trkpt lat="37.77062" lon="-122.49276" />
      <trkpt lat="37.77075" lon="-122.49227" />
      <trkpt lat="37.77101" lon="-122.49099" />
      <trkpt lat="37.77097" lon="-122.49027" />
      <trkpt lat="37.77079" lon="-122.48889" />
      <trkpt lat="37.77082" lon="-122.48815" />
      <trkpt lat="37.77092" lon="-122.48744" />
      <trkpt lat="37.77093" lon="-122.48718" />
      <trkpt lat="37.77091" lon="-122.48691" />
      <trkpt lat="37.77085" lon="-122.48663" />
      <trkpt lat="37.77065" lon="-122.48618" />
      <trkpt lat="37.77043" lon="-122.48576" />
      <trkpt lat="37.77031" lon="-122.48559" />
      <trkpt lat="37.77008" lon="-122.48519" />
      <trkpt lat="37.77002" lon="-122.48495" />
      <trkpt lat="37.76997" lon="-122.48471" />
      <trkpt lat="37.77001" lon="-122.48446" />
      <trkpt lat="37.77014" lon="-122.48397" />
      <trkpt lat="37.77018" lon="-122.48375" />
      <trkpt lat="37.7702" lon="-122.48349" />
      <trkpt lat="37.77019" lon="-122.48301" />
      <trkpt lat="37.77016" lon="-122.48276" />
      <trkpt lat="37.77008" lon="-122.48231" />
      <trkpt lat="37.77006" lon="-122.48206" />
      <trkpt lat="37.77007" lon="-122.4816" />
      <trkpt lat="37.77018" lon="-122.48108" />
      <trkpt lat="37.77044" lon="-122.48015" />
      <trkpt lat="37.77073" lon="-122.47935" />
      <trkpt lat="37.77084" lon="-122.47915" />
      <trkpt lat="37.7709" lon="-122.47893" />
      <trkpt lat="37.77111" lon="-122.47833" />
      <trkpt lat="37.77137" lon="-122.47778" />
      <trkpt lat="37.77157" lon="-122.47709" />
      <trkpt lat="37.77167" lon="-122.47659" />
      <trkpt lat="37.77174" lon="-122.47607" />
      <trkpt lat="37.77175" lon="-122.4756" />
      <trkpt lat="37.77175" lon="-122.47537" />
      <trkpt lat="37.77172" lon="-122.47513" />
      <trkpt lat="37.77165" lon="-122.47488" />
      <trkpt lat="37.77158" lon="-122.47466" />
      <trkpt lat="37.77123" lon="-122.47381" />
      <trkpt lat="37.77094" lon="-122.47299" />
      <trkpt lat="37.77074" lon="-122.47229" />
      <trkpt lat="37.77071" lon="-122.47205" />
      <trkpt lat="37.77074" lon="-122.47182" />
      <trkpt lat="37.77082" lon="-122.47157" />
      <trkpt lat="37.77101" lon="-122.47116" />
      <trkpt lat="37.77112" lon="-122.47097" />
      <trkpt lat="37.77194" lon="-122.46974" />
      <trkpt lat="37.77232" lon="-122.4692" />
      <trkpt lat="37.77247" lon="-122.46877" />
      <trkpt lat="37.77252" lon="-122.46855" />
      <trkpt lat="37.77256" lon="-122.46803" />
      <trkpt lat="37.77255" lon="-122.46564" />
      <trkpt lat="37.77254" lon="-122.46539" />
      <trkpt lat="37.77244" lon="-122.46468" />
      <trkpt lat="37.7724" lon="-122.46445" />
      <trkpt lat="37.77193" lon="-122.46265" />
      <trkpt lat="37.77178" lon="-122.46216" />
      <trkpt lat="37.77174" lon="-122.46194" />
      <trkpt lat="37.77161" lon="-122.46126" />
      <trkpt lat="37.77154" lon="-122.46051" />
      <trkpt lat="37.77145" lon="-122.46002" />
      <trkpt lat="37.77129" lon="-122.45931" />
      <trkpt lat="37.77116" lon="-122.45839" />
      <trkpt lat="37.77115" lon="-122.45815" />
      <trkpt lat="37.77107" lon="-122.45767" />
      <trkpt lat="37.77096" lon="-122.45669" />
      <trkpt lat="37.77089" lon="-122.45645" />
      <trkpt lat="37.77074" lon="-122.45573" />
      <trkpt lat="37.77055" lon="-122.45558" />
      <trkpt lat="37.7698" lon="-122.45534" />
      <trkpt lat="37.76943" lon="-122.45524" />
      <trkpt lat="37.76927" lon="-122.45514" />
      <trkpt lat="37.76912" lon="-122.45496" />
      <trkpt lat="37.76893" lon="-122.45495" />
      <trkpt lat="37.76857" lon="-122.45503" />
      <trkpt lat="37.76841" lon="-122.45516" />
      <trkpt lat="37.76829" lon="-122.45535" />
      <trkpt lat="37.76814" lon="-122.45582" />
      <trkpt lat="37.76788" lon="-122.4565" />
      <trkpt lat="37.76736" lon="-122.45835" />
      <trkpt lat="37.76732" lon="-122.45858" />
      <trkpt lat="37.76745" lon="-122.45895" />
      <trkpt lat="37.7675" lon="-122.45918" />
      <trkpt lat="37.76758" lon="-122.4597" />
      <trkpt lat="37.76758" lon="-122.46016" />
      <trkpt lat="37.76759" lon="-122.46039" />
      <trkpt lat="37.76752" lon="-122.46065" />
      <trkpt lat="37.76711" lon="-122.46144" />
      <trkpt lat="37.76703" lon="-122.46166" />
      <trkpt lat="37.76698" lon="-122.46189" />
      <trkpt lat="37.76701" lon="-122.46236" />
      <trkpt lat="37.76688" lon="-122.46308" />
      <trkpt lat="37.76664" lon="-122.464" />
      <trkpt lat="37.76643" lon="-122.46469" />
      <trkpt lat="37.76631" lon="-122.46517" />
      <trkpt lat="37.76628" lon="-122.4654" />
      <trkpt lat="37.76636" lon="-122.46612" />
      <trkpt lat="37.76647" lon="-122.46632" />
      <trkpt lat="37.76705" lon="-122.46639" />
      <trkpt lat="37.76765" lon="-122.46654" />
      <trkpt lat="37.7678" lon="-122.46666" />
      <trkpt lat="37.76795" lon="-122.46682" />
      <trkpt lat="37.76808" lon="-122.467" />
      <trkpt lat="37.76833" lon="-122.46741" />
      <trkpt lat="37.76843" lon="-122.46764" />
      <trkpt lat="37.76855" lon="-122.46784" />
      <trkpt lat="37.7688" lon="-122.46821" />
      <trkpt lat="37.76899" lon="-122.46863" />
      <trkpt lat="37.76911" lon="-122.46895" />
      <trkpt lat="37.7693" lon="-122.46966" />
      <trkpt lat="37.76933" lon="-122.46992" />
      <trkpt lat="37.76933" lon="-122.47015" />
      <trkpt lat="37.76923" lon="-122.47115" />
      <trkpt lat="37.76901" lon="-122.47184" />
      <trkpt lat="37.7689" lon="-122.47204" />
      <trkpt lat="37.76874" lon="-122.47219" />
      <trkpt lat="37.76858" lon="-122.47231" />
      <trkpt lat="37.7684" lon="-122.4724" />
      <trkpt lat="37.76821" lon="-122.47248" />
      <trkpt lat="37.76786" lon="-122.47256" />
      <trkpt lat="37.76767" lon="-122.47263" />
      <trkpt lat="37.76749" lon="-122.47275" />
      <trkpt lat="37.76733" lon="-122.4729" />
      <trkpt lat="37.76721" lon="-122.4731" />
      <trkpt lat="37.76713" lon="-122.47331" />
      <trkpt lat="37.76706" lon="-122.47356" />
      <trkpt lat="37.76701" lon="-122.47378" />
      <trkpt lat="37.76676" lon="-122.47477" />
      <trkpt lat="37.76633" lon="-122.47632" />
      <trkpt lat="37.76618" lon="-122.47699" />
      <trkpt lat="37.76614" lon="-122.47724" />
      <trkpt lat="37.76616" lon="-122.47725" />
      <trkpt lat="37.76614" lon="-122.47731" />
      <trkpt lat="37.76613" lon="-122.47756" />
      <trkpt lat="37.76609" lon="-122.47782" />
      <trkpt lat="37.766" lon="-122.47826" />
      <trkpt lat="37.76604" lon="-122.47871" />
      <trkpt lat="37.7661" lon="-122.47897" />
      <trkpt lat="37.76627" lon="-122.4794" />
      <trkpt lat="37.76649" lon="-122.47984" />
      <trkpt lat="37.76665" lon="-122.48024" />
      <trkpt lat="37.76679" lon="-122.48073" />
      <trkpt lat="37.76687" lon="-122.48119" />
      <trkpt lat="37.76689" lon="-122.48171" />
      <trkpt lat="37.76687" lon="-122.48246" />
      <trkpt lat="37.76679" lon="-122.48292" />
      <trkpt lat="37.76661" lon="-122.48364" />
      <trkpt lat="37.76659" lon="-122.48402" />
      <trkpt lat="37.76672" lon="-122.48448" />
      <trkpt lat="37.76692" lon="-122.4849" />
      <trkpt lat="37.76697" lon="-122.48512" />
      <trkpt lat="37.76698" lon="-122.48535" />
      <trkpt lat="37.76702" lon="-122.48558" />
      <trkpt lat="37.767" lon="-122.48583" />
      <trkpt lat="37.76693" lon="-122.48607" />
      <trkpt lat="37.76676" lon="-122.4865" />
      <trkpt lat="37.76667" lon="-122.48671" />
      <trkpt lat="37.76634" lon="-122.48731" />
      <trkpt lat="37.76598" lon="-122.4879" />
      <trkpt lat="37.7658" lon="-122.48834" />
      <trkpt lat="37.76574" lon="-122.48858" />
      <trkpt lat="37.76572" lon="-122.4888" />
      <trkpt lat="37.76565" lon="-122.48928" />
      <trkpt lat="37.76551" lon="-122.49003" />
      <trkpt lat="37.76547" lon="-122.49048" />
      <trkpt lat="37.76546" lon="-122.49075" />
      <trkpt lat="37.76549" lon="-122.49101" />
      <trkpt lat="37.76546" lon="-122.49126" />
      <trkpt lat="37.76545" lon="-122.4915" />
      <trkpt lat="37.76553" lon="-122.49246" />
      <trkpt lat="37.76555" lon="-122.4937" />
      <trkpt lat="37.76559" lon="-122.49412" />
      <trkpt lat="37.7656" lon="-122.4956" />
      <trkpt lat="37.76557" lon="-122.4961" />
      <trkpt lat="37.76541" lon="-122.49709" />
      <trkpt lat="37.76536" lon="-122.49756" />
      <trkpt lat="37.76514" lon="-122.4985" />
      <trkpt lat="37.76488" lon="-122.4992" />
      <trkpt lat="37.76482" lon="-122.49943" />
      <trkpt lat="37.76477" lon="-122.49968" />
      <trkpt lat="37.76481" lon="-122.5002" />
      <trkpt lat="37.76513" lon="-122.50203" />
      <trkpt lat="37.76518" lon="-122.50226" />
      <trkpt lat="37.76543" lon="-122.50317" />
      <trkpt lat="37.76549" lon="-122.50342" />
      <trkpt lat="37.76561" lon="-122.50416" />
      <trkpt lat="37.76556" lon="-122.5044" />
      <trkpt lat="37.76553" lon="-122.50511" />
      <trkpt lat="37.76551" lon="-122.50559" />
      <trkpt lat="37.76553" lon="-122.50609" />
      <trkpt lat="37.76545" lon="-122.50661" />
      <trkpt lat="37.76506" lon="-122.50781" />
      <trkpt lat="37.76486" lon="-122.50826" />
      <trkpt lat="37.76453" lon="-122.50919" />
      <trkpt lat="37.76444" lon="-122.5094" />
      <trkpt lat="37.76427" lon="-122.50955" />
      <trkpt lat="37.76417" lon="-122.50972" />
      <trkpt lat="37.76414" lon="-122.50995" />
    </trkseg>
  </trk>
</gpx>