<?xml version="1.0" encoding="UTF-8"?>
<gpx version="1.1" creator="strava-segment-scraper" xmlns="http://www.topografix.com/GPX/1/1">
  <trk>
    <name>Howerth around the lake and back</name>
    <trkseg>
      <trkpt lat="38.45315" lon="-122.66761" />
      <trkpt lat="38.45324" lon="-122.66753" />
      <trkpt lat="38.45332" lon="-122.66734" />
      <trkpt lat="38.45342" lon="-122.6672" />
      <trkpt lat="38.45347" lon="-122.66701" />
      <trkpt lat="38.45326" lon="-122.66618" />
      <trkpt lat="38.4532" lon="-122.66604" />
      <trkpt lat="38.45325" lon="-122.66593" />
      <trkpt lat="38.45334" lon="-122.66583" />
      <trkpt lat="38.45368" lon="-122.66554" />
      <trkpt lat="38.45387" lon="-122.66542" />
      <trkpt lat="38.45417" lon="-122.66517" />
      <trkpt lat="38.45444" lon="-122.665" />
      <trkpt lat="38.45472" lon="-122.66478" />
      <trkpt lat="38.45497" lon="-122.66456" />
      <trkpt lat="38.45543" lon="-122.66422" />
      <trkpt lat="38.45591" lon="-122.66381" />
      <trkpt lat="38.45608" lon="-122.66366" />
      <trkpt lat="38.45619" lon="-122.66352" />
      <trkpt lat="38.45636" lon="-122.66313" />
      <trkpt lat="38.45648" lon="-122.66278" />
      <trkpt lat="38.45658" lon="-122.66264" />
      <trkpt lat="38.45679" lon="-122.66214" />
      <trkpt lat="38.45688" lon="-122.66176" />
      <trkpt lat="38.45711" lon="-122.66116" />
      <trkpt lat="38.45717" lon="-122.66093" />
      <trkpt lat="38.45734" lon="-122.66056" />
      <trkpt lat="38.45749" lon="-122.66013" />
      <trkpt lat="38.45748" lon="-122.65992" />
      <trkpt lat="38.45734" lon="-122.65978" />
      <trkpt lat="38.45723" lon="-122.65972" />
      <trkpt lat="38.45699" lon="-122.65954" />
      <trkpt lat="38.45699" lon="-122.65941" />
      <trkpt lat="38.45703" lon="-122.65918" />
      <trkpt lat="38.45712" lon="-122.65893" />
      <trkpt lat="38.45756" lon="-122.65831" />
      <trkpt lat="38.45756" lon="-122.6581" />
      <trkpt lat="38.45749" lon="-122.65792" />
      <trkpt lat="38.4572" lon="-122.6574" />
      <trkpt lat="38.45709" lon="-122.65731" />
      <trkpt lat="38.45693" lon="-122.65722" />
      <trkpt lat="38.45683" lon="-122.65714" />
      <trkpt lat="38.45651" lon="-122.65701" />
      <trkpt lat="38.45648" lon="-122.657" />
      <trkpt lat="38.45624" lon="-122.65703" />
      <trkpt lat="38.45613" lon="-122.65703" />
      <trkpt lat="38.45556" lon="-122.65686" />
      <trkpt lat="38.45528" lon="-122.65697" />
      <trkpt lat="38.45518" lon="-122.65705" />
      <trkpt lat="38.45504" lon="-122.65721" />
      <trkpt lat="38.45493" lon="-122.65726" />
      <trkpt lat="38.45486" lon="-122.65719" />
      <trkpt lat="38.455" lon="-122.65702" />
      <trkpt lat="38.45507" lon="-122.65689" />
      <trkpt lat="38.4551" lon="-122.65674" />
      <trkpt lat="38.45506" lon="-122.65652" />
      <trkpt lat="38.45494" lon="-122.65614" />
      <trkpt lat="38.45486" lon="-122.65599" />
      <trkpt lat="38.45454" lon="-122.65583" />
      <trkpt lat="38.4543" lon="-122.65561" />
      <trkpt lat="38.45416" lon="-122.65553" />
      <trkpt lat="38.45385" lon="-122.65547" />
      <trkpt lat="38.45364" lon="-122.65551" />
      <trkpt lat="38.45351" lon="-122.65559" />
      <trkpt lat="38.45322" lon="-122.65602" />
      <trkpt lat="38.45319" lon="-122.65603" />
      <trkpt lat="38.45309" lon="-122.65594" />
      <trkpt lat="38.45306" lon="-122.65574" />
      <trkpt lat="38.45299" lon="-122.65551" />
      <trkpt lat="38.4529" lon="-122.65534" />
      <trkpt lat="38.45267" lon="-122.65426" />
      <trkpt lat="38.45248" lon="-122.65391" />
      <trkpt lat="38.45234" lon="-122.65359" />
      <trkpt lat="38.45224" lon="-122.65342" />
      <trkpt lat="38.45209" lon="-122.65336" />
      <trkpt lat="38.45194" lon="-122.65334" />
      <trkpt lat="38.45178" lon="-122.65338" />
      <trkpt lat="38.45132" lon="-122.65362" />
      <trkpt lat="38.45121" lon="-122.6537" />
      <trkpt lat="38.45106" lon="-122.65374" />
      <trkpt lat="38.4509" lon="-122.65375" />
      <trkpt lat="38.45064" lon="-122.65367" />
      <trkpt lat="38.45035" lon="-122.65353" />
      <trkpt lat="38.45018" lon="-122.6535" />
      <trkpt lat="38.44998" lon="-122.65343" />
      <trkpt lat="38.44985" lon="-122.65332" />
      <trkpt lat="38.44974" lon="-122.65315" />
      <trkpt lat="38.44969" lon="-122.653" />
      <trkpt lat="38.44966" lon="-122.65277" />
      <trkpt lat="38.44968" lon="-122.65263" />
      <trkpt lat="38.4497" lon="-122.65226" />
      <trkpt lat="38.44979" lon="-122.65192" />
      <trkpt lat="38.44985" lon="-122.65175" />
      <trkpt lat="38.45" lon="-122.65148" />
      <trkpt lat="38.45012" lon="-122.65135" />
      <trkpt lat="38.45044" lon="-122.65105" />
      <trkpt lat="38.45087" lon="-122.65074" />
      <trkpt lat="38.45115" lon="-122.65057" />
      <trkpt lat="38.45121" lon="-122.65047" />
      <trkpt lat="38.45113" lon="-122.65032" />
      <trkpt lat="38.45086" lon="-122.6502" />
      <trkpt lat="38.45071" lon="-122.65005" />
      <trkpt lat="38.45074" lon="-122.64985" />
      <trkpt lat="38.4508" lon="-122.6498" />
      <trkpt lat="38.45094" lon="-122.6498" />
      <trkpt lat="38.45132" lon="-122.64984" />
      <trkpt lat="38.45151" lon="-122.65004" />
      <trkpt lat="38.45159" lon="-122.65033" />
      <trkpt lat="38.45153" lon="-122.65069" />
      <trkpt lat="38.45158" lon="-122.65088" />
      <trkpt lat="38.4517" lon="-122.651" />
      <trkpt lat="38.45185" lon="-122.65109" />
      <trkpt lat="38.45205" lon="-122.6511" />
      <trkpt lat="38.45244" lon="-122.65117" />
      <trkpt lat="38.45256" lon="-122.65117" />
      <trkpt lat="38.45271" lon="-122.65113" />
      <trkpt lat="38.45278" lon="-122.6511" />
      <trkpt lat="38.45294" lon="-122.65111" />
      <trkpt lat="38.45313" lon="-122.65115" />
      <trkpt lat="38.45324" lon="-122.65123" />
      <trkpt lat="38.45335" lon="-122.65135" />
      <trkpt lat="38.4535" lon="-122.65138" />
      <trkpt lat="38.45375" lon="-122.6513" />
      <trkpt lat="38.45388" lon="-122.65141" />
      <trkpt lat="38.45394" lon="-122.65144" />
      <trkpt lat="38.454" lon="-122.65143" />
      <trkpt lat="38.45414" lon="-122.65136" />
      <trkpt lat="38.45424" lon="-122.65115" />
      <trkpt lat="38.45436" lon="-122.65106" />
      <trkpt lat="38.45458" lon="-122.65099" />
      <trkpt lat="38.45474" lon="-122.65099" />
      <trkpt lat="38.45505" lon="-122.65103" />
      <trkpt lat="38.4552" lon="-122.65102" />
      <trkpt lat="38.45536" lon="-122.65097" />
      <trkpt lat="38.45575" lon="-122.65074" />
      <trkpt lat="38.45586" lon="-122.65059" />
      <trkpt lat="38.45592" lon="-122.65045" />
      <trkpt lat="38.45588" lon="-122.65022" />
      <trkpt lat="38.45577" lon="-122.65005" />
      <trkpt lat="38.45565" lon="-122.64991" />
      <trkpt lat="38.45562" lon="-122.64975" />
      <trkpt lat="38.45568" lon="-122.6496" />
      <trkpt lat="38.45577" lon="-122.64946" />
      <trkpt lat="38.45587" lon="-122.64941" />
      <trkpt lat="38.45597" lon="-122.64947" />
      <trkpt lat="38.45606" lon="-122.64958" />
      <trkpt lat="38.45625" lon="-122.64988" />
      <trkpt lat="38.45641" lon="-122.65004" />
      <trkpt lat="38.45656" lon="-122.65007" />
      <trkpt lat="38.45674" lon="-122.65015" />
      <trkpt lat="38.4569" lon="-122.65025" />
      <trkpt lat="38.45701" lon="-122.65037" />
      <trkpt lat="38.45736" lon="-122.65067" />
      <trkpt lat="38.45746" lon="-122.65088" />
      <trkpt lat="38.45748" lon="-122.65105" />
      <trkpt lat="38.45747" lon="-122.65127" />
      <trkpt lat="38.4575" lon="-122.65141" />
      <trkpt lat="38.45758" lon="-122.6515" />
      <trkpt lat="38.45788" lon="-122.65156" />
      <trkpt lat="38.45805" lon="-122.65157" />
      <trkpt lat="38.45836" lon="-122.65156" />
      <trkpt lat="38.45846" lon="-122.65157" />
      <trkpt lat="38.45859" lon="-122.65165" />
      <trkpt lat="38.45922" lon="-122.65258" />
      <trkpt lat="38.4595" lon="-122.65308" />
      <trkpt lat="38.4596" lon="-122.65322" />
      <trkpt lat="38.45979" lon="-122.65354" />
      <trkpt lat="38.46001" lon="-122.65382" />
      <trkpt lat="38.46012" lon="-122.65393" />
      <trkpt lat="38.46024" lon="-122.65411" />
      <trkpt lat="38.46028" lon="-122.65429" />
      <trkpt lat="38.46029" lon="-122.65445" />
      <trkpt lat="38.46025" lon="-122.65462" />
      <trkpt lat="38.46016" lon="-122.65476" />
      <trkpt lat="38.45997" lon="-122.65498" />
      <trkpt lat="38.45987" lon="-122.65516" />
      <trkpt lat="38.45982" lon="-122.65535" />
      <trkpt lat="38.45976" lon="-122.65599" />
      <trkpt lat="38.4596" lon="-122.6566" />
      <trkpt lat="38.45951" lon="-122.65685" />
      <trkpt lat="38.45938" lon="-122.65708" />
      <trkpt lat="38.45917" lon="-122.65757" />
      <trkpt lat="38.45903" lon="-122.65764" />
      <trkpt lat="38.45878" lon="-122.65767" />
      <trkpt lat="38.45848" lon="-122.65761" />
      <trkpt lat="38.45826" lon="-122.65744" />
      <trkpt lat="38.45813" lon="-122.65749" />
      <trkpt lat="38.45785" lon="-122.65771" />
      <trkpt lat="38.45759" lon="-122.65808" />
      <trkpt lat="38.45748" lon="-122.65829" />
      <trkpt lat="38.45711" lon="-122.65882" />
      <trkpt lat="38.45704" lon="-122.65901" />
      <trkpt lat="38.45698" lon="-122.65929" />
      <trkpt lat="38.45696" lon="-122.65943" />
      <trkpt lat="38.45698" lon="-122.65953" />
      <trkpt lat="38.45711" lon="-122.65967" />
      <trkpt lat="38.45744" lon="-122.65985" />
      <trkpt lat="38.45749" lon="-122.65997" />
      <trkpt lat="38.45727" lon="-122.66064" />
      <trkpt lat="38.45688" lon="-122.66163" />
      <trkpt lat="38.4566" lon="-122.6624" />
      <trkpt lat="38.45636" lon="-122.66316" />
      <trkpt lat="38.4562" lon="-122.66349" />
      <trkpt lat="38.45583" lon="-122.66379" />
      <trkpt lat="38.4557" lon="-122.66394" />
      <trkpt lat="38.45509" lon="-122.6644" />
      <trkpt lat="38.45471" lon="-122.66471" />
      <trkpt lat="38.45447" lon="-122.66486" />
      <trkpt lat="38.45414" lon="-122.66511" />
      <trkpt lat="38.4539" lon="-122.66533" />
      <trkpt lat="38.4534" lon="-122.66567" />
      <trkpt lat="38.45325" lon="-122.66581" />
      <trkpt lat="38.45318" lon="-122.66601" />
      <trkpt lat="38.45333" lon="-122.66677" />
      <trkpt lat="38.45342" lon="-122.66698" />
      <trkpt lat="38.45339" lon="-122.66718" />
      <trkpt lat="38.4532" lon="-122.6676" />
    </trkseg>
  </trk>
</gpx>