<?xml version="1.0" encoding="UTF-8"?>
<gpx version="1.1" creator="strava-segment-scraper" xmlns="http://www.topografix.com/GPX/1/1">
  <trk>
    <name>395 TT (Fitzhugh to Lyneta)</name>
    <trkseg>
      <trkpt lat="41.36728" lon="-120.53671" />
      <trkpt lat="41.36679" lon="-120.53621" />
      <trkpt lat="41.36612" lon="-120.53542" />
      <trkpt lat="41.36475" lon="-120.53371" />
      <trkpt lat="41.36448" lon="-120.53342" />
      <trkpt lat="41.36434" lon="-120.53325" />
      <trkpt lat="41.36354" lon="-120.5323" />
      <trkpt lat="41.36329" lon="-120.53197" />
      <trkpt lat="41.36315" lon="-120.53183" />
      <trkpt lat="41.36203" lon="-120.53038" />
      <trkpt lat="41.36183" lon="-120.53018" />
      <trkpt lat="41.36106" lon="-120.52922" />
      <trkpt lat="41.36056" lon="-120.52864" />
      <trkpt lat="41.3604" lon="-120.52841" />
      <trkpt lat="41.36008" lon="-120.52804" />
      <trkpt lat="41.35985" lon="-120.52774" />
      <trkpt lat="41.35978" lon="-120.52767" />
      <trkpt lat="41.35965" lon="-120.5275" />
      <trkpt lat="41.35893" lon="-120.52667" />
      <trkpt lat="41.35798" lon="-120.52549" />
      <trkpt lat="41.35764" lon="-120.52512" />
      <trkpt lat="41.35736" lon="-120.52478" />
      <trkpt lat="41.35722" lon="-120.52453" />
      <trkpt lat="41.35698" lon="-120.52422" />
      <trkpt lat="41.35632" lon="-120.52344" />
      <trkpt lat="41.3561" lon="-120.52315" />
      <trkpt lat="41.35592" lon="-120.52298" />
      <trkpt lat="41.35582" lon="-120.52285" />
      <trkpt lat="41.35547" lon="-120.52233" />
      <trkpt lat="41.35538" lon="-120.52223" />
      <trkpt lat="41.35518" lon="-120.52201" />
      <trkpt lat="41.35497" lon="-120.52174" />
      <trkpt lat="41.35461" lon="-120.52138" />
      <trkpt lat="41.35457" lon="-120.52137" />
      <trkpt lat="41.35454" lon="-120.52138" />
      <trkpt lat="41.35446" lon="-120.52118" />
      <trkpt lat="41.3544" lon="-120.52109" />
      <trkpt lat="41.35404" lon="-120.52064" />
      <trkpt lat="41.35386" lon="-120.52044" />
      <trkpt lat="41.35365" lon="-120.52013" />
      <trkpt lat="41.35341" lon="-120.51997" />
      <trkpt lat="41.3533" lon="-120.51987" />
      <trkpt lat="41.35321" lon="-120.51973" />
      <trkpt lat="41.35311" lon="-120.51964" />
      <trkpt lat="41.35306" lon="-120.51957" />
      <trkpt lat="41.35295" lon="-120.51948" />
      <trkpt lat="41.3529" lon="-120.51948" />
      <trkpt lat="41.35269" lon="-120.51922" />
      <trkpt lat="41.35254" lon="-120.51909" />
      <trkpt lat="41.35243" lon="-120.51902" />
      <trkpt lat="41.35238" lon="-120.51893" />
      <trkpt lat="41.35223" lon="-120.51878" />
      <trkpt lat="41.35207" lon="-120.51867" />
      <trkpt lat="41.35201" lon="-120.51861" />
      <trkpt lat="41.35188" lon="-120.51852" />
      <trkpt lat="41.35175" lon="-120.51845" />
      <trkpt lat="41.35164" lon="-120.51834" />
      <trkpt lat="41.35127" lon="-120.51806" />
      <trkpt lat="41.35116" lon="-120.51796" />
      <trkpt lat="41.3511" lon="-120.51793" />
      <trkpt lat="41.35075" lon="-120.51766" />
      <trkpt lat="41.35043" lon="-120.51744" />
      <trkpt lat="41.34997" lon="-120.51703" />
      <trkpt lat="41.34984" lon="-120.51696" />
      <trkpt lat="41.34974" lon="-120.51684" />
      <trkpt lat="41.34929" lon="-120.5165" />
      <trkpt lat="41.3489" lon="-120.51614" />
      <trkpt lat="41.34859" lon="-120.51592" />
      <trkpt lat="41.34853" lon="-120.51589" />
      <trkpt lat="41.34829" lon="-120.51569" />
      <trkpt lat="41.3479" lon="-120.51539" />
      <trkpt lat="41.34773" lon="-120.51523" />
      <trkpt lat="41.3476" lon="-120.51514" />
      <trkpt lat="41.34743" lon="-120.51499" />
      <trkpt lat="41.34737" lon="-120.51499" />
      <trkpt lat="41.34665" lon="-120.5144" />
      <trkpt lat="41.34627" lon="-120.51415" />
      <trkpt lat="41.34525" lon="-120.5136" />
      <trkpt lat="41.34466" lon="-120.51334" />
      <trkpt lat="41.34436" lon="-120.51323" />
      <trkpt lat="41.34421" lon="-120.5132" />
      <trkpt lat="41.34375" lon="-120.51303" />
      <trkpt lat="41.34308" lon="-120.51287" />
      <trkpt lat="41.343" lon="-120.51285" />
      <trkpt lat="41.34295" lon="-120.51286" />
      <trkpt lat="41.34245" lon="-120.51275" />
      <trkpt lat="41.3423" lon="-120.51277" />
      <trkpt lat="41.3419" lon="-120.51265" />
      <trkpt lat="41.34137" lon="-120.51253" />
      <trkpt lat="41.34128" lon="-120.51249" />
      <trkpt lat="41.34098" lon="-120.51243" />
      <trkpt lat="41.34053" lon="-120.51231" />
      <trkpt lat="41.34047" lon="-120.51232" />
      <trkpt lat="41.33941" lon="-120.51206" />
      <trkpt lat="41.33935" lon="-120.51206" />
      <trkpt lat="41.33889" lon="-120.51194" />
      <trkpt lat="41.33874" lon="-120.51193" />
      <trkpt lat="41.33819" lon="-120.5118" />
      <trkpt lat="41.33805" lon="-120.51174" />
      <trkpt lat="41.33777" lon="-120.51171" />
      <trkpt lat="41.33754" lon="-120.51167" />
      <trkpt lat="41.33724" lon="-120.51158" />
      <trkpt lat="41.3368" lon="-120.51152" />
      <trkpt lat="41.33635" lon="-120.5114" />
      <trkpt lat="41.33621" lon="-120.51139" />
      <trkpt lat="41.33586" lon="-120.5113" />
      <trkpt lat="41.33549" lon="-120.51126" />
      <trkpt lat="41.33492" lon="-120.51109" />
      <trkpt lat="41.33458" lon="-120.51104" />
      <trkpt lat="41.3337" lon="-120.51084" />
      <trkpt lat="41.3335" lon="-120.51081" />
      <trkpt lat="41.33335" lon="-120.51077" />
      <trkpt lat="41.33321" lon="-120.51074" />
      <trkpt lat="41.33292" lon="-120.51066" />
      <trkpt lat="41.33233" lon="-120.51052" />
      <trkpt lat="41.33212" lon="-120.51046" />
      <trkpt lat="41.33076" lon="-120.51022" />
      <trkpt lat="41.32997" lon="-120.51003" />
      <trkpt lat="41.3298" lon="-120.51" />
      <trkpt lat="41.32936" lon="-120.5099" />
      <trkpt lat="41.32884" lon="-120.50976" />
      <trkpt lat="41.32858" lon="-120.50971" />
      <trkpt lat="41.32833" lon="-120.50963" />
      <trkpt lat="41.3275" lon="-120.50947" />
      <trkpt lat="41.32687" lon="-120.5093" />
      <trkpt lat="41.32656" lon="-120.50925" />
      <trkpt lat="41.3264" lon="-120.5092" />
      <trkpt lat="41.32605" lon="-120.50914" />
      <trkpt lat="41.32597" lon="-120.50914" />
      <trkpt lat="41.32566" lon="-120.50905" />
      <trkpt lat="41.32551" lon="-120.50903" />
      <trkpt lat="41.324" lon="-120.50866" />
      <trkpt lat="41.32379" lon="-120.50862" />
      <trkpt lat="41.32341" lon="-120.50849" />
      <trkpt lat="41.32321" lon="-120.50846" />
      <trkpt lat="41.32314" lon="-120.50843" />
      <trkpt lat="41.32284" lon="-120.50839" />
      <trkpt lat="41.32224" lon="-120.50824" />
      <trkpt lat="41.32209" lon="-120.50822" />
      <trkpt lat="41.32196" lon="-120.50823" />
      <trkpt lat="41.32129" lon="-120.50807" />
      <trkpt lat="41.32059" lon="-120.50802" />
      <trkpt lat="41.32051" lon="-120.50798" />
      <trkpt lat="41.31958" lon="-120.50777" />
      <trkpt lat="41.31914" lon="-120.5077" />
      <trkpt lat="41.3187" lon="-120.5076" />
      <trkpt lat="41.31857" lon="-120.50755" />
      <trkpt lat="41.31839" lon="-120.50753" />
      <trkpt lat="41.31827" lon="-120.50748" />
      <trkpt lat="41.31816" lon="-120.50747" />
      <trkpt lat="41.31799" lon="-120.50742" />
      <trkpt lat="41.31793" lon="-120.50743" />
      <trkpt lat="41.31752" lon="-120.50734" />
      <trkpt lat="41.31743" lon="-120.50734" />
      <trkpt lat="41.31738" lon="-120.50735" />
    </trkseg>
  </trk>
</gpx>