<?xml version="1.0" encoding="UTF-8"?>
<gpx version="1.1" creator="strava-segment-scraper" xmlns="http://www.topografix.com/GPX/1/1">
  <trk>
    <name>Mt Rose - Out and Back</name>
    <trkseg>
      <trkpt lat="39.31266" lon="-119.89799" />
      <trkpt lat="39.31269" lon="-119.89799" />
      <trkpt lat="39.31271" lon="-119.89811" />
      <trkpt lat="39.31266" lon="-119.89827" />
      <trkpt lat="39.31265" lon="-119.89846" />
      <trkpt lat="39.31263" lon="-119.8986" />
      <trkpt lat="39.31256" lon="-119.89886" />
      <trkpt lat="39.31246" lon="-119.89912" />
      <trkpt lat="39.31234" lon="-119.89948" />
      <trkpt lat="39.31214" lon="-119.89992" />
      <trkpt lat="39.31195" lon="-119.90046" />
      <trkpt lat="39.31181" lon="-119.90119" />
      <trkpt lat="39.31165" lon="-119.90171" />
      <trkpt lat="39.31154" lon="-119.9023" />
      <trkpt lat="39.31156" lon="-119.90256" />
      <trkpt lat="39.31163" lon="-119.90276" />
      <trkpt lat="39.31168" lon="-119.90285" />
      <trkpt lat="39.31172" lon="-119.90305" />
      <trkpt lat="39.31184" lon="-119.90436" />
      <trkpt lat="39.31185" lon="-119.90446" />
      <trkpt lat="39.31182" lon="-119.90461" />
      <trkpt lat="39.31179" lon="-119.9047" />
      <trkpt lat="39.31173" lon="-119.90482" />
      <trkpt lat="39.31183" lon="-119.90508" />
      <trkpt lat="39.31188" lon="-119.90543" />
      <trkpt lat="39.31198" lon="-119.90581" />
      <trkpt lat="39.31198" lon="-119.90595" />
      <trkpt lat="39.31178" lon="-119.90617" />
      <trkpt lat="39.31165" lon="-119.90626" />
      <trkpt lat="39.31163" lon="-119.90665" />
      <trkpt lat="39.31169" lon="-119.90702" />
      <trkpt lat="39.31177" lon="-119.9072" />
      <trkpt lat="39.31183" lon="-119.9077" />
      <trkpt lat="39.31194" lon="-119.90784" />
      <trkpt lat="39.31197" lon="-119.90816" />
      <trkpt lat="39.312" lon="-119.90825" />
      <trkpt lat="39.31207" lon="-119.90838" />
      <trkpt lat="39.31245" lon="-119.90878" />
      <trkpt lat="39.31251" lon="-119.90895" />
      <trkpt lat="39.31256" lon="-119.90922" />
      <trkpt lat="39.31263" lon="-119.9094" />
      <trkpt lat="39.31269" lon="-119.9095" />
      <trkpt lat="39.31302" lon="-119.90985" />
      <trkpt lat="39.31327" lon="-119.9101" />
      <trkpt lat="39.31346" lon="-119.91033" />
      <trkpt lat="39.31352" lon="-119.91045" />
      <trkpt lat="39.31365" lon="-119.91088" />
      <trkpt lat="39.31386" lon="-119.91121" />
      <trkpt lat="39.3143" lon="-119.91157" />
      <trkpt lat="39.31478" lon="-119.91172" />
      <trkpt lat="39.31488" lon="-119.91172" />
      <trkpt lat="39.31504" lon="-119.91178" />
      <trkpt lat="39.31549" lon="-119.91197" />
      <trkpt lat="39.31563" lon="-119.9122" />
      <trkpt lat="39.31575" lon="-119.91232" />
      <trkpt lat="39.31601" lon="-119.91251" />
      <trkpt lat="39.31612" lon="-119.91275" />
      <trkpt lat="39.3163" lon="-119.91289" />
      <trkpt lat="39.31642" lon="-119.91288" />
      <trkpt lat="39.31682" lon="-119.91253" />
      <trkpt lat="39.31694" lon="-119.91244" />
      <trkpt lat="39.31708" lon="-119.9124" />
      <trkpt lat="39.31746" lon="-119.91222" />
      <trkpt lat="39.31763" lon="-119.91226" />
      <trkpt lat="39.31788" lon="-119.91255" />
      <trkpt lat="39.31808" lon="-119.91264" />
      <trkpt lat="39.31832" lon="-119.9127" />
      <trkpt lat="39.31859" lon="-119.91267" />
      <trkpt lat="39.31874" lon="-119.9127" />
      <trkpt lat="39.31898" lon="-119.91269" />
      <trkpt lat="39.31912" lon="-119.91266" />
      <trkpt lat="39.31928" lon="-119.9127" />
      <trkpt lat="39.31934" lon="-119.91278" />
      <trkpt lat="39.31945" lon="-119.91276" />
      <trkpt lat="39.31956" lon="-119.91287" />
      <trkpt lat="39.31966" lon="-119.91285" />
      <trkpt lat="39.31977" lon="-119.91287" />
      <trkpt lat="39.31996" lon="-119.9128" />
      <trkpt lat="39.32002" lon="-119.91281" />
      <trkpt lat="39.32018" lon="-119.9131" />
      <trkpt lat="39.32024" lon="-119.91324" />
      <trkpt lat="39.32027" lon="-119.91341" />
      <trkpt lat="39.32027" lon="-119.91366" />
      <trkpt lat="39.32031" lon="-119.91379" />
      <trkpt lat="39.32053" lon="-119.9141" />
      <trkpt lat="39.32058" lon="-119.91425" />
      <trkpt lat="39.32057" lon="-119.91428" />
      <trkpt lat="39.32058" lon="-119.91457" />
      <trkpt lat="39.32061" lon="-119.91471" />
      <trkpt lat="39.3207" lon="-119.91492" />
      <trkpt lat="39.32083" lon="-119.91499" />
      <trkpt lat="39.32092" lon="-119.9151" />
      <trkpt lat="39.32114" lon="-119.91536" />
      <trkpt lat="39.32126" lon="-119.91554" />
      <trkpt lat="39.32198" lon="-119.91625" />
      <trkpt lat="39.32211" lon="-119.91644" />
      <trkpt lat="39.32224" lon="-119.91665" />
      <trkpt lat="39.32229" lon="-119.91677" />
      <trkpt lat="39.3224" lon="-119.9173" />
      <trkpt lat="39.32238" lon="-119.91766" />
      <trkpt lat="39.32241" lon="-119.91788" />
      <trkpt lat="39.32237" lon="-119.91807" />
      <trkpt lat="39.32265" lon="-119.91811" />
      <trkpt lat="39.32278" lon="-119.91821" />
      <trkpt lat="39.32301" lon="-119.91825" />
      <trkpt lat="39.32326" lon="-119.91823" />
      <trkpt lat="39.32343" lon="-119.91826" />
      <trkpt lat="39.32372" lon="-119.91849" />
      <trkpt lat="39.32377" lon="-119.91858" />
      <trkpt lat="39.324" lon="-119.91872" />
      <trkpt lat="39.32407" lon="-119.9189" />
      <trkpt lat="39.32408" lon="-119.91928" />
      <trkpt lat="39.32402" lon="-119.9195" />
      <trkpt lat="39.32403" lon="-119.91967" />
      <trkpt lat="39.32408" lon="-119.91974" />
      <trkpt lat="39.32425" lon="-119.9198" />
      <trkpt lat="39.32437" lon="-119.91993" />
      <trkpt lat="39.32456" lon="-119.92007" />
      <trkpt lat="39.32463" lon="-119.92018" />
      <trkpt lat="39.32479" lon="-119.92033" />
      <trkpt lat="39.32503" lon="-119.9206" />
      <trkpt lat="39.32543" lon="-119.92091" />
      <trkpt lat="39.32556" lon="-119.92088" />
      <trkpt lat="39.32582" lon="-119.92092" />
      <trkpt lat="39.32624" lon="-119.92096" />
      <trkpt lat="39.32627" lon="-119.92109" />
      <trkpt lat="39.3261" lon="-119.92126" />
      <trkpt lat="39.32604" lon="-119.92137" />
      <trkpt lat="39.3258" lon="-119.92151" />
      <trkpt lat="39.32571" lon="-119.92166" />
      <trkpt lat="39.3256" lon="-119.92199" />
      <trkpt lat="39.32555" lon="-119.92264" />
      <trkpt lat="39.32556" lon="-119.9227" />
      <trkpt lat="39.32561" lon="-119.92275" />
      <trkpt lat="39.32564" lon="-119.92285" />
      <trkpt lat="39.3256" lon="-119.92299" />
      <trkpt lat="39.32567" lon="-119.92309" />
      <trkpt lat="39.32582" lon="-119.9232" />
      <trkpt lat="39.32584" lon="-119.9234" />
      <trkpt lat="39.32583" lon="-119.92348" />
      <trkpt lat="39.32576" lon="-119.92365" />
      <trkpt lat="39.32568" lon="-119.92383" />
      <trkpt lat="39.32557" lon="-119.92401" />
      <trkpt lat="39.32551" lon="-119.92414" />
      <trkpt lat="39.3255" lon="-119.9242" />
      <trkpt lat="39.32582" lon="-119.92465" />
      <trkpt lat="39.32586" lon="-119.92479" />
      <trkpt lat="39.32591" lon="-119.9252" />
      <trkpt lat="39.32591" lon="-119.92535" />
      <trkpt lat="39.32588" lon="-119.92552" />
      <trkpt lat="39.32588" lon="-119.9256" />
      <trkpt lat="39.32592" lon="-119.9259" />
      <trkpt lat="39.32594" lon="-119.92596" />
      <trkpt lat="39.326" lon="-119.92606" />
      <trkpt lat="39.32609" lon="-119.92605" />
      <trkpt lat="39.32614" lon="-119.92601" />
      <trkpt lat="39.32621" lon="-119.92599" />
      <trkpt lat="39.32625" lon="-119.92596" />
      <trkpt lat="39.32633" lon="-119.92599" />
      <trkpt lat="39.32641" lon="-119.92609" />
      <trkpt lat="39.32655" lon="-119.92608" />
      <trkpt lat="39.32678" lon="-119.92596" />
      <trkpt lat="39.32691" lon="-119.92588" />
      <trkpt lat="39.32702" lon="-119.92578" />
      <trkpt lat="39.32712" lon="-119.92573" />
      <trkpt lat="39.32726" lon="-119.92574" />
      <trkpt lat="39.3274" lon="-119.92577" />
      <trkpt lat="39.32754" lon="-119.92573" />
      <trkpt lat="39.32782" lon="-119.92569" />
      <trkpt lat="39.32812" lon="-119.92572" />
      <trkpt lat="39.32822" lon="-119.92568" />
      <trkpt lat="39.3284" lon="-119.92553" />
      <trkpt lat="39.32848" lon="-119.92557" />
      <trkpt lat="39.32854" lon="-119.92558" />
      <trkpt lat="39.32858" lon="-119.92563" />
      <trkpt lat="39.32863" lon="-119.92565" />
      <trkpt lat="39.32865" lon="-119.92563" />
      <trkpt lat="39.32877" lon="-119.92563" />
      <trkpt lat="39.32881" lon="-119.92565" />
      <trkpt lat="39.32893" lon="-119.92576" />
      <trkpt lat="39.32895" lon="-119.92584" />
      <trkpt lat="39.32893" lon="-119.9259" />
      <trkpt lat="39.32894" lon="-119.92602" />
      <trkpt lat="39.32891" lon="-119.92618" />
      <trkpt lat="39.32892" lon="-119.92625" />
      <trkpt lat="39.3289" lon="-119.92634" />
      <trkpt lat="39.3289" lon="-119.92644" />
      <trkpt lat="39.32896" lon="-119.92641" />
      <trkpt lat="39.32908" lon="-119.9262" />
      <trkpt lat="39.32926" lon="-119.92595" />
      <trkpt lat="39.32935" lon="-119.92588" />
      <trkpt lat="39.3296" lon="-119.92588" />
      <trkpt lat="39.32966" lon="-119.92585" />
      <trkpt lat="39.32973" lon="-119.92577" />
      <trkpt lat="39.32986" lon="-119.92573" />
      <trkpt lat="39.33002" lon="-119.92571" />
      <trkpt lat="39.33009" lon="-119.92576" />
      <trkpt lat="39.33019" lon="-119.92575" />
      <trkpt lat="39.33027" lon="-119.9257" />
      <trkpt lat="39.33032" lon="-119.92563" />
      <trkpt lat="39.33039" lon="-119.9256" />
      <trkpt lat="39.33056" lon="-119.92536" />
      <trkpt lat="39.33067" lon="-119.92527" />
      <trkpt lat="39.33081" lon="-119.92524" />
      <trkpt lat="39.33097" lon="-119.92522" />
      <trkpt lat="39.33107" lon="-119.92514" />
      <trkpt lat="39.33116" lon="-119.9251" />
      <trkpt lat="39.33136" lon="-119.92491" />
      <trkpt lat="39.33145" lon="-119.92486" />
      <trkpt lat="39.33158" lon="-119.92471" />
      <trkpt lat="39.33189" lon="-119.92444" />
      <trkpt lat="39.33191" lon="-119.92438" />
      <trkpt lat="39.33207" lon="-119.92423" />
      <trkpt lat="39.33217" lon="-119.92417" />
      <trkpt lat="39.33223" lon="-119.92416" />
      <trkpt lat="39.33228" lon="-119.9241" />
      <trkpt lat="39.33278" lon="-119.92373" />
      <trkpt lat="39.33295" lon="-119.92366" />
      <trkpt lat="39.333" lon="-119.92361" />
      <trkpt lat="39.33307" lon="-119.92344" />
      <trkpt lat="39.33314" lon="-119.92336" />
      <trkpt lat="39.33333" lon="-119.92302" />
      <trkpt lat="39.33338" lon="-119.92295" />
      <trkpt lat="39.33345" lon="-119.9229" />
      <trkpt lat="39.3335" lon="-119.92289" />
      <trkpt lat="39.33384" lon="-119.923" />
      <trkpt lat="39.33401" lon="-119.92317" />
      <trkpt lat="39.33414" lon="-119.92327" />
      <trkpt lat="39.33426" lon="-119.92348" />
      <trkpt lat="39.33431" lon="-119.92351" />
      <trkpt lat="39.33438" lon="-119.92351" />
      <trkpt lat="39.33445" lon="-119.92354" />
      <trkpt lat="39.3346" lon="-119.92344" />
      <trkpt lat="39.3347" lon="-119.92344" />
      <trkpt lat="39.33477" lon="-119.92341" />
      <trkpt lat="39.33494" lon="-119.92354" />
      <trkpt lat="39.33514" lon="-119.92355" />
      <trkpt lat="39.33533" lon="-119.92361" />
      <trkpt lat="39.33548" lon="-119.92371" />
      <trkpt lat="39.33578" lon="-119.92385" />
      <trkpt lat="39.33599" lon="-119.924" />
      <trkpt lat="39.33622" lon="-119.924" />
      <trkpt lat="39.33639" lon="-119.9241" />
      <trkpt lat="39.33648" lon="-119.92408" />
      <trkpt lat="39.33665" lon="-119.92409" />
      <trkpt lat="39.33673" lon="-119.92405" />
      <trkpt lat="39.33685" lon="-119.92403" />
      <trkpt lat="39.33699" lon="-119.92406" />
      <trkpt lat="39.33712" lon="-119.92404" />
      <trkpt lat="39.33722" lon="-119.92406" />
      <trkpt lat="39.33728" lon="-119.92403" />
      <trkpt lat="39.33737" lon="-119.92403" />
      <trkpt lat="39.33756" lon="-119.9241" />
      <trkpt lat="39.33762" lon="-119.92417" />
      <trkpt lat="39.33766" lon="-119.92419" />
      <trkpt lat="39.33785" lon="-119.92425" />
      <trkpt lat="39.33813" lon="-119.92443" />
      <trkpt lat="39.33821" lon="-119.92453" />
      <trkpt lat="39.3383" lon="-119.92473" />
      <trkpt lat="39.33836" lon="-119.92478" />
      <trkpt lat="39.3385" lon="-119.92493" />
      <trkpt lat="39.33856" lon="-119.92495" />
      <trkpt lat="39.33863" lon="-119.92494" />
      <trkpt lat="39.33869" lon="-119.92505" />
      <trkpt lat="39.33871" lon="-119.92515" />
      <trkpt lat="39.33883" lon="-119.92528" />
      <trkpt lat="39.33884" lon="-119.92535" />
      <trkpt lat="39.33888" lon="-119.92544" />
      <trkpt lat="39.33897" lon="-119.9256" />
      <trkpt lat="39.33898" lon="-119.92572" />
      <trkpt lat="39.33901" lon="-119.92587" />
      <trkpt lat="39.33902" lon="-119.92615" />
      <trkpt lat="39.33895" lon="-119.92633" />
      <trkpt lat="39.33887" lon="-119.9268" />
      <trkpt lat="39.33889" lon="-119.927" />
      <trkpt lat="39.33893" lon="-119.92714" />
      <trkpt lat="39.33891" lon="-119.9274" />
      <trkpt lat="39.33898" lon="-119.9277" />
      <trkpt lat="39.33903" lon="-119.92781" />
      <trkpt lat="39.33903" lon="-119.92795" />
      <trkpt lat="39.33917" lon="-119.92815" />
      <trkpt lat="39.33919" lon="-119.92823" />
      <trkpt lat="39.33921" lon="-119.92845" />
      <trkpt lat="39.33925" lon="-119.92854" />
      <trkpt lat="39.3393" lon="-119.92858" />
      <trkpt lat="39.33931" lon="-119.92871" />
      <trkpt lat="39.33919" lon="-119.92889" />
      <trkpt lat="39.3392" lon="-119.92894" />
      <trkpt lat="39.33942" lon="-119.92919" />
      <trkpt lat="39.33948" lon="-119.9292" />
      <trkpt lat="39.33956" lon="-119.92933" />
      <trkpt lat="39.33956" lon="-119.92944" />
      <trkpt lat="39.3396" lon="-119.92968" />
      <trkpt lat="39.33959" lon="-119.92978" />
      <trkpt lat="39.3397" lon="-119.93006" />
      <trkpt lat="39.33977" lon="-119.93021" />
      <trkpt lat="39.33983" lon="-119.93024" />
      <trkpt lat="39.34004" lon="-119.93012" />
      <trkpt lat="39.34011" lon="-119.93011" />
      <trkpt lat="39.34029" lon="-119.93002" />
      <trkpt lat="39.34044" lon="-119.92997" />
      <trkpt lat="39.34057" lon="-119.92989" />
      <trkpt lat="39.34061" lon="-119.92988" />
      <trkpt lat="39.34071" lon="-119.92967" />
      <trkpt lat="39.34071" lon="-119.92955" />
      <trkpt lat="39.3407" lon="-119.92946" />
      <trkpt lat="39.34061" lon="-119.9293" />
      <trkpt lat="39.34041" lon="-119.92906" />
      <trkpt lat="39.34037" lon="-119.92891" />
      <trkpt lat="39.34031" lon="-119.92873" />
      <trkpt lat="39.34031" lon="-119.92857" />
      <trkpt lat="39.3404" lon="-119.92829" />
      <trkpt lat="39.34047" lon="-119.92819" />
      <trkpt lat="39.34047" lon="-119.92816" />
      <trkpt lat="39.34058" lon="-119.92796" />
      <trkpt lat="39.34065" lon="-119.92778" />
      <trkpt lat="39.34074" lon="-119.92759" />
      <trkpt lat="39.34081" lon="-119.92748" />
      <trkpt lat="39.34092" lon="-119.92737" />
      <trkpt lat="39.34102" lon="-119.92715" />
      <trkpt lat="39.34117" lon="-119.92699" />
      <trkpt lat="39.3413" lon="-119.92666" />
      <trkpt lat="39.34149" lon="-119.9265" />
      <trkpt lat="39.34157" lon="-119.9264" />
      <trkpt lat="39.34165" lon="-119.92627" />
      <trkpt lat="39.3417" lon="-119.92622" />
      <trkpt lat="39.34176" lon="-119.92611" />
      <trkpt lat="39.34183" lon="-119.92603" />
      <trkpt lat="39.3419" lon="-119.92593" />
      <trkpt lat="39.34193" lon="-119.92587" />
      <trkpt lat="39.3419" lon="-119.92576" />
      <trkpt lat="39.342" lon="-119.92554" />
      <trkpt lat="39.34201" lon="-119.92547" />
      <trkpt lat="39.34207" lon="-119.92538" />
      <trkpt lat="39.34214" lon="-119.92519" />
      <trkpt lat="39.34219" lon="-119.92515" />
      <trkpt lat="39.34228" lon="-119.92501" />
      <trkpt lat="39.34255" lon="-119.92469" />
      <trkpt lat="39.34262" lon="-119.92456" />
      <trkpt lat="39.34267" lon="-119.92452" />
      <trkpt lat="39.3428" lon="-119.92423" />
      <trkpt lat="39.34284" lon="-119.92419" />
      <trkpt lat="39.3429" lon="-119.92396" />
      <trkpt lat="39.34292" lon="-119.92394" />
      <trkpt lat="39.34307" lon="-119.9242" />
      <trkpt lat="39.34321" lon="-119.92437" />
      <trkpt lat="39.34342" lon="-119.92448" />
      <trkpt lat="39.34362" lon="-119.92452" />
      <trkpt lat="39.34362" lon="-119.92446" />
      <trkpt lat="39.3435" lon="-119.92405" />
      <trkpt lat="39.34346" lon="-119.92375" />
      <trkpt lat="39.34347" lon="-119.92371" />
      <trkpt lat="39.34352" lon="-119.92372" />
      <trkpt lat="39.34366" lon="-119.92386" />
      <trkpt lat="39.34377" lon="-119.92393" />
      <trkpt lat="39.34381" lon="-119.92393" />
      <trkpt lat="39.34381" lon="-119.92386" />
      <trkpt lat="39.34377" lon="-119.92376" />
      <trkpt lat="39.34378" lon="-119.92367" />
      <trkpt lat="39.34374" lon="-119.92326" />
      <trkpt lat="39.34369" lon="-119.92316" />
      <trkpt lat="39.3437" lon="-119.92312" />
      <trkpt lat="39.34385" lon="-119.92324" />
      <trkpt lat="39.34391" lon="-119.92327" />
      <trkpt lat="39.34411" lon="-119.92346" />
      <trkpt lat="39.34419" lon="-119.92351" />
      <trkpt lat="39.34434" lon="-119.92364" />
      <trkpt lat="39.34453" lon="-119.92374" />
      <trkpt lat="39.34461" lon="-119.92374" />
      <trkpt lat="39.34478" lon="-119.92367" />
      <trkpt lat="39.34516" lon="-119.92341" />
      <trkpt lat="39.34524" lon="-119.92341" />
      <trkpt lat="39.34538" lon="-119.92333" />
      <trkpt lat="39.34548" lon="-119.9233" />
      <trkpt lat="39.34577" lon="-119.92316" />
      <trkpt lat="39.34625" lon="-119.92279" />
      <trkpt lat="39.34638" lon="-119.92267" />
      <trkpt lat="39.34659" lon="-119.92254" />
      <trkpt lat="39.3468" lon="-119.92237" />
      <trkpt lat="39.34674" lon="-119.92233" />
      <trkpt lat="39.34659" lon="-119.92232" />
      <trkpt lat="39.34654" lon="-119.9223" />
      <trkpt lat="39.34646" lon="-119.92222" />
      <trkpt lat="39.34643" lon="-119.92211" />
      <trkpt lat="39.34628" lon="-119.92195" />
      <trkpt lat="39.34615" lon="-119.92191" />
      <trkpt lat="39.34572" lon="-119.92185" />
      <trkpt lat="39.34556" lon="-119.9218" />
      <trkpt lat="39.34532" lon="-119.92165" />
      <trkpt lat="39.34511" lon="-119.92146" />
      <trkpt lat="39.34498" lon="-119.92122" />
      <trkpt lat="39.34487" lon="-119.92107" />
      <trkpt lat="39.34495" lon="-119.92104" />
      <trkpt lat="39.34497" lon="-119.921" />
      <trkpt lat="39.345" lon="-119.92099" />
      <trkpt lat="39.34502" lon="-119.92094" />
      <trkpt lat="39.34513" lon="-119.92084" />
      <trkpt lat="39.34524" lon="-119.92068" />
      <trkpt lat="39.34526" lon="-119.92057" />
      <trkpt lat="39.34525" lon="-119.92046" />
      <trkpt lat="39.34509" lon="-119.91997" />
      <trkpt lat="39.34491" lon="-119.91962" />
      <trkpt lat="39.34484" lon="-119.91945" />
      <trkpt lat="39.34478" lon="-119.91935" />
      <trkpt lat="39.34477" lon="-119.91927" />
      <trkpt lat="39.34474" lon="-119.91923" />
      <trkpt lat="39.34468" lon="-119.91924" />
      <trkpt lat="39.34464" lon="-119.91929" />
      <trkpt lat="39.34458" lon="-119.91913" />
      <trkpt lat="39.34446" lon="-119.91916" />
      <trkpt lat="39.34439" lon="-119.919" />
      <trkpt lat="39.34438" lon="-119.91895" />
      <trkpt lat="39.34423" lon="-119.91874" />
      <trkpt lat="39.3442" lon="-119.91862" />
      <trkpt lat="39.34414" lon="-119.9185" />
      <trkpt lat="39.34411" lon="-119.91832" />
      <trkpt lat="39.34391" lon="-119.91799" />
      <trkpt lat="39.34384" lon="-119.91795" />
      <trkpt lat="39.34379" lon="-119.91783" />
      <trkpt lat="39.34382" lon="-119.91784" />
      <trkpt lat="39.34388" lon="-119.91796" />
      <trkpt lat="39.34391" lon="-119.91799" />
      <trkpt lat="39.34405" lon="-119.91824" />
      <trkpt lat="39.34414" lon="-119.9185" />
      <trkpt lat="39.34418" lon="-119.91856" />
      <trkpt lat="39.34423" lon="-119.91873" />
      <trkpt lat="39.34434" lon="-119.91891" />
      <trkpt lat="39.34447" lon="-119.91918" />
      <trkpt lat="39.34461" lon="-119.91916" />
      <trkpt lat="39.34465" lon="-119.9193" />
      <trkpt lat="39.34475" lon="-119.91926" />
      <trkpt lat="39.34477" lon="-119.91936" />
      <trkpt lat="39.34509" lon="-119.92003" />
      <trkpt lat="39.34524" lon="-119.92056" />
      <trkpt lat="39.34521" lon="-119.92072" />
      <trkpt lat="39.34508" lon="-119.9209" />
      <trkpt lat="39.34494" lon="-119.92105" />
      <trkpt lat="39.34486" lon="-119.9211" />
      <trkpt lat="39.34495" lon="-119.9212" />
      <trkpt lat="39.34511" lon="-119.92146" />
      <trkpt lat="39.34534" lon="-119.92166" />
      <trkpt lat="39.34558" lon="-119.92182" />
      <trkpt lat="39.34578" lon="-119.92187" />
      <trkpt lat="39.34618" lon="-119.92191" />
      <trkpt lat="39.3463" lon="-119.92196" />
      <trkpt lat="39.34647" lon="-119.92217" />
      <trkpt lat="39.3465" lon="-119.92225" />
      <trkpt lat="39.34659" lon="-119.92233" />
      <trkpt lat="39.34675" lon="-119.92234" />
      <trkpt lat="39.34677" lon="-119.92242" />
      <trkpt lat="39.34657" lon="-119.92256" />
      <trkpt lat="39.3464" lon="-119.92266" />
      <trkpt lat="39.34582" lon="-119.92313" />
      <trkpt lat="39.3454" lon="-119.92333" />
      <trkpt lat="39.34529" lon="-119.9234" />
      <trkpt lat="39.34518" lon="-119.92343" />
      <trkpt lat="39.3449" lon="-119.92363" />
      <trkpt lat="39.34475" lon="-119.92371" />
      <trkpt lat="39.34464" lon="-119.92375" />
      <trkpt lat="39.34454" lon="-119.92374" />
      <trkpt lat="39.34421" lon="-119.92352" />
      <trkpt lat="39.3441" lon="-119.92347" />
      <trkpt lat="39.3439" lon="-119.92329" />
      <trkpt lat="39.34381" lon="-119.92325" />
      <trkpt lat="39.3437" lon="-119.92313" />
      <trkpt lat="39.34363" lon="-119.92315" />
      <trkpt lat="39.34368" lon="-119.92324" />
      <trkpt lat="39.34371" lon="-119.92368" />
      <trkpt lat="39.34374" lon="-119.92383" />
      <trkpt lat="39.34379" lon="-119.92397" />
      <trkpt lat="39.34377" lon="-119.92397" />
      <trkpt lat="39.34344" lon="-119.9237" />
      <trkpt lat="39.34342" lon="-119.92371" />
      <trkpt lat="39.34346" lon="-119.92409" />
      <trkpt lat="39.34357" lon="-119.92443" />
      <trkpt lat="39.34362" lon="-119.92451" />
      <trkpt lat="39.34359" lon="-119.92454" />
      <trkpt lat="39.34346" lon="-119.92449" />
      <trkpt lat="39.34334" lon="-119.92442" />
      <trkpt lat="39.34314" lon="-119.92427" />
      <trkpt lat="39.34299" lon="-119.92413" />
      <trkpt lat="39.34286" lon="-119.92391" />
      <trkpt lat="39.3428" lon="-119.92396" />
      <trkpt lat="39.34264" lon="-119.92423" />
      <trkpt lat="39.34253" lon="-119.92446" />
      <trkpt lat="39.34237" lon="-119.92475" />
      <trkpt lat="39.34208" lon="-119.92517" />
      <trkpt lat="39.34199" lon="-119.92547" />
      <trkpt lat="39.34195" lon="-119.92554" />
      <trkpt lat="39.34192" lon="-119.92579" />
      <trkpt lat="39.34176" lon="-119.92612" />
      <trkpt lat="39.34163" lon="-119.92634" />
      <trkpt lat="39.34152" lon="-119.92647" />
      <trkpt lat="39.34139" lon="-119.92657" />
      <trkpt lat="39.3413" lon="-119.9267" />
      <trkpt lat="39.34123" lon="-119.92689" />
      <trkpt lat="39.34097" lon="-119.92725" />
      <trkpt lat="39.34096" lon="-119.9273" />
      <trkpt lat="39.34086" lon="-119.92741" />
      <trkpt lat="39.34068" lon="-119.92775" />
      <trkpt lat="39.3406" lon="-119.92794" />
      <trkpt lat="39.3404" lon="-119.9283" />
      <trkpt lat="39.34032" lon="-119.92851" />
      <trkpt lat="39.34032" lon="-119.92863" />
      <trkpt lat="39.34033" lon="-119.92869" />
      <trkpt lat="39.34044" lon="-119.92895" />
      <trkpt lat="39.34073" lon="-119.92937" />
      <trkpt lat="39.34076" lon="-119.92946" />
      <trkpt lat="39.34072" lon="-119.9297" />
      <trkpt lat="39.34061" lon="-119.92987" />
      <trkpt lat="39.34045" lon="-119.92997" />
      <trkpt lat="39.34012" lon="-119.9301" />
      <trkpt lat="39.33996" lon="-119.9302" />
      <trkpt lat="39.33983" lon="-119.93014" />
      <trkpt lat="39.33976" lon="-119.93" />
      <trkpt lat="39.33967" lon="-119.92979" />
      <trkpt lat="39.33965" lon="-119.92963" />
      <trkpt lat="39.33959" lon="-119.92948" />
      <trkpt lat="39.33955" lon="-119.92927" />
      <trkpt lat="39.33952" lon="-119.92923" />
      <trkpt lat="39.33945" lon="-119.92918" />
      <trkpt lat="39.33935" lon="-119.9291" />
      <trkpt lat="39.33932" lon="-119.92901" />
      <trkpt lat="39.33924" lon="-119.92894" />
      <trkpt lat="39.33936" lon="-119.9287" />
      <trkpt lat="39.33935" lon="-119.9286" />
      <trkpt lat="39.33925" lon="-119.92848" />
      <trkpt lat="39.33923" lon="-119.92839" />
      <trkpt lat="39.33921" lon="-119.92816" />
      <trkpt lat="39.33914" lon="-119.92801" />
      <trkpt lat="39.33909" lon="-119.9278" />
      <trkpt lat="39.33896" lon="-119.92744" />
      <trkpt lat="39.33894" lon="-119.92722" />
      <trkpt lat="39.33896" lon="-119.92705" />
      <trkpt lat="39.33893" lon="-119.92684" />
      <trkpt lat="39.339" lon="-119.92641" />
      <trkpt lat="39.33904" lon="-119.9263" />
      <trkpt lat="39.33909" lon="-119.92608" />
      <trkpt lat="39.33906" lon="-119.92578" />
      <trkpt lat="39.33903" lon="-119.92561" />
      <trkpt lat="39.33887" lon="-119.92523" />
      <trkpt lat="39.33877" lon="-119.92503" />
      <trkpt lat="39.33875" lon="-119.92491" />
      <trkpt lat="39.33855" lon="-119.92485" />
      <trkpt lat="39.33839" lon="-119.92466" />
      <trkpt lat="39.33834" lon="-119.92451" />
      <trkpt lat="39.3382" lon="-119.92435" />
      <trkpt lat="39.33804" lon="-119.92424" />
      <trkpt lat="39.3378" lon="-119.92417" />
      <trkpt lat="39.33768" lon="-119.92403" />
      <trkpt lat="39.33748" lon="-119.924" />
      <trkpt lat="39.33713" lon="-119.92404" />
      <trkpt lat="39.33702" lon="-119.92401" />
      <trkpt lat="39.33671" lon="-119.92408" />
      <trkpt lat="39.33655" lon="-119.92409" />
      <trkpt lat="39.3363" lon="-119.92397" />
      <trkpt lat="39.33613" lon="-119.92398" />
      <trkpt lat="39.33577" lon="-119.92375" />
      <trkpt lat="39.33561" lon="-119.92369" />
      <trkpt lat="39.3355" lon="-119.92359" />
      <trkpt lat="39.33529" lon="-119.92351" />
      <trkpt lat="39.33513" lon="-119.92349" />
      <trkpt lat="39.33504" lon="-119.9235" />
      <trkpt lat="39.33494" lon="-119.92344" />
      <trkpt lat="39.3349" lon="-119.92339" />
      <trkpt lat="39.33467" lon="-119.92338" />
      <trkpt lat="39.33451" lon="-119.92348" />
      <trkpt lat="39.33448" lon="-119.92348" />
      <trkpt lat="39.33442" lon="-119.92343" />
      <trkpt lat="39.33435" lon="-119.92343" />
      <trkpt lat="39.33426" lon="-119.92337" />
      <trkpt lat="39.33411" lon="-119.92317" />
      <trkpt lat="39.33397" lon="-119.92308" />
      <trkpt lat="39.33387" lon="-119.92294" />
      <trkpt lat="39.3336" lon="-119.92283" />
      <trkpt lat="39.33349" lon="-119.92281" />
      <trkpt lat="39.33343" lon="-119.92287" />
      <trkpt lat="39.33333" lon="-119.92303" />
      <trkpt lat="39.33328" lon="-119.92314" />
      <trkpt lat="39.3331" lon="-119.92341" />
      <trkpt lat="39.33304" lon="-119.92356" />
      <trkpt lat="39.33297" lon="-119.92366" />
      <trkpt lat="39.33284" lon="-119.9237" />
      <trkpt lat="39.33271" lon="-119.92377" />
      <trkpt lat="39.33228" lon="-119.92411" />
      <trkpt lat="39.33223" lon="-119.92418" />
      <trkpt lat="39.33208" lon="-119.92423" />
      <trkpt lat="39.33193" lon="-119.92438" />
      <trkpt lat="39.33188" lon="-119.92446" />
      <trkpt lat="39.33171" lon="-119.92461" />
      <trkpt lat="39.33154" lon="-119.92473" />
      <trkpt lat="39.33141" lon="-119.92489" />
      <trkpt lat="39.33114" lon="-119.92513" />
      <trkpt lat="39.33095" lon="-119.92526" />
      <trkpt lat="39.33077" lon="-119.92526" />
      <trkpt lat="39.33063" lon="-119.92531" />
      <trkpt lat="39.33053" lon="-119.9254" />
      <trkpt lat="39.33038" lon="-119.92564" />
      <trkpt lat="39.33032" lon="-119.92565" />
      <trkpt lat="39.3302" lon="-119.92577" />
      <trkpt lat="39.33013" lon="-119.92578" />
      <trkpt lat="39.33007" lon="-119.92574" />
      <trkpt lat="39.32979" lon="-119.92575" />
      <trkpt lat="39.32961" lon="-119.92589" />
      <trkpt lat="39.32946" lon="-119.92591" />
      <trkpt lat="39.32935" lon="-119.92589" />
      <trkpt lat="39.32907" lon="-119.92555" />
      <trkpt lat="39.32894" lon="-119.92555" />
      <trkpt lat="39.32889" lon="-119.92557" />
      <trkpt lat="39.32885" lon="-119.92565" />
      <trkpt lat="39.32875" lon="-119.92563" />
      <trkpt lat="39.32867" lon="-119.92567" />
      <trkpt lat="39.32862" lon="-119.92562" />
      <trkpt lat="39.32844" lon="-119.92553" />
      <trkpt lat="39.32828" lon="-119.9257" />
      <trkpt lat="39.32818" lon="-119.92574" />
      <trkpt lat="39.3281" lon="-119.92572" />
      <trkpt lat="39.32795" lon="-119.92573" />
      <trkpt lat="39.32789" lon="-119.92572" />
      <trkpt lat="39.32756" lon="-119.92575" />
      <trkpt lat="39.3275" lon="-119.9258" />
      <trkpt lat="39.32723" lon="-119.92576" />
      <trkpt lat="39.3271" lon="-119.9258" />
      <trkpt lat="39.32693" lon="-119.92594" />
      <trkpt lat="39.3268" lon="-119.92603" />
      <trkpt lat="39.3265" lon="-119.92616" />
      <trkpt lat="39.3264" lon="-119.92608" />
      <trkpt lat="39.32635" lon="-119.926" />
      <trkpt lat="39.32615" lon="-119.92607" />
      <trkpt lat="39.3261" lon="-119.92612" />
      <trkpt lat="39.32602" lon="-119.92613" />
      <trkpt lat="39.32595" lon="-119.92605" />
      <trkpt lat="39.32587" lon="-119.92567" />
      <trkpt lat="39.32589" lon="-119.9255" />
      <trkpt lat="39.32592" lon="-119.92537" />
      <trkpt lat="39.32592" lon="-119.92522" />
      <trkpt lat="39.32588" lon="-119.9249" />
      <trkpt lat="39.32584" lon="-119.92472" />
      <trkpt lat="39.32559" lon="-119.92437" />
      <trkpt lat="39.32552" lon="-119.9243" />
      <trkpt lat="39.32551" lon="-119.92418" />
      <trkpt lat="39.32578" lon="-119.92373" />
      <trkpt lat="39.32584" lon="-119.92357" />
      <trkpt lat="39.32586" lon="-119.92349" />
      <trkpt lat="39.32586" lon="-119.92336" />
      <trkpt lat="39.32582" lon="-119.92327" />
      <trkpt lat="39.32561" lon="-119.92312" />
      <trkpt lat="39.3256" lon="-119.92309" />
      <trkpt lat="39.32562" lon="-119.923" />
      <trkpt lat="39.32565" lon="-119.92294" />
      <trkpt lat="39.32557" lon="-119.9227" />
      <trkpt lat="39.32558" lon="-119.92261" />
      <trkpt lat="39.32565" lon="-119.92192" />
      <trkpt lat="39.32573" lon="-119.92173" />
      <trkpt lat="39.32579" lon="-119.9216" />
      <trkpt lat="39.32586" lon="-119.92153" />
      <trkpt lat="39.32609" lon="-119.92138" />
      <trkpt lat="39.32616" lon="-119.92127" />
      <trkpt lat="39.32623" lon="-119.92122" />
      <trkpt lat="39.32635" lon="-119.92105" />
      <trkpt lat="39.32628" lon="-119.92098" />
      <trkpt lat="39.326" lon="-119.92096" />
      <trkpt lat="39.32572" lon="-119.92096" />
      <trkpt lat="39.32564" lon="-119.92094" />
      <trkpt lat="39.32554" lon="-119.92097" />
      <trkpt lat="39.32543" lon="-119.92097" />
      <trkpt lat="39.32522" lon="-119.92076" />
      <trkpt lat="39.32505" lon="-119.92067" />
      <trkpt lat="39.32497" lon="-119.92055" />
      <trkpt lat="39.32472" lon="-119.92029" />
      <trkpt lat="39.32451" lon="-119.91998" />
      <trkpt lat="39.3244" lon="-119.91986" />
      <trkpt lat="39.32429" lon="-119.91978" />
      <trkpt lat="39.32418" lon="-119.91975" />
      <trkpt lat="39.32413" lon="-119.9197" />
      <trkpt lat="39.32411" lon="-119.91954" />
      <trkpt lat="39.32418" lon="-119.91926" />
      <trkpt lat="39.32416" lon="-119.91916" />
      <trkpt lat="39.32416" lon="-119.91896" />
      <trkpt lat="39.3241" lon="-119.91884" />
      <trkpt lat="39.324" lon="-119.91872" />
      <trkpt lat="39.3238" lon="-119.91859" />
      <trkpt lat="39.32351" lon="-119.91834" />
      <trkpt lat="39.32339" lon="-119.91831" />
      <trkpt lat="39.32315" lon="-119.9183" />
      <trkpt lat="39.32302" lon="-119.91832" />
      <trkpt lat="39.32289" lon="-119.9183" />
      <trkpt lat="39.32271" lon="-119.9182" />
      <trkpt lat="39.32243" lon="-119.91817" />
      <trkpt lat="39.32242" lon="-119.9181" />
      <trkpt lat="39.32246" lon="-119.91798" />
      <trkpt lat="39.32244" lon="-119.91772" />
      <trkpt lat="39.32247" lon="-119.91743" />
      <trkpt lat="39.32238" lon="-119.91689" />
      <trkpt lat="39.3223" lon="-119.91672" />
      <trkpt lat="39.32198" lon="-119.91626" />
      <trkpt lat="39.32138" lon="-119.91565" />
      <trkpt lat="39.32119" lon="-119.91539" />
      <trkpt lat="39.32109" lon="-119.91527" />
      <trkpt lat="39.32101" lon="-119.9152" />
      <trkpt lat="39.32094" lon="-119.91509" />
      <trkpt lat="39.32079" lon="-119.91498" />
      <trkpt lat="39.3207" lon="-119.91483" />
      <trkpt lat="39.32064" lon="-119.91463" />
      <trkpt lat="39.32063" lon="-119.91422" />
      <trkpt lat="39.32045" lon="-119.91394" />
      <trkpt lat="39.32038" lon="-119.91388" />
      <trkpt lat="39.32031" lon="-119.91373" />
      <trkpt lat="39.32031" lon="-119.91336" />
      <trkpt lat="39.32024" lon="-119.91316" />
      <trkpt lat="39.32008" lon="-119.91286" />
      <trkpt lat="39.32006" lon="-119.91284" />
      <trkpt lat="39.31994" lon="-119.91289" />
      <trkpt lat="39.31963" lon="-119.9129" />
      <trkpt lat="39.31953" lon="-119.91276" />
      <trkpt lat="39.31942" lon="-119.91275" />
      <trkpt lat="39.31916" lon="-119.91266" />
      <trkpt lat="39.31847" lon="-119.91269" />
      <trkpt lat="39.31831" lon="-119.91268" />
      <trkpt lat="39.31818" lon="-119.91263" />
      <trkpt lat="39.31806" lon="-119.91261" />
      <trkpt lat="39.31796" lon="-119.91256" />
      <trkpt lat="39.3178" lon="-119.91234" />
      <trkpt lat="39.31767" lon="-119.91222" />
      <trkpt lat="39.31755" lon="-119.9122" />
      <trkpt lat="39.31716" lon="-119.91238" />
      <trkpt lat="39.31698" lon="-119.91245" />
      <trkpt lat="39.31674" lon="-119.91267" />
      <trkpt lat="39.31661" lon="-119.91282" />
      <trkpt lat="39.31649" lon="-119.91293" />
      <trkpt lat="39.31637" lon="-119.91293" />
      <trkpt lat="39.31622" lon="-119.91286" />
      <trkpt lat="39.31609" lon="-119.91261" />
      <trkpt lat="39.31602" lon="-119.91254" />
      <trkpt lat="39.3159" lon="-119.91248" />
      <trkpt lat="39.31573" lon="-119.9123" />
      <trkpt lat="39.3156" lon="-119.91202" />
      <trkpt lat="39.31542" lon="-119.91193" />
      <trkpt lat="39.31515" lon="-119.91183" />
      <trkpt lat="39.31471" lon="-119.91174" />
      <trkpt lat="39.31439" lon="-119.91161" />
      <trkpt lat="39.31428" lon="-119.91154" />
      <trkpt lat="39.31396" lon="-119.91135" />
      <trkpt lat="39.31388" lon="-119.91126" />
      <trkpt lat="39.31371" lon="-119.91097" />
      <trkpt lat="39.31354" lon="-119.9105" />
      <trkpt lat="39.31332" lon="-119.9102" />
      <trkpt lat="39.31281" lon="-119.9097" />
      <trkpt lat="39.31269" lon="-119.90952" />
      <trkpt lat="39.31261" lon="-119.90934" />
      <trkpt lat="39.31254" lon="-119.90897" />
      <trkpt lat="39.31243" lon="-119.9088" />
      <trkpt lat="39.3121" lon="-119.90843" />
      <trkpt lat="39.31202" lon="-119.9083" />
      <trkpt lat="39.31197" lon="-119.90786" />
      <trkpt lat="39.31185" lon="-119.90768" />
      <trkpt lat="39.31178" lon="-119.90729" />
      <trkpt lat="39.31168" lon="-119.90701" />
      <trkpt lat="39.31163" lon="-119.90669" />
      <trkpt lat="39.31163" lon="-119.9063" />
      <trkpt lat="39.31167" lon="-119.9062" />
      <trkpt lat="39.31178" lon="-119.90615" />
      <trkpt lat="39.31189" lon="-119.90605" />
      <trkpt lat="39.31197" lon="-119.90589" />
      <trkpt lat="39.31183" lon="-119.90534" />
      <trkpt lat="39.31182" lon="-119.90519" />
      <trkpt lat="39.31179" lon="-119.90503" />
      <trkpt lat="39.31171" lon="-119.90486" />
      <trkpt lat="39.31178" lon="-119.90463" />
      <trkpt lat="39.31183" lon="-119.90443" />
      <trkpt lat="39.31171" lon="-119.90298" />
      <trkpt lat="39.31157" lon="-119.90261" />
      <trkpt lat="39.31154" lon="-119.9024" />
      <trkpt lat="39.31154" lon="-119.90226" />
      <trkpt lat="39.31167" lon="-119.90157" />
      <trkpt lat="39.31171" lon="-119.9014" />
      <trkpt lat="39.31178" lon="-119.90125" />
      <trkpt lat="39.31182" lon="-119.90109" />
      <trkpt lat="39.31195" lon="-119.90036" />
      <trkpt lat="39.31219" lon="-119.89974" />
      <trkpt lat="39.31239" lon="-119.89928" />
      <trkpt lat="39.31254" lon="-119.89876" />
      <trkpt lat="39.31268" lon="-119.89805" />
    </trkseg>
  </trk>
</gpx>