<?xml version="1.0" encoding="UTF-8"?>
<gpx version="1.1" creator="strava-segment-scraper" xmlns="http://www.topografix.com/GPX/1/1">
  <trk>
    <name>Elk Mountain Road</name>
    <trkseg>
      <trkpt lat="39.2563" lon="-122.94744" />
      <trkpt lat="39.25636" lon="-122.94734" />
      <trkpt lat="39.25641" lon="-122.9473" />
      <trkpt lat="39.25662" lon="-122.94724" />
      <trkpt lat="39.25686" lon="-122.94728" />
      <trkpt lat="39.25733" lon="-122.94743" />
      <trkpt lat="39.25752" lon="-122.94752" />
      <trkpt lat="39.25772" lon="-122.94765" />
      <trkpt lat="39.25797" lon="-122.94778" />
      <trkpt lat="39.25814" lon="-122.94775" />
      <trkpt lat="39.25831" lon="-122.94761" />
      <trkpt lat="39.25849" lon="-122.94734" />
      <trkpt lat="39.25864" lon="-122.94721" />
      <trkpt lat="39.25884" lon="-122.94716" />
      <trkpt lat="39.25913" lon="-122.94724" />
      <trkpt lat="39.25937" lon="-122.94728" />
      <trkpt lat="39.25964" lon="-122.94724" />
      <trkpt lat="39.25987" lon="-122.94714" />
      <trkpt lat="39.26018" lon="-122.94695" />
      <trkpt lat="39.2602" lon="-122.94674" />
      <trkpt lat="39.26011" lon="-122.94668" />
      <trkpt lat="39.25978" lon="-122.94678" />
      <trkpt lat="39.25957" lon="-122.9467" />
      <trkpt lat="39.25947" lon="-122.94653" />
      <trkpt lat="39.25925" lon="-122.94602" />
      <trkpt lat="39.25904" lon="-122.94561" />
      <trkpt lat="39.25884" lon="-122.94543" />
      <trkpt lat="39.25873" lon="-122.94536" />
      <trkpt lat="39.25853" lon="-122.94526" />
      <trkpt lat="39.25828" lon="-122.94519" />
      <trkpt lat="39.25801" lon="-122.94503" />
      <trkpt lat="39.25791" lon="-122.94484" />
      <trkpt lat="39.25791" lon="-122.94455" />
      <trkpt lat="39.25796" lon="-122.94432" />
      <trkpt lat="39.25807" lon="-122.94409" />
      <trkpt lat="39.25818" lon="-122.94389" />
      <trkpt lat="39.25835" lon="-122.94366" />
      <trkpt lat="39.25853" lon="-122.94346" />
      <trkpt lat="39.25902" lon="-122.94318" />
      <trkpt lat="39.25913" lon="-122.94297" />
      <trkpt lat="39.25917" lon="-122.94243" />
      <trkpt lat="39.25928" lon="-122.94223" />
      <trkpt lat="39.25948" lon="-122.942" />
      <trkpt lat="39.25962" lon="-122.94178" />
      <trkpt lat="39.25969" lon="-122.94152" />
      <trkpt lat="39.25973" lon="-122.94124" />
      <trkpt lat="39.2598" lon="-122.94105" />
      <trkpt lat="39.25995" lon="-122.94085" />
      <trkpt lat="39.26005" lon="-122.94062" />
      <trkpt lat="39.26011" lon="-122.94041" />
      <trkpt lat="39.26029" lon="-122.94015" />
      <trkpt lat="39.26045" lon="-122.94002" />
      <trkpt lat="39.2607" lon="-122.9399" />
      <trkpt lat="39.26083" lon="-122.93977" />
      <trkpt lat="39.26084" lon="-122.93957" />
      <trkpt lat="39.26082" lon="-122.93925" />
      <trkpt lat="39.26083" lon="-122.93857" />
      <trkpt lat="39.26078" lon="-122.93828" />
      <trkpt lat="39.26076" lon="-122.93802" />
      <trkpt lat="39.2608" lon="-122.93777" />
      <trkpt lat="39.26096" lon="-122.93752" />
      <trkpt lat="39.26124" lon="-122.93724" />
      <trkpt lat="39.26176" lon="-122.93668" />
      <trkpt lat="39.26191" lon="-122.93645" />
      <trkpt lat="39.26194" lon="-122.93621" />
      <trkpt lat="39.26183" lon="-122.93576" />
      <trkpt lat="39.26188" lon="-122.9356" />
      <trkpt lat="39.262" lon="-122.93553" />
      <trkpt lat="39.26227" lon="-122.93547" />
      <trkpt lat="39.26244" lon="-122.93532" />
      <trkpt lat="39.26251" lon="-122.93514" />
      <trkpt lat="39.26254" lon="-122.93433" />
      <trkpt lat="39.26236" lon="-122.93386" />
      <trkpt lat="39.26233" lon="-122.93359" />
      <trkpt lat="39.26241" lon="-122.93338" />
      <trkpt lat="39.26271" lon="-122.93299" />
      <trkpt lat="39.26278" lon="-122.93282" />
      <trkpt lat="39.26277" lon="-122.9326" />
      <trkpt lat="39.2628" lon="-122.93234" />
      <trkpt lat="39.26288" lon="-122.93215" />
      <trkpt lat="39.26334" lon="-122.93181" />
      <trkpt lat="39.26344" lon="-122.93162" />
      <trkpt lat="39.26352" lon="-122.93139" />
      <trkpt lat="39.26364" lon="-122.93115" />
      <trkpt lat="39.26397" lon="-122.9307" />
      <trkpt lat="39.26404" lon="-122.93051" />
      <trkpt lat="39.26404" lon="-122.93031" />
      <trkpt lat="39.26401" lon="-122.93003" />
      <trkpt lat="39.26392" lon="-122.92946" />
      <trkpt lat="39.26389" lon="-122.9292" />
      <trkpt lat="39.26391" lon="-122.92891" />
      <trkpt lat="39.26396" lon="-122.9287" />
      <trkpt lat="39.26415" lon="-122.92829" />
      <trkpt lat="39.26426" lon="-122.92808" />
      <trkpt lat="39.26442" lon="-122.92785" />
      <trkpt lat="39.26458" lon="-122.9277" />
      <trkpt lat="39.26474" lon="-122.9276" />
      <trkpt lat="39.2649" lon="-122.92758" />
      <trkpt lat="39.26498" lon="-122.92755" />
      <trkpt lat="39.26531" lon="-122.92753" />
      <trkpt lat="39.26549" lon="-122.92764" />
      <trkpt lat="39.26561" lon="-122.92782" />
      <trkpt lat="39.2657" lon="-122.92803" />
      <trkpt lat="39.26576" lon="-122.92826" />
      <trkpt lat="39.26577" lon="-122.92851" />
      <trkpt lat="39.26571" lon="-122.92902" />
      <trkpt lat="39.26561" lon="-122.92929" />
      <trkpt lat="39.26546" lon="-122.92945" />
      <trkpt lat="39.26531" lon="-122.92957" />
      <trkpt lat="39.26525" lon="-122.92972" />
      <trkpt lat="39.26531" lon="-122.92981" />
      <trkpt lat="39.2654" lon="-122.92975" />
      <trkpt lat="39.26563" lon="-122.92953" />
      <trkpt lat="39.26601" lon="-122.92921" />
      <trkpt lat="39.26615" lon="-122.92904" />
      <trkpt lat="39.26638" lon="-122.92884" />
      <trkpt lat="39.26659" lon="-122.92878" />
      <trkpt lat="39.26683" lon="-122.92875" />
      <trkpt lat="39.26704" lon="-122.92868" />
      <trkpt lat="39.26732" lon="-122.92861" />
      <trkpt lat="39.26779" lon="-122.92867" />
      <trkpt lat="39.26797" lon="-122.92863" />
      <trkpt lat="39.2682" lon="-122.92851" />
      <trkpt lat="39.26833" lon="-122.92837" />
      <trkpt lat="39.26842" lon="-122.92817" />
      <trkpt lat="39.26853" lon="-122.92771" />
      <trkpt lat="39.26862" lon="-122.92756" />
      <trkpt lat="39.2688" lon="-122.92749" />
      <trkpt lat="39.26899" lon="-122.92752" />
      <trkpt lat="39.26912" lon="-122.92748" />
      <trkpt lat="39.26935" lon="-122.92736" />
      <trkpt lat="39.26947" lon="-122.92719" />
      <trkpt lat="39.26945" lon="-122.92707" />
      <trkpt lat="39.26911" lon="-122.9267" />
      <trkpt lat="39.26874" lon="-122.92637" />
      <trkpt lat="39.26863" lon="-122.92618" />
      <trkpt lat="39.26868" lon="-122.92604" />
      <trkpt lat="39.2688" lon="-122.92602" />
      <trkpt lat="39.2692" lon="-122.92611" />
      <trkpt lat="39.26935" lon="-122.92612" />
      <trkpt lat="39.26956" lon="-122.92608" />
      <trkpt lat="39.26975" lon="-122.926" />
      <trkpt lat="39.27013" lon="-122.92574" />
      <trkpt lat="39.27027" lon="-122.92554" />
      <trkpt lat="39.27037" lon="-122.92529" />
      <trkpt lat="39.27063" lon="-122.92448" />
      <trkpt lat="39.27078" lon="-122.9243" />
      <trkpt lat="39.27095" lon="-122.92427" />
      <trkpt lat="39.27111" lon="-122.92436" />
      <trkpt lat="39.27129" lon="-122.92458" />
      <trkpt lat="39.27141" lon="-122.92482" />
      <trkpt lat="39.27145" lon="-122.92504" />
      <trkpt lat="39.27136" lon="-122.92567" />
      <trkpt lat="39.27125" lon="-122.92591" />
      <trkpt lat="39.27106" lon="-122.92601" />
      <trkpt lat="39.27091" lon="-122.92615" />
      <trkpt lat="39.27096" lon="-122.92632" />
      <trkpt lat="39.27104" lon="-122.92629" />
      <trkpt lat="39.27123" lon="-122.92617" />
      <trkpt lat="39.27148" lon="-122.92609" />
      <trkpt lat="39.27163" lon="-122.92595" />
      <trkpt lat="39.27174" lon="-122.9257" />
      <trkpt lat="39.27188" lon="-122.92508" />
      <trkpt lat="39.27193" lon="-122.92475" />
      <trkpt lat="39.27215" lon="-122.92438" />
      <trkpt lat="39.27216" lon="-122.92418" />
      <trkpt lat="39.27214" lon="-122.924" />
      <trkpt lat="39.27218" lon="-122.92374" />
      <trkpt lat="39.27229" lon="-122.92357" />
      <trkpt lat="39.27239" lon="-122.92356" />
      <trkpt lat="39.27243" lon="-122.92367" />
      <trkpt lat="39.27236" lon="-122.92395" />
      <trkpt lat="39.27238" lon="-122.92419" />
      <trkpt lat="39.27245" lon="-122.92439" />
      <trkpt lat="39.27245" lon="-122.9247" />
      <trkpt lat="39.27242" lon="-122.92486" />
      <trkpt lat="39.27247" lon="-122.9251" />
      <trkpt lat="39.27296" lon="-122.92567" />
      <trkpt lat="39.27304" lon="-122.92589" />
      <trkpt lat="39.27301" lon="-122.92615" />
      <trkpt lat="39.27294" lon="-122.92645" />
      <trkpt lat="39.273" lon="-122.92655" />
      <trkpt lat="39.27315" lon="-122.92656" />
      <trkpt lat="39.27331" lon="-122.92648" />
      <trkpt lat="39.27344" lon="-122.92633" />
      <trkpt lat="39.27347" lon="-122.92614" />
      <trkpt lat="39.27348" lon="-122.9259" />
      <trkpt lat="39.27357" lon="-122.92537" />
      <trkpt lat="39.27352" lon="-122.92484" />
      <trkpt lat="39.27341" lon="-122.92455" />
      <trkpt lat="39.27333" lon="-122.92424" />
      <trkpt lat="39.27335" lon="-122.92398" />
      <trkpt lat="39.27346" lon="-122.92383" />
      <trkpt lat="39.27362" lon="-122.92375" />
      <trkpt lat="39.27385" lon="-122.9237" />
      <trkpt lat="39.27397" lon="-122.92359" />
      <trkpt lat="39.27415" lon="-122.92331" />
      <trkpt lat="39.27449" lon="-122.92299" />
      <trkpt lat="39.27465" lon="-122.92294" />
      <trkpt lat="39.27479" lon="-122.92302" />
      <trkpt lat="39.27491" lon="-122.92321" />
      <trkpt lat="39.275" lon="-122.92344" />
      <trkpt lat="39.27502" lon="-122.92365" />
      <trkpt lat="39.27494" lon="-122.92385" />
      <trkpt lat="39.27474" lon="-122.92401" />
      <trkpt lat="39.27464" lon="-122.92415" />
      <trkpt lat="39.2747" lon="-122.92428" />
      <trkpt lat="39.2748" lon="-122.92427" />
      <trkpt lat="39.27497" lon="-122.92416" />
      <trkpt lat="39.27526" lon="-122.92404" />
      <trkpt lat="39.27544" lon="-122.92391" />
      <trkpt lat="39.27559" lon="-122.9237" />
      <trkpt lat="39.27571" lon="-122.92367" />
      <trkpt lat="39.27581" lon="-122.92376" />
      <trkpt lat="39.27583" lon="-122.92394" />
      <trkpt lat="39.2757" lon="-122.92415" />
      <trkpt lat="39.27557" lon="-122.92431" />
      <trkpt lat="39.27544" lon="-122.92441" />
      <trkpt lat="39.27529" lon="-122.9245" />
      <trkpt lat="39.27521" lon="-122.92462" />
      <trkpt lat="39.27526" lon="-122.92477" />
      <trkpt lat="39.27534" lon="-122.92474" />
      <trkpt lat="39.27543" lon="-122.92463" />
      <trkpt lat="39.27561" lon="-122.9245" />
      <trkpt lat="39.27601" lon="-122.92445" />
      <trkpt lat="39.27624" lon="-122.92438" />
      <trkpt lat="39.27646" lon="-122.92441" />
      <trkpt lat="39.27653" lon="-122.92453" />
      <trkpt lat="39.27652" lon="-122.92472" />
      <trkpt lat="39.27638" lon="-122.92493" />
      <trkpt lat="39.2763" lon="-122.92509" />
      <trkpt lat="39.2763" lon="-122.92512" />
      <trkpt lat="39.27638" lon="-122.92523" />
      <trkpt lat="39.27648" lon="-122.92523" />
      <trkpt lat="39.27672" lon="-122.92507" />
      <trkpt lat="39.2771" lon="-122.92485" />
      <trkpt lat="39.27726" lon="-122.9247" />
      <trkpt lat="39.27741" lon="-122.92453" />
      <trkpt lat="39.27758" lon="-122.92452" />
      <trkpt lat="39.27763" lon="-122.92464" />
      <trkpt lat="39.27756" lon="-122.92478" />
      <trkpt lat="39.27738" lon="-122.92497" />
      <trkpt lat="39.27721" lon="-122.92521" />
      <trkpt lat="39.27713" lon="-122.92541" />
      <trkpt lat="39.27705" lon="-122.9259" />
      <trkpt lat="39.277" lon="-122.92608" />
      <trkpt lat="39.2768" lon="-122.92653" />
      <trkpt lat="39.27652" lon="-122.92696" />
      <trkpt lat="39.27649" lon="-122.92712" />
      <trkpt lat="39.27659" lon="-122.92725" />
      <trkpt lat="39.27673" lon="-122.92722" />
      <trkpt lat="39.27685" lon="-122.92707" />
      <trkpt lat="39.27713" lon="-122.92664" />
      <trkpt lat="39.27736" lon="-122.92615" />
      <trkpt lat="39.27752" lon="-122.926" />
      <trkpt lat="39.27785" lon="-122.92589" />
      <trkpt lat="39.2782" lon="-122.92586" />
      <trkpt lat="39.2784" lon="-122.92587" />
      <trkpt lat="39.27859" lon="-122.92584" />
      <trkpt lat="39.27883" lon="-122.92576" />
      <trkpt lat="39.27896" lon="-122.92582" />
      <trkpt lat="39.27894" lon="-122.92596" />
      <trkpt lat="39.27881" lon="-122.92609" />
      <trkpt lat="39.27846" lon="-122.92634" />
      <trkpt lat="39.27828" lon="-122.92642" />
      <trkpt lat="39.27805" lon="-122.92657" />
      <trkpt lat="39.27785" lon="-122.92677" />
      <trkpt lat="39.27774" lon="-122.92698" />
      <trkpt lat="39.27777" lon="-122.92709" />
      <trkpt lat="39.27786" lon="-122.9271" />
      <trkpt lat="39.27801" lon="-122.92699" />
      <trkpt lat="39.27816" lon="-122.92698" />
      <trkpt lat="39.2783" lon="-122.92705" />
      <trkpt lat="39.2784" lon="-122.92723" />
      <trkpt lat="39.27848" lon="-122.92778" />
      <trkpt lat="39.27864" lon="-122.9279" />
      <trkpt lat="39.27877" lon="-122.9279" />
      <trkpt lat="39.27904" lon="-122.92777" />
      <trkpt lat="39.27916" lon="-122.92775" />
      <trkpt lat="39.27946" lon="-122.92778" />
      <trkpt lat="39.27961" lon="-122.92772" />
      <trkpt lat="39.2797" lon="-122.92754" />
      <trkpt lat="39.2798" lon="-122.92738" />
      <trkpt lat="39.27992" lon="-122.92722" />
      <trkpt lat="39.28" lon="-122.92707" />
      <trkpt lat="39.28006" lon="-122.92684" />
      <trkpt lat="39.28016" lon="-122.92676" />
      <trkpt lat="39.28026" lon="-122.92681" />
      <trkpt lat="39.28032" lon="-122.92701" />
      <trkpt lat="39.2803" lon="-122.9273" />
      <trkpt lat="39.28025" lon="-122.92757" />
      <trkpt lat="39.28018" lon="-122.9278" />
      <trkpt lat="39.28018" lon="-122.92785" />
      <trkpt lat="39.28028" lon="-122.9279" />
      <trkpt lat="39.28034" lon="-122.92785" />
      <trkpt lat="39.28058" lon="-122.92748" />
      <trkpt lat="39.28076" lon="-122.92727" />
      <trkpt lat="39.28091" lon="-122.92716" />
      <trkpt lat="39.28109" lon="-122.92713" />
      <trkpt lat="39.28117" lon="-122.92723" />
      <trkpt lat="39.28114" lon="-122.92741" />
      <trkpt lat="39.28108" lon="-122.92753" />
      <trkpt lat="39.28085" lon="-122.92786" />
      <trkpt lat="39.28066" lon="-122.92831" />
      <trkpt lat="39.28061" lon="-122.92853" />
      <trkpt lat="39.28063" lon="-122.92859" />
      <trkpt lat="39.28076" lon="-122.92863" />
      <trkpt lat="39.28131" lon="-122.92775" />
      <trkpt lat="39.28149" lon="-122.92758" />
      <trkpt lat="39.28165" lon="-122.9276" />
      <trkpt lat="39.28176" lon="-122.92776" />
      <trkpt lat="39.28188" lon="-122.92798" />
      <trkpt lat="39.28202" lon="-122.92805" />
      <trkpt lat="39.28236" lon="-122.928" />
      <trkpt lat="39.28259" lon="-122.92802" />
      <trkpt lat="39.28285" lon="-122.92813" />
      <trkpt lat="39.28301" lon="-122.92826" />
      <trkpt lat="39.2832" lon="-122.92845" />
      <trkpt lat="39.28338" lon="-122.92852" />
      <trkpt lat="39.28367" lon="-122.92834" />
      <trkpt lat="39.28379" lon="-122.9282" />
      <trkpt lat="39.2838" lon="-122.92804" />
      <trkpt lat="39.28373" lon="-122.92785" />
      <trkpt lat="39.28361" lon="-122.92761" />
      <trkpt lat="39.28353" lon="-122.92734" />
      <trkpt lat="39.28351" lon="-122.92698" />
      <trkpt lat="39.28359" lon="-122.92675" />
      <trkpt lat="39.28374" lon="-122.92665" />
      <trkpt lat="39.28415" lon="-122.92666" />
      <trkpt lat="39.28421" lon="-122.92663" />
      <trkpt lat="39.28435" lon="-122.9265" />
      <trkpt lat="39.28448" lon="-122.92644" />
      <trkpt lat="39.28463" lon="-122.92639" />
      <trkpt lat="39.28478" lon="-122.92642" />
      <trkpt lat="39.28496" lon="-122.92653" />
      <trkpt lat="39.28522" lon="-122.92693" />
      <trkpt lat="39.28536" lon="-122.92707" />
      <trkpt lat="39.28547" lon="-122.92702" />
      <trkpt lat="39.28575" lon="-122.92672" />
      <trkpt lat="39.28598" lon="-122.9266" />
      <trkpt lat="39.28612" lon="-122.92664" />
      <trkpt lat="39.28645" lon="-122.92688" />
      <trkpt lat="39.28671" lon="-122.92697" />
    </trkseg>
  </trk>
</gpx>