<?xml version="1.0" encoding="UTF-8"?>
<gpx version="1.1" creator="strava-segment-scraper" xmlns="http://www.topografix.com/GPX/1/1">
  <trk>
    <name>Monitor Pass E descent (main)</name>
    <trkseg>
      <trkpt lat="38.68116" lon="-119.59401" />
      <trkpt lat="38.68108" lon="-119.59369" />
      <trkpt lat="38.68098" lon="-119.59338" />
      <trkpt lat="38.68078" lon="-119.59296" />
      <trkpt lat="38.68053" lon="-119.5926" />
      <trkpt lat="38.68043" lon="-119.59249" />
      <trkpt lat="38.68022" lon="-119.5923" />
      <trkpt lat="38.67997" lon="-119.59215" />
      <trkpt lat="38.67971" lon="-119.59205" />
      <trkpt lat="38.67942" lon="-119.592" />
      <trkpt lat="38.67849" lon="-119.59194" />
      <trkpt lat="38.67817" lon="-119.59187" />
      <trkpt lat="38.67785" lon="-119.59174" />
      <trkpt lat="38.67769" lon="-119.59166" />
      <trkpt lat="38.67739" lon="-119.59146" />
      <trkpt lat="38.6771" lon="-119.59122" />
      <trkpt lat="38.67608" lon="-119.59029" />
      <trkpt lat="38.67562" lon="-119.58991" />
      <trkpt lat="38.67291" lon="-119.58809" />
      <trkpt lat="38.67259" lon="-119.58785" />
      <trkpt lat="38.67228" lon="-119.58754" />
      <trkpt lat="38.67214" lon="-119.58737" />
      <trkpt lat="38.67189" lon="-119.58701" />
      <trkpt lat="38.67168" lon="-119.58663" />
      <trkpt lat="38.67114" lon="-119.58541" />
      <trkpt lat="38.67105" lon="-119.58524" />
      <trkpt lat="38.67094" lon="-119.58509" />
      <trkpt lat="38.67082" lon="-119.58495" />
      <trkpt lat="38.67069" lon="-119.58485" />
      <trkpt lat="38.67055" lon="-119.58477" />
      <trkpt lat="38.6704" lon="-119.58471" />
      <trkpt lat="38.67023" lon="-119.58471" />
      <trkpt lat="38.67007" lon="-119.58474" />
      <trkpt lat="38.66991" lon="-119.5848" />
      <trkpt lat="38.66911" lon="-119.58523" />
      <trkpt lat="38.6688" lon="-119.58536" />
      <trkpt lat="38.66863" lon="-119.58541" />
      <trkpt lat="38.66846" lon="-119.58542" />
      <trkpt lat="38.66795" lon="-119.58541" />
      <trkpt lat="38.66779" lon="-119.58545" />
      <trkpt lat="38.66764" lon="-119.58551" />
      <trkpt lat="38.6675" lon="-119.58561" />
      <trkpt lat="38.66736" lon="-119.58574" />
      <trkpt lat="38.66724" lon="-119.5859" />
      <trkpt lat="38.66693" lon="-119.58642" />
      <trkpt lat="38.66671" lon="-119.58677" />
      <trkpt lat="38.66662" lon="-119.58696" />
      <trkpt lat="38.66656" lon="-119.58716" />
      <trkpt lat="38.66655" lon="-119.58737" />
      <trkpt lat="38.66656" lon="-119.588" />
      <trkpt lat="38.66653" lon="-119.5884" />
      <trkpt lat="38.66648" lon="-119.58858" />
      <trkpt lat="38.6664" lon="-119.58876" />
      <trkpt lat="38.6663" lon="-119.5889" />
      <trkpt lat="38.66578" lon="-119.5894" />
      <trkpt lat="38.66567" lon="-119.58955" />
      <trkpt lat="38.6654" lon="-119.5901" />
      <trkpt lat="38.66529" lon="-119.59025" />
      <trkpt lat="38.66516" lon="-119.59035" />
      <trkpt lat="38.665" lon="-119.59042" />
      <trkpt lat="38.66453" lon="-119.59051" />
      <trkpt lat="38.66438" lon="-119.59058" />
      <trkpt lat="38.66424" lon="-119.59069" />
      <trkpt lat="38.66412" lon="-119.59083" />
      <trkpt lat="38.66403" lon="-119.59101" />
      <trkpt lat="38.66398" lon="-119.5912" />
      <trkpt lat="38.66395" lon="-119.59142" />
      <trkpt lat="38.66397" lon="-119.59163" />
      <trkpt lat="38.6643" lon="-119.59319" />
      <trkpt lat="38.66434" lon="-119.59337" />
      <trkpt lat="38.66436" lon="-119.59359" />
      <trkpt lat="38.66437" lon="-119.59379" />
      <trkpt lat="38.66434" lon="-119.59398" />
      <trkpt lat="38.66428" lon="-119.59417" />
      <trkpt lat="38.6642" lon="-119.59434" />
      <trkpt lat="38.6641" lon="-119.59449" />
      <trkpt lat="38.66385" lon="-119.59473" />
      <trkpt lat="38.66257" lon="-119.59572" />
      <trkpt lat="38.66226" lon="-119.59591" />
      <trkpt lat="38.66209" lon="-119.59597" />
      <trkpt lat="38.66158" lon="-119.59608" />
      <trkpt lat="38.6614" lon="-119.5961" />
      <trkpt lat="38.66123" lon="-119.59608" />
      <trkpt lat="38.66106" lon="-119.59601" />
      <trkpt lat="38.66091" lon="-119.5959" />
      <trkpt lat="38.66077" lon="-119.59576" />
      <trkpt lat="38.66066" lon="-119.59559" />
      <trkpt lat="38.66058" lon="-119.5954" />
      <trkpt lat="38.6605" lon="-119.59498" />
      <trkpt lat="38.66047" lon="-119.59453" />
      <trkpt lat="38.66049" lon="-119.59408" />
      <trkpt lat="38.66055" lon="-119.59343" />
      <trkpt lat="38.66052" lon="-119.59322" />
      <trkpt lat="38.66048" lon="-119.59301" />
      <trkpt lat="38.66041" lon="-119.59282" />
      <trkpt lat="38.66015" lon="-119.59227" />
      <trkpt lat="38.66006" lon="-119.59187" />
      <trkpt lat="38.66008" lon="-119.59148" />
      <trkpt lat="38.66025" lon="-119.59091" />
      <trkpt lat="38.66029" lon="-119.5907" />
      <trkpt lat="38.66036" lon="-119.59008" />
      <trkpt lat="38.66044" lon="-119.58966" />
      <trkpt lat="38.66056" lon="-119.58926" />
      <trkpt lat="38.66072" lon="-119.58889" />
      <trkpt lat="38.66076" lon="-119.5887" />
      <trkpt lat="38.66078" lon="-119.58849" />
      <trkpt lat="38.66074" lon="-119.58786" />
      <trkpt lat="38.66076" lon="-119.58765" />
      <trkpt lat="38.66081" lon="-119.58744" />
      <trkpt lat="38.66088" lon="-119.58725" />
      <trkpt lat="38.66098" lon="-119.58707" />
      <trkpt lat="38.66117" lon="-119.58677" />
      <trkpt lat="38.66124" lon="-119.58662" />
      <trkpt lat="38.66127" lon="-119.58646" />
      <trkpt lat="38.66128" lon="-119.58629" />
      <trkpt lat="38.66124" lon="-119.58613" />
      <trkpt lat="38.66118" lon="-119.586" />
      <trkpt lat="38.66107" lon="-119.58589" />
      <trkpt lat="38.66094" lon="-119.58582" />
      <trkpt lat="38.66079" lon="-119.5858" />
      <trkpt lat="38.66065" lon="-119.58586" />
      <trkpt lat="38.66053" lon="-119.58597" />
      <trkpt lat="38.66044" lon="-119.58612" />
      <trkpt lat="38.66039" lon="-119.58631" />
      <trkpt lat="38.66034" lon="-119.58692" />
      <trkpt lat="38.66026" lon="-119.5873" />
      <trkpt lat="38.66006" lon="-119.58786" />
      <trkpt lat="38.65979" lon="-119.58837" />
      <trkpt lat="38.65956" lon="-119.58867" />
      <trkpt lat="38.65941" lon="-119.58881" />
      <trkpt lat="38.6587" lon="-119.58936" />
      <trkpt lat="38.65842" lon="-119.58961" />
      <trkpt lat="38.65831" lon="-119.58976" />
      <trkpt lat="38.65823" lon="-119.58994" />
      <trkpt lat="38.65816" lon="-119.59013" />
      <trkpt lat="38.65812" lon="-119.59034" />
      <trkpt lat="38.65811" lon="-119.59054" />
      <trkpt lat="38.65813" lon="-119.59113" />
      <trkpt lat="38.65811" lon="-119.5915" />
      <trkpt lat="38.65808" lon="-119.59168" />
      <trkpt lat="38.65801" lon="-119.59184" />
      <trkpt lat="38.65791" lon="-119.59199" />
      <trkpt lat="38.6578" lon="-119.59211" />
      <trkpt lat="38.65717" lon="-119.59271" />
      <trkpt lat="38.65651" lon="-119.59339" />
      <trkpt lat="38.65627" lon="-119.5937" />
      <trkpt lat="38.65617" lon="-119.59388" />
      <trkpt lat="38.65603" lon="-119.59426" />
      <trkpt lat="38.65597" lon="-119.59446" />
      <trkpt lat="38.65594" lon="-119.59467" />
      <trkpt lat="38.65594" lon="-119.59488" />
      <trkpt lat="38.656" lon="-119.59527" />
      <trkpt lat="38.6563" lon="-119.59643" />
      <trkpt lat="38.65632" lon="-119.59661" />
      <trkpt lat="38.65631" lon="-119.5968" />
      <trkpt lat="38.65627" lon="-119.59697" />
      <trkpt lat="38.65619" lon="-119.59712" />
      <trkpt lat="38.65607" lon="-119.59723" />
      <trkpt lat="38.65594" lon="-119.59732" />
      <trkpt lat="38.6558" lon="-119.59735" />
      <trkpt lat="38.65566" lon="-119.59734" />
      <trkpt lat="38.65552" lon="-119.59726" />
      <trkpt lat="38.6554" lon="-119.59715" />
      <trkpt lat="38.65532" lon="-119.59698" />
      <trkpt lat="38.65527" lon="-119.5968" />
      <trkpt lat="38.65526" lon="-119.59601" />
      <trkpt lat="38.65521" lon="-119.5956" />
      <trkpt lat="38.65518" lon="-119.59539" />
      <trkpt lat="38.65496" lon="-119.59457" />
      <trkpt lat="38.65492" lon="-119.59436" />
      <trkpt lat="38.65491" lon="-119.59414" />
      <trkpt lat="38.65492" lon="-119.59392" />
      <trkpt lat="38.65495" lon="-119.5937" />
      <trkpt lat="38.65509" lon="-119.59306" />
      <trkpt lat="38.65512" lon="-119.59283" />
      <trkpt lat="38.6551" lon="-119.59239" />
      <trkpt lat="38.655" lon="-119.59172" />
      <trkpt lat="38.655" lon="-119.5915" />
      <trkpt lat="38.65501" lon="-119.59128" />
      <trkpt lat="38.65506" lon="-119.59105" />
      <trkpt lat="38.65512" lon="-119.59084" />
      <trkpt lat="38.65549" lon="-119.59004" />
      <trkpt lat="38.65564" lon="-119.58963" />
      <trkpt lat="38.65573" lon="-119.58921" />
      <trkpt lat="38.65576" lon="-119.58877" />
      <trkpt lat="38.65575" lon="-119.58855" />
      <trkpt lat="38.65569" lon="-119.58812" />
      <trkpt lat="38.6554" lon="-119.58707" />
      <trkpt lat="38.65521" lon="-119.5862" />
      <trkpt lat="38.65515" lon="-119.58574" />
      <trkpt lat="38.65493" lon="-119.58356" />
      <trkpt lat="38.65493" lon="-119.58306" />
      <trkpt lat="38.65498" lon="-119.58256" />
      <trkpt lat="38.65516" lon="-119.58156" />
      <trkpt lat="38.65522" lon="-119.58108" />
      <trkpt lat="38.65522" lon="-119.58083" />
      <trkpt lat="38.65521" lon="-119.58058" />
      <trkpt lat="38.65517" lon="-119.58034" />
      <trkpt lat="38.65512" lon="-119.5801" />
      <trkpt lat="38.65452" lon="-119.57834" />
      <trkpt lat="38.65434" lon="-119.57793" />
      <trkpt lat="38.65422" lon="-119.57776" />
      <trkpt lat="38.65396" lon="-119.57744" />
      <trkpt lat="38.65367" lon="-119.57718" />
      <trkpt lat="38.65319" lon="-119.57681" />
      <trkpt lat="38.6529" lon="-119.57652" />
      <trkpt lat="38.65265" lon="-119.57619" />
      <trkpt lat="38.65255" lon="-119.57602" />
      <trkpt lat="38.65237" lon="-119.57566" />
      <trkpt lat="38.65222" lon="-119.57527" />
      <trkpt lat="38.65215" lon="-119.57507" />
      <trkpt lat="38.65206" lon="-119.57464" />
      <trkpt lat="38.65194" lon="-119.57328" />
      <trkpt lat="38.65183" lon="-119.57283" />
      <trkpt lat="38.65167" lon="-119.5724" />
      <trkpt lat="38.6512" lon="-119.57138" />
      <trkpt lat="38.651" lon="-119.57098" />
      <trkpt lat="38.65076" lon="-119.57059" />
      <trkpt lat="38.65039" lon="-119.57003" />
      <trkpt lat="38.64951" lon="-119.56877" />
      <trkpt lat="38.64912" lon="-119.56826" />
      <trkpt lat="38.64859" lon="-119.56764" />
      <trkpt lat="38.64833" lon="-119.56731" />
      <trkpt lat="38.64822" lon="-119.56714" />
      <trkpt lat="38.64802" lon="-119.56674" />
      <trkpt lat="38.64794" lon="-119.56654" />
      <trkpt lat="38.64781" lon="-119.5661" />
      <trkpt lat="38.64724" lon="-119.56349" />
      <trkpt lat="38.64718" lon="-119.563" />
      <trkpt lat="38.64713" lon="-119.56205" />
      <trkpt lat="38.64711" lon="-119.56182" />
      <trkpt lat="38.647" lon="-119.56137" />
      <trkpt lat="38.64691" lon="-119.56116" />
      <trkpt lat="38.64666" lon="-119.56079" />
      <trkpt lat="38.64636" lon="-119.56049" />
      <trkpt lat="38.64603" lon="-119.56027" />
      <trkpt lat="38.6454" lon="-119.55989" />
      <trkpt lat="38.6451" lon="-119.55967" />
      <trkpt lat="38.64496" lon="-119.55954" />
      <trkpt lat="38.64471" lon="-119.55924" />
      <trkpt lat="38.64395" lon="-119.55825" />
      <trkpt lat="38.64367" lon="-119.55793" />
      <trkpt lat="38.64323" lon="-119.55748" />
      <trkpt lat="38.64311" lon="-119.55732" />
      <trkpt lat="38.643" lon="-119.55714" />
      <trkpt lat="38.64291" lon="-119.55695" />
      <trkpt lat="38.64288" lon="-119.55674" />
      <trkpt lat="38.64288" lon="-119.55631" />
      <trkpt lat="38.64298" lon="-119.55543" />
      <trkpt lat="38.64298" lon="-119.55497" />
      <trkpt lat="38.64296" lon="-119.55474" />
      <trkpt lat="38.64232" lon="-119.55157" />
      <trkpt lat="38.6422" lon="-119.55117" />
      <trkpt lat="38.64205" lon="-119.55078" />
      <trkpt lat="38.6413" lon="-119.54915" />
      <trkpt lat="38.64116" lon="-119.5488" />
      <trkpt lat="38.64111" lon="-119.54861" />
      <trkpt lat="38.64111" lon="-119.54842" />
      <trkpt lat="38.64117" lon="-119.54803" />
      <trkpt lat="38.6413" lon="-119.54767" />
      <trkpt lat="38.64208" lon="-119.54574" />
      <trkpt lat="38.64229" lon="-119.54524" />
      <trkpt lat="38.64237" lon="-119.5451" />
      <trkpt lat="38.64247" lon="-119.54496" />
      <trkpt lat="38.64287" lon="-119.5445" />
      <trkpt lat="38.64295" lon="-119.54437" />
      <trkpt lat="38.643" lon="-119.5442" />
      <trkpt lat="38.64301" lon="-119.54402" />
      <trkpt lat="38.64298" lon="-119.54385" />
      <trkpt lat="38.64292" lon="-119.54368" />
      <trkpt lat="38.64284" lon="-119.54353" />
      <trkpt lat="38.64271" lon="-119.54342" />
      <trkpt lat="38.64258" lon="-119.54334" />
      <trkpt lat="38.64229" lon="-119.54324" />
      <trkpt lat="38.64216" lon="-119.54316" />
      <trkpt lat="38.64205" lon="-119.54307" />
      <trkpt lat="38.64194" lon="-119.54296" />
      <trkpt lat="38.64184" lon="-119.54282" />
      <trkpt lat="38.6416" lon="-119.54238" />
      <trkpt lat="38.64139" lon="-119.54193" />
      <trkpt lat="38.64134" lon="-119.54176" />
      <trkpt lat="38.64132" lon="-119.54159" />
      <trkpt lat="38.64131" lon="-119.54142" />
      <trkpt lat="38.64132" lon="-119.54124" />
      <trkpt lat="38.6414" lon="-119.54093" />
      <trkpt lat="38.64147" lon="-119.54078" />
      <trkpt lat="38.64157" lon="-119.54065" />
      <trkpt lat="38.64189" lon="-119.54027" />
      <trkpt lat="38.64197" lon="-119.54012" />
      <trkpt lat="38.64204" lon="-119.53994" />
      <trkpt lat="38.64206" lon="-119.53975" />
      <trkpt lat="38.64206" lon="-119.53956" />
      <trkpt lat="38.64199" lon="-119.53921" />
      <trkpt lat="38.64197" lon="-119.53904" />
      <trkpt lat="38.64204" lon="-119.5387" />
      <trkpt lat="38.64209" lon="-119.53855" />
      <trkpt lat="38.64215" lon="-119.53842" />
      <trkpt lat="38.64224" lon="-119.53833" />
      <trkpt lat="38.64236" lon="-119.53825" />
      <trkpt lat="38.64263" lon="-119.53817" />
      <trkpt lat="38.64277" lon="-119.53811" />
      <trkpt lat="38.64287" lon="-119.53804" />
      <trkpt lat="38.64297" lon="-119.5379" />
      <trkpt lat="38.64304" lon="-119.53772" />
      <trkpt lat="38.64309" lon="-119.53752" />
      <trkpt lat="38.64303" lon="-119.53713" />
      <trkpt lat="38.64298" lon="-119.53695" />
      <trkpt lat="38.64289" lon="-119.53678" />
      <trkpt lat="38.64279" lon="-119.53662" />
      <trkpt lat="38.64268" lon="-119.53649" />
      <trkpt lat="38.64242" lon="-119.53628" />
      <trkpt lat="38.64232" lon="-119.53616" />
      <trkpt lat="38.64212" lon="-119.53587" />
      <trkpt lat="38.64206" lon="-119.5357" />
      <trkpt lat="38.64202" lon="-119.53552" />
      <trkpt lat="38.642" lon="-119.53497" />
      <trkpt lat="38.64192" lon="-119.53461" />
      <trkpt lat="38.6419" lon="-119.53443" />
      <trkpt lat="38.64187" lon="-119.53386" />
      <trkpt lat="38.64185" lon="-119.5337" />
      <trkpt lat="38.64182" lon="-119.53349" />
      <trkpt lat="38.64167" lon="-119.53293" />
      <trkpt lat="38.64164" lon="-119.53274" />
      <trkpt lat="38.64164" lon="-119.53233" />
    </trkseg>
  </trk>
</gpx>