<?xml version="1.0" encoding="UTF-8"?>
<gpx version="1.1" creator="strava-segment-scraper" xmlns="http://www.topografix.com/GPX/1/1">
  <trk>
    <name>Junction Down DPC &gt; The Whole Thing</name>
    <trkseg>
      <trkpt lat="37.39084" lon="-121.48549" />
      <trkpt lat="37.39099" lon="-121.48504" />
      <trkpt lat="37.391" lon="-121.48496" />
      <trkpt lat="37.39099" lon="-121.4847" />
      <trkpt lat="37.39094" lon="-121.4845" />
      <trkpt lat="37.39081" lon="-121.4841" />
      <trkpt lat="37.3906" lon="-121.48375" />
      <trkpt lat="37.38985" lon="-121.48281" />
      <trkpt lat="37.38959" lon="-121.48233" />
      <trkpt lat="37.38956" lon="-121.48222" />
      <trkpt lat="37.38954" lon="-121.48198" />
      <trkpt lat="37.38956" lon="-121.48175" />
      <trkpt lat="37.38985" lon="-121.4807" />
      <trkpt lat="37.3899" lon="-121.48035" />
      <trkpt lat="37.3899" lon="-121.48012" />
      <trkpt lat="37.38987" lon="-121.4799" />
      <trkpt lat="37.38976" lon="-121.47963" />
      <trkpt lat="37.38939" lon="-121.47905" />
      <trkpt lat="37.38932" lon="-121.47891" />
      <trkpt lat="37.38925" lon="-121.47869" />
      <trkpt lat="37.38922" lon="-121.47841" />
      <trkpt lat="37.38922" lon="-121.47819" />
      <trkpt lat="37.38927" lon="-121.47796" />
      <trkpt lat="37.38938" lon="-121.47775" />
      <trkpt lat="37.38998" lon="-121.47683" />
      <trkpt lat="37.39022" lon="-121.47654" />
      <trkpt lat="37.39036" lon="-121.47643" />
      <trkpt lat="37.39064" lon="-121.47623" />
      <trkpt lat="37.39086" lon="-121.47602" />
      <trkpt lat="37.39092" lon="-121.47592" />
      <trkpt lat="37.39099" lon="-121.47569" />
      <trkpt lat="37.391" lon="-121.47545" />
      <trkpt lat="37.39074" lon="-121.47356" />
      <trkpt lat="37.39065" lon="-121.47215" />
      <trkpt lat="37.39055" lon="-121.47121" />
      <trkpt lat="37.39053" lon="-121.47082" />
      <trkpt lat="37.39048" lon="-121.47045" />
      <trkpt lat="37.39027" lon="-121.46977" />
      <trkpt lat="37.39004" lon="-121.46912" />
      <trkpt lat="37.38985" lon="-121.46877" />
      <trkpt lat="37.3898" lon="-121.46871" />
      <trkpt lat="37.38949" lon="-121.46845" />
      <trkpt lat="37.38863" lon="-121.46778" />
      <trkpt lat="37.38787" lon="-121.46707" />
      <trkpt lat="37.38624" lon="-121.46589" />
      <trkpt lat="37.38587" lon="-121.46557" />
      <trkpt lat="37.38572" lon="-121.46536" />
      <trkpt lat="37.38562" lon="-121.46519" />
      <trkpt lat="37.38502" lon="-121.4639" />
      <trkpt lat="37.38479" lon="-121.46348" />
      <trkpt lat="37.38437" lon="-121.46276" />
      <trkpt lat="37.38397" lon="-121.46211" />
      <trkpt lat="37.38385" lon="-121.46179" />
      <trkpt lat="37.38381" lon="-121.46155" />
      <trkpt lat="37.38378" lon="-121.46117" />
      <trkpt lat="37.38377" lon="-121.46076" />
      <trkpt lat="37.38378" lon="-121.45837" />
      <trkpt lat="37.3838" lon="-121.45807" />
      <trkpt lat="37.38383" lon="-121.45784" />
      <trkpt lat="37.38393" lon="-121.45755" />
      <trkpt lat="37.38419" lon="-121.45712" />
      <trkpt lat="37.38446" lon="-121.45679" />
      <trkpt lat="37.38471" lon="-121.45653" />
      <trkpt lat="37.38495" lon="-121.45621" />
      <trkpt lat="37.38506" lon="-121.45602" />
      <trkpt lat="37.38535" lon="-121.45535" />
      <trkpt lat="37.38554" lon="-121.45495" />
      <trkpt lat="37.38639" lon="-121.45356" />
      <trkpt lat="37.38655" lon="-121.45338" />
      <trkpt lat="37.38667" lon="-121.4533" />
      <trkpt lat="37.38693" lon="-121.45321" />
      <trkpt lat="37.38728" lon="-121.45316" />
      <trkpt lat="37.38737" lon="-121.45312" />
      <trkpt lat="37.38755" lon="-121.45298" />
      <trkpt lat="37.38771" lon="-121.45275" />
      <trkpt lat="37.38777" lon="-121.4525" />
      <trkpt lat="37.38783" lon="-121.45217" />
      <trkpt lat="37.38788" lon="-121.45201" />
      <trkpt lat="37.38794" lon="-121.4519" />
      <trkpt lat="37.38802" lon="-121.4518" />
      <trkpt lat="37.38817" lon="-121.45172" />
      <trkpt lat="37.3884" lon="-121.45163" />
      <trkpt lat="37.38895" lon="-121.45127" />
      <trkpt lat="37.38912" lon="-121.45107" />
      <trkpt lat="37.38927" lon="-121.45081" />
      <trkpt lat="37.38936" lon="-121.45071" />
      <trkpt lat="37.38947" lon="-121.45064" />
      <trkpt lat="37.38959" lon="-121.45065" />
      <trkpt lat="37.38972" lon="-121.45071" />
      <trkpt lat="37.38984" lon="-121.45079" />
      <trkpt lat="37.39003" lon="-121.45089" />
      <trkpt lat="37.39019" lon="-121.45089" />
      <trkpt lat="37.39033" lon="-121.45078" />
      <trkpt lat="37.39048" lon="-121.45061" />
      <trkpt lat="37.39063" lon="-121.45053" />
      <trkpt lat="37.3908" lon="-121.45052" />
      <trkpt lat="37.39102" lon="-121.45055" />
      <trkpt lat="37.39117" lon="-121.45052" />
      <trkpt lat="37.39143" lon="-121.45041" />
      <trkpt lat="37.39173" lon="-121.45019" />
      <trkpt lat="37.3919" lon="-121.45002" />
      <trkpt lat="37.39203" lon="-121.44991" />
      <trkpt lat="37.39216" lon="-121.44985" />
      <trkpt lat="37.39232" lon="-121.4498" />
      <trkpt lat="37.39273" lon="-121.44973" />
      <trkpt lat="37.39297" lon="-121.44963" />
      <trkpt lat="37.39331" lon="-121.44944" />
      <trkpt lat="37.39376" lon="-121.44926" />
      <trkpt lat="37.39409" lon="-121.44917" />
      <trkpt lat="37.39419" lon="-121.44918" />
      <trkpt lat="37.39441" lon="-121.44924" />
      <trkpt lat="37.39453" lon="-121.44924" />
      <trkpt lat="37.39465" lon="-121.44919" />
      <trkpt lat="37.3951" lon="-121.44883" />
      <trkpt lat="37.3953" lon="-121.44861" />
      <trkpt lat="37.39543" lon="-121.44831" />
      <trkpt lat="37.39548" lon="-121.44816" />
      <trkpt lat="37.39561" lon="-121.44791" />
      <trkpt lat="37.3957" lon="-121.44782" />
      <trkpt lat="37.39582" lon="-121.44777" />
      <trkpt lat="37.39606" lon="-121.4477" />
      <trkpt lat="37.39619" lon="-121.44762" />
      <trkpt lat="37.39629" lon="-121.44751" />
      <trkpt lat="37.39635" lon="-121.44736" />
      <trkpt lat="37.39638" lon="-121.4472" />
      <trkpt lat="37.39644" lon="-121.44645" />
      <trkpt lat="37.39647" lon="-121.44631" />
      <trkpt lat="37.39652" lon="-121.44619" />
      <trkpt lat="37.3966" lon="-121.44608" />
      <trkpt lat="37.39668" lon="-121.44599" />
      <trkpt lat="37.39711" lon="-121.44573" />
      <trkpt lat="37.39784" lon="-121.4454" />
      <trkpt lat="37.39824" lon="-121.44534" />
      <trkpt lat="37.39837" lon="-121.44528" />
      <trkpt lat="37.3987" lon="-121.44498" />
      <trkpt lat="37.39882" lon="-121.4449" />
      <trkpt lat="37.39921" lon="-121.44472" />
      <trkpt lat="37.39954" lon="-121.44441" />
      <trkpt lat="37.39964" lon="-121.44413" />
      <trkpt lat="37.39967" lon="-121.44398" />
      <trkpt lat="37.39973" lon="-121.44384" />
      <trkpt lat="37.40039" lon="-121.44301" />
      <trkpt lat="37.40048" lon="-121.44286" />
      <trkpt lat="37.40063" lon="-121.44238" />
      <trkpt lat="37.40084" lon="-121.44193" />
      <trkpt lat="37.40088" lon="-121.44177" />
      <trkpt lat="37.40088" lon="-121.44161" />
      <trkpt lat="37.40085" lon="-121.44128" />
      <trkpt lat="37.40086" lon="-121.44111" />
      <trkpt lat="37.4009" lon="-121.44095" />
      <trkpt lat="37.40102" lon="-121.44064" />
      <trkpt lat="37.40109" lon="-121.44049" />
      <trkpt lat="37.40135" lon="-121.44006" />
      <trkpt lat="37.40172" lon="-121.4393" />
      <trkpt lat="37.40175" lon="-121.43914" />
      <trkpt lat="37.40177" lon="-121.43863" />
      <trkpt lat="37.40185" lon="-121.43817" />
      <trkpt lat="37.40192" lon="-121.43803" />
      <trkpt lat="37.40201" lon="-121.43792" />
      <trkpt lat="37.40213" lon="-121.43783" />
      <trkpt lat="37.40226" lon="-121.43778" />
      <trkpt lat="37.40239" lon="-121.43777" />
      <trkpt lat="37.40266" lon="-121.43769" />
      <trkpt lat="37.403" lon="-121.4374" />
      <trkpt lat="37.40321" lon="-121.43717" />
      <trkpt lat="37.40346" lon="-121.43695" />
      <trkpt lat="37.4039" lon="-121.43675" />
      <trkpt lat="37.40405" lon="-121.43666" />
      <trkpt lat="37.40416" lon="-121.43653" />
      <trkpt lat="37.40435" lon="-121.43623" />
      <trkpt lat="37.40442" lon="-121.43606" />
      <trkpt lat="37.40451" lon="-121.43572" />
      <trkpt lat="37.40471" lon="-121.43481" />
      <trkpt lat="37.40486" lon="-121.43456" />
      <trkpt lat="37.40492" lon="-121.43442" />
      <trkpt lat="37.40499" lon="-121.43412" />
      <trkpt lat="37.40503" lon="-121.43397" />
      <trkpt lat="37.40517" lon="-121.43371" />
      <trkpt lat="37.40525" lon="-121.43341" />
      <trkpt lat="37.40524" lon="-121.43325" />
      <trkpt lat="37.40515" lon="-121.43275" />
      <trkpt lat="37.4051" lon="-121.4324" />
      <trkpt lat="37.40498" lon="-121.43191" />
      <trkpt lat="37.40486" lon="-121.43165" />
      <trkpt lat="37.40482" lon="-121.43141" />
      <trkpt lat="37.40495" lon="-121.43122" />
      <trkpt lat="37.40517" lon="-121.43117" />
      <trkpt lat="37.40529" lon="-121.43116" />
      <trkpt lat="37.40541" lon="-121.43112" />
      <trkpt lat="37.40552" lon="-121.43106" />
      <trkpt lat="37.40573" lon="-121.4309" />
      <trkpt lat="37.40585" lon="-121.43085" />
      <trkpt lat="37.4061" lon="-121.43079" />
      <trkpt lat="37.4065" lon="-121.43078" />
      <trkpt lat="37.40662" lon="-121.43071" />
      <trkpt lat="37.40691" lon="-121.43035" />
      <trkpt lat="37.40727" lon="-121.43009" />
      <trkpt lat="37.40762" lon="-121.42982" />
      <trkpt lat="37.40801" lon="-121.42967" />
      <trkpt lat="37.40836" lon="-121.42942" />
      <trkpt lat="37.40871" lon="-121.4292" />
      <trkpt lat="37.40883" lon="-121.42917" />
      <trkpt lat="37.40931" lon="-121.42893" />
      <trkpt lat="37.40965" lon="-121.42872" />
      <trkpt lat="37.41009" lon="-121.42843" />
      <trkpt lat="37.41018" lon="-121.42832" />
      <trkpt lat="37.41038" lon="-121.42793" />
      <trkpt lat="37.41039" lon="-121.42762" />
      <trkpt lat="37.41028" lon="-121.42704" />
      <trkpt lat="37.41024" lon="-121.42675" />
      <trkpt lat="37.41026" lon="-121.42613" />
      <trkpt lat="37.41026" lon="-121.42549" />
      <trkpt lat="37.41028" lon="-121.42517" />
      <trkpt lat="37.41027" lon="-121.42485" />
      <trkpt lat="37.41024" lon="-121.42453" />
      <trkpt lat="37.4101" lon="-121.42375" />
      <trkpt lat="37.41004" lon="-121.42328" />
      <trkpt lat="37.40996" lon="-121.42282" />
      <trkpt lat="37.40972" lon="-121.42212" />
      <trkpt lat="37.40965" lon="-121.42183" />
      <trkpt lat="37.40961" lon="-121.42091" />
      <trkpt lat="37.40971" lon="-121.41983" />
      <trkpt lat="37.40973" lon="-121.41922" />
      <trkpt lat="37.40971" lon="-121.41876" />
      <trkpt lat="37.40962" lon="-121.41849" />
      <trkpt lat="37.40922" lon="-121.41797" />
      <trkpt lat="37.40904" lon="-121.41761" />
      <trkpt lat="37.40879" lon="-121.41654" />
      <trkpt lat="37.40877" lon="-121.4164" />
      <trkpt lat="37.40876" lon="-121.41626" />
      <trkpt lat="37.40878" lon="-121.41584" />
      <trkpt lat="37.4089" lon="-121.41502" />
      <trkpt lat="37.4089" lon="-121.41488" />
      <trkpt lat="37.40882" lon="-121.41377" />
      <trkpt lat="37.40884" lon="-121.41353" />
      <trkpt lat="37.40893" lon="-121.41307" />
      <trkpt lat="37.40891" lon="-121.41283" />
      <trkpt lat="37.40871" lon="-121.4124" />
      <trkpt lat="37.40847" lon="-121.41182" />
      <trkpt lat="37.40843" lon="-121.41145" />
      <trkpt lat="37.40853" lon="-121.41087" />
      <trkpt lat="37.40857" lon="-121.41052" />
      <trkpt lat="37.40857" lon="-121.41002" />
      <trkpt lat="37.40855" lon="-121.40977" />
      <trkpt lat="37.40857" lon="-121.40953" />
      <trkpt lat="37.40862" lon="-121.40944" />
      <trkpt lat="37.40901" lon="-121.40906" />
      <trkpt lat="37.40937" lon="-121.40868" />
      <trkpt lat="37.40968" lon="-121.40823" />
      <trkpt lat="37.40985" lon="-121.4077" />
      <trkpt lat="37.40997" lon="-121.40754" />
      <trkpt lat="37.41021" lon="-121.4074" />
      <trkpt lat="37.41094" lon="-121.40709" />
      <trkpt lat="37.41116" lon="-121.40698" />
      <trkpt lat="37.41144" lon="-121.40671" />
      <trkpt lat="37.41166" lon="-121.40644" />
      <trkpt lat="37.41216" lon="-121.40579" />
      <trkpt lat="37.41233" lon="-121.40552" />
      <trkpt lat="37.41237" lon="-121.40519" />
      <trkpt lat="37.41225" lon="-121.40476" />
      <trkpt lat="37.4122" lon="-121.40446" />
      <trkpt lat="37.41228" lon="-121.40421" />
      <trkpt lat="37.41246" lon="-121.40393" />
      <trkpt lat="37.41252" lon="-121.40388" />
      <trkpt lat="37.41274" lon="-121.40384" />
      <trkpt lat="37.41282" lon="-121.40385" />
      <trkpt lat="37.41312" lon="-121.40381" />
      <trkpt lat="37.41319" lon="-121.40377" />
      <trkpt lat="37.41335" lon="-121.40356" />
      <trkpt lat="37.41341" lon="-121.40327" />
      <trkpt lat="37.41345" lon="-121.40276" />
      <trkpt lat="37.41343" lon="-121.40222" />
      <trkpt lat="37.41338" lon="-121.40178" />
      <trkpt lat="37.4134" lon="-121.40132" />
      <trkpt lat="37.41352" lon="-121.40102" />
      <trkpt lat="37.41393" lon="-121.40052" />
      <trkpt lat="37.41465" lon="-121.39954" />
      <trkpt lat="37.41477" lon="-121.39936" />
      <trkpt lat="37.41487" lon="-121.39917" />
      <trkpt lat="37.41496" lon="-121.39896" />
      <trkpt lat="37.41503" lon="-121.39873" />
      <trkpt lat="37.41506" lon="-121.39849" />
      <trkpt lat="37.41509" lon="-121.39783" />
      <trkpt lat="37.41511" lon="-121.39772" />
      <trkpt lat="37.41522" lon="-121.39755" />
      <trkpt lat="37.41576" lon="-121.39703" />
      <trkpt lat="37.41582" lon="-121.39695" />
      <trkpt lat="37.41596" lon="-121.39666" />
      <trkpt lat="37.41607" lon="-121.39636" />
      <trkpt lat="37.41618" lon="-121.39617" />
      <trkpt lat="37.41624" lon="-121.3961" />
      <trkpt lat="37.41648" lon="-121.39592" />
      <trkpt lat="37.41664" lon="-121.39582" />
      <trkpt lat="37.41746" lon="-121.3955" />
      <trkpt lat="37.41784" lon="-121.39526" />
      <trkpt lat="37.41804" lon="-121.39505" />
      <trkpt lat="37.41813" lon="-121.39488" />
      <trkpt lat="37.41827" lon="-121.39436" />
      <trkpt lat="37.41846" lon="-121.39285" />
      <trkpt lat="37.41857" lon="-121.39252" />
      <trkpt lat="37.41906" lon="-121.39164" />
      <trkpt lat="37.41957" lon="-121.39112" />
      <trkpt lat="37.41969" lon="-121.39095" />
      <trkpt lat="37.42" lon="-121.39035" />
      <trkpt lat="37.42036" lon="-121.38979" />
      <trkpt lat="37.42053" lon="-121.38942" />
      <trkpt lat="37.4206" lon="-121.38916" />
      <trkpt lat="37.42073" lon="-121.38837" />
      <trkpt lat="37.42122" lon="-121.38621" />
      <trkpt lat="37.42165" lon="-121.38476" />
      <trkpt lat="37.42239" lon="-121.38307" />
      <trkpt lat="37.42254" lon="-121.38254" />
      <trkpt lat="37.42259" lon="-121.38197" />
      <trkpt lat="37.42265" lon="-121.37973" />
      <trkpt lat="37.4226" lon="-121.37912" />
      <trkpt lat="37.42246" lon="-121.37863" />
      <trkpt lat="37.42217" lon="-121.37816" />
      <trkpt lat="37.4213" lon="-121.37686" />
      <trkpt lat="37.42108" lon="-121.37643" />
      <trkpt lat="37.42091" lon="-121.37597" />
      <trkpt lat="37.42067" lon="-121.37516" />
      <trkpt lat="37.42063" lon="-121.37468" />
      <trkpt lat="37.42067" lon="-121.3741" />
      <trkpt lat="37.42082" lon="-121.37296" />
      <trkpt lat="37.42093" lon="-121.37251" />
      <trkpt lat="37.42097" lon="-121.37241" />
      <trkpt lat="37.42113" lon="-121.37215" />
      <trkpt lat="37.42153" lon="-121.37162" />
      <trkpt lat="37.42188" lon="-121.37133" />
      <trkpt lat="37.42243" lon="-121.37097" />
      <trkpt lat="37.42292" lon="-121.37079" />
      <trkpt lat="37.42332" lon="-121.3706" />
      <trkpt lat="37.42339" lon="-121.37054" />
      <trkpt lat="37.42357" lon="-121.37032" />
      <trkpt lat="37.42362" lon="-121.37023" />
      <trkpt lat="37.42367" lon="-121.36991" />
      <trkpt lat="37.42368" lon="-121.36969" />
      <trkpt lat="37.42367" lon="-121.36947" />
      <trkpt lat="37.42363" lon="-121.36916" />
      <trkpt lat="37.42358" lon="-121.36897" />
      <trkpt lat="37.42343" lon="-121.36856" />
      <trkpt lat="37.42321" lon="-121.36804" />
      <trkpt lat="37.42286" lon="-121.36715" />
      <trkpt lat="37.42278" lon="-121.36687" />
      <trkpt lat="37.42275" lon="-121.36657" />
      <trkpt lat="37.42277" lon="-121.36628" />
      <trkpt lat="37.42295" lon="-121.3653" />
      <trkpt lat="37.4229" lon="-121.36498" />
      <trkpt lat="37.4228" lon="-121.36466" />
      <trkpt lat="37.4223" lon="-121.36349" />
      <trkpt lat="37.4222" lon="-121.36321" />
      <trkpt lat="37.42198" lon="-121.36278" />
      <trkpt lat="37.4216" lon="-121.36217" />
      <trkpt lat="37.42114" lon="-121.36136" />
      <trkpt lat="37.42077" lon="-121.36079" />
      <trkpt lat="37.42051" lon="-121.36017" />
      <trkpt lat="37.42038" lon="-121.35991" />
      <trkpt lat="37.41962" lon="-121.35877" />
      <trkpt lat="37.41927" lon="-121.35817" />
      <trkpt lat="37.41874" lon="-121.35697" />
      <trkpt lat="37.41868" lon="-121.35658" />
      <trkpt lat="37.41872" lon="-121.35609" />
      <trkpt lat="37.41885" lon="-121.35554" />
      <trkpt lat="37.41906" lon="-121.35484" />
      <trkpt lat="37.41913" lon="-121.35468" />
      <trkpt lat="37.41966" lon="-121.35387" />
      <trkpt lat="37.41994" lon="-121.35334" />
      <trkpt lat="37.42018" lon="-121.35297" />
      <trkpt lat="37.42029" lon="-121.35284" />
      <trkpt lat="37.42058" lon="-121.35239" />
      <trkpt lat="37.42095" lon="-121.35164" />
      <trkpt lat="37.4211" lon="-121.3512" />
      <trkpt lat="37.42112" lon="-121.35111" />
      <trkpt lat="37.42113" lon="-121.35081" />
      <trkpt lat="37.42107" lon="-121.35043" />
      <trkpt lat="37.42101" lon="-121.35025" />
      <trkpt lat="37.42079" lon="-121.34981" />
      <trkpt lat="37.4205" lon="-121.34918" />
      <trkpt lat="37.42037" lon="-121.34865" />
      <trkpt lat="37.42032" lon="-121.34833" />
      <trkpt lat="37.42031" lon="-121.3481" />
      <trkpt lat="37.42032" lon="-121.34765" />
      <trkpt lat="37.42042" lon="-121.34663" />
      <trkpt lat="37.42047" lon="-121.34493" />
      <trkpt lat="37.42052" lon="-121.34459" />
      <trkpt lat="37.4206" lon="-121.34433" />
      <trkpt lat="37.42069" lon="-121.34415" />
      <trkpt lat="37.42076" lon="-121.34403" />
      <trkpt lat="37.42092" lon="-121.34381" />
      <trkpt lat="37.42115" lon="-121.34356" />
      <trkpt lat="37.42131" lon="-121.34344" />
      <trkpt lat="37.42182" lon="-121.34328" />
      <trkpt lat="37.42235" lon="-121.34305" />
      <trkpt lat="37.42271" lon="-121.34293" />
      <trkpt lat="37.42292" lon="-121.34289" />
      <trkpt lat="37.42357" lon="-121.34282" />
      <trkpt lat="37.42385" lon="-121.34277" />
      <trkpt lat="37.42407" lon="-121.34267" />
      <trkpt lat="37.42471" lon="-121.34228" />
      <trkpt lat="37.42533" lon="-121.34188" />
      <trkpt lat="37.42562" lon="-121.34173" />
      <trkpt lat="37.42585" lon="-121.34162" />
      <trkpt lat="37.42606" lon="-121.34148" />
      <trkpt lat="37.42637" lon="-121.34105" />
      <trkpt lat="37.42648" lon="-121.34092" />
      <trkpt lat="37.42665" lon="-121.34073" />
      <trkpt lat="37.42746" lon="-121.33997" />
      <trkpt lat="37.42775" lon="-121.33962" />
      <trkpt lat="37.42794" lon="-121.33944" />
      <trkpt lat="37.42818" lon="-121.33916" />
      <trkpt lat="37.42836" lon="-121.33882" />
      <trkpt lat="37.42844" lon="-121.33863" />
      <trkpt lat="37.42869" lon="-121.33793" />
      <trkpt lat="37.42902" lon="-121.33695" />
      <trkpt lat="37.42917" lon="-121.33661" />
      <trkpt lat="37.42922" lon="-121.33654" />
      <trkpt lat="37.42944" lon="-121.33644" />
      <trkpt lat="37.42983" lon="-121.33641" />
      <trkpt lat="37.43006" lon="-121.33647" />
      <trkpt lat="37.43041" lon="-121.33664" />
      <trkpt lat="37.43071" lon="-121.33688" />
      <trkpt lat="37.43084" lon="-121.33694" />
      <trkpt lat="37.43098" lon="-121.33696" />
      <trkpt lat="37.43126" lon="-121.33695" />
      <trkpt lat="37.43185" lon="-121.33686" />
      <trkpt lat="37.43211" lon="-121.33688" />
      <trkpt lat="37.43259" lon="-121.33702" />
      <trkpt lat="37.43271" lon="-121.33704" />
      <trkpt lat="37.43288" lon="-121.33698" />
      <trkpt lat="37.43305" lon="-121.33681" />
      <trkpt lat="37.43322" lon="-121.33659" />
      <trkpt lat="37.43336" lon="-121.33642" />
      <trkpt lat="37.43349" lon="-121.3363" />
      <trkpt lat="37.43381" lon="-121.33609" />
      <trkpt lat="37.43386" lon="-121.33607" />
      <trkpt lat="37.43397" lon="-121.33606" />
      <trkpt lat="37.43426" lon="-121.33612" />
      <trkpt lat="37.43458" lon="-121.33631" />
      <trkpt lat="37.43482" lon="-121.33632" />
      <trkpt lat="37.43487" lon="-121.33631" />
      <trkpt lat="37.43496" lon="-121.33624" />
      <trkpt lat="37.43504" lon="-121.33616" />
      <trkpt lat="37.43527" lon="-121.33599" />
      <trkpt lat="37.43564" lon="-121.33589" />
      <trkpt lat="37.43622" lon="-121.33581" />
      <trkpt lat="37.4366" lon="-121.33584" />
      <trkpt lat="37.43689" lon="-121.33584" />
      <trkpt lat="37.43702" lon="-121.3358" />
      <trkpt lat="37.43723" lon="-121.33578" />
      <trkpt lat="37.43737" lon="-121.3358" />
      <trkpt lat="37.43765" lon="-121.33589" />
      <trkpt lat="37.43815" lon="-121.33617" />
      <trkpt lat="37.43823" lon="-121.33619" />
      <trkpt lat="37.43839" lon="-121.33609" />
      <trkpt lat="37.43873" lon="-121.33578" />
      <trkpt lat="37.43892" lon="-121.33556" />
      <trkpt lat="37.43902" lon="-121.33538" />
      <trkpt lat="37.43906" lon="-121.33516" />
      <trkpt lat="37.43906" lon="-121.33469" />
      <trkpt lat="37.43911" lon="-121.33448" />
      <trkpt lat="37.43918" lon="-121.33426" />
      <trkpt lat="37.4392" lon="-121.33414" />
      <trkpt lat="37.4392" lon="-121.3339" />
      <trkpt lat="37.43916" lon="-121.33354" />
      <trkpt lat="37.43916" lon="-121.33329" />
      <trkpt lat="37.43911" lon="-121.33304" />
      <trkpt lat="37.43906" lon="-121.33294" />
      <trkpt lat="37.43883" lon="-121.33291" />
      <trkpt lat="37.43862" lon="-121.33293" />
      <trkpt lat="37.43841" lon="-121.33291" />
      <trkpt lat="37.43832" lon="-121.33283" />
      <trkpt lat="37.43824" lon="-121.33274" />
      <trkpt lat="37.43791" lon="-121.33224" />
      <trkpt lat="37.43779" lon="-121.332" />
      <trkpt lat="37.43771" lon="-121.33174" />
      <trkpt lat="37.43772" lon="-121.33159" />
      <trkpt lat="37.43774" lon="-121.33145" />
      <trkpt lat="37.43785" lon="-121.33105" />
      <trkpt lat="37.43787" lon="-121.33077" />
      <trkpt lat="37.43773" lon="-121.33022" />
      <trkpt lat="37.43762" lon="-121.32967" />
      <trkpt lat="37.43748" lon="-121.32945" />
      <trkpt lat="37.43728" lon="-121.32933" />
      <trkpt lat="37.43717" lon="-121.32931" />
      <trkpt lat="37.43688" lon="-121.32915" />
      <trkpt lat="37.43641" lon="-121.32886" />
      <trkpt lat="37.43625" lon="-121.32872" />
      <trkpt lat="37.43613" lon="-121.32853" />
      <trkpt lat="37.43609" lon="-121.32843" />
      <trkpt lat="37.43585" lon="-121.32751" />
      <trkpt lat="37.43581" lon="-121.32728" />
      <trkpt lat="37.4358" lon="-121.32705" />
      <trkpt lat="37.43583" lon="-121.32657" />
      <trkpt lat="37.4359" lon="-121.32609" />
      <trkpt lat="37.43597" lon="-121.32586" />
      <trkpt lat="37.43613" lon="-121.32554" />
      <trkpt lat="37.4364" lon="-121.32515" />
      <trkpt lat="37.43638" lon="-121.3249" />
      <trkpt lat="37.43623" lon="-121.32472" />
      <trkpt lat="37.43605" lon="-121.32456" />
      <trkpt lat="37.43591" lon="-121.32438" />
      <trkpt lat="37.43575" lon="-121.32407" />
      <trkpt lat="37.43559" lon="-121.3236" />
      <trkpt lat="37.43556" lon="-121.32336" />
      <trkpt lat="37.43556" lon="-121.32323" />
      <trkpt lat="37.43561" lon="-121.32287" />
      <trkpt lat="37.43574" lon="-121.32241" />
      <trkpt lat="37.43584" lon="-121.3222" />
      <trkpt lat="37.43597" lon="-121.32201" />
      <trkpt lat="37.43631" lon="-121.32172" />
      <trkpt lat="37.43661" lon="-121.32163" />
      <trkpt lat="37.43672" lon="-121.32161" />
      <trkpt lat="37.43724" lon="-121.32157" />
      <trkpt lat="37.43755" lon="-121.3215" />
      <trkpt lat="37.43766" lon="-121.32146" />
      <trkpt lat="37.43775" lon="-121.32139" />
      <trkpt lat="37.4379" lon="-121.32122" />
      <trkpt lat="37.43803" lon="-121.32087" />
      <trkpt lat="37.4381" lon="-121.32051" />
      <trkpt lat="37.43809" lon="-121.32026" />
      <trkpt lat="37.43806" lon="-121.32" />
      <trkpt lat="37.43797" lon="-121.31961" />
      <trkpt lat="37.43786" lon="-121.31924" />
      <trkpt lat="37.43777" lon="-121.31901" />
      <trkpt lat="37.4375" lon="-121.31846" />
      <trkpt lat="37.43736" lon="-121.31809" />
      <trkpt lat="37.43723" lon="-121.31756" />
      <trkpt lat="37.43722" lon="-121.31743" />
      <trkpt lat="37.43722" lon="-121.31729" />
      <trkpt lat="37.43728" lon="-121.31703" />
      <trkpt lat="37.43742" lon="-121.31685" />
      <trkpt lat="37.43759" lon="-121.31674" />
      <trkpt lat="37.43796" lon="-121.31662" />
      <trkpt lat="37.43871" lon="-121.31645" />
      <trkpt lat="37.43899" lon="-121.31634" />
      <trkpt lat="37.4392" lon="-121.31611" />
      <trkpt lat="37.43931" lon="-121.31577" />
      <trkpt lat="37.43936" lon="-121.31541" />
      <trkpt lat="37.43943" lon="-121.31519" />
      <trkpt lat="37.43954" lon="-121.315" />
      <trkpt lat="37.43967" lon="-121.31483" />
      <trkpt lat="37.43974" lon="-121.31476" />
      <trkpt lat="37.43999" lon="-121.3146" />
      <trkpt lat="37.44027" lon="-121.31453" />
      <trkpt lat="37.44056" lon="-121.3145" />
      <trkpt lat="37.44101" lon="-121.31442" />
      <trkpt lat="37.4411" lon="-121.31439" />
      <trkpt lat="37.44127" lon="-121.31431" />
      <trkpt lat="37.44148" lon="-121.3141" />
      <trkpt lat="37.44175" lon="-121.31379" />
      <trkpt lat="37.44191" lon="-121.31366" />
      <trkpt lat="37.44213" lon="-121.31344" />
      <trkpt lat="37.44217" lon="-121.31333" />
      <trkpt lat="37.44216" lon="-121.31321" />
      <trkpt lat="37.44211" lon="-121.3131" />
      <trkpt lat="37.44162" lon="-121.31269" />
      <trkpt lat="37.44125" lon="-121.3122" />
      <trkpt lat="37.44097" lon="-121.31192" />
      <trkpt lat="37.4406" lon="-121.31169" />
      <trkpt lat="37.44049" lon="-121.31157" />
      <trkpt lat="37.44025" lon="-121.31122" />
      <trkpt lat="37.44014" lon="-121.31111" />
      <trkpt lat="37.44" lon="-121.31102" />
      <trkpt lat="37.43988" lon="-121.31092" />
      <trkpt lat="37.43978" lon="-121.31079" />
      <trkpt lat="37.43975" lon="-121.31071" />
      <trkpt lat="37.43971" lon="-121.31045" />
      <trkpt lat="37.43981" lon="-121.31012" />
      <trkpt lat="37.4399" lon="-121.30998" />
      <trkpt lat="37.44039" lon="-121.30948" />
      <trkpt lat="37.44054" lon="-121.30924" />
      <trkpt lat="37.44071" lon="-121.30887" />
      <trkpt lat="37.44075" lon="-121.30867" />
      <trkpt lat="37.44083" lon="-121.30814" />
      <trkpt lat="37.44087" lon="-121.30794" />
      <trkpt lat="37.44087" lon="-121.30772" />
      <trkpt lat="37.44084" lon="-121.30762" />
      <trkpt lat="37.44071" lon="-121.30733" />
      <trkpt lat="37.44048" lon="-121.30696" />
      <trkpt lat="37.44034" lon="-121.30681" />
      <trkpt lat="37.43953" lon="-121.30605" />
      <trkpt lat="37.4393" lon="-121.30581" />
      <trkpt lat="37.43924" lon="-121.30571" />
      <trkpt lat="37.43912" lon="-121.30537" />
      <trkpt lat="37.43911" lon="-121.30512" />
      <trkpt lat="37.43913" lon="-121.305" />
      <trkpt lat="37.43928" lon="-121.30468" />
      <trkpt lat="37.43936" lon="-121.3046" />
      <trkpt lat="37.43952" lon="-121.30448" />
      <trkpt lat="37.43969" lon="-121.30438" />
      <trkpt lat="37.44005" lon="-121.30423" />
      <trkpt lat="37.4403" lon="-121.30407" />
      <trkpt lat="37.44038" lon="-121.30399" />
      <trkpt lat="37.44059" lon="-121.30362" />
      <trkpt lat="37.44063" lon="-121.30327" />
      <trkpt lat="37.44051" lon="-121.30258" />
      <trkpt lat="37.44052" lon="-121.30236" />
      <trkpt lat="37.44061" lon="-121.30205" />
      <trkpt lat="37.44177" lon="-121.2994" />
      <trkpt lat="37.44333" lon="-121.29572" />
      <trkpt lat="37.44356" lon="-121.29505" />
      <trkpt lat="37.44376" lon="-121.2944" />
      <trkpt lat="37.44403" lon="-121.29332" />
      <trkpt lat="37.44406" lon="-121.29314" />
      <trkpt lat="37.44409" lon="-121.29262" />
      <trkpt lat="37.44408" lon="-121.29202" />
      <trkpt lat="37.44403" lon="-121.29177" />
      <trkpt lat="37.44382" lon="-121.29102" />
      <trkpt lat="37.44373" lon="-121.29068" />
      <trkpt lat="37.44372" lon="-121.29058" />
      <trkpt lat="37.44375" lon="-121.29019" />
      <trkpt lat="37.4442" lon="-121.28892" />
      <trkpt lat="37.44427" lon="-121.28855" />
      <trkpt lat="37.44418" lon="-121.2881" />
      <trkpt lat="37.44403" lon="-121.28773" />
      <trkpt lat="37.44383" lon="-121.28727" />
      <trkpt lat="37.44373" lon="-121.28699" />
      <trkpt lat="37.44368" lon="-121.2868" />
      <trkpt lat="37.44365" lon="-121.2866" />
      <trkpt lat="37.44364" lon="-121.28639" />
      <trkpt lat="37.44367" lon="-121.28608" />
      <trkpt lat="37.44372" lon="-121.28577" />
      <trkpt lat="37.44379" lon="-121.28559" />
      <trkpt lat="37.44394" lon="-121.28535" />
      <trkpt lat="37.44441" lon="-121.2849" />
      <trkpt lat="37.44464" lon="-121.28462" />
      <trkpt lat="37.44474" lon="-121.28447" />
      <trkpt lat="37.44478" lon="-121.28439" />
      <trkpt lat="37.44501" lon="-121.28374" />
      <trkpt lat="37.44512" lon="-121.28358" />
      <trkpt lat="37.44569" lon="-121.28299" />
      <trkpt lat="37.4462" lon="-121.28251" />
      <trkpt lat="37.44664" lon="-121.2823" />
      <trkpt lat="37.4468" lon="-121.28228" />
      <trkpt lat="37.44704" lon="-121.28227" />
      <trkpt lat="37.44735" lon="-121.28233" />
      <trkpt lat="37.44777" lon="-121.28252" />
      <trkpt lat="37.44838" lon="-121.28296" />
      <trkpt lat="37.44875" lon="-121.28311" />
      <trkpt lat="37.44889" lon="-121.28314" />
      <trkpt lat="37.44997" lon="-121.28324" />
      <trkpt lat="37.45073" lon="-121.28326" />
      <trkpt lat="37.45114" lon="-121.28325" />
      <trkpt lat="37.45128" lon="-121.2832" />
      <trkpt lat="37.45141" lon="-121.28312" />
      <trkpt lat="37.45161" lon="-121.28286" />
      <trkpt lat="37.45173" lon="-121.28252" />
      <trkpt lat="37.45181" lon="-121.28199" />
      <trkpt lat="37.45192" lon="-121.28173" />
      <trkpt lat="37.45198" lon="-121.28166" />
      <trkpt lat="37.45212" lon="-121.28156" />
      <trkpt lat="37.4529" lon="-121.28124" />
      <trkpt lat="37.45296" lon="-121.28118" />
      <trkpt lat="37.4531" lon="-121.28093" />
      <trkpt lat="37.45333" lon="-121.28033" />
      <trkpt lat="37.45335" lon="-121.28022" />
      <trkpt lat="37.45338" lon="-121.28" />
      <trkpt lat="37.45336" lon="-121.27979" />
      <trkpt lat="37.45331" lon="-121.27949" />
      <trkpt lat="37.45317" lon="-121.27911" />
      <trkpt lat="37.45296" lon="-121.27881" />
      <trkpt lat="37.45278" lon="-121.2785" />
      <trkpt lat="37.45264" lon="-121.27804" />
      <trkpt lat="37.45253" lon="-121.27717" />
      <trkpt lat="37.45252" lon="-121.27673" />
      <trkpt lat="37.45253" lon="-121.27663" />
      <trkpt lat="37.45277" lon="-121.27582" />
      <trkpt lat="37.45282" lon="-121.27549" />
      <trkpt lat="37.4528" lon="-121.27516" />
      <trkpt lat="37.45276" lon="-121.27494" />
      <trkpt lat="37.45269" lon="-121.27473" />
      <trkpt lat="37.45248" lon="-121.27427" />
      <trkpt lat="37.45245" lon="-121.27418" />
      <trkpt lat="37.45243" lon="-121.27399" />
      <trkpt lat="37.45255" lon="-121.273" />
      <trkpt lat="37.45262" lon="-121.27272" />
      <trkpt lat="37.45277" lon="-121.27236" />
      <trkpt lat="37.45301" lon="-121.27185" />
      <trkpt lat="37.45329" lon="-121.27141" />
      <trkpt lat="37.45351" lon="-121.27093" />
      <trkpt lat="37.45353" lon="-121.27074" />
      <trkpt lat="37.45354" lon="-121.27045" />
      <trkpt lat="37.45358" lon="-121.26696" />
      <trkpt lat="37.45356" lon="-121.26629" />
      <trkpt lat="37.45351" lon="-121.266" />
      <trkpt lat="37.45302" lon="-121.26477" />
      <trkpt lat="37.45277" lon="-121.26419" />
      <trkpt lat="37.45259" lon="-121.26381" />
      <trkpt lat="37.45243" lon="-121.26354" />
      <trkpt lat="37.45206" lon="-121.26299" />
      <trkpt lat="37.45116" lon="-121.26176" />
      <trkpt lat="37.4508" lon="-121.2613" />
      <trkpt lat="37.45063" lon="-121.26115" />
      <trkpt lat="37.44978" lon="-121.2605" />
      <trkpt lat="37.44924" lon="-121.26001" />
      <trkpt lat="37.44892" lon="-121.25962" />
      <trkpt lat="37.44872" lon="-121.25926" />
      <trkpt lat="37.44867" lon="-121.25916" />
      <trkpt lat="37.44852" lon="-121.25864" />
      <trkpt lat="37.44821" lon="-121.25688" />
      <trkpt lat="37.44798" lon="-121.2558" />
      <trkpt lat="37.44793" lon="-121.25543" />
      <trkpt lat="37.44794" lon="-121.25531" />
      <trkpt lat="37.44804" lon="-121.25497" />
      <trkpt lat="37.44815" lon="-121.25478" />
      <trkpt lat="37.44822" lon="-121.25472" />
      <trkpt lat="37.44846" lon="-121.25466" />
      <trkpt lat="37.44861" lon="-121.25477" />
      <trkpt lat="37.44898" lon="-121.25547" />
      <trkpt lat="37.4492" lon="-121.2561" />
      <trkpt lat="37.44933" lon="-121.25666" />
      <trkpt lat="37.44936" lon="-121.25675" />
      <trkpt lat="37.4495" lon="-121.25696" />
      <trkpt lat="37.44963" lon="-121.25707" />
      <trkpt lat="37.44977" lon="-121.25715" />
      <trkpt lat="37.45" lon="-121.25718" />
      <trkpt lat="37.45008" lon="-121.25717" />
      <trkpt lat="37.4503" lon="-121.25707" />
      <trkpt lat="37.45178" lon="-121.25609" />
      <trkpt lat="37.4522" lon="-121.25585" />
      <trkpt lat="37.45251" lon="-121.25572" />
      <trkpt lat="37.45356" lon="-121.25537" />
      <trkpt lat="37.45376" lon="-121.25523" />
      <trkpt lat="37.4538" lon="-121.25518" />
      <trkpt lat="37.45407" lon="-121.25476" />
      <trkpt lat="37.45439" lon="-121.25438" />
      <trkpt lat="37.45526" lon="-121.25348" />
      <trkpt lat="37.45551" lon="-121.25325" />
      <trkpt lat="37.45588" lon="-121.25298" />
      <trkpt lat="37.45612" lon="-121.25284" />
      <trkpt lat="37.45627" lon="-121.25277" />
      <trkpt lat="37.45643" lon="-121.25274" />
      <trkpt lat="37.45667" lon="-121.25283" />
      <trkpt lat="37.45696" lon="-121.25306" />
      <trkpt lat="37.45741" lon="-121.25344" />
      <trkpt lat="37.45747" lon="-121.25352" />
      <trkpt lat="37.45758" lon="-121.2537" />
      <trkpt lat="37.45767" lon="-121.25389" />
      <trkpt lat="37.45775" lon="-121.25419" />
      <trkpt lat="37.4579" lon="-121.25496" />
      <trkpt lat="37.45796" lon="-121.25512" />
      <trkpt lat="37.45806" lon="-121.25526" />
      <trkpt lat="37.4583" lon="-121.25546" />
      <trkpt lat="37.45869" lon="-121.25562" />
      <trkpt lat="37.45879" lon="-121.25563" />
      <trkpt lat="37.45896" lon="-121.25561" />
      <trkpt lat="37.45914" lon="-121.2555" />
      <trkpt lat="37.45925" lon="-121.2554" />
      <trkpt lat="37.45944" lon="-121.25513" />
      <trkpt lat="37.45983" lon="-121.25388" />
      <trkpt lat="37.46" lon="-121.25349" />
      <trkpt lat="37.46008" lon="-121.25336" />
      <trkpt lat="37.46017" lon="-121.25325" />
      <trkpt lat="37.46034" lon="-121.25313" />
      <trkpt lat="37.46047" lon="-121.25306" />
      <trkpt lat="37.4606" lon="-121.25303" />
      <trkpt lat="37.46074" lon="-121.25303" />
      <trkpt lat="37.46103" lon="-121.25317" />
      <trkpt lat="37.46117" lon="-121.25327" />
      <trkpt lat="37.46132" lon="-121.2533" />
      <trkpt lat="37.46146" lon="-121.25321" />
      <trkpt lat="37.46151" lon="-121.25301" />
      <trkpt lat="37.46149" lon="-121.25259" />
      <trkpt lat="37.46152" lon="-121.25209" />
      <trkpt lat="37.46155" lon="-121.252" />
      <trkpt lat="37.46168" lon="-121.25175" />
      <trkpt lat="37.46173" lon="-121.25168" />
      <trkpt lat="37.46187" lon="-121.2516" />
      <trkpt lat="37.46203" lon="-121.25158" />
      <trkpt lat="37.46288" lon="-121.25173" />
      <trkpt lat="37.46307" lon="-121.2518" />
      <trkpt lat="37.46333" lon="-121.25197" />
      <trkpt lat="37.46365" lon="-121.25223" />
      <trkpt lat="37.46462" lon="-121.25311" />
      <trkpt lat="37.46491" lon="-121.25355" />
      <trkpt lat="37.46513" lon="-121.25415" />
      <trkpt lat="37.46525" lon="-121.25428" />
      <trkpt lat="37.46547" lon="-121.25427" />
      <trkpt lat="37.46553" lon="-121.25421" />
      <trkpt lat="37.46569" lon="-121.25398" />
      <trkpt lat="37.46587" lon="-121.25378" />
      <trkpt lat="37.46607" lon="-121.25361" />
      <trkpt lat="37.46612" lon="-121.25353" />
      <trkpt lat="37.46615" lon="-121.25344" />
      <trkpt lat="37.46616" lon="-121.25316" />
      <trkpt lat="37.46613" lon="-121.25298" />
      <trkpt lat="37.46604" lon="-121.25273" />
      <trkpt lat="37.46568" lon="-121.2521" />
      <trkpt lat="37.46539" lon="-121.25164" />
      <trkpt lat="37.46502" lon="-121.25111" />
      <trkpt lat="37.46468" lon="-121.25058" />
      <trkpt lat="37.46459" lon="-121.25032" />
      <trkpt lat="37.46459" lon="-121.25013" />
      <trkpt lat="37.46466" lon="-121.24987" />
      <trkpt lat="37.46513" lon="-121.2489" />
      <trkpt lat="37.4655" lon="-121.24771" />
      <trkpt lat="37.46562" lon="-121.2474" />
      <trkpt lat="37.46586" lon="-121.24706" />
      <trkpt lat="37.4663" lon="-121.24664" />
      <trkpt lat="37.46642" lon="-121.24648" />
      <trkpt lat="37.46651" lon="-121.24629" />
      <trkpt lat="37.46658" lon="-121.24596" />
      <trkpt lat="37.46664" lon="-121.24519" />
      <trkpt lat="37.46673" lon="-121.24477" />
      <trkpt lat="37.46677" lon="-121.24468" />
      <trkpt lat="37.46692" lon="-121.24444" />
      <trkpt lat="37.46698" lon="-121.24438" />
      <trkpt lat="37.46725" lon="-121.24423" />
      <trkpt lat="37.46746" lon="-121.24414" />
      <trkpt lat="37.46761" lon="-121.24411" />
      <trkpt lat="37.46812" lon="-121.24409" />
      <trkpt lat="37.46882" lon="-121.24418" />
      <trkpt lat="37.469" lon="-121.24419" />
      <trkpt lat="37.46909" lon="-121.24418" />
      <trkpt lat="37.46944" lon="-121.24404" />
      <trkpt lat="37.46952" lon="-121.24399" />
      <trkpt lat="37.46973" lon="-121.2438" />
      <trkpt lat="37.46989" lon="-121.24358" />
      <trkpt lat="37.47007" lon="-121.24317" />
      <trkpt lat="37.47014" lon="-121.24293" />
      <trkpt lat="37.47035" lon="-121.24258" />
      <trkpt lat="37.47067" lon="-121.24219" />
      <trkpt lat="37.47108" lon="-121.24183" />
      <trkpt lat="37.4713" lon="-121.24156" />
      <trkpt lat="37.47195" lon="-121.2407" />
      <trkpt lat="37.47202" lon="-121.24065" />
      <trkpt lat="37.47226" lon="-121.24057" />
      <trkpt lat="37.4726" lon="-121.2406" />
      <trkpt lat="37.47315" lon="-121.24072" />
      <trkpt lat="37.47329" lon="-121.24063" />
      <trkpt lat="37.4734" lon="-121.24039" />
      <trkpt lat="37.47345" lon="-121.24022" />
      <trkpt lat="37.47346" lon="-121.23995" />
      <trkpt lat="37.47352" lon="-121.23957" />
      <trkpt lat="37.47355" lon="-121.23948" />
      <trkpt lat="37.47383" lon="-121.23886" />
      <trkpt lat="37.47394" lon="-121.23871" />
      <trkpt lat="37.47413" lon="-121.23853" />
      <trkpt lat="37.47425" lon="-121.23839" />
      <trkpt lat="37.47429" lon="-121.23831" />
      <trkpt lat="37.47429" lon="-121.23811" />
      <trkpt lat="37.47398" lon="-121.23757" />
      <trkpt lat="37.47374" lon="-121.23704" />
      <trkpt lat="37.47357" lon="-121.23659" />
      <trkpt lat="37.47354" lon="-121.23647" />
      <trkpt lat="37.47354" lon="-121.23609" />
      <trkpt lat="37.47363" lon="-121.23571" />
      <trkpt lat="37.47371" lon="-121.23548" />
      <trkpt lat="37.47389" lon="-121.23519" />
      <trkpt lat="37.47402" lon="-121.23502" />
      <trkpt lat="37.47424" lon="-121.23481" />
      <trkpt lat="37.47471" lon="-121.23449" />
      <trkpt lat="37.47505" lon="-121.23415" />
      <trkpt lat="37.47519" lon="-121.23386" />
      <trkpt lat="37.47533" lon="-121.23332" />
      <trkpt lat="37.47537" lon="-121.2331" />
      <trkpt lat="37.47538" lon="-121.23287" />
      <trkpt lat="37.47531" lon="-121.23216" />
      <trkpt lat="37.47498" lon="-121.23042" />
      <trkpt lat="37.47497" lon="-121.23018" />
      <trkpt lat="37.47498" lon="-121.22992" />
      <trkpt lat="37.47503" lon="-121.22954" />
      <trkpt lat="37.47516" lon="-121.22922" />
      <trkpt lat="37.47538" lon="-121.2288" />
      <trkpt lat="37.47562" lon="-121.22822" />
      <trkpt lat="37.47581" lon="-121.22784" />
      <trkpt lat="37.4759" lon="-121.22772" />
      <trkpt lat="37.4764" lon="-121.22723" />
      <trkpt lat="37.47749" lon="-121.22609" />
      <trkpt lat="37.47759" lon="-121.22593" />
      <trkpt lat="37.47763" lon="-121.22573" />
      <trkpt lat="37.47762" lon="-121.22538" />
      <trkpt lat="37.47752" lon="-121.22459" />
      <trkpt lat="37.47744" lon="-121.22431" />
      <trkpt lat="37.47723" lon="-121.22389" />
      <trkpt lat="37.47709" lon="-121.22358" />
      <trkpt lat="37.47704" lon="-121.2234" />
      <trkpt lat="37.477" lon="-121.22321" />
      <trkpt lat="37.47696" lon="-121.22283" />
      <trkpt lat="37.47691" lon="-121.22227" />
      <trkpt lat="37.4769" lon="-121.22192" />
      <trkpt lat="37.47694" lon="-121.22143" />
      <trkpt lat="37.47698" lon="-121.22129" />
      <trkpt lat="37.47706" lon="-121.22101" />
      <trkpt lat="37.47732" lon="-121.2203" />
      <trkpt lat="37.47753" lon="-121.21965" />
      <trkpt lat="37.478" lon="-121.21771" />
      <trkpt lat="37.47803" lon="-121.21733" />
      <trkpt lat="37.478" lon="-121.21692" />
      <trkpt lat="37.47784" lon="-121.21594" />
      <trkpt lat="37.47783" lon="-121.21571" />
      <trkpt lat="37.47787" lon="-121.2153" />
      <trkpt lat="37.47802" lon="-121.21476" />
      <trkpt lat="37.47809" lon="-121.2146" />
      <trkpt lat="37.47822" lon="-121.21428" />
      <trkpt lat="37.47838" lon="-121.21403" />
      <trkpt lat="37.47903" lon="-121.21324" />
      <trkpt lat="37.47938" lon="-121.21289" />
      <trkpt lat="37.47977" lon="-121.21255" />
      <trkpt lat="37.47992" lon="-121.21233" />
      <trkpt lat="37.47997" lon="-121.21223" />
      <trkpt lat="37.48007" lon="-121.21182" />
      <trkpt lat="37.48009" lon="-121.2115" />
      <trkpt lat="37.48004" lon="-121.21103" />
      <trkpt lat="37.48002" lon="-121.21096" />
      <trkpt lat="37.47991" lon="-121.21066" />
      <trkpt lat="37.47979" lon="-121.21045" />
      <trkpt lat="37.47962" lon="-121.2102" />
      <trkpt lat="37.47941" lon="-121.20996" />
      <trkpt lat="37.47862" lon="-121.20925" />
      <trkpt lat="37.47827" lon="-121.20883" />
      <trkpt lat="37.47705" lon="-121.2072" />
      <trkpt lat="37.47612" lon="-121.20587" />
      <trkpt lat="37.47491" lon="-121.2042" />
      <trkpt lat="37.47439" lon="-121.20351" />
      <trkpt lat="37.47409" lon="-121.20301" />
      <trkpt lat="37.47369" lon="-121.20215" />
      <trkpt lat="37.47336" lon="-121.20166" />
      <trkpt lat="37.47221" lon="-121.20054" />
      <trkpt lat="37.47188" lon="-121.20016" />
      <trkpt lat="37.47175" lon="-121.19993" />
      <trkpt lat="37.47132" lon="-121.19889" />
      <trkpt lat="37.47108" lon="-121.19836" />
      <trkpt lat="37.47066" lon="-121.19732" />
      <trkpt lat="37.47049" lon="-121.19697" />
      <trkpt lat="37.46974" lon="-121.19564" />
      <trkpt lat="37.46929" lon="-121.19492" />
      <trkpt lat="37.46913" lon="-121.19469" />
      <trkpt lat="37.46898" lon="-121.19449" />
      <trkpt lat="37.46881" lon="-121.19433" />
      <trkpt lat="37.46872" lon="-121.19426" />
      <trkpt lat="37.46854" lon="-121.19416" />
      <trkpt lat="37.46817" lon="-121.194" />
      <trkpt lat="37.46774" lon="-121.19374" />
      <trkpt lat="37.46752" lon="-121.19354" />
      <trkpt lat="37.46674" lon="-121.19266" />
      <trkpt lat="37.46591" lon="-121.1918" />
      <trkpt lat="37.46566" lon="-121.19161" />
      <trkpt lat="37.4651" lon="-121.19125" />
      <trkpt lat="37.4649" lon="-121.19109" />
      <trkpt lat="37.46464" lon="-121.19081" />
      <trkpt lat="37.46457" lon="-121.19071" />
      <trkpt lat="37.46438" lon="-121.19036" />
      <trkpt lat="37.46425" lon="-121.19002" />
      <trkpt lat="37.46419" lon="-121.18978" />
      <trkpt lat="37.46403" lon="-121.18847" />
      <trkpt lat="37.46388" lon="-121.18767" />
      <trkpt lat="37.46332" lon="-121.18502" />
    </trkseg>
  </trk>
</gpx>