<?xml version="1.0" encoding="UTF-8"?>
<gpx version="1.1" creator="strava-segment-scraper" xmlns="http://www.topografix.com/GPX/1/1">
  <trk>
    <name>Xmas relay </name>
    <trkseg>
      <trkpt lat="37.72897" lon="-122.49299" />
      <trkpt lat="37.72886" lon="-122.49283" />
      <trkpt lat="37.72864" lon="-122.49245" />
      <trkpt lat="37.72863" lon="-122.4924" />
      <trkpt lat="37.72864" lon="-122.49223" />
      <trkpt lat="37.72873" lon="-122.49185" />
      <trkpt lat="37.72874" lon="-122.49163" />
      <trkpt lat="37.72881" lon="-122.49139" />
      <trkpt lat="37.7289" lon="-122.49118" />
      <trkpt lat="37.72903" lon="-122.49097" />
      <trkpt lat="37.72975" lon="-122.49024" />
      <trkpt lat="37.72991" lon="-122.49012" />
      <trkpt lat="37.73005" lon="-122.48996" />
      <trkpt lat="37.73016" lon="-122.48977" />
      <trkpt lat="37.73022" lon="-122.48959" />
      <trkpt lat="37.73024" lon="-122.48924" />
      <trkpt lat="37.73018" lon="-122.4889" />
      <trkpt lat="37.72999" lon="-122.48825" />
      <trkpt lat="37.72977" lon="-122.48769" />
      <trkpt lat="37.72965" lon="-122.48743" />
      <trkpt lat="37.72926" lon="-122.48593" />
      <trkpt lat="37.72914" lon="-122.48568" />
      <trkpt lat="37.729" lon="-122.48549" />
      <trkpt lat="37.72858" lon="-122.48512" />
      <trkpt lat="37.72851" lon="-122.48506" />
      <trkpt lat="37.72834" lon="-122.48498" />
      <trkpt lat="37.72798" lon="-122.48468" />
      <trkpt lat="37.72788" lon="-122.48464" />
      <trkpt lat="37.72775" lon="-122.4845" />
      <trkpt lat="37.72751" lon="-122.48433" />
      <trkpt lat="37.72711" lon="-122.48414" />
      <trkpt lat="37.72698" lon="-122.48412" />
      <trkpt lat="37.72677" lon="-122.48412" />
      <trkpt lat="37.72642" lon="-122.48422" />
      <trkpt lat="37.72609" lon="-122.48437" />
      <trkpt lat="37.72568" lon="-122.48453" />
      <trkpt lat="37.72531" lon="-122.48475" />
      <trkpt lat="37.72498" lon="-122.48486" />
      <trkpt lat="37.72487" lon="-122.48492" />
      <trkpt lat="37.7245" lon="-122.485" />
      <trkpt lat="37.724" lon="-122.4852" />
      <trkpt lat="37.72372" lon="-122.48523" />
      <trkpt lat="37.72368" lon="-122.48525" />
      <trkpt lat="37.72354" lon="-122.48525" />
      <trkpt lat="37.72316" lon="-122.48522" />
      <trkpt lat="37.72285" lon="-122.48521" />
      <trkpt lat="37.72247" lon="-122.48525" />
      <trkpt lat="37.72213" lon="-122.48522" />
      <trkpt lat="37.72198" lon="-122.48525" />
      <trkpt lat="37.72184" lon="-122.48525" />
      <trkpt lat="37.7211" lon="-122.48526" />
      <trkpt lat="37.72043" lon="-122.48524" />
      <trkpt lat="37.72026" lon="-122.48527" />
      <trkpt lat="37.7197" lon="-122.48523" />
      <trkpt lat="37.71947" lon="-122.48528" />
      <trkpt lat="37.71931" lon="-122.48527" />
      <trkpt lat="37.71901" lon="-122.4852" />
      <trkpt lat="37.71867" lon="-122.48519" />
      <trkpt lat="37.71797" lon="-122.48523" />
      <trkpt lat="37.71765" lon="-122.48522" />
      <trkpt lat="37.7172" lon="-122.48523" />
      <trkpt lat="37.71692" lon="-122.48526" />
      <trkpt lat="37.71645" lon="-122.48526" />
      <trkpt lat="37.71609" lon="-122.48533" />
      <trkpt lat="37.71576" lon="-122.48538" />
      <trkpt lat="37.71546" lon="-122.48557" />
      <trkpt lat="37.7152" lon="-122.48567" />
      <trkpt lat="37.71488" lon="-122.48574" />
      <trkpt lat="37.71471" lon="-122.48575" />
      <trkpt lat="37.7145" lon="-122.48569" />
      <trkpt lat="37.71418" lon="-122.48547" />
      <trkpt lat="37.7139" lon="-122.48548" />
      <trkpt lat="37.71377" lon="-122.4855" />
      <trkpt lat="37.71366" lon="-122.48555" />
      <trkpt lat="37.7135" lon="-122.48577" />
      <trkpt lat="37.71334" lon="-122.48593" />
      <trkpt lat="37.71314" lon="-122.48597" />
      <trkpt lat="37.71296" lon="-122.48591" />
      <trkpt lat="37.71284" lon="-122.48583" />
      <trkpt lat="37.71284" lon="-122.48576" />
      <trkpt lat="37.71259" lon="-122.48552" />
      <trkpt lat="37.71238" lon="-122.48551" />
      <trkpt lat="37.71222" lon="-122.48553" />
      <trkpt lat="37.71159" lon="-122.48552" />
      <trkpt lat="37.71066" lon="-122.48558" />
      <trkpt lat="37.7105" lon="-122.48558" />
      <trkpt lat="37.71026" lon="-122.48555" />
      <trkpt lat="37.71014" lon="-122.48552" />
      <trkpt lat="37.70998" lon="-122.48545" />
      <trkpt lat="37.7096" lon="-122.48536" />
      <trkpt lat="37.70924" lon="-122.48532" />
      <trkpt lat="37.70904" lon="-122.48532" />
      <trkpt lat="37.70885" lon="-122.4854" />
      <trkpt lat="37.70868" lon="-122.48551" />
      <trkpt lat="37.70858" lon="-122.48567" />
      <trkpt lat="37.7085" lon="-122.48585" />
      <trkpt lat="37.70845" lon="-122.48605" />
      <trkpt lat="37.70846" lon="-122.48626" />
      <trkpt lat="37.7085" lon="-122.4864" />
      <trkpt lat="37.70888" lon="-122.48714" />
      <trkpt lat="37.70901" lon="-122.48734" />
      <trkpt lat="37.70917" lon="-122.48751" />
      <trkpt lat="37.70938" lon="-122.4877" />
      <trkpt lat="37.70962" lon="-122.48783" />
      <trkpt lat="37.71016" lon="-122.48808" />
      <trkpt lat="37.71036" lon="-122.48819" />
      <trkpt lat="37.71055" lon="-122.48826" />
      <trkpt lat="37.71075" lon="-122.48837" />
      <trkpt lat="37.71096" lon="-122.48844" />
      <trkpt lat="37.71141" lon="-122.48866" />
      <trkpt lat="37.71209" lon="-122.48895" />
      <trkpt lat="37.71221" lon="-122.48904" />
      <trkpt lat="37.7124" lon="-122.48927" />
      <trkpt lat="37.71243" lon="-122.48932" />
      <trkpt lat="37.71246" lon="-122.48966" />
      <trkpt lat="37.7125" lon="-122.48974" />
      <trkpt lat="37.71253" lon="-122.48977" />
      <trkpt lat="37.71265" lon="-122.48994" />
      <trkpt lat="37.71276" lon="-122.49015" />
      <trkpt lat="37.71309" lon="-122.49059" />
      <trkpt lat="37.71329" lon="-122.49092" />
      <trkpt lat="37.71336" lon="-122.49099" />
      <trkpt lat="37.71344" lon="-122.4911" />
      <trkpt lat="37.71361" lon="-122.49126" />
      <trkpt lat="37.71403" lon="-122.49157" />
      <trkpt lat="37.71474" lon="-122.49217" />
      <trkpt lat="37.71488" lon="-122.49229" />
      <trkpt lat="37.71524" lon="-122.49271" />
      <trkpt lat="37.71551" lon="-122.49316" />
      <trkpt lat="37.71564" lon="-122.49344" />
      <trkpt lat="37.71579" lon="-122.49384" />
      <trkpt lat="37.716" lon="-122.49459" />
      <trkpt lat="37.71623" lon="-122.49524" />
      <trkpt lat="37.71634" lon="-122.49565" />
      <trkpt lat="37.71641" lon="-122.49585" />
      <trkpt lat="37.7165" lon="-122.49634" />
      <trkpt lat="37.71659" lon="-122.49659" />
      <trkpt lat="37.71661" lon="-122.49671" />
      <trkpt lat="37.71676" lon="-122.49702" />
      <trkpt lat="37.71682" lon="-122.49718" />
      <trkpt lat="37.71703" lon="-122.49783" />
      <trkpt lat="37.71735" lon="-122.49842" />
      <trkpt lat="37.71764" lon="-122.4988" />
      <trkpt lat="37.71792" lon="-122.4991" />
      <trkpt lat="37.7181" lon="-122.49924" />
      <trkpt lat="37.71827" lon="-122.49936" />
      <trkpt lat="37.71846" lon="-122.49947" />
      <trkpt lat="37.7186" lon="-122.49958" />
      <trkpt lat="37.71897" lon="-122.4998" />
      <trkpt lat="37.71936" lon="-122.49992" />
      <trkpt lat="37.71982" lon="-122.50003" />
      <trkpt lat="37.72022" lon="-122.50007" />
      <trkpt lat="37.7203" lon="-122.5001" />
      <trkpt lat="37.72045" lon="-122.50019" />
      <trkpt lat="37.72083" lon="-122.50034" />
      <trkpt lat="37.72124" lon="-122.50066" />
      <trkpt lat="37.72171" lon="-122.50111" />
      <trkpt lat="37.72241" lon="-122.50169" />
      <trkpt lat="37.72249" lon="-122.50178" />
      <trkpt lat="37.72289" lon="-122.50213" />
      <trkpt lat="37.72318" lon="-122.50235" />
      <trkpt lat="37.72345" lon="-122.50251" />
      <trkpt lat="37.72348" lon="-122.50255" />
      <trkpt lat="37.72365" lon="-122.50265" />
      <trkpt lat="37.72408" lon="-122.50276" />
      <trkpt lat="37.72467" lon="-122.50287" />
      <trkpt lat="37.72479" lon="-122.50284" />
      <trkpt lat="37.72504" lon="-122.50283" />
      <trkpt lat="37.72551" lon="-122.50277" />
      <trkpt lat="37.72572" lon="-122.50268" />
      <trkpt lat="37.72588" lon="-122.50263" />
      <trkpt lat="37.72626" lon="-122.50246" />
      <trkpt lat="37.72634" lon="-122.50241" />
      <trkpt lat="37.72663" lon="-122.50216" />
      <trkpt lat="37.72687" lon="-122.50211" />
      <trkpt lat="37.7274" lon="-122.50188" />
      <trkpt lat="37.72749" lon="-122.50188" />
      <trkpt lat="37.72758" lon="-122.50185" />
      <trkpt lat="37.72784" lon="-122.50179" />
      <trkpt lat="37.72809" lon="-122.50168" />
      <trkpt lat="37.72839" lon="-122.50156" />
      <trkpt lat="37.72843" lon="-122.50156" />
      <trkpt lat="37.72863" lon="-122.50147" />
      <trkpt lat="37.7288" lon="-122.50137" />
      <trkpt lat="37.72918" lon="-122.50109" />
      <trkpt lat="37.7293" lon="-122.50102" />
      <trkpt lat="37.72952" lon="-122.50084" />
      <trkpt lat="37.72964" lon="-122.50071" />
      <trkpt lat="37.72988" lon="-122.5005" />
      <trkpt lat="37.72994" lon="-122.50043" />
      <trkpt lat="37.73003" lon="-122.50037" />
      <trkpt lat="37.73036" lon="-122.5" />
      <trkpt lat="37.73057" lon="-122.4998" />
      <trkpt lat="37.73071" lon="-122.49969" />
      <trkpt lat="37.73108" lon="-122.49931" />
      <trkpt lat="37.73129" lon="-122.49907" />
      <trkpt lat="37.73132" lon="-122.49897" />
      <trkpt lat="37.73137" lon="-122.4989" />
      <trkpt lat="37.73138" lon="-122.49863" />
      <trkpt lat="37.73138" lon="-122.49858" />
      <trkpt lat="37.73129" lon="-122.49844" />
      <trkpt lat="37.73116" lon="-122.49831" />
      <trkpt lat="37.73106" lon="-122.49824" />
      <trkpt lat="37.73093" lon="-122.49819" />
      <trkpt lat="37.73074" lon="-122.49805" />
      <trkpt lat="37.73034" lon="-122.49787" />
      <trkpt lat="37.72988" lon="-122.49762" />
      <trkpt lat="37.72969" lon="-122.49754" />
      <trkpt lat="37.72951" lon="-122.49744" />
      <trkpt lat="37.72937" lon="-122.49733" />
      <trkpt lat="37.72922" lon="-122.49715" />
      <trkpt lat="37.72908" lon="-122.49695" />
      <trkpt lat="37.72896" lon="-122.49675" />
      <trkpt lat="37.72887" lon="-122.49655" />
      <trkpt lat="37.72884" lon="-122.49639" />
      <trkpt lat="37.72884" lon="-122.49623" />
      <trkpt lat="37.72888" lon="-122.49586" />
      <trkpt lat="37.72903" lon="-122.49534" />
      <trkpt lat="37.72905" lon="-122.49517" />
      <trkpt lat="37.72915" lon="-122.49469" />
      <trkpt lat="37.72913" lon="-122.49447" />
      <trkpt lat="37.72909" lon="-122.49436" />
      <trkpt lat="37.72904" lon="-122.49402" />
      <trkpt lat="37.72909" lon="-122.49379" />
    </trkseg>
  </trk>
</gpx>