<?xml version="1.0" encoding="UTF-8"?>
<gpx version="1.1" creator="strava-segment-scraper" xmlns="http://www.topografix.com/GPX/1/1">
  <trk>
    <name>Laytonville to Longvale</name>
    <trkseg>
      <trkpt lat="39.68173" lon="-123.47674" />
      <trkpt lat="39.68122" lon="-123.47645" />
      <trkpt lat="39.68083" lon="-123.47628" />
      <trkpt lat="39.68053" lon="-123.47619" />
      <trkpt lat="39.68012" lon="-123.47611" />
      <trkpt lat="39.67977" lon="-123.47607" />
      <trkpt lat="39.6788" lon="-123.47598" />
      <trkpt lat="39.67805" lon="-123.47593" />
      <trkpt lat="39.67597" lon="-123.47576" />
      <trkpt lat="39.67551" lon="-123.47576" />
      <trkpt lat="39.67482" lon="-123.47571" />
      <trkpt lat="39.67397" lon="-123.47568" />
      <trkpt lat="39.67304" lon="-123.47567" />
      <trkpt lat="39.67255" lon="-123.47567" />
      <trkpt lat="39.67197" lon="-123.47574" />
      <trkpt lat="39.67152" lon="-123.47582" />
      <trkpt lat="39.67069" lon="-123.476" />
      <trkpt lat="39.67043" lon="-123.47605" />
      <trkpt lat="39.67017" lon="-123.47607" />
      <trkpt lat="39.66588" lon="-123.47628" />
      <trkpt lat="39.66291" lon="-123.47633" />
      <trkpt lat="39.66263" lon="-123.47634" />
      <trkpt lat="39.66236" lon="-123.47638" />
      <trkpt lat="39.6621" lon="-123.47645" />
      <trkpt lat="39.66172" lon="-123.47662" />
      <trkpt lat="39.661" lon="-123.47704" />
      <trkpt lat="39.66095" lon="-123.47709" />
      <trkpt lat="39.66066" lon="-123.47727" />
      <trkpt lat="39.66033" lon="-123.47746" />
      <trkpt lat="39.65993" lon="-123.47763" />
      <trkpt lat="39.65959" lon="-123.47772" />
      <trkpt lat="39.65923" lon="-123.47777" />
      <trkpt lat="39.65905" lon="-123.47778" />
      <trkpt lat="39.6587" lon="-123.47775" />
      <trkpt lat="39.65846" lon="-123.4777" />
      <trkpt lat="39.65812" lon="-123.47759" />
      <trkpt lat="39.65771" lon="-123.47737" />
      <trkpt lat="39.65706" lon="-123.47695" />
      <trkpt lat="39.65655" lon="-123.47666" />
      <trkpt lat="39.65632" lon="-123.47658" />
      <trkpt lat="39.65592" lon="-123.4765" />
      <trkpt lat="39.65563" lon="-123.47647" />
      <trkpt lat="39.65531" lon="-123.47649" />
      <trkpt lat="39.65456" lon="-123.47647" />
      <trkpt lat="39.65443" lon="-123.47648" />
      <trkpt lat="39.65437" lon="-123.47646" />
      <trkpt lat="39.65351" lon="-123.47648" />
      <trkpt lat="39.65248" lon="-123.47646" />
      <trkpt lat="39.64862" lon="-123.47647" />
      <trkpt lat="39.64824" lon="-123.47643" />
      <trkpt lat="39.64782" lon="-123.47637" />
      <trkpt lat="39.64741" lon="-123.47625" />
      <trkpt lat="39.64702" lon="-123.47609" />
      <trkpt lat="39.64629" lon="-123.47572" />
      <trkpt lat="39.64615" lon="-123.47562" />
      <trkpt lat="39.64516" lon="-123.47504" />
      <trkpt lat="39.64501" lon="-123.47499" />
      <trkpt lat="39.64496" lon="-123.47495" />
      <trkpt lat="39.64474" lon="-123.47485" />
      <trkpt lat="39.64442" lon="-123.47464" />
      <trkpt lat="39.64403" lon="-123.47437" />
      <trkpt lat="39.64317" lon="-123.47388" />
      <trkpt lat="39.64226" lon="-123.47333" />
      <trkpt lat="39.64202" lon="-123.47316" />
      <trkpt lat="39.64145" lon="-123.47267" />
      <trkpt lat="39.64045" lon="-123.4715" />
      <trkpt lat="39.64006" lon="-123.47119" />
      <trkpt lat="39.63979" lon="-123.47101" />
      <trkpt lat="39.63907" lon="-123.47063" />
      <trkpt lat="39.63817" lon="-123.47019" />
      <trkpt lat="39.63546" lon="-123.46883" />
      <trkpt lat="39.63489" lon="-123.46855" />
      <trkpt lat="39.63449" lon="-123.46837" />
      <trkpt lat="39.63415" lon="-123.46818" />
      <trkpt lat="39.63378" lon="-123.46793" />
      <trkpt lat="39.6335" lon="-123.46767" />
      <trkpt lat="39.63323" lon="-123.46737" />
      <trkpt lat="39.63297" lon="-123.46704" />
      <trkpt lat="39.63277" lon="-123.46674" />
      <trkpt lat="39.63264" lon="-123.46649" />
      <trkpt lat="39.63238" lon="-123.46587" />
      <trkpt lat="39.63225" lon="-123.46564" />
      <trkpt lat="39.6321" lon="-123.4653" />
      <trkpt lat="39.63186" lon="-123.46482" />
      <trkpt lat="39.63158" lon="-123.46428" />
      <trkpt lat="39.63134" lon="-123.46396" />
      <trkpt lat="39.63104" lon="-123.4636" />
      <trkpt lat="39.6308" lon="-123.4634" />
      <trkpt lat="39.63043" lon="-123.46316" />
      <trkpt lat="39.63013" lon="-123.463" />
      <trkpt lat="39.62988" lon="-123.4629" />
      <trkpt lat="39.62887" lon="-123.46254" />
      <trkpt lat="39.62835" lon="-123.46238" />
      <trkpt lat="39.62826" lon="-123.46236" />
      <trkpt lat="39.62807" lon="-123.46235" />
      <trkpt lat="39.62767" lon="-123.46239" />
      <trkpt lat="39.62737" lon="-123.46247" />
      <trkpt lat="39.62711" lon="-123.46261" />
      <trkpt lat="39.62409" lon="-123.46444" />
      <trkpt lat="39.6238" lon="-123.4646" />
      <trkpt lat="39.62344" lon="-123.46474" />
      <trkpt lat="39.62308" lon="-123.46486" />
      <trkpt lat="39.62262" lon="-123.46497" />
      <trkpt lat="39.62184" lon="-123.46508" />
      <trkpt lat="39.62089" lon="-123.46519" />
      <trkpt lat="39.62055" lon="-123.46522" />
      <trkpt lat="39.62043" lon="-123.46521" />
      <trkpt lat="39.62007" lon="-123.46517" />
      <trkpt lat="39.61984" lon="-123.46512" />
      <trkpt lat="39.61948" lon="-123.46497" />
      <trkpt lat="39.61905" lon="-123.46471" />
      <trkpt lat="39.61865" lon="-123.46434" />
      <trkpt lat="39.61847" lon="-123.46412" />
      <trkpt lat="39.61785" lon="-123.46328" />
      <trkpt lat="39.61654" lon="-123.46148" />
      <trkpt lat="39.61538" lon="-123.45994" />
      <trkpt lat="39.61515" lon="-123.45967" />
      <trkpt lat="39.61478" lon="-123.45937" />
      <trkpt lat="39.61438" lon="-123.45915" />
      <trkpt lat="39.61399" lon="-123.45898" />
      <trkpt lat="39.61359" lon="-123.45888" />
      <trkpt lat="39.61321" lon="-123.45884" />
      <trkpt lat="39.61295" lon="-123.45884" />
      <trkpt lat="39.61222" lon="-123.45897" />
      <trkpt lat="39.61127" lon="-123.45918" />
      <trkpt lat="39.61104" lon="-123.45921" />
      <trkpt lat="39.61081" lon="-123.45921" />
      <trkpt lat="39.61069" lon="-123.4592" />
      <trkpt lat="39.61057" lon="-123.45918" />
      <trkpt lat="39.61023" lon="-123.45906" />
      <trkpt lat="39.61001" lon="-123.45894" />
      <trkpt lat="39.6098" lon="-123.45881" />
      <trkpt lat="39.60951" lon="-123.45856" />
      <trkpt lat="39.60925" lon="-123.45824" />
      <trkpt lat="39.60902" lon="-123.45789" />
      <trkpt lat="39.60835" lon="-123.45698" />
      <trkpt lat="39.60813" lon="-123.45678" />
      <trkpt lat="39.6078" lon="-123.45658" />
      <trkpt lat="39.6077" lon="-123.45649" />
      <trkpt lat="39.60734" lon="-123.45634" />
      <trkpt lat="39.60709" lon="-123.4563" />
      <trkpt lat="39.60682" lon="-123.45622" />
      <trkpt lat="39.60653" lon="-123.45617" />
      <trkpt lat="39.60652" lon="-123.45603" />
      <trkpt lat="39.6057" lon="-123.45572" />
      <trkpt lat="39.60501" lon="-123.45542" />
      <trkpt lat="39.60456" lon="-123.45514" />
      <trkpt lat="39.6042" lon="-123.45498" />
      <trkpt lat="39.60385" lon="-123.45476" />
      <trkpt lat="39.60362" lon="-123.45462" />
      <trkpt lat="39.60284" lon="-123.4542" />
      <trkpt lat="39.60238" lon="-123.45398" />
      <trkpt lat="39.60227" lon="-123.45394" />
      <trkpt lat="39.60161" lon="-123.4538" />
      <trkpt lat="39.60137" lon="-123.45377" />
      <trkpt lat="39.60126" lon="-123.45378" />
      <trkpt lat="39.60116" lon="-123.45384" />
      <trkpt lat="39.60075" lon="-123.454" />
      <trkpt lat="39.59978" lon="-123.45448" />
      <trkpt lat="39.59951" lon="-123.45459" />
      <trkpt lat="39.59902" lon="-123.45468" />
      <trkpt lat="39.59871" lon="-123.4547" />
      <trkpt lat="39.59851" lon="-123.45468" />
      <trkpt lat="39.59822" lon="-123.45463" />
      <trkpt lat="39.59718" lon="-123.45435" />
      <trkpt lat="39.59661" lon="-123.45425" />
      <trkpt lat="39.59603" lon="-123.45422" />
      <trkpt lat="39.5946" lon="-123.45434" />
      <trkpt lat="39.59412" lon="-123.45435" />
      <trkpt lat="39.59401" lon="-123.45434" />
      <trkpt lat="39.59381" lon="-123.4543" />
      <trkpt lat="39.59362" lon="-123.45423" />
      <trkpt lat="39.59329" lon="-123.45408" />
      <trkpt lat="39.59264" lon="-123.45371" />
      <trkpt lat="39.58949" lon="-123.45178" />
      <trkpt lat="39.58911" lon="-123.4515" />
      <trkpt lat="39.58875" lon="-123.45121" />
      <trkpt lat="39.58849" lon="-123.45095" />
      <trkpt lat="39.58833" lon="-123.45077" />
      <trkpt lat="39.58817" lon="-123.45051" />
      <trkpt lat="39.58699" lon="-123.44906" />
      <trkpt lat="39.58664" lon="-123.44859" />
      <trkpt lat="39.5865" lon="-123.44843" />
      <trkpt lat="39.58626" lon="-123.44819" />
      <trkpt lat="39.58597" lon="-123.44778" />
      <trkpt lat="39.58569" lon="-123.44742" />
      <trkpt lat="39.58546" lon="-123.44715" />
      <trkpt lat="39.58534" lon="-123.44711" />
      <trkpt lat="39.58526" lon="-123.44703" />
      <trkpt lat="39.58389" lon="-123.44544" />
      <trkpt lat="39.5836" lon="-123.44517" />
      <trkpt lat="39.58339" lon="-123.44501" />
      <trkpt lat="39.58305" lon="-123.44481" />
      <trkpt lat="39.58283" lon="-123.44472" />
      <trkpt lat="39.58256" lon="-123.44463" />
      <trkpt lat="39.58156" lon="-123.4444" />
      <trkpt lat="39.58124" lon="-123.44431" />
      <trkpt lat="39.58097" lon="-123.44417" />
      <trkpt lat="39.58075" lon="-123.44402" />
      <trkpt lat="39.58049" lon="-123.44379" />
      <trkpt lat="39.58017" lon="-123.44345" />
      <trkpt lat="39.57991" lon="-123.443" />
      <trkpt lat="39.57918" lon="-123.44161" />
      <trkpt lat="39.57885" lon="-123.4412" />
      <trkpt lat="39.57857" lon="-123.44092" />
      <trkpt lat="39.57837" lon="-123.44077" />
      <trkpt lat="39.57668" lon="-123.43967" />
      <trkpt lat="39.57584" lon="-123.43917" />
      <trkpt lat="39.57548" lon="-123.43899" />
      <trkpt lat="39.57491" lon="-123.43879" />
      <trkpt lat="39.57453" lon="-123.43867" />
      <trkpt lat="39.57415" lon="-123.43859" />
      <trkpt lat="39.57347" lon="-123.43835" />
      <trkpt lat="39.57289" lon="-123.43819" />
      <trkpt lat="39.57259" lon="-123.43806" />
      <trkpt lat="39.57235" lon="-123.43793" />
      <trkpt lat="39.57214" lon="-123.4378" />
      <trkpt lat="39.57191" lon="-123.43759" />
      <trkpt lat="39.5717" lon="-123.43737" />
      <trkpt lat="39.57075" lon="-123.43625" />
      <trkpt lat="39.57059" lon="-123.43615" />
      <trkpt lat="39.57016" lon="-123.43595" />
      <trkpt lat="39.56999" lon="-123.43589" />
      <trkpt lat="39.56937" lon="-123.43573" />
      <trkpt lat="39.56924" lon="-123.43568" />
      <trkpt lat="39.56932" lon="-123.43567" />
      <trkpt lat="39.56907" lon="-123.43561" />
      <trkpt lat="39.56752" lon="-123.43521" />
      <trkpt lat="39.5669" lon="-123.43512" />
      <trkpt lat="39.56567" lon="-123.435" />
      <trkpt lat="39.56512" lon="-123.43487" />
      <trkpt lat="39.56488" lon="-123.43476" />
      <trkpt lat="39.56465" lon="-123.43462" />
      <trkpt lat="39.56373" lon="-123.43395" />
      <trkpt lat="39.56319" lon="-123.4336" />
      <trkpt lat="39.56281" lon="-123.43341" />
      <trkpt lat="39.56242" lon="-123.43328" />
      <trkpt lat="39.56194" lon="-123.43317" />
      <trkpt lat="39.56116" lon="-123.43306" />
      <trkpt lat="39.56049" lon="-123.43298" />
      <trkpt lat="39.55965" lon="-123.43291" />
      <trkpt lat="39.55803" lon="-123.43291" />
      <trkpt lat="39.55782" lon="-123.43285" />
      <trkpt lat="39.55773" lon="-123.43278" />
      <trkpt lat="39.55722" lon="-123.43247" />
      <trkpt lat="39.55533" lon="-123.43044" />
      <trkpt lat="39.55529" lon="-123.43038" />
      <trkpt lat="39.55524" lon="-123.43021" />
      <trkpt lat="39.55526" lon="-123.43004" />
      <trkpt lat="39.55541" lon="-123.42988" />
    </trkseg>
  </trk>
</gpx>