<?xml version="1.0" encoding="UTF-8"?>
<gpx version="1.1" creator="strava-segment-scraper" xmlns="http://www.topografix.com/GPX/1/1">
  <trk>
    <name>Mission Peak Run to Summit</name>
    <trkseg>
      <trkpt lat="37.50426" lon="-121.90798" />
      <trkpt lat="37.50422" lon="-121.90774" />
      <trkpt lat="37.50423" lon="-121.90749" />
      <trkpt lat="37.50437" lon="-121.90679" />
      <trkpt lat="37.50441" lon="-121.90636" />
      <trkpt lat="37.50446" lon="-121.90609" />
      <trkpt lat="37.50461" lon="-121.90574" />
      <trkpt lat="37.50484" lon="-121.90506" />
      <trkpt lat="37.5049" lon="-121.90494" />
      <trkpt lat="37.50495" lon="-121.90488" />
      <trkpt lat="37.50502" lon="-121.90483" />
      <trkpt lat="37.50519" lon="-121.90477" />
      <trkpt lat="37.50527" lon="-121.90472" />
      <trkpt lat="37.50554" lon="-121.90454" />
      <trkpt lat="37.50559" lon="-121.90447" />
      <trkpt lat="37.50561" lon="-121.90441" />
      <trkpt lat="37.50562" lon="-121.90417" />
      <trkpt lat="37.50566" lon="-121.90404" />
      <trkpt lat="37.50566" lon="-121.904" />
      <trkpt lat="37.5056" lon="-121.90391" />
      <trkpt lat="37.50539" lon="-121.90371" />
      <trkpt lat="37.50533" lon="-121.90361" />
      <trkpt lat="37.5053" lon="-121.90349" />
      <trkpt lat="37.50531" lon="-121.90332" />
      <trkpt lat="37.50534" lon="-121.9032" />
      <trkpt lat="37.50557" lon="-121.90267" />
      <trkpt lat="37.50568" lon="-121.90251" />
      <trkpt lat="37.50579" lon="-121.90241" />
      <trkpt lat="37.50586" lon="-121.90232" />
      <trkpt lat="37.50594" lon="-121.90212" />
      <trkpt lat="37.50599" lon="-121.90188" />
      <trkpt lat="37.50604" lon="-121.90177" />
      <trkpt lat="37.50611" lon="-121.90169" />
      <trkpt lat="37.50625" lon="-121.90159" />
      <trkpt lat="37.50637" lon="-121.90154" />
      <trkpt lat="37.50651" lon="-121.90144" />
      <trkpt lat="37.50664" lon="-121.90138" />
      <trkpt lat="37.50679" lon="-121.90134" />
      <trkpt lat="37.50701" lon="-121.90123" />
      <trkpt lat="37.50725" lon="-121.90093" />
      <trkpt lat="37.50732" lon="-121.90077" />
      <trkpt lat="37.50749" lon="-121.90047" />
      <trkpt lat="37.50768" lon="-121.90021" />
      <trkpt lat="37.50779" lon="-121.90011" />
      <trkpt lat="37.50808" lon="-121.89991" />
      <trkpt lat="37.50833" lon="-121.89977" />
      <trkpt lat="37.50865" lon="-121.89961" />
      <trkpt lat="37.50873" lon="-121.89959" />
      <trkpt lat="37.50883" lon="-121.89959" />
      <trkpt lat="37.50894" lon="-121.89966" />
      <trkpt lat="37.50909" lon="-121.89966" />
      <trkpt lat="37.50924" lon="-121.89962" />
      <trkpt lat="37.50936" lon="-121.89966" />
      <trkpt lat="37.50959" lon="-121.89986" />
      <trkpt lat="37.50962" lon="-121.89987" />
      <trkpt lat="37.5097" lon="-121.89983" />
      <trkpt lat="37.50977" lon="-121.89975" />
      <trkpt lat="37.50999" lon="-121.89964" />
      <trkpt lat="37.51021" lon="-121.89938" />
      <trkpt lat="37.51058" lon="-121.89917" />
      <trkpt lat="37.51065" lon="-121.89906" />
      <trkpt lat="37.5107" lon="-121.89902" />
      <trkpt lat="37.5108" lon="-121.89874" />
      <trkpt lat="37.51094" lon="-121.89846" />
      <trkpt lat="37.51097" lon="-121.89835" />
      <trkpt lat="37.51102" lon="-121.89826" />
      <trkpt lat="37.51121" lon="-121.89807" />
      <trkpt lat="37.51165" lon="-121.8978" />
      <trkpt lat="37.51171" lon="-121.89773" />
      <trkpt lat="37.51173" lon="-121.89764" />
      <trkpt lat="37.51164" lon="-121.89699" />
      <trkpt lat="37.51162" lon="-121.89688" />
      <trkpt lat="37.51154" lon="-121.89677" />
      <trkpt lat="37.51129" lon="-121.89657" />
      <trkpt lat="37.5111" lon="-121.89637" />
      <trkpt lat="37.51097" lon="-121.89633" />
      <trkpt lat="37.51081" lon="-121.89632" />
      <trkpt lat="37.5107" lon="-121.89634" />
      <trkpt lat="37.51036" lon="-121.89657" />
      <trkpt lat="37.51028" lon="-121.89661" />
      <trkpt lat="37.51019" lon="-121.89658" />
      <trkpt lat="37.51015" lon="-121.89654" />
      <trkpt lat="37.51013" lon="-121.89647" />
      <trkpt lat="37.51014" lon="-121.89641" />
      <trkpt lat="37.51025" lon="-121.89616" />
      <trkpt lat="37.51049" lon="-121.89574" />
      <trkpt lat="37.51051" lon="-121.89567" />
      <trkpt lat="37.5105" lon="-121.89555" />
      <trkpt lat="37.51046" lon="-121.89526" />
      <trkpt lat="37.5105" lon="-121.89479" />
      <trkpt lat="37.51056" lon="-121.89468" />
      <trkpt lat="37.51071" lon="-121.8945" />
      <trkpt lat="37.51075" lon="-121.89443" />
      <trkpt lat="37.51078" lon="-121.89442" />
      <trkpt lat="37.51084" lon="-121.89443" />
      <trkpt lat="37.51091" lon="-121.89451" />
      <trkpt lat="37.51096" lon="-121.89475" />
      <trkpt lat="37.51103" lon="-121.89489" />
      <trkpt lat="37.51111" lon="-121.89495" />
      <trkpt lat="37.51129" lon="-121.89503" />
      <trkpt lat="37.51142" lon="-121.89503" />
      <trkpt lat="37.5116" lon="-121.89499" />
      <trkpt lat="37.51165" lon="-121.89497" />
      <trkpt lat="37.51181" lon="-121.89479" />
      <trkpt lat="37.51183" lon="-121.89475" />
      <trkpt lat="37.51186" lon="-121.89468" />
      <trkpt lat="37.51185" lon="-121.89464" />
      <trkpt lat="37.5118" lon="-121.89458" />
      <trkpt lat="37.51177" lon="-121.89458" />
      <trkpt lat="37.51164" lon="-121.89463" />
      <trkpt lat="37.5116" lon="-121.89462" />
      <trkpt lat="37.51157" lon="-121.89459" />
      <trkpt lat="37.51154" lon="-121.89451" />
      <trkpt lat="37.51158" lon="-121.89438" />
      <trkpt lat="37.51178" lon="-121.89419" />
      <trkpt lat="37.51186" lon="-121.89409" />
      <trkpt lat="37.51205" lon="-121.8937" />
      <trkpt lat="37.51215" lon="-121.89362" />
      <trkpt lat="37.51215" lon="-121.89354" />
      <trkpt lat="37.51205" lon="-121.89333" />
      <trkpt lat="37.51202" lon="-121.89313" />
      <trkpt lat="37.512" lon="-121.89279" />
      <trkpt lat="37.51204" lon="-121.89269" />
      <trkpt lat="37.51219" lon="-121.8925" />
      <trkpt lat="37.51231" lon="-121.89231" />
      <trkpt lat="37.51232" lon="-121.89222" />
      <trkpt lat="37.51223" lon="-121.89195" />
      <trkpt lat="37.51224" lon="-121.89188" />
      <trkpt lat="37.51226" lon="-121.89185" />
      <trkpt lat="37.51231" lon="-121.89181" />
      <trkpt lat="37.51237" lon="-121.89181" />
      <trkpt lat="37.5124" lon="-121.89182" />
      <trkpt lat="37.51251" lon="-121.89193" />
      <trkpt lat="37.51259" lon="-121.89205" />
      <trkpt lat="37.51262" lon="-121.89224" />
      <trkpt lat="37.51272" lon="-121.89239" />
      <trkpt lat="37.51276" lon="-121.89241" />
      <trkpt lat="37.51284" lon="-121.89242" />
      <trkpt lat="37.51289" lon="-121.89239" />
      <trkpt lat="37.51291" lon="-121.89236" />
      <trkpt lat="37.51294" lon="-121.89182" />
      <trkpt lat="37.5128" lon="-121.89096" />
      <trkpt lat="37.51282" lon="-121.89078" />
      <trkpt lat="37.51284" lon="-121.89071" />
      <trkpt lat="37.51287" lon="-121.89069" />
      <trkpt lat="37.5129" lon="-121.89069" />
      <trkpt lat="37.51297" lon="-121.89073" />
      <trkpt lat="37.51308" lon="-121.89087" />
      <trkpt lat="37.51323" lon="-121.89098" />
      <trkpt lat="37.51354" lon="-121.89133" />
      <trkpt lat="37.51363" lon="-121.89139" />
      <trkpt lat="37.51377" lon="-121.89142" />
      <trkpt lat="37.51406" lon="-121.89135" />
      <trkpt lat="37.51411" lon="-121.89135" />
      <trkpt lat="37.51421" lon="-121.89141" />
      <trkpt lat="37.51429" lon="-121.89152" />
      <trkpt lat="37.5145" lon="-121.89194" />
      <trkpt lat="37.51457" lon="-121.89217" />
      <trkpt lat="37.51463" lon="-121.89243" />
      <trkpt lat="37.51469" lon="-121.89252" />
      <trkpt lat="37.51479" lon="-121.89252" />
      <trkpt lat="37.51485" lon="-121.8925" />
      <trkpt lat="37.51493" lon="-121.89245" />
      <trkpt lat="37.51503" lon="-121.89232" />
      <trkpt lat="37.51506" lon="-121.89222" />
      <trkpt lat="37.51505" lon="-121.8921" />
      <trkpt lat="37.51493" lon="-121.89134" />
      <trkpt lat="37.51502" lon="-121.89092" />
      <trkpt lat="37.515" lon="-121.89065" />
      <trkpt lat="37.51497" lon="-121.89047" />
      <trkpt lat="37.51476" lon="-121.89013" />
      <trkpt lat="37.51448" lon="-121.88954" />
      <trkpt lat="37.51432" lon="-121.88932" />
      <trkpt lat="37.51419" lon="-121.88919" />
      <trkpt lat="37.5141" lon="-121.889" />
      <trkpt lat="37.51404" lon="-121.88881" />
      <trkpt lat="37.51404" lon="-121.88874" />
      <trkpt lat="37.51412" lon="-121.88846" />
      <trkpt lat="37.51414" lon="-121.8883" />
      <trkpt lat="37.51414" lon="-121.88805" />
      <trkpt lat="37.51418" lon="-121.88793" />
      <trkpt lat="37.51422" lon="-121.88772" />
      <trkpt lat="37.51429" lon="-121.88774" />
      <trkpt lat="37.51437" lon="-121.8878" />
      <trkpt lat="37.51445" lon="-121.88791" />
      <trkpt lat="37.51459" lon="-121.88813" />
      <trkpt lat="37.51469" lon="-121.88821" />
      <trkpt lat="37.51488" lon="-121.8884" />
      <trkpt lat="37.51493" lon="-121.88842" />
      <trkpt lat="37.5151" lon="-121.88844" />
      <trkpt lat="37.5152" lon="-121.88844" />
      <trkpt lat="37.51532" lon="-121.88839" />
      <trkpt lat="37.5156" lon="-121.88832" />
      <trkpt lat="37.51612" lon="-121.88827" />
      <trkpt lat="37.51621" lon="-121.88824" />
      <trkpt lat="37.51637" lon="-121.88807" />
      <trkpt lat="37.51647" lon="-121.88791" />
      <trkpt lat="37.51673" lon="-121.88763" />
      <trkpt lat="37.51683" lon="-121.88749" />
      <trkpt lat="37.5169" lon="-121.88743" />
      <trkpt lat="37.51704" lon="-121.88724" />
      <trkpt lat="37.51718" lon="-121.887" />
      <trkpt lat="37.51728" lon="-121.88677" />
      <trkpt lat="37.51746" lon="-121.88648" />
      <trkpt lat="37.51756" lon="-121.88621" />
      <trkpt lat="37.51759" lon="-121.88614" />
      <trkpt lat="37.51759" lon="-121.88604" />
      <trkpt lat="37.51755" lon="-121.88566" />
      <trkpt lat="37.51754" lon="-121.88474" />
      <trkpt lat="37.51749" lon="-121.88456" />
      <trkpt lat="37.51741" lon="-121.88441" />
      <trkpt lat="37.5169" lon="-121.88399" />
      <trkpt lat="37.51635" lon="-121.88363" />
      <trkpt lat="37.51613" lon="-121.88352" />
      <trkpt lat="37.51605" lon="-121.88345" />
      <trkpt lat="37.51596" lon="-121.88343" />
      <trkpt lat="37.51576" lon="-121.88329" />
      <trkpt lat="37.51562" lon="-121.88323" />
      <trkpt lat="37.51558" lon="-121.88317" />
      <trkpt lat="37.51544" lon="-121.88306" />
      <trkpt lat="37.51522" lon="-121.88284" />
      <trkpt lat="37.51517" lon="-121.88281" />
      <trkpt lat="37.51507" lon="-121.88281" />
      <trkpt lat="37.51499" lon="-121.88287" />
      <trkpt lat="37.51486" lon="-121.88319" />
      <trkpt lat="37.51462" lon="-121.88342" />
      <trkpt lat="37.51427" lon="-121.88353" />
      <trkpt lat="37.51415" lon="-121.88365" />
      <trkpt lat="37.51411" lon="-121.88366" />
      <trkpt lat="37.51401" lon="-121.88353" />
      <trkpt lat="37.514" lon="-121.88349" />
      <trkpt lat="37.51401" lon="-121.88342" />
      <trkpt lat="37.51397" lon="-121.88335" />
      <trkpt lat="37.51395" lon="-121.88321" />
      <trkpt lat="37.51388" lon="-121.88313" />
      <trkpt lat="37.51387" lon="-121.88305" />
      <trkpt lat="37.51367" lon="-121.88282" />
      <trkpt lat="37.51347" lon="-121.88235" />
      <trkpt lat="37.51323" lon="-121.88202" />
      <trkpt lat="37.51303" lon="-121.88165" />
      <trkpt lat="37.51291" lon="-121.88146" />
      <trkpt lat="37.51284" lon="-121.88137" />
      <trkpt lat="37.51269" lon="-121.88113" />
      <trkpt lat="37.51255" lon="-121.88099" />
      <trkpt lat="37.51251" lon="-121.88093" />
      <trkpt lat="37.51249" lon="-121.88089" />
      <trkpt lat="37.51252" lon="-121.88087" />
      <trkpt lat="37.51251" lon="-121.88079" />
      <trkpt lat="37.51253" lon="-121.88078" />
      <trkpt lat="37.51263" lon="-121.88079" />
      <trkpt lat="37.51271" lon="-121.88087" />
      <trkpt lat="37.51273" lon="-121.88098" />
      <trkpt lat="37.51273" lon="-121.88123" />
      <trkpt lat="37.5128" lon="-121.8813" />
      <trkpt lat="37.51284" lon="-121.88137" />
    </trkseg>
  </trk>
</gpx>