<?xml version="1.0" encoding="UTF-8"?>
<gpx version="1.1" creator="strava-segment-scraper" xmlns="http://www.topografix.com/GPX/1/1">
  <trk>
    <name>Janesville Grade</name>
    <trkseg>
      <trkpt lat="40.28969" lon="-120.50126" />
      <trkpt lat="40.28972" lon="-120.50135" />
      <trkpt lat="40.28983" lon="-120.5014" />
      <trkpt lat="40.28984" lon="-120.50146" />
      <trkpt lat="40.28981" lon="-120.50156" />
      <trkpt lat="40.28977" lon="-120.50162" />
      <trkpt lat="40.28974" lon="-120.50164" />
      <trkpt lat="40.28966" lon="-120.50165" />
      <trkpt lat="40.28806" lon="-120.50161" />
      <trkpt lat="40.28763" lon="-120.50157" />
      <trkpt lat="40.28734" lon="-120.50157" />
      <trkpt lat="40.28709" lon="-120.50153" />
      <trkpt lat="40.28692" lon="-120.50153" />
      <trkpt lat="40.28666" lon="-120.50158" />
      <trkpt lat="40.28634" lon="-120.5017" />
      <trkpt lat="40.28549" lon="-120.50229" />
      <trkpt lat="40.28503" lon="-120.50263" />
      <trkpt lat="40.28451" lon="-120.50305" />
      <trkpt lat="40.28434" lon="-120.50319" />
      <trkpt lat="40.28355" lon="-120.50398" />
      <trkpt lat="40.28321" lon="-120.50434" />
      <trkpt lat="40.28281" lon="-120.50471" />
      <trkpt lat="40.28258" lon="-120.50485" />
      <trkpt lat="40.28201" lon="-120.50497" />
      <trkpt lat="40.2814" lon="-120.50505" />
      <trkpt lat="40.28122" lon="-120.50508" />
      <trkpt lat="40.281" lon="-120.50515" />
      <trkpt lat="40.28085" lon="-120.50522" />
      <trkpt lat="40.28052" lon="-120.50539" />
      <trkpt lat="40.2799" lon="-120.50577" />
      <trkpt lat="40.27959" lon="-120.5059" />
      <trkpt lat="40.27938" lon="-120.50603" />
      <trkpt lat="40.27919" lon="-120.50617" />
      <trkpt lat="40.27903" lon="-120.50625" />
      <trkpt lat="40.27889" lon="-120.50637" />
      <trkpt lat="40.27865" lon="-120.50652" />
      <trkpt lat="40.27835" lon="-120.50682" />
      <trkpt lat="40.27819" lon="-120.50709" />
      <trkpt lat="40.27808" lon="-120.50735" />
      <trkpt lat="40.27775" lon="-120.50827" />
      <trkpt lat="40.27773" lon="-120.50838" />
      <trkpt lat="40.2777" lon="-120.50878" />
      <trkpt lat="40.2777" lon="-120.50911" />
      <trkpt lat="40.27778" lon="-120.50971" />
      <trkpt lat="40.27787" lon="-120.51013" />
      <trkpt lat="40.27795" lon="-120.5104" />
      <trkpt lat="40.27814" lon="-120.51136" />
      <trkpt lat="40.27818" lon="-120.51187" />
      <trkpt lat="40.27818" lon="-120.51217" />
      <trkpt lat="40.27816" lon="-120.51247" />
      <trkpt lat="40.2781" lon="-120.51275" />
      <trkpt lat="40.27807" lon="-120.513" />
      <trkpt lat="40.27788" lon="-120.51338" />
      <trkpt lat="40.27779" lon="-120.51364" />
      <trkpt lat="40.27753" lon="-120.51411" />
      <trkpt lat="40.2774" lon="-120.51443" />
      <trkpt lat="40.27733" lon="-120.51468" />
      <trkpt lat="40.27723" lon="-120.51489" />
      <trkpt lat="40.27714" lon="-120.51523" />
      <trkpt lat="40.27684" lon="-120.51589" />
      <trkpt lat="40.27671" lon="-120.51611" />
      <trkpt lat="40.2766" lon="-120.51642" />
      <trkpt lat="40.2765" lon="-120.51679" />
      <trkpt lat="40.27638" lon="-120.51713" />
      <trkpt lat="40.27626" lon="-120.51754" />
      <trkpt lat="40.27619" lon="-120.51782" />
      <trkpt lat="40.27613" lon="-120.51825" />
      <trkpt lat="40.27605" lon="-120.51855" />
      <trkpt lat="40.27592" lon="-120.51937" />
      <trkpt lat="40.2758" lon="-120.51993" />
      <trkpt lat="40.2757" lon="-120.52073" />
      <trkpt lat="40.27552" lon="-120.52138" />
      <trkpt lat="40.2754" lon="-120.52162" />
      <trkpt lat="40.27528" lon="-120.52175" />
      <trkpt lat="40.27511" lon="-120.52202" />
      <trkpt lat="40.27494" lon="-120.52221" />
      <trkpt lat="40.27465" lon="-120.52268" />
      <trkpt lat="40.27442" lon="-120.5229" />
      <trkpt lat="40.27423" lon="-120.52311" />
      <trkpt lat="40.27409" lon="-120.52322" />
      <trkpt lat="40.27378" lon="-120.5234" />
      <trkpt lat="40.27356" lon="-120.52347" />
      <trkpt lat="40.2733" lon="-120.52361" />
      <trkpt lat="40.27303" lon="-120.52371" />
      <trkpt lat="40.27284" lon="-120.52374" />
      <trkpt lat="40.27233" lon="-120.52404" />
      <trkpt lat="40.27196" lon="-120.52422" />
      <trkpt lat="40.27101" lon="-120.52448" />
      <trkpt lat="40.2709" lon="-120.52455" />
      <trkpt lat="40.27075" lon="-120.52461" />
      <trkpt lat="40.27056" lon="-120.52466" />
      <trkpt lat="40.27018" lon="-120.52478" />
      <trkpt lat="40.27001" lon="-120.52488" />
      <trkpt lat="40.26944" lon="-120.52512" />
      <trkpt lat="40.26926" lon="-120.52523" />
      <trkpt lat="40.26913" lon="-120.52529" />
      <trkpt lat="40.26881" lon="-120.5253" />
      <trkpt lat="40.26862" lon="-120.52534" />
      <trkpt lat="40.26844" lon="-120.52532" />
      <trkpt lat="40.26826" lon="-120.52537" />
      <trkpt lat="40.26808" lon="-120.52538" />
      <trkpt lat="40.26787" lon="-120.52547" />
      <trkpt lat="40.26765" lon="-120.52548" />
      <trkpt lat="40.26761" lon="-120.52547" />
      <trkpt lat="40.26755" lon="-120.52536" />
      <trkpt lat="40.26747" lon="-120.52533" />
      <trkpt lat="40.26731" lon="-120.52517" />
      <trkpt lat="40.26723" lon="-120.52502" />
      <trkpt lat="40.267" lon="-120.52484" />
      <trkpt lat="40.26683" lon="-120.52459" />
      <trkpt lat="40.26673" lon="-120.52439" />
      <trkpt lat="40.26666" lon="-120.52427" />
      <trkpt lat="40.26641" lon="-120.52413" />
      <trkpt lat="40.26613" lon="-120.52406" />
      <trkpt lat="40.2658" lon="-120.52387" />
      <trkpt lat="40.26558" lon="-120.52372" />
      <trkpt lat="40.26546" lon="-120.52366" />
      <trkpt lat="40.26534" lon="-120.52352" />
      <trkpt lat="40.26525" lon="-120.52349" />
      <trkpt lat="40.26519" lon="-120.5235" />
      <trkpt lat="40.2651" lon="-120.52357" />
      <trkpt lat="40.26502" lon="-120.52367" />
      <trkpt lat="40.26497" lon="-120.52374" />
      <trkpt lat="40.26495" lon="-120.52388" />
      <trkpt lat="40.26509" lon="-120.52451" />
      <trkpt lat="40.26525" lon="-120.52504" />
      <trkpt lat="40.26531" lon="-120.52567" />
      <trkpt lat="40.2654" lon="-120.52597" />
      <trkpt lat="40.26541" lon="-120.5261" />
      <trkpt lat="40.26536" lon="-120.5264" />
      <trkpt lat="40.26527" lon="-120.52667" />
      <trkpt lat="40.26521" lon="-120.5268" />
      <trkpt lat="40.26498" lon="-120.52714" />
      <trkpt lat="40.26475" lon="-120.52738" />
      <trkpt lat="40.26454" lon="-120.52752" />
      <trkpt lat="40.26422" lon="-120.52778" />
      <trkpt lat="40.2639" lon="-120.52798" />
      <trkpt lat="40.26367" lon="-120.52809" />
      <trkpt lat="40.26352" lon="-120.52819" />
      <trkpt lat="40.26319" lon="-120.52827" />
      <trkpt lat="40.26279" lon="-120.52819" />
      <trkpt lat="40.26252" lon="-120.52809" />
      <trkpt lat="40.26226" lon="-120.52807" />
      <trkpt lat="40.26202" lon="-120.52785" />
      <trkpt lat="40.26167" lon="-120.52774" />
      <trkpt lat="40.26149" lon="-120.52762" />
      <trkpt lat="40.26108" lon="-120.52742" />
      <trkpt lat="40.26085" lon="-120.52737" />
      <trkpt lat="40.26077" lon="-120.52737" />
      <trkpt lat="40.26066" lon="-120.52741" />
      <trkpt lat="40.26044" lon="-120.52741" />
      <trkpt lat="40.26037" lon="-120.52744" />
      <trkpt lat="40.26032" lon="-120.52748" />
      <trkpt lat="40.26022" lon="-120.52772" />
      <trkpt lat="40.26017" lon="-120.52785" />
      <trkpt lat="40.26013" lon="-120.52806" />
      <trkpt lat="40.26012" lon="-120.52826" />
      <trkpt lat="40.26014" lon="-120.52858" />
      <trkpt lat="40.26012" lon="-120.52873" />
      <trkpt lat="40.26012" lon="-120.52905" />
      <trkpt lat="40.26011" lon="-120.52915" />
      <trkpt lat="40.25991" lon="-120.52952" />
      <trkpt lat="40.25979" lon="-120.52959" />
      <trkpt lat="40.25964" lon="-120.52965" />
      <trkpt lat="40.2595" lon="-120.52968" />
      <trkpt lat="40.25935" lon="-120.52969" />
      <trkpt lat="40.25922" lon="-120.52965" />
      <trkpt lat="40.25911" lon="-120.52959" />
      <trkpt lat="40.25892" lon="-120.52941" />
      <trkpt lat="40.25865" lon="-120.52897" />
      <trkpt lat="40.25861" lon="-120.52885" />
      <trkpt lat="40.25863" lon="-120.52861" />
      <trkpt lat="40.25869" lon="-120.52833" />
      <trkpt lat="40.25874" lon="-120.52819" />
      <trkpt lat="40.25877" lon="-120.52801" />
      <trkpt lat="40.25876" lon="-120.52777" />
      <trkpt lat="40.25879" lon="-120.5275" />
      <trkpt lat="40.25862" lon="-120.5267" />
      <trkpt lat="40.2586" lon="-120.52634" />
      <trkpt lat="40.2585" lon="-120.52596" />
      <trkpt lat="40.25846" lon="-120.52586" />
      <trkpt lat="40.25828" lon="-120.52569" />
      <trkpt lat="40.25823" lon="-120.5256" />
      <trkpt lat="40.2581" lon="-120.52528" />
      <trkpt lat="40.25808" lon="-120.52513" />
      <trkpt lat="40.258" lon="-120.52497" />
      <trkpt lat="40.25797" lon="-120.5247" />
      <trkpt lat="40.25799" lon="-120.52442" />
      <trkpt lat="40.25786" lon="-120.52371" />
      <trkpt lat="40.25786" lon="-120.52352" />
      <trkpt lat="40.25784" lon="-120.52342" />
      <trkpt lat="40.25779" lon="-120.52327" />
      <trkpt lat="40.25765" lon="-120.52305" />
      <trkpt lat="40.25754" lon="-120.52298" />
      <trkpt lat="40.25745" lon="-120.5228" />
      <trkpt lat="40.25732" lon="-120.52268" />
      <trkpt lat="40.25727" lon="-120.52259" />
      <trkpt lat="40.25716" lon="-120.52248" />
      <trkpt lat="40.2571" lon="-120.5224" />
      <trkpt lat="40.257" lon="-120.52218" />
      <trkpt lat="40.25687" lon="-120.52201" />
      <trkpt lat="40.25683" lon="-120.52189" />
      <trkpt lat="40.25661" lon="-120.52155" />
      <trkpt lat="40.25656" lon="-120.5214" />
      <trkpt lat="40.2565" lon="-120.52132" />
      <trkpt lat="40.25645" lon="-120.5213" />
      <trkpt lat="40.25641" lon="-120.52126" />
      <trkpt lat="40.25633" lon="-120.52103" />
      <trkpt lat="40.25622" lon="-120.52097" />
      <trkpt lat="40.25586" lon="-120.52105" />
      <trkpt lat="40.25567" lon="-120.52111" />
      <trkpt lat="40.2555" lon="-120.52127" />
      <trkpt lat="40.25473" lon="-120.5215" />
      <trkpt lat="40.25439" lon="-120.52154" />
      <trkpt lat="40.25421" lon="-120.52158" />
      <trkpt lat="40.25403" lon="-120.52158" />
      <trkpt lat="40.25392" lon="-120.52159" />
      <trkpt lat="40.25374" lon="-120.52168" />
      <trkpt lat="40.2535" lon="-120.52176" />
      <trkpt lat="40.25337" lon="-120.52185" />
      <trkpt lat="40.2532" lon="-120.52203" />
      <trkpt lat="40.25313" lon="-120.52213" />
      <trkpt lat="40.25276" lon="-120.52245" />
      <trkpt lat="40.25273" lon="-120.52246" />
      <trkpt lat="40.25265" lon="-120.52245" />
      <trkpt lat="40.25244" lon="-120.5223" />
      <trkpt lat="40.25237" lon="-120.52223" />
      <trkpt lat="40.2523" lon="-120.52214" />
      <trkpt lat="40.25224" lon="-120.52202" />
      <trkpt lat="40.252" lon="-120.52164" />
      <trkpt lat="40.25177" lon="-120.52135" />
      <trkpt lat="40.25153" lon="-120.52101" />
      <trkpt lat="40.25148" lon="-120.52096" />
      <trkpt lat="40.25124" lon="-120.52079" />
      <trkpt lat="40.25112" lon="-120.52072" />
      <trkpt lat="40.25101" lon="-120.52069" />
      <trkpt lat="40.25081" lon="-120.52068" />
      <trkpt lat="40.25045" lon="-120.52072" />
      <trkpt lat="40.25031" lon="-120.52075" />
      <trkpt lat="40.24999" lon="-120.5209" />
      <trkpt lat="40.24983" lon="-120.52101" />
      <trkpt lat="40.24968" lon="-120.52107" />
      <trkpt lat="40.24953" lon="-120.52119" />
      <trkpt lat="40.24932" lon="-120.5214" />
      <trkpt lat="40.249" lon="-120.52159" />
      <trkpt lat="40.24888" lon="-120.52162" />
      <trkpt lat="40.24875" lon="-120.52159" />
      <trkpt lat="40.24863" lon="-120.52147" />
      <trkpt lat="40.24855" lon="-120.52124" />
      <trkpt lat="40.24845" lon="-120.52109" />
      <trkpt lat="40.2484" lon="-120.52092" />
      <trkpt lat="40.24837" lon="-120.52061" />
      <trkpt lat="40.24822" lon="-120.52033" />
      <trkpt lat="40.24821" lon="-120.52018" />
      <trkpt lat="40.2481" lon="-120.51986" />
      <trkpt lat="40.24809" lon="-120.51975" />
      <trkpt lat="40.24808" lon="-120.51957" />
      <trkpt lat="40.24813" lon="-120.51941" />
      <trkpt lat="40.24806" lon="-120.51927" />
      <trkpt lat="40.24797" lon="-120.5192" />
      <trkpt lat="40.24788" lon="-120.519" />
      <trkpt lat="40.24781" lon="-120.51893" />
      <trkpt lat="40.24772" lon="-120.51889" />
      <trkpt lat="40.24766" lon="-120.51888" />
      <trkpt lat="40.24755" lon="-120.51894" />
      <trkpt lat="40.24741" lon="-120.5189" />
      <trkpt lat="40.24729" lon="-120.5189" />
      <trkpt lat="40.24715" lon="-120.51897" />
      <trkpt lat="40.24693" lon="-120.51911" />
      <trkpt lat="40.24674" lon="-120.51919" />
      <trkpt lat="40.24661" lon="-120.51929" />
      <trkpt lat="40.24646" lon="-120.51931" />
      <trkpt lat="40.24637" lon="-120.51937" />
      <trkpt lat="40.2462" lon="-120.51945" />
      <trkpt lat="40.24613" lon="-120.51952" />
      <trkpt lat="40.24597" lon="-120.51959" />
      <trkpt lat="40.24572" lon="-120.51958" />
      <trkpt lat="40.24543" lon="-120.51942" />
      <trkpt lat="40.24537" lon="-120.51941" />
      <trkpt lat="40.24528" lon="-120.51937" />
      <trkpt lat="40.24521" lon="-120.51931" />
      <trkpt lat="40.24496" lon="-120.51895" />
      <trkpt lat="40.24488" lon="-120.51876" />
      <trkpt lat="40.24466" lon="-120.51835" />
      <trkpt lat="40.24446" lon="-120.51804" />
      <trkpt lat="40.2442" lon="-120.51772" />
      <trkpt lat="40.24417" lon="-120.51742" />
      <trkpt lat="40.24418" lon="-120.51717" />
      <trkpt lat="40.2442" lon="-120.51709" />
      <trkpt lat="40.2443" lon="-120.51696" />
      <trkpt lat="40.24448" lon="-120.51662" />
      <trkpt lat="40.24454" lon="-120.5164" />
      <trkpt lat="40.24456" lon="-120.51607" />
      <trkpt lat="40.24451" lon="-120.51573" />
      <trkpt lat="40.24434" lon="-120.51537" />
      <trkpt lat="40.24434" lon="-120.51531" />
      <trkpt lat="40.24425" lon="-120.51518" />
      <trkpt lat="40.24422" lon="-120.51505" />
      <trkpt lat="40.24423" lon="-120.5149" />
      <trkpt lat="40.2442" lon="-120.51478" />
      <trkpt lat="40.24409" lon="-120.51464" />
      <trkpt lat="40.24394" lon="-120.51453" />
      <trkpt lat="40.24387" lon="-120.51454" />
      <trkpt lat="40.24389" lon="-120.5145" />
      <trkpt lat="40.24401" lon="-120.5146" />
      <trkpt lat="40.24409" lon="-120.51473" />
    </trkseg>
  </trk>
</gpx>