<?xml version="1.0" encoding="UTF-8"?>
<gpx version="1.1" creator="strava-segment-scraper" xmlns="http://www.topografix.com/GPX/1/1">
  <trk>
    <name>Sea to Sky | Full Out &amp; Back</name>
    <trkseg>
      <trkpt lat="38.45948" lon="-123.14194" />
      <trkpt lat="38.45884" lon="-123.1407" />
      <trkpt lat="38.45884" lon="-123.14063" />
      <trkpt lat="38.45889" lon="-123.1404" />
      <trkpt lat="38.45894" lon="-123.14027" />
      <trkpt lat="38.45902" lon="-123.14015" />
      <trkpt lat="38.45906" lon="-123.14017" />
      <trkpt lat="38.45939" lon="-123.1405" />
      <trkpt lat="38.45993" lon="-123.14092" />
      <trkpt lat="38.46019" lon="-123.1411" />
      <trkpt lat="38.46035" lon="-123.14124" />
      <trkpt lat="38.46055" lon="-123.14138" />
      <trkpt lat="38.46082" lon="-123.14152" />
      <trkpt lat="38.46131" lon="-123.14183" />
      <trkpt lat="38.46146" lon="-123.14196" />
      <trkpt lat="38.46173" lon="-123.14213" />
      <trkpt lat="38.46175" lon="-123.14218" />
      <trkpt lat="38.46175" lon="-123.14233" />
      <trkpt lat="38.46177" lon="-123.1424" />
      <trkpt lat="38.46193" lon="-123.14297" />
      <trkpt lat="38.46201" lon="-123.14316" />
      <trkpt lat="38.46203" lon="-123.14328" />
      <trkpt lat="38.46215" lon="-123.14342" />
      <trkpt lat="38.46241" lon="-123.14364" />
      <trkpt lat="38.46249" lon="-123.14364" />
      <trkpt lat="38.46253" lon="-123.14357" />
      <trkpt lat="38.46253" lon="-123.1434" />
      <trkpt lat="38.4626" lon="-123.14309" />
      <trkpt lat="38.46265" lon="-123.14268" />
      <trkpt lat="38.46279" lon="-123.14239" />
      <trkpt lat="38.46285" lon="-123.14235" />
      <trkpt lat="38.46294" lon="-123.14235" />
      <trkpt lat="38.463" lon="-123.14237" />
      <trkpt lat="38.46302" lon="-123.14239" />
      <trkpt lat="38.46304" lon="-123.14251" />
      <trkpt lat="38.4631" lon="-123.14255" />
      <trkpt lat="38.46317" lon="-123.14252" />
      <trkpt lat="38.46328" lon="-123.14244" />
      <trkpt lat="38.46336" lon="-123.14235" />
      <trkpt lat="38.46338" lon="-123.14248" />
      <trkpt lat="38.4635" lon="-123.14253" />
      <trkpt lat="38.46357" lon="-123.14268" />
      <trkpt lat="38.46363" lon="-123.14272" />
      <trkpt lat="38.4637" lon="-123.14272" />
      <trkpt lat="38.46374" lon="-123.14277" />
      <trkpt lat="38.4637" lon="-123.14304" />
      <trkpt lat="38.46366" lon="-123.1432" />
      <trkpt lat="38.46369" lon="-123.14338" />
      <trkpt lat="38.46375" lon="-123.14354" />
      <trkpt lat="38.46387" lon="-123.14375" />
      <trkpt lat="38.46403" lon="-123.14392" />
      <trkpt lat="38.4641" lon="-123.14405" />
      <trkpt lat="38.46416" lon="-123.14428" />
      <trkpt lat="38.46416" lon="-123.14443" />
      <trkpt lat="38.4642" lon="-123.14456" />
      <trkpt lat="38.46418" lon="-123.14489" />
      <trkpt lat="38.46419" lon="-123.14501" />
      <trkpt lat="38.46411" lon="-123.14531" />
      <trkpt lat="38.46411" lon="-123.14538" />
      <trkpt lat="38.46412" lon="-123.1454" />
      <trkpt lat="38.46417" lon="-123.14543" />
      <trkpt lat="38.46436" lon="-123.1454" />
      <trkpt lat="38.46443" lon="-123.14537" />
      <trkpt lat="38.46451" lon="-123.14531" />
      <trkpt lat="38.46467" lon="-123.14507" />
      <trkpt lat="38.46489" lon="-123.14487" />
      <trkpt lat="38.4653" lon="-123.14465" />
      <trkpt lat="38.46556" lon="-123.14445" />
      <trkpt lat="38.46576" lon="-123.14433" />
      <trkpt lat="38.46599" lon="-123.14415" />
      <trkpt lat="38.46602" lon="-123.14411" />
      <trkpt lat="38.46605" lon="-123.14398" />
      <trkpt lat="38.46613" lon="-123.1438" />
      <trkpt lat="38.46621" lon="-123.14367" />
      <trkpt lat="38.46629" lon="-123.1436" />
      <trkpt lat="38.46639" lon="-123.14355" />
      <trkpt lat="38.4666" lon="-123.14349" />
      <trkpt lat="38.46679" lon="-123.14347" />
      <trkpt lat="38.46691" lon="-123.14342" />
      <trkpt lat="38.46706" lon="-123.14332" />
      <trkpt lat="38.46728" lon="-123.14323" />
      <trkpt lat="38.46735" lon="-123.14322" />
      <trkpt lat="38.4674" lon="-123.1432" />
      <trkpt lat="38.46771" lon="-123.14306" />
      <trkpt lat="38.46776" lon="-123.14303" />
      <trkpt lat="38.46779" lon="-123.14299" />
      <trkpt lat="38.46789" lon="-123.14296" />
      <trkpt lat="38.46797" lon="-123.1429" />
      <trkpt lat="38.46804" lon="-123.14286" />
      <trkpt lat="38.4681" lon="-123.14281" />
      <trkpt lat="38.46813" lon="-123.14277" />
      <trkpt lat="38.46821" lon="-123.14256" />
      <trkpt lat="38.46838" lon="-123.14227" />
      <trkpt lat="38.46845" lon="-123.14206" />
      <trkpt lat="38.46852" lon="-123.14195" />
      <trkpt lat="38.46879" lon="-123.14169" />
      <trkpt lat="38.46903" lon="-123.14133" />
      <trkpt lat="38.46903" lon="-123.1413" />
      <trkpt lat="38.46926" lon="-123.14109" />
      <trkpt lat="38.46933" lon="-123.14101" />
      <trkpt lat="38.46937" lon="-123.1409" />
      <trkpt lat="38.46934" lon="-123.14085" />
      <trkpt lat="38.46942" lon="-123.14083" />
      <trkpt lat="38.46947" lon="-123.14077" />
      <trkpt lat="38.46957" lon="-123.14049" />
      <trkpt lat="38.46968" lon="-123.14001" />
      <trkpt lat="38.46979" lon="-123.13983" />
      <trkpt lat="38.46978" lon="-123.1398" />
      <trkpt lat="38.46985" lon="-123.13969" />
      <trkpt lat="38.46998" lon="-123.13949" />
      <trkpt lat="38.47046" lon="-123.13894" />
      <trkpt lat="38.47054" lon="-123.13879" />
      <trkpt lat="38.47067" lon="-123.13836" />
      <trkpt lat="38.47076" lon="-123.13774" />
      <trkpt lat="38.47092" lon="-123.13728" />
      <trkpt lat="38.47096" lon="-123.13709" />
      <trkpt lat="38.47099" lon="-123.13672" />
      <trkpt lat="38.47112" lon="-123.13604" />
      <trkpt lat="38.47125" lon="-123.13569" />
      <trkpt lat="38.47142" lon="-123.13543" />
      <trkpt lat="38.47144" lon="-123.13537" />
      <trkpt lat="38.47151" lon="-123.13492" />
      <trkpt lat="38.47151" lon="-123.13468" />
      <trkpt lat="38.47153" lon="-123.13449" />
      <trkpt lat="38.47163" lon="-123.13417" />
      <trkpt lat="38.47167" lon="-123.13397" />
      <trkpt lat="38.47168" lon="-123.13365" />
      <trkpt lat="38.47174" lon="-123.13325" />
      <trkpt lat="38.47174" lon="-123.13293" />
      <trkpt lat="38.47181" lon="-123.13254" />
      <trkpt lat="38.47185" lon="-123.13243" />
      <trkpt lat="38.472" lon="-123.13213" />
      <trkpt lat="38.47208" lon="-123.13176" />
      <trkpt lat="38.47219" lon="-123.13144" />
      <trkpt lat="38.4723" lon="-123.13114" />
      <trkpt lat="38.47238" lon="-123.13102" />
      <trkpt lat="38.47245" lon="-123.13073" />
      <trkpt lat="38.47245" lon="-123.13058" />
      <trkpt lat="38.47242" lon="-123.13047" />
      <trkpt lat="38.47229" lon="-123.13019" />
      <trkpt lat="38.4722" lon="-123.12991" />
      <trkpt lat="38.47202" lon="-123.12947" />
      <trkpt lat="38.47194" lon="-123.12934" />
      <trkpt lat="38.47174" lon="-123.1291" />
      <trkpt lat="38.47173" lon="-123.12905" />
      <trkpt lat="38.47167" lon="-123.12898" />
      <trkpt lat="38.47153" lon="-123.12893" />
      <trkpt lat="38.4714" lon="-123.12892" />
      <trkpt lat="38.47133" lon="-123.12895" />
      <trkpt lat="38.47128" lon="-123.129" />
      <trkpt lat="38.47106" lon="-123.12908" />
      <trkpt lat="38.47086" lon="-123.12909" />
      <trkpt lat="38.47055" lon="-123.12901" />
      <trkpt lat="38.47037" lon="-123.12894" />
      <trkpt lat="38.47017" lon="-123.12884" />
      <trkpt lat="38.47003" lon="-123.12874" />
      <trkpt lat="38.46989" lon="-123.12861" />
      <trkpt lat="38.46969" lon="-123.12838" />
      <trkpt lat="38.46957" lon="-123.12828" />
      <trkpt lat="38.46951" lon="-123.12826" />
      <trkpt lat="38.46947" lon="-123.12829" />
      <trkpt lat="38.46942" lon="-123.12823" />
      <trkpt lat="38.46906" lon="-123.12805" />
      <trkpt lat="38.46902" lon="-123.12792" />
      <trkpt lat="38.46895" lon="-123.12783" />
      <trkpt lat="38.46857" lon="-123.12766" />
      <trkpt lat="38.46851" lon="-123.1276" />
      <trkpt lat="38.46847" lon="-123.12752" />
      <trkpt lat="38.46838" lon="-123.12727" />
      <trkpt lat="38.46834" lon="-123.12698" />
      <trkpt lat="38.46835" lon="-123.12647" />
      <trkpt lat="38.46829" lon="-123.12565" />
      <trkpt lat="38.46831" lon="-123.12546" />
      <trkpt lat="38.46843" lon="-123.12498" />
      <trkpt lat="38.46846" lon="-123.12471" />
      <trkpt lat="38.46845" lon="-123.12419" />
      <trkpt lat="38.46842" lon="-123.12392" />
      <trkpt lat="38.46833" lon="-123.1236" />
      <trkpt lat="38.46825" lon="-123.12316" />
      <trkpt lat="38.4682" lon="-123.12234" />
      <trkpt lat="38.46822" lon="-123.12214" />
      <trkpt lat="38.46828" lon="-123.12203" />
      <trkpt lat="38.46833" lon="-123.122" />
      <trkpt lat="38.46841" lon="-123.12198" />
      <trkpt lat="38.46884" lon="-123.1219" />
      <trkpt lat="38.46904" lon="-123.12188" />
      <trkpt lat="38.46912" lon="-123.12183" />
      <trkpt lat="38.46915" lon="-123.12184" />
      <trkpt lat="38.46925" lon="-123.12175" />
      <trkpt lat="38.46941" lon="-123.12155" />
      <trkpt lat="38.46949" lon="-123.12138" />
      <trkpt lat="38.46951" lon="-123.12137" />
      <trkpt lat="38.46956" lon="-123.12139" />
      <trkpt lat="38.46955" lon="-123.12132" />
      <trkpt lat="38.46958" lon="-123.12121" />
      <trkpt lat="38.46983" lon="-123.12055" />
      <trkpt lat="38.46989" lon="-123.12026" />
      <trkpt lat="38.46991" lon="-123.11992" />
      <trkpt lat="38.46999" lon="-123.11951" />
      <trkpt lat="38.47006" lon="-123.11923" />
      <trkpt lat="38.47011" lon="-123.11919" />
      <trkpt lat="38.47011" lon="-123.11911" />
      <trkpt lat="38.47015" lon="-123.11903" />
      <trkpt lat="38.47021" lon="-123.11874" />
      <trkpt lat="38.47026" lon="-123.11866" />
      <trkpt lat="38.47029" lon="-123.11851" />
      <trkpt lat="38.47034" lon="-123.1184" />
      <trkpt lat="38.47037" lon="-123.118" />
      <trkpt lat="38.47042" lon="-123.11787" />
      <trkpt lat="38.47056" lon="-123.11763" />
      <trkpt lat="38.47065" lon="-123.11752" />
      <trkpt lat="38.47086" lon="-123.11746" />
      <trkpt lat="38.47097" lon="-123.11747" />
      <trkpt lat="38.47114" lon="-123.11744" />
      <trkpt lat="38.47126" lon="-123.11747" />
      <trkpt lat="38.4714" lon="-123.11742" />
      <trkpt lat="38.47172" lon="-123.11742" />
      <trkpt lat="38.47184" lon="-123.11744" />
      <trkpt lat="38.47194" lon="-123.1175" />
      <trkpt lat="38.47203" lon="-123.11752" />
      <trkpt lat="38.47235" lon="-123.11752" />
      <trkpt lat="38.47246" lon="-123.11749" />
      <trkpt lat="38.47263" lon="-123.1174" />
      <trkpt lat="38.47277" lon="-123.11738" />
      <trkpt lat="38.47306" lon="-123.11724" />
      <trkpt lat="38.47323" lon="-123.11721" />
      <trkpt lat="38.47338" lon="-123.11722" />
      <trkpt lat="38.47383" lon="-123.11737" />
      <trkpt lat="38.47414" lon="-123.11751" />
      <trkpt lat="38.4745" lon="-123.11765" />
      <trkpt lat="38.47494" lon="-123.11778" />
      <trkpt lat="38.47545" lon="-123.11812" />
      <trkpt lat="38.47561" lon="-123.11818" />
      <trkpt lat="38.47574" lon="-123.11819" />
      <trkpt lat="38.47583" lon="-123.11818" />
      <trkpt lat="38.47594" lon="-123.11823" />
      <trkpt lat="38.47602" lon="-123.11823" />
      <trkpt lat="38.47621" lon="-123.11819" />
      <trkpt lat="38.47634" lon="-123.11811" />
      <trkpt lat="38.47638" lon="-123.11812" />
      <trkpt lat="38.47649" lon="-123.11797" />
      <trkpt lat="38.47653" lon="-123.11794" />
      <trkpt lat="38.47659" lon="-123.11793" />
      <trkpt lat="38.47675" lon="-123.11799" />
      <trkpt lat="38.47692" lon="-123.1181" />
      <trkpt lat="38.47699" lon="-123.11812" />
      <trkpt lat="38.47702" lon="-123.1182" />
      <trkpt lat="38.477" lon="-123.11827" />
      <trkpt lat="38.47695" lon="-123.11837" />
      <trkpt lat="38.47681" lon="-123.11853" />
      <trkpt lat="38.47669" lon="-123.11872" />
      <trkpt lat="38.4766" lon="-123.11893" />
      <trkpt lat="38.47647" lon="-123.11935" />
      <trkpt lat="38.47646" lon="-123.11944" />
      <trkpt lat="38.47648" lon="-123.11964" />
      <trkpt lat="38.47658" lon="-123.11984" />
      <trkpt lat="38.47661" lon="-123.11994" />
      <trkpt lat="38.47665" lon="-123.1203" />
      <trkpt lat="38.47665" lon="-123.12046" />
      <trkpt lat="38.47657" lon="-123.12115" />
      <trkpt lat="38.47656" lon="-123.12135" />
      <trkpt lat="38.47659" lon="-123.12148" />
      <trkpt lat="38.47674" lon="-123.12173" />
      <trkpt lat="38.4768" lon="-123.12179" />
      <trkpt lat="38.47687" lon="-123.12183" />
      <trkpt lat="38.47696" lon="-123.12185" />
      <trkpt lat="38.47703" lon="-123.12184" />
      <trkpt lat="38.47719" lon="-123.12177" />
      <trkpt lat="38.47734" lon="-123.12178" />
      <trkpt lat="38.47755" lon="-123.12184" />
      <trkpt lat="38.47774" lon="-123.12191" />
      <trkpt lat="38.47796" lon="-123.12203" />
      <trkpt lat="38.47819" lon="-123.12224" />
      <trkpt lat="38.47827" lon="-123.12245" />
      <trkpt lat="38.47837" lon="-123.12264" />
      <trkpt lat="38.47845" lon="-123.12274" />
      <trkpt lat="38.47857" lon="-123.12285" />
      <trkpt lat="38.47864" lon="-123.12294" />
      <trkpt lat="38.47877" lon="-123.12304" />
      <trkpt lat="38.47899" lon="-123.12307" />
      <trkpt lat="38.47904" lon="-123.12312" />
      <trkpt lat="38.47918" lon="-123.12318" />
      <trkpt lat="38.47934" lon="-123.12331" />
      <trkpt lat="38.4795" lon="-123.12353" />
      <trkpt lat="38.47959" lon="-123.1236" />
      <trkpt lat="38.47965" lon="-123.12362" />
      <trkpt lat="38.47969" lon="-123.12361" />
      <trkpt lat="38.47982" lon="-123.1235" />
      <trkpt lat="38.47986" lon="-123.12348" />
      <trkpt lat="38.47992" lon="-123.1235" />
      <trkpt lat="38.47995" lon="-123.12352" />
      <trkpt lat="38.4801" lon="-123.12373" />
      <trkpt lat="38.48015" lon="-123.12387" />
      <trkpt lat="38.48027" lon="-123.12406" />
      <trkpt lat="38.48033" lon="-123.12436" />
      <trkpt lat="38.48034" lon="-123.12452" />
      <trkpt lat="38.48028" lon="-123.12472" />
      <trkpt lat="38.48014" lon="-123.12496" />
      <trkpt lat="38.48006" lon="-123.12505" />
      <trkpt lat="38.47995" lon="-123.12513" />
      <trkpt lat="38.47991" lon="-123.12526" />
      <trkpt lat="38.47993" lon="-123.12535" />
      <trkpt lat="38.47997" lon="-123.12541" />
      <trkpt lat="38.48003" lon="-123.12544" />
      <trkpt lat="38.48019" lon="-123.12544" />
      <trkpt lat="38.48032" lon="-123.1254" />
      <trkpt lat="38.48063" lon="-123.12517" />
      <trkpt lat="38.48077" lon="-123.12521" />
      <trkpt lat="38.48082" lon="-123.12525" />
      <trkpt lat="38.48088" lon="-123.12533" />
      <trkpt lat="38.4809" lon="-123.12546" />
      <trkpt lat="38.48087" lon="-123.1256" />
      <trkpt lat="38.48087" lon="-123.12576" />
      <trkpt lat="38.48079" lon="-123.12615" />
      <trkpt lat="38.4808" lon="-123.1262" />
      <trkpt lat="38.48082" lon="-123.12623" />
      <trkpt lat="38.48086" lon="-123.12624" />
      <trkpt lat="38.48092" lon="-123.12624" />
      <trkpt lat="38.48096" lon="-123.12622" />
      <trkpt lat="38.48105" lon="-123.12609" />
      <trkpt lat="38.48115" lon="-123.12589" />
      <trkpt lat="38.48136" lon="-123.12562" />
      <trkpt lat="38.48156" lon="-123.12522" />
      <trkpt lat="38.48165" lon="-123.12489" />
      <trkpt lat="38.48168" lon="-123.12458" />
      <trkpt lat="38.4817" lon="-123.12448" />
      <trkpt lat="38.48176" lon="-123.12434" />
      <trkpt lat="38.48185" lon="-123.12424" />
      <trkpt lat="38.48193" lon="-123.12419" />
      <trkpt lat="38.48195" lon="-123.12415" />
      <trkpt lat="38.48197" lon="-123.12377" />
      <trkpt lat="38.48205" lon="-123.12358" />
      <trkpt lat="38.48209" lon="-123.12341" />
      <trkpt lat="38.48208" lon="-123.12327" />
      <trkpt lat="38.48203" lon="-123.1231" />
      <trkpt lat="38.48202" lon="-123.123" />
      <trkpt lat="38.48207" lon="-123.12275" />
      <trkpt lat="38.48209" lon="-123.12253" />
      <trkpt lat="38.48213" lon="-123.12242" />
      <trkpt lat="38.48214" lon="-123.12231" />
      <trkpt lat="38.48219" lon="-123.12222" />
      <trkpt lat="38.4822" lon="-123.12211" />
      <trkpt lat="38.48215" lon="-123.12199" />
      <trkpt lat="38.48175" lon="-123.12145" />
      <trkpt lat="38.48168" lon="-123.12111" />
      <trkpt lat="38.48169" lon="-123.12101" />
      <trkpt lat="38.48173" lon="-123.12093" />
      <trkpt lat="38.48213" lon="-123.12113" />
      <trkpt lat="38.48236" lon="-123.12128" />
      <trkpt lat="38.48241" lon="-123.1213" />
      <trkpt lat="38.48255" lon="-123.12125" />
      <trkpt lat="38.48272" lon="-123.12116" />
      <trkpt lat="38.48287" lon="-123.12104" />
      <trkpt lat="38.48299" lon="-123.12101" />
      <trkpt lat="38.4831" lon="-123.12093" />
      <trkpt lat="38.48323" lon="-123.12087" />
      <trkpt lat="38.48327" lon="-123.12083" />
      <trkpt lat="38.48334" lon="-123.12079" />
      <trkpt lat="38.48338" lon="-123.12078" />
      <trkpt lat="38.48349" lon="-123.12082" />
      <trkpt lat="38.48363" lon="-123.12081" />
      <trkpt lat="38.48374" lon="-123.12077" />
      <trkpt lat="38.48382" lon="-123.12072" />
      <trkpt lat="38.48389" lon="-123.12067" />
      <trkpt lat="38.48394" lon="-123.12061" />
      <trkpt lat="38.48407" lon="-123.12054" />
      <trkpt lat="38.48412" lon="-123.12049" />
      <trkpt lat="38.48416" lon="-123.12049" />
      <trkpt lat="38.4842" lon="-123.12052" />
      <trkpt lat="38.48422" lon="-123.12056" />
      <trkpt lat="38.4842" lon="-123.12064" />
      <trkpt lat="38.48407" lon="-123.12076" />
      <trkpt lat="38.48402" lon="-123.12087" />
      <trkpt lat="38.48396" lon="-123.12095" />
      <trkpt lat="38.4838" lon="-123.12109" />
      <trkpt lat="38.48349" lon="-123.12164" />
      <trkpt lat="38.48347" lon="-123.1218" />
      <trkpt lat="38.4834" lon="-123.12196" />
      <trkpt lat="38.48339" lon="-123.12206" />
      <trkpt lat="38.4834" lon="-123.12221" />
      <trkpt lat="38.48344" lon="-123.12241" />
      <trkpt lat="38.48343" lon="-123.12253" />
      <trkpt lat="38.48353" lon="-123.1227" />
      <trkpt lat="38.48355" lon="-123.12279" />
      <trkpt lat="38.48369" lon="-123.12294" />
      <trkpt lat="38.48369" lon="-123.12299" />
      <trkpt lat="38.48383" lon="-123.12317" />
      <trkpt lat="38.48382" lon="-123.12322" />
      <trkpt lat="38.48386" lon="-123.12324" />
      <trkpt lat="38.48385" lon="-123.12328" />
      <trkpt lat="38.4839" lon="-123.12337" />
      <trkpt lat="38.48388" lon="-123.12344" />
      <trkpt lat="38.48389" lon="-123.12354" />
      <trkpt lat="38.48393" lon="-123.12365" />
      <trkpt lat="38.48396" lon="-123.1237" />
      <trkpt lat="38.48398" lon="-123.1237" />
      <trkpt lat="38.48395" lon="-123.12387" />
      <trkpt lat="38.48395" lon="-123.12402" />
      <trkpt lat="38.48389" lon="-123.12415" />
      <trkpt lat="38.48383" lon="-123.12442" />
      <trkpt lat="38.48387" lon="-123.12458" />
      <trkpt lat="38.48386" lon="-123.1247" />
      <trkpt lat="38.48388" lon="-123.12477" />
      <trkpt lat="38.48378" lon="-123.12518" />
      <trkpt lat="38.48375" lon="-123.12545" />
      <trkpt lat="38.48375" lon="-123.12557" />
      <trkpt lat="38.48377" lon="-123.12564" />
      <trkpt lat="38.48374" lon="-123.12583" />
      <trkpt lat="38.48377" lon="-123.12595" />
      <trkpt lat="38.48383" lon="-123.12603" />
      <trkpt lat="38.48393" lon="-123.12606" />
      <trkpt lat="38.48406" lon="-123.12613" />
      <trkpt lat="38.48414" lon="-123.1262" />
      <trkpt lat="38.48421" lon="-123.1263" />
      <trkpt lat="38.48428" lon="-123.12635" />
      <trkpt lat="38.48432" lon="-123.12635" />
      <trkpt lat="38.48432" lon="-123.12637" />
      <trkpt lat="38.48457" lon="-123.1263" />
      <trkpt lat="38.48472" lon="-123.12622" />
      <trkpt lat="38.48483" lon="-123.12618" />
      <trkpt lat="38.48498" lon="-123.12619" />
      <trkpt lat="38.48515" lon="-123.12634" />
      <trkpt lat="38.48519" lon="-123.12645" />
      <trkpt lat="38.48516" lon="-123.12675" />
      <trkpt lat="38.48511" lon="-123.12688" />
      <trkpt lat="38.48508" lon="-123.12693" />
      <trkpt lat="38.48484" lon="-123.12716" />
      <trkpt lat="38.48465" lon="-123.12746" />
      <trkpt lat="38.4846" lon="-123.12758" />
      <trkpt lat="38.48462" lon="-123.12787" />
      <trkpt lat="38.48461" lon="-123.12811" />
      <trkpt lat="38.48467" lon="-123.12827" />
      <trkpt lat="38.4847" lon="-123.12841" />
      <trkpt lat="38.4847" lon="-123.1285" />
      <trkpt lat="38.48467" lon="-123.12859" />
      <trkpt lat="38.48448" lon="-123.12895" />
      <trkpt lat="38.48443" lon="-123.12908" />
      <trkpt lat="38.48437" lon="-123.12927" />
      <trkpt lat="38.48434" lon="-123.12945" />
      <trkpt lat="38.48435" lon="-123.12955" />
      <trkpt lat="38.4844" lon="-123.12967" />
      <trkpt lat="38.48444" lon="-123.12972" />
      <trkpt lat="38.48452" lon="-123.12973" />
      <trkpt lat="38.48457" lon="-123.12971" />
      <trkpt lat="38.48469" lon="-123.12959" />
      <trkpt lat="38.48475" lon="-123.12938" />
      <trkpt lat="38.48484" lon="-123.12919" />
      <trkpt lat="38.4849" lon="-123.12912" />
      <trkpt lat="38.48494" lon="-123.12901" />
      <trkpt lat="38.48495" lon="-123.12893" />
      <trkpt lat="38.48505" lon="-123.12861" />
      <trkpt lat="38.48516" lon="-123.12836" />
      <trkpt lat="38.48518" lon="-123.1282" />
      <trkpt lat="38.48522" lon="-123.12817" />
      <trkpt lat="38.48524" lon="-123.12808" />
      <trkpt lat="38.48528" lon="-123.128" />
      <trkpt lat="38.48533" lon="-123.12797" />
      <trkpt lat="38.48551" lon="-123.12792" />
      <trkpt lat="38.48559" lon="-123.12796" />
      <trkpt lat="38.48569" lon="-123.12797" />
      <trkpt lat="38.48576" lon="-123.12801" />
      <trkpt lat="38.48588" lon="-123.12801" />
      <trkpt lat="38.48592" lon="-123.12799" />
      <trkpt lat="38.48596" lon="-123.128" />
      <trkpt lat="38.48603" lon="-123.12796" />
      <trkpt lat="38.48607" lon="-123.12788" />
      <trkpt lat="38.4861" lon="-123.12765" />
      <trkpt lat="38.48617" lon="-123.12748" />
      <trkpt lat="38.48623" lon="-123.1274" />
      <trkpt lat="38.48633" lon="-123.12734" />
      <trkpt lat="38.48652" lon="-123.12733" />
      <trkpt lat="38.48665" lon="-123.12734" />
      <trkpt lat="38.487" lon="-123.12724" />
      <trkpt lat="38.48718" lon="-123.12733" />
      <trkpt lat="38.48727" lon="-123.12746" />
      <trkpt lat="38.48732" lon="-123.1275" />
      <trkpt lat="38.48745" lon="-123.12753" />
      <trkpt lat="38.4875" lon="-123.12751" />
      <trkpt lat="38.48757" lon="-123.12744" />
      <trkpt lat="38.48759" lon="-123.12738" />
      <trkpt lat="38.48757" lon="-123.12725" />
      <trkpt lat="38.48745" lon="-123.1272" />
      <trkpt lat="38.48738" lon="-123.1271" />
      <trkpt lat="38.48731" lon="-123.12686" />
      <trkpt lat="38.48742" lon="-123.1265" />
      <trkpt lat="38.4874" lon="-123.12637" />
      <trkpt lat="38.48742" lon="-123.12616" />
      <trkpt lat="38.48746" lon="-123.12594" />
      <trkpt lat="38.48761" lon="-123.12554" />
      <trkpt lat="38.48762" lon="-123.12547" />
      <trkpt lat="38.48765" lon="-123.12542" />
      <trkpt lat="38.48775" lon="-123.12529" />
      <trkpt lat="38.48795" lon="-123.12508" />
      <trkpt lat="38.48839" lon="-123.1248" />
      <trkpt lat="38.48868" lon="-123.12472" />
      <trkpt lat="38.48881" lon="-123.1247" />
      <trkpt lat="38.48905" lon="-123.12462" />
      <trkpt lat="38.48919" lon="-123.12464" />
      <trkpt lat="38.48928" lon="-123.12462" />
      <trkpt lat="38.48941" lon="-123.12451" />
      <trkpt lat="38.48947" lon="-123.12439" />
      <trkpt lat="38.48959" lon="-123.12435" />
      <trkpt lat="38.4896" lon="-123.12432" />
      <trkpt lat="38.48962" lon="-123.12432" />
      <trkpt lat="38.48969" lon="-123.12419" />
      <trkpt lat="38.48982" lon="-123.12407" />
      <trkpt lat="38.49005" lon="-123.12396" />
      <trkpt lat="38.49031" lon="-123.1239" />
      <trkpt lat="38.49036" lon="-123.12385" />
      <trkpt lat="38.4905" lon="-123.1238" />
      <trkpt lat="38.49059" lon="-123.12369" />
      <trkpt lat="38.49065" lon="-123.12358" />
      <trkpt lat="38.49071" lon="-123.12352" />
      <trkpt lat="38.49076" lon="-123.12345" />
      <trkpt lat="38.49081" lon="-123.12341" />
      <trkpt lat="38.49102" lon="-123.12334" />
      <trkpt lat="38.49123" lon="-123.12337" />
      <trkpt lat="38.49133" lon="-123.12333" />
      <trkpt lat="38.49146" lon="-123.1232" />
      <trkpt lat="38.49157" lon="-123.12305" />
      <trkpt lat="38.49163" lon="-123.12294" />
      <trkpt lat="38.49184" lon="-123.12262" />
      <trkpt lat="38.49185" lon="-123.12252" />
      <trkpt lat="38.49182" lon="-123.12231" />
      <trkpt lat="38.49189" lon="-123.12199" />
      <trkpt lat="38.49189" lon="-123.12174" />
      <trkpt lat="38.4919" lon="-123.12169" />
      <trkpt lat="38.49193" lon="-123.12165" />
      <trkpt lat="38.49205" lon="-123.12162" />
      <trkpt lat="38.49227" lon="-123.12169" />
      <trkpt lat="38.49236" lon="-123.12168" />
      <trkpt lat="38.49251" lon="-123.1216" />
      <trkpt lat="38.49264" lon="-123.12157" />
      <trkpt lat="38.4928" lon="-123.12144" />
      <trkpt lat="38.49284" lon="-123.12138" />
      <trkpt lat="38.4929" lon="-123.12136" />
      <trkpt lat="38.49291" lon="-123.12138" />
      <trkpt lat="38.49287" lon="-123.12145" />
      <trkpt lat="38.49272" lon="-123.12161" />
      <trkpt lat="38.49265" lon="-123.12173" />
      <trkpt lat="38.4926" lon="-123.12176" />
      <trkpt lat="38.49255" lon="-123.12188" />
      <trkpt lat="38.49241" lon="-123.12203" />
      <trkpt lat="38.49232" lon="-123.12218" />
      <trkpt lat="38.49232" lon="-123.12239" />
      <trkpt lat="38.49239" lon="-123.12275" />
      <trkpt lat="38.49244" lon="-123.12284" />
      <trkpt lat="38.49252" lon="-123.12291" />
      <trkpt lat="38.4927" lon="-123.12301" />
      <trkpt lat="38.49274" lon="-123.12306" />
      <trkpt lat="38.49285" lon="-123.1231" />
      <trkpt lat="38.49288" lon="-123.12309" />
      <trkpt lat="38.49291" lon="-123.12313" />
      <trkpt lat="38.49298" lon="-123.12317" />
      <trkpt lat="38.49304" lon="-123.12317" />
      <trkpt lat="38.49323" lon="-123.12322" />
      <trkpt lat="38.49329" lon="-123.12322" />
      <trkpt lat="38.49333" lon="-123.12324" />
      <trkpt lat="38.49335" lon="-123.12327" />
      <trkpt lat="38.49341" lon="-123.12328" />
      <trkpt lat="38.49345" lon="-123.12327" />
      <trkpt lat="38.49349" lon="-123.12335" />
      <trkpt lat="38.49367" lon="-123.12334" />
      <trkpt lat="38.4937" lon="-123.12338" />
      <trkpt lat="38.49373" lon="-123.12337" />
      <trkpt lat="38.49377" lon="-123.12332" />
      <trkpt lat="38.49381" lon="-123.12316" />
      <trkpt lat="38.49388" lon="-123.12311" />
      <trkpt lat="38.49389" lon="-123.12305" />
      <trkpt lat="38.49392" lon="-123.12298" />
      <trkpt lat="38.49393" lon="-123.12286" />
      <trkpt lat="38.49389" lon="-123.12247" />
      <trkpt lat="38.49374" lon="-123.12222" />
      <trkpt lat="38.49369" lon="-123.12205" />
      <trkpt lat="38.49368" lon="-123.12182" />
      <trkpt lat="38.4937" lon="-123.12174" />
      <trkpt lat="38.49374" lon="-123.12167" />
      <trkpt lat="38.49381" lon="-123.1216" />
      <trkpt lat="38.49389" lon="-123.12156" />
      <trkpt lat="38.49393" lon="-123.12152" />
      <trkpt lat="38.49408" lon="-123.12146" />
      <trkpt lat="38.49416" lon="-123.12141" />
      <trkpt lat="38.49427" lon="-123.1214" />
      <trkpt lat="38.49434" lon="-123.12138" />
      <trkpt lat="38.49443" lon="-123.1214" />
      <trkpt lat="38.49446" lon="-123.12144" />
      <trkpt lat="38.49452" lon="-123.12146" />
      <trkpt lat="38.49465" lon="-123.12143" />
      <trkpt lat="38.49472" lon="-123.12142" />
      <trkpt lat="38.49483" lon="-123.12139" />
      <trkpt lat="38.49496" lon="-123.1213" />
      <trkpt lat="38.4951" lon="-123.12126" />
      <trkpt lat="38.49528" lon="-123.12118" />
      <trkpt lat="38.49547" lon="-123.12106" />
      <trkpt lat="38.49551" lon="-123.12099" />
      <trkpt lat="38.49552" lon="-123.12087" />
      <trkpt lat="38.49558" lon="-123.1206" />
      <trkpt lat="38.49567" lon="-123.12044" />
      <trkpt lat="38.49572" lon="-123.12027" />
      <trkpt lat="38.49576" lon="-123.12026" />
      <trkpt lat="38.49577" lon="-123.12024" />
      <trkpt lat="38.49572" lon="-123.1201" />
      <trkpt lat="38.4956" lon="-123.11984" />
      <trkpt lat="38.49558" lon="-123.11975" />
      <trkpt lat="38.49559" lon="-123.11963" />
      <trkpt lat="38.49563" lon="-123.11955" />
      <trkpt lat="38.49566" lon="-123.11952" />
      <trkpt lat="38.49573" lon="-123.11948" />
      <trkpt lat="38.49596" lon="-123.11943" />
      <trkpt lat="38.49602" lon="-123.11938" />
      <trkpt lat="38.49611" lon="-123.11927" />
      <trkpt lat="38.49621" lon="-123.11897" />
      <trkpt lat="38.49622" lon="-123.11857" />
      <trkpt lat="38.49624" lon="-123.11849" />
      <trkpt lat="38.49627" lon="-123.11844" />
      <trkpt lat="38.49637" lon="-123.11833" />
      <trkpt lat="38.49645" lon="-123.11831" />
      <trkpt lat="38.49651" lon="-123.11832" />
      <trkpt lat="38.49662" lon="-123.11838" />
      <trkpt lat="38.49668" lon="-123.11837" />
      <trkpt lat="38.4969" lon="-123.11841" />
      <trkpt lat="38.49703" lon="-123.11848" />
      <trkpt lat="38.49711" lon="-123.11849" />
      <trkpt lat="38.49718" lon="-123.11846" />
      <trkpt lat="38.49732" lon="-123.11836" />
      <trkpt lat="38.4975" lon="-123.11814" />
      <trkpt lat="38.49758" lon="-123.11807" />
      <trkpt lat="38.49771" lon="-123.11802" />
      <trkpt lat="38.49791" lon="-123.11798" />
      <trkpt lat="38.49795" lon="-123.11796" />
      <trkpt lat="38.49806" lon="-123.11787" />
      <trkpt lat="38.49829" lon="-123.11759" />
      <trkpt lat="38.49862" lon="-123.11735" />
      <trkpt lat="38.49881" lon="-123.11714" />
      <trkpt lat="38.49883" lon="-123.11701" />
      <trkpt lat="38.49879" lon="-123.11687" />
      <trkpt lat="38.49877" lon="-123.11671" />
      <trkpt lat="38.4988" lon="-123.11662" />
      <trkpt lat="38.49884" lon="-123.11658" />
      <trkpt lat="38.49894" lon="-123.11655" />
      <trkpt lat="38.49901" lon="-123.11655" />
      <trkpt lat="38.49913" lon="-123.1166" />
      <trkpt lat="38.49928" lon="-123.11669" />
      <trkpt lat="38.49939" lon="-123.11671" />
      <trkpt lat="38.49942" lon="-123.11674" />
      <trkpt lat="38.49954" lon="-123.11691" />
      <trkpt lat="38.49955" lon="-123.11706" />
      <trkpt lat="38.49952" lon="-123.11712" />
      <trkpt lat="38.49943" lon="-123.11723" />
      <trkpt lat="38.4994" lon="-123.11732" />
      <trkpt lat="38.4994" lon="-123.11738" />
      <trkpt lat="38.49942" lon="-123.11743" />
      <trkpt lat="38.49947" lon="-123.11748" />
      <trkpt lat="38.49952" lon="-123.11752" />
      <trkpt lat="38.49957" lon="-123.11752" />
      <trkpt lat="38.49995" lon="-123.11728" />
      <trkpt lat="38.50008" lon="-123.11728" />
      <trkpt lat="38.50017" lon="-123.11732" />
      <trkpt lat="38.50022" lon="-123.1173" />
      <trkpt lat="38.50027" lon="-123.11721" />
      <trkpt lat="38.50026" lon="-123.11703" />
      <trkpt lat="38.50031" lon="-123.1169" />
      <trkpt lat="38.50048" lon="-123.11678" />
      <trkpt lat="38.50054" lon="-123.1167" />
      <trkpt lat="38.50057" lon="-123.11662" />
      <trkpt lat="38.50062" lon="-123.11633" />
      <trkpt lat="38.50067" lon="-123.11625" />
      <trkpt lat="38.50069" lon="-123.11624" />
      <trkpt lat="38.50073" lon="-123.11625" />
      <trkpt lat="38.50077" lon="-123.11629" />
      <trkpt lat="38.50077" lon="-123.11635" />
      <trkpt lat="38.50069" lon="-123.11678" />
      <trkpt lat="38.50071" lon="-123.11712" />
      <trkpt lat="38.50073" lon="-123.11722" />
      <trkpt lat="38.50083" lon="-123.11734" />
      <trkpt lat="38.50097" lon="-123.11745" />
      <trkpt lat="38.50128" lon="-123.11758" />
      <trkpt lat="38.50141" lon="-123.11766" />
      <trkpt lat="38.5015" lon="-123.11774" />
      <trkpt lat="38.50161" lon="-123.1178" />
      <trkpt lat="38.50161" lon="-123.11782" />
      <trkpt lat="38.50161" lon="-123.11781" />
      <trkpt lat="38.50198" lon="-123.11808" />
      <trkpt lat="38.50221" lon="-123.11828" />
      <trkpt lat="38.50239" lon="-123.1184" />
      <trkpt lat="38.50249" lon="-123.11842" />
      <trkpt lat="38.50263" lon="-123.1185" />
      <trkpt lat="38.50287" lon="-123.11858" />
      <trkpt lat="38.50298" lon="-123.11863" />
      <trkpt lat="38.50318" lon="-123.11877" />
      <trkpt lat="38.50326" lon="-123.1188" />
      <trkpt lat="38.50342" lon="-123.11889" />
      <trkpt lat="38.50345" lon="-123.11889" />
      <trkpt lat="38.50359" lon="-123.11882" />
      <trkpt lat="38.50387" lon="-123.11856" />
      <trkpt lat="38.50399" lon="-123.11849" />
      <trkpt lat="38.50444" lon="-123.11832" />
      <trkpt lat="38.50457" lon="-123.11829" />
      <trkpt lat="38.50484" lon="-123.11816" />
      <trkpt lat="38.50503" lon="-123.11817" />
      <trkpt lat="38.50518" lon="-123.11823" />
      <trkpt lat="38.5054" lon="-123.11842" />
      <trkpt lat="38.50543" lon="-123.11846" />
      <trkpt lat="38.50549" lon="-123.11848" />
      <trkpt lat="38.50564" lon="-123.11846" />
      <trkpt lat="38.50576" lon="-123.11836" />
      <trkpt lat="38.50583" lon="-123.11833" />
      <trkpt lat="38.50589" lon="-123.11833" />
      <trkpt lat="38.50592" lon="-123.1184" />
      <trkpt lat="38.50587" lon="-123.11854" />
      <trkpt lat="38.50573" lon="-123.11879" />
      <trkpt lat="38.50573" lon="-123.11886" />
      <trkpt lat="38.50567" lon="-123.1189" />
      <trkpt lat="38.50561" lon="-123.11899" />
      <trkpt lat="38.50529" lon="-123.11916" />
      <trkpt lat="38.50521" lon="-123.11914" />
      <trkpt lat="38.50518" lon="-123.11915" />
      <trkpt lat="38.505" lon="-123.11914" />
      <trkpt lat="38.50489" lon="-123.11922" />
      <trkpt lat="38.50481" lon="-123.11932" />
      <trkpt lat="38.50479" lon="-123.11941" />
      <trkpt lat="38.50488" lon="-123.11948" />
      <trkpt lat="38.50493" lon="-123.11949" />
      <trkpt lat="38.505" lon="-123.11946" />
      <trkpt lat="38.5051" lon="-123.11946" />
      <trkpt lat="38.50517" lon="-123.11947" />
      <trkpt lat="38.50536" lon="-123.11963" />
      <trkpt lat="38.5054" lon="-123.1197" />
      <trkpt lat="38.50539" lon="-123.11985" />
      <trkpt lat="38.50528" lon="-123.11993" />
      <trkpt lat="38.50525" lon="-123.12002" />
      <trkpt lat="38.50526" lon="-123.12005" />
      <trkpt lat="38.5053" lon="-123.12007" />
      <trkpt lat="38.5053" lon="-123.1201" />
      <trkpt lat="38.50533" lon="-123.12011" />
      <trkpt lat="38.50526" lon="-123.12007" />
      <trkpt lat="38.50525" lon="-123.12003" />
      <trkpt lat="38.5053" lon="-123.1199" />
      <trkpt lat="38.50529" lon="-123.11989" />
      <trkpt lat="38.5054" lon="-123.11986" />
      <trkpt lat="38.50544" lon="-123.11981" />
      <trkpt lat="38.50544" lon="-123.11973" />
      <trkpt lat="38.5054" lon="-123.11965" />
      <trkpt lat="38.50531" lon="-123.11956" />
      <trkpt lat="38.50513" lon="-123.11944" />
      <trkpt lat="38.50502" lon="-123.11943" />
      <trkpt lat="38.50491" lon="-123.11947" />
      <trkpt lat="38.50485" lon="-123.11946" />
      <trkpt lat="38.50483" lon="-123.1194" />
      <trkpt lat="38.50484" lon="-123.11935" />
      <trkpt lat="38.50492" lon="-123.11924" />
      <trkpt lat="38.50503" lon="-123.11917" />
      <trkpt lat="38.5051" lon="-123.11915" />
      <trkpt lat="38.5054" lon="-123.11915" />
      <trkpt lat="38.50555" lon="-123.11909" />
      <trkpt lat="38.50564" lon="-123.11902" />
      <trkpt lat="38.50574" lon="-123.11889" />
      <trkpt lat="38.5059" lon="-123.1186" />
      <trkpt lat="38.50594" lon="-123.11841" />
      <trkpt lat="38.50592" lon="-123.11831" />
      <trkpt lat="38.50589" lon="-123.11827" />
      <trkpt lat="38.50582" lon="-123.11825" />
      <trkpt lat="38.50574" lon="-123.11827" />
      <trkpt lat="38.50559" lon="-123.11837" />
      <trkpt lat="38.50543" lon="-123.1184" />
      <trkpt lat="38.50529" lon="-123.11837" />
      <trkpt lat="38.50522" lon="-123.11832" />
      <trkpt lat="38.50515" lon="-123.1183" />
      <trkpt lat="38.50504" lon="-123.11823" />
      <trkpt lat="38.50497" lon="-123.11822" />
      <trkpt lat="38.50478" lon="-123.11824" />
      <trkpt lat="38.50468" lon="-123.11823" />
      <trkpt lat="38.5045" lon="-123.11827" />
      <trkpt lat="38.50432" lon="-123.11834" />
      <trkpt lat="38.50424" lon="-123.11834" />
      <trkpt lat="38.50407" lon="-123.1184" />
      <trkpt lat="38.50396" lon="-123.11844" />
      <trkpt lat="38.50371" lon="-123.11864" />
      <trkpt lat="38.5035" lon="-123.11885" />
      <trkpt lat="38.50341" lon="-123.11891" />
      <trkpt lat="38.50335" lon="-123.11891" />
      <trkpt lat="38.5032" lon="-123.11882" />
      <trkpt lat="38.50306" lon="-123.11876" />
      <trkpt lat="38.50299" lon="-123.11872" />
      <trkpt lat="38.50294" lon="-123.11866" />
      <trkpt lat="38.50286" lon="-123.11861" />
      <trkpt lat="38.50247" lon="-123.11853" />
      <trkpt lat="38.50239" lon="-123.11849" />
      <trkpt lat="38.50199" lon="-123.11808" />
      <trkpt lat="38.50184" lon="-123.11803" />
      <trkpt lat="38.50169" lon="-123.11793" />
      <trkpt lat="38.50159" lon="-123.11777" />
      <trkpt lat="38.50155" lon="-123.11777" />
      <trkpt lat="38.50149" lon="-123.11774" />
      <trkpt lat="38.50124" lon="-123.11755" />
      <trkpt lat="38.50093" lon="-123.11738" />
      <trkpt lat="38.50079" lon="-123.11728" />
      <trkpt lat="38.50072" lon="-123.11717" />
      <trkpt lat="38.50069" lon="-123.11703" />
      <trkpt lat="38.50074" lon="-123.11663" />
      <trkpt lat="38.5008" lon="-123.11636" />
      <trkpt lat="38.50079" lon="-123.11627" />
      <trkpt lat="38.50075" lon="-123.11621" />
      <trkpt lat="38.50071" lon="-123.1162" />
      <trkpt lat="38.50067" lon="-123.11621" />
      <trkpt lat="38.50061" lon="-123.11628" />
      <trkpt lat="38.50049" lon="-123.11666" />
      <trkpt lat="38.50044" lon="-123.11673" />
      <trkpt lat="38.50031" lon="-123.11684" />
      <trkpt lat="38.50025" lon="-123.11692" />
      <trkpt lat="38.50022" lon="-123.11701" />
      <trkpt lat="38.50019" lon="-123.11726" />
      <trkpt lat="38.50015" lon="-123.11732" />
      <trkpt lat="38.5001" lon="-123.11735" />
      <trkpt lat="38.5" lon="-123.11733" />
      <trkpt lat="38.49993" lon="-123.11733" />
      <trkpt lat="38.49951" lon="-123.1175" />
      <trkpt lat="38.49949" lon="-123.11749" />
      <trkpt lat="38.49944" lon="-123.11744" />
      <trkpt lat="38.49942" lon="-123.11734" />
      <trkpt lat="38.49944" lon="-123.11725" />
      <trkpt lat="38.49953" lon="-123.11711" />
      <trkpt lat="38.49954" lon="-123.11706" />
      <trkpt lat="38.49954" lon="-123.11694" />
      <trkpt lat="38.49951" lon="-123.11685" />
      <trkpt lat="38.49939" lon="-123.11669" />
      <trkpt lat="38.4993" lon="-123.11664" />
      <trkpt lat="38.49908" lon="-123.11656" />
      <trkpt lat="38.499" lon="-123.11654" />
      <trkpt lat="38.49884" lon="-123.11656" />
      <trkpt lat="38.49877" lon="-123.11662" />
      <trkpt lat="38.49874" lon="-123.11671" />
      <trkpt lat="38.49877" lon="-123.11699" />
      <trkpt lat="38.49874" lon="-123.11716" />
      <trkpt lat="38.49869" lon="-123.11722" />
      <trkpt lat="38.49845" lon="-123.11742" />
      <trkpt lat="38.49818" lon="-123.1176" />
      <trkpt lat="38.49794" lon="-123.11787" />
      <trkpt lat="38.49785" lon="-123.11792" />
      <trkpt lat="38.49764" lon="-123.11796" />
      <trkpt lat="38.49752" lon="-123.11801" />
      <trkpt lat="38.49745" lon="-123.11807" />
      <trkpt lat="38.49726" lon="-123.11828" />
      <trkpt lat="38.49716" lon="-123.11833" />
      <trkpt lat="38.49694" lon="-123.11837" />
      <trkpt lat="38.49638" lon="-123.11829" />
      <trkpt lat="38.4963" lon="-123.11831" />
      <trkpt lat="38.49626" lon="-123.11834" />
      <trkpt lat="38.49617" lon="-123.11847" />
      <trkpt lat="38.49614" lon="-123.11857" />
      <trkpt lat="38.49608" lon="-123.11902" />
      <trkpt lat="38.49599" lon="-123.11933" />
      <trkpt lat="38.49597" lon="-123.11936" />
      <trkpt lat="38.49588" lon="-123.11943" />
      <trkpt lat="38.49569" lon="-123.11948" />
      <trkpt lat="38.49561" lon="-123.11951" />
      <trkpt lat="38.49555" lon="-123.11958" />
      <trkpt lat="38.49553" lon="-123.11963" />
      <trkpt lat="38.49552" lon="-123.11968" />
      <trkpt lat="38.49552" lon="-123.11976" />
      <trkpt lat="38.49562" lon="-123.12006" />
      <trkpt lat="38.49564" lon="-123.12024" />
      <trkpt lat="38.49561" lon="-123.12041" />
      <trkpt lat="38.49544" lon="-123.12072" />
      <trkpt lat="38.49539" lon="-123.12095" />
      <trkpt lat="38.49534" lon="-123.12102" />
      <trkpt lat="38.49525" lon="-123.12107" />
      <trkpt lat="38.49502" lon="-123.12114" />
      <trkpt lat="38.4948" lon="-123.12129" />
      <trkpt lat="38.49473" lon="-123.12133" />
      <trkpt lat="38.49414" lon="-123.12137" />
      <trkpt lat="38.49398" lon="-123.12144" />
      <trkpt lat="38.49378" lon="-123.12156" />
      <trkpt lat="38.49364" lon="-123.12169" />
      <trkpt lat="38.4936" lon="-123.12183" />
      <trkpt lat="38.49362" lon="-123.122" />
      <trkpt lat="38.49366" lon="-123.12214" />
      <trkpt lat="38.49386" lon="-123.12251" />
      <trkpt lat="38.49391" lon="-123.12274" />
      <trkpt lat="38.49387" lon="-123.12303" />
      <trkpt lat="38.49375" lon="-123.12326" />
      <trkpt lat="38.49369" lon="-123.1233" />
      <trkpt lat="38.49365" lon="-123.1233" />
      <trkpt lat="38.49341" lon="-123.12327" />
      <trkpt lat="38.49327" lon="-123.12323" />
      <trkpt lat="38.49306" lon="-123.12311" />
      <trkpt lat="38.49288" lon="-123.12308" />
      <trkpt lat="38.49251" lon="-123.12294" />
      <trkpt lat="38.49244" lon="-123.12289" />
      <trkpt lat="38.49238" lon="-123.12282" />
      <trkpt lat="38.49233" lon="-123.1223" />
      <trkpt lat="38.49235" lon="-123.12215" />
      <trkpt lat="38.49243" lon="-123.12202" />
      <trkpt lat="38.49266" lon="-123.12179" />
      <trkpt lat="38.49288" lon="-123.12149" />
      <trkpt lat="38.49292" lon="-123.12137" />
      <trkpt lat="38.49289" lon="-123.12132" />
      <trkpt lat="38.49286" lon="-123.12132" />
      <trkpt lat="38.49283" lon="-123.12134" />
      <trkpt lat="38.49273" lon="-123.12144" />
      <trkpt lat="38.49261" lon="-123.12152" />
      <trkpt lat="38.49235" lon="-123.12165" />
      <trkpt lat="38.49224" lon="-123.12166" />
      <trkpt lat="38.49209" lon="-123.12164" />
      <trkpt lat="38.49198" lon="-123.12161" />
      <trkpt lat="38.4919" lon="-123.12162" />
      <trkpt lat="38.49186" lon="-123.12171" />
      <trkpt lat="38.49184" lon="-123.12195" />
      <trkpt lat="38.49179" lon="-123.12228" />
      <trkpt lat="38.49176" lon="-123.12268" />
      <trkpt lat="38.49146" lon="-123.12312" />
      <trkpt lat="38.49135" lon="-123.12329" />
      <trkpt lat="38.49128" lon="-123.12335" />
      <trkpt lat="38.4912" lon="-123.12337" />
      <trkpt lat="38.4909" lon="-123.12333" />
      <trkpt lat="38.49071" lon="-123.12338" />
      <trkpt lat="38.49061" lon="-123.12346" />
      <trkpt lat="38.49038" lon="-123.12374" />
      <trkpt lat="38.4903" lon="-123.12383" />
      <trkpt lat="38.48998" lon="-123.12394" />
      <trkpt lat="38.48974" lon="-123.12406" />
      <trkpt lat="38.48967" lon="-123.12412" />
      <trkpt lat="38.48956" lon="-123.12428" />
      <trkpt lat="38.48945" lon="-123.12436" />
      <trkpt lat="38.48936" lon="-123.1245" />
      <trkpt lat="38.48923" lon="-123.12461" />
      <trkpt lat="38.48899" lon="-123.12462" />
      <trkpt lat="38.48852" lon="-123.12473" />
      <trkpt lat="38.48849" lon="-123.12477" />
      <trkpt lat="38.48837" lon="-123.12479" />
      <trkpt lat="38.48807" lon="-123.12494" />
      <trkpt lat="38.48784" lon="-123.12511" />
      <trkpt lat="38.48767" lon="-123.12529" />
      <trkpt lat="38.48754" lon="-123.12553" />
      <trkpt lat="38.48742" lon="-123.12591" />
      <trkpt lat="38.48734" lon="-123.12639" />
      <trkpt lat="38.48734" lon="-123.1266" />
      <trkpt lat="38.48729" lon="-123.1268" />
      <trkpt lat="38.48728" lon="-123.1269" />
      <trkpt lat="38.48731" lon="-123.127" />
      <trkpt lat="38.48736" lon="-123.12709" />
      <trkpt lat="38.48755" lon="-123.12728" />
      <trkpt lat="38.48756" lon="-123.12738" />
      <trkpt lat="38.48751" lon="-123.12746" />
      <trkpt lat="38.48748" lon="-123.1275" />
      <trkpt lat="38.4874" lon="-123.12752" />
      <trkpt lat="38.48728" lon="-123.12749" />
      <trkpt lat="38.48711" lon="-123.12733" />
      <trkpt lat="38.48704" lon="-123.12728" />
      <trkpt lat="38.48696" lon="-123.12725" />
      <trkpt lat="38.48683" lon="-123.12726" />
      <trkpt lat="38.48655" lon="-123.12732" />
      <trkpt lat="38.48626" lon="-123.12735" />
      <trkpt lat="38.48615" lon="-123.12742" />
      <trkpt lat="38.48608" lon="-123.12749" />
      <trkpt lat="38.48603" lon="-123.12764" />
      <trkpt lat="38.48598" lon="-123.12789" />
      <trkpt lat="38.4859" lon="-123.12799" />
      <trkpt lat="38.48583" lon="-123.12802" />
      <trkpt lat="38.48574" lon="-123.12803" />
      <trkpt lat="38.48566" lon="-123.12802" />
      <trkpt lat="38.4854" lon="-123.12792" />
      <trkpt lat="38.48536" lon="-123.12792" />
      <trkpt lat="38.48529" lon="-123.12795" />
      <trkpt lat="38.48519" lon="-123.12806" />
      <trkpt lat="38.48503" lon="-123.12841" />
      <trkpt lat="38.48492" lon="-123.12888" />
      <trkpt lat="38.48467" lon="-123.1295" />
      <trkpt lat="38.48457" lon="-123.12965" />
      <trkpt lat="38.48452" lon="-123.1297" />
      <trkpt lat="38.48449" lon="-123.12971" />
      <trkpt lat="38.48445" lon="-123.1297" />
      <trkpt lat="38.48439" lon="-123.12964" />
      <trkpt lat="38.48436" lon="-123.12954" />
      <trkpt lat="38.48437" lon="-123.12943" />
      <trkpt lat="38.48451" lon="-123.12901" />
      <trkpt lat="38.48462" lon="-123.12885" />
      <trkpt lat="38.4847" lon="-123.12867" />
      <trkpt lat="38.48475" lon="-123.12846" />
      <trkpt lat="38.48472" lon="-123.1282" />
      <trkpt lat="38.48463" lon="-123.12779" />
      <trkpt lat="38.48465" lon="-123.12762" />
      <trkpt lat="38.48469" lon="-123.1275" />
      <trkpt lat="38.48499" lon="-123.12713" />
      <trkpt lat="38.48511" lon="-123.12701" />
      <trkpt lat="38.48518" lon="-123.12691" />
      <trkpt lat="38.48525" lon="-123.1265" />
      <trkpt lat="38.48525" lon="-123.12628" />
      <trkpt lat="38.48521" lon="-123.12619" />
      <trkpt lat="38.48514" lon="-123.12616" />
      <trkpt lat="38.48504" lon="-123.12618" />
      <trkpt lat="38.48487" lon="-123.12625" />
      <trkpt lat="38.4845" lon="-123.12634" />
      <trkpt lat="38.48433" lon="-123.12627" />
      <trkpt lat="38.48415" lon="-123.12609" />
      <trkpt lat="38.48391" lon="-123.12601" />
      <trkpt lat="38.48384" lon="-123.12595" />
      <trkpt lat="38.48381" lon="-123.1258" />
      <trkpt lat="38.48379" lon="-123.12541" />
      <trkpt lat="38.48383" lon="-123.1251" />
      <trkpt lat="38.48389" lon="-123.12478" />
      <trkpt lat="38.48388" lon="-123.12463" />
      <trkpt lat="38.48385" lon="-123.1244" />
      <trkpt lat="38.48386" lon="-123.12425" />
      <trkpt lat="38.4839" lon="-123.124" />
      <trkpt lat="38.48393" lon="-123.1236" />
      <trkpt lat="38.48388" lon="-123.12343" />
      <trkpt lat="38.48378" lon="-123.12328" />
      <trkpt lat="38.48367" lon="-123.123" />
      <trkpt lat="38.48359" lon="-123.12285" />
      <trkpt lat="38.48345" lon="-123.12269" />
      <trkpt lat="38.4834" lon="-123.12261" />
      <trkpt lat="38.48335" lon="-123.12217" />
      <trkpt lat="38.48338" lon="-123.12196" />
      <trkpt lat="38.48344" lon="-123.12179" />
      <trkpt lat="38.48351" lon="-123.12165" />
      <trkpt lat="38.48365" lon="-123.12143" />
      <trkpt lat="38.48372" lon="-123.12129" />
      <trkpt lat="38.48375" lon="-123.12126" />
      <trkpt lat="38.48382" lon="-123.12114" />
      <trkpt lat="38.48401" lon="-123.12099" />
      <trkpt lat="38.48412" lon="-123.12082" />
      <trkpt lat="38.48432" lon="-123.12064" />
      <trkpt lat="38.48435" lon="-123.12056" />
      <trkpt lat="38.48434" lon="-123.12049" />
      <trkpt lat="38.48433" lon="-123.12047" />
      <trkpt lat="38.48423" lon="-123.12052" />
      <trkpt lat="38.48414" lon="-123.12053" />
      <trkpt lat="38.4841" lon="-123.12056" />
      <trkpt lat="38.48402" lon="-123.12057" />
      <trkpt lat="38.48391" lon="-123.12067" />
      <trkpt lat="38.48383" lon="-123.12076" />
      <trkpt lat="38.48375" lon="-123.12082" />
      <trkpt lat="38.4836" lon="-123.12079" />
      <trkpt lat="38.48345" lon="-123.12079" />
      <trkpt lat="38.48337" lon="-123.12085" />
      <trkpt lat="38.48317" lon="-123.12094" />
      <trkpt lat="38.48309" lon="-123.12097" />
      <trkpt lat="38.48303" lon="-123.12095" />
      <trkpt lat="38.48289" lon="-123.12102" />
      <trkpt lat="38.48278" lon="-123.12105" />
      <trkpt lat="38.48271" lon="-123.12111" />
      <trkpt lat="38.48266" lon="-123.12117" />
      <trkpt lat="38.48259" lon="-123.12121" />
      <trkpt lat="38.48251" lon="-123.12121" />
      <trkpt lat="38.48242" lon="-123.12117" />
      <trkpt lat="38.4822" lon="-123.12111" />
      <trkpt lat="38.48204" lon="-123.12104" />
      <trkpt lat="38.48196" lon="-123.12096" />
      <trkpt lat="38.48185" lon="-123.12093" />
      <trkpt lat="38.48176" lon="-123.12093" />
      <trkpt lat="38.48172" lon="-123.12096" />
      <trkpt lat="38.48171" lon="-123.12107" />
      <trkpt lat="38.48174" lon="-123.12119" />
      <trkpt lat="38.48174" lon="-123.12137" />
      <trkpt lat="38.48183" lon="-123.12155" />
      <trkpt lat="38.48205" lon="-123.12187" />
      <trkpt lat="38.48213" lon="-123.12203" />
      <trkpt lat="38.48212" lon="-123.12214" />
      <trkpt lat="38.482" lon="-123.12265" />
      <trkpt lat="38.48199" lon="-123.12284" />
      <trkpt lat="38.48196" lon="-123.12296" />
      <trkpt lat="38.48203" lon="-123.12314" />
      <trkpt lat="38.48204" lon="-123.12328" />
      <trkpt lat="38.48209" lon="-123.1234" />
      <trkpt lat="38.48205" lon="-123.12352" />
      <trkpt lat="38.48194" lon="-123.12366" />
      <trkpt lat="38.48195" lon="-123.1239" />
      <trkpt lat="38.48189" lon="-123.12411" />
      <trkpt lat="38.48182" lon="-123.12419" />
      <trkpt lat="38.48166" lon="-123.12428" />
      <trkpt lat="38.4816" lon="-123.12446" />
      <trkpt lat="38.48158" lon="-123.12447" />
      <trkpt lat="38.48158" lon="-123.12452" />
      <trkpt lat="38.48156" lon="-123.12456" />
      <trkpt lat="38.48156" lon="-123.12472" />
      <trkpt lat="38.48157" lon="-123.12482" />
      <trkpt lat="38.48159" lon="-123.12491" />
      <trkpt lat="38.48157" lon="-123.125" />
      <trkpt lat="38.4814" lon="-123.12529" />
      <trkpt lat="38.48137" lon="-123.12538" />
      <trkpt lat="38.48127" lon="-123.12551" />
      <trkpt lat="38.48124" lon="-123.12563" />
      <trkpt lat="38.4812" lon="-123.12569" />
      <trkpt lat="38.48121" lon="-123.12572" />
      <trkpt lat="38.4812" lon="-123.12576" />
      <trkpt lat="38.48112" lon="-123.12587" />
      <trkpt lat="38.48111" lon="-123.12594" />
      <trkpt lat="38.48102" lon="-123.12597" />
      <trkpt lat="38.48099" lon="-123.12603" />
      <trkpt lat="38.48096" lon="-123.12613" />
      <trkpt lat="38.48089" lon="-123.12619" />
      <trkpt lat="38.48085" lon="-123.12619" />
      <trkpt lat="38.48082" lon="-123.12616" />
      <trkpt lat="38.4808" lon="-123.12604" />
      <trkpt lat="38.48083" lon="-123.12584" />
      <trkpt lat="38.48082" lon="-123.12555" />
      <trkpt lat="38.48083" lon="-123.12536" />
      <trkpt lat="38.48079" lon="-123.1252" />
      <trkpt lat="38.48074" lon="-123.12517" />
      <trkpt lat="38.48064" lon="-123.1252" />
      <trkpt lat="38.48055" lon="-123.12519" />
      <trkpt lat="38.48045" lon="-123.12527" />
      <trkpt lat="38.48013" lon="-123.12538" />
      <trkpt lat="38.48" lon="-123.12534" />
      <trkpt lat="38.47991" lon="-123.12524" />
      <trkpt lat="38.47992" lon="-123.12519" />
      <trkpt lat="38.47994" lon="-123.12517" />
      <trkpt lat="38.48004" lon="-123.12507" />
      <trkpt lat="38.48007" lon="-123.12506" />
      <trkpt lat="38.48017" lon="-123.12498" />
      <trkpt lat="38.48022" lon="-123.12492" />
      <trkpt lat="38.48022" lon="-123.12488" />
      <trkpt lat="38.4803" lon="-123.12471" />
      <trkpt lat="38.4803" lon="-123.12449" />
      <trkpt lat="38.48033" lon="-123.12442" />
      <trkpt lat="38.4803" lon="-123.1243" />
      <trkpt lat="38.48032" lon="-123.12423" />
      <trkpt lat="38.48025" lon="-123.12413" />
      <trkpt lat="38.48028" lon="-123.12402" />
      <trkpt lat="38.48023" lon="-123.12389" />
      <trkpt lat="38.48015" lon="-123.12375" />
      <trkpt lat="38.48013" lon="-123.12367" />
      <trkpt lat="38.48005" lon="-123.12357" />
      <trkpt lat="38.48006" lon="-123.12347" />
      <trkpt lat="38.48008" lon="-123.12346" />
      <trkpt lat="38.47998" lon="-123.12344" />
      <trkpt lat="38.47992" lon="-123.12348" />
      <trkpt lat="38.4797" lon="-123.12353" />
      <trkpt lat="38.47959" lon="-123.1235" />
      <trkpt lat="38.47952" lon="-123.12345" />
      <trkpt lat="38.47951" lon="-123.12328" />
      <trkpt lat="38.47943" lon="-123.12317" />
      <trkpt lat="38.47927" lon="-123.12306" />
      <trkpt lat="38.47919" lon="-123.12305" />
      <trkpt lat="38.47912" lon="-123.12301" />
      <trkpt lat="38.47907" lon="-123.12303" />
      <trkpt lat="38.47881" lon="-123.12296" />
      <trkpt lat="38.47871" lon="-123.1229" />
      <trkpt lat="38.47865" lon="-123.12279" />
      <trkpt lat="38.47854" lon="-123.12267" />
      <trkpt lat="38.4785" lon="-123.1226" />
      <trkpt lat="38.47842" lon="-123.12252" />
      <trkpt lat="38.47831" lon="-123.12228" />
      <trkpt lat="38.47822" lon="-123.12216" />
      <trkpt lat="38.47812" lon="-123.122" />
      <trkpt lat="38.478" lon="-123.12191" />
      <trkpt lat="38.47792" lon="-123.12187" />
      <trkpt lat="38.47766" lon="-123.12183" />
      <trkpt lat="38.47738" lon="-123.12174" />
      <trkpt lat="38.47731" lon="-123.12177" />
      <trkpt lat="38.47719" lon="-123.12176" />
      <trkpt lat="38.47715" lon="-123.12178" />
      <trkpt lat="38.47702" lon="-123.12173" />
      <trkpt lat="38.47696" lon="-123.12172" />
      <trkpt lat="38.47694" lon="-123.12169" />
      <trkpt lat="38.47678" lon="-123.12152" />
      <trkpt lat="38.4767" lon="-123.12137" />
      <trkpt lat="38.47669" lon="-123.12118" />
      <trkpt lat="38.47671" lon="-123.12092" />
      <trkpt lat="38.47666" lon="-123.12051" />
      <trkpt lat="38.47668" lon="-123.12024" />
      <trkpt lat="38.47663" lon="-123.12016" />
      <trkpt lat="38.47664" lon="-123.12008" />
      <trkpt lat="38.47664" lon="-123.12001" />
      <trkpt lat="38.47661" lon="-123.11996" />
      <trkpt lat="38.47662" lon="-123.11989" />
      <trkpt lat="38.47656" lon="-123.11978" />
      <trkpt lat="38.47657" lon="-123.11971" />
      <trkpt lat="38.47661" lon="-123.11963" />
      <trkpt lat="38.4766" lon="-123.11955" />
      <trkpt lat="38.47656" lon="-123.1195" />
      <trkpt lat="38.47655" lon="-123.11942" />
      <trkpt lat="38.47649" lon="-123.1193" />
      <trkpt lat="38.47653" lon="-123.1192" />
      <trkpt lat="38.47655" lon="-123.11918" />
      <trkpt lat="38.47656" lon="-123.11906" />
      <trkpt lat="38.4766" lon="-123.11898" />
      <trkpt lat="38.47659" lon="-123.1189" />
      <trkpt lat="38.47662" lon="-123.11882" />
      <trkpt lat="38.47672" lon="-123.11873" />
      <trkpt lat="38.47674" lon="-123.11868" />
      <trkpt lat="38.47679" lon="-123.11866" />
      <trkpt lat="38.47683" lon="-123.11861" />
      <trkpt lat="38.47685" lon="-123.11851" />
      <trkpt lat="38.4769" lon="-123.11846" />
      <trkpt lat="38.47693" lon="-123.11835" />
      <trkpt lat="38.47698" lon="-123.11832" />
      <trkpt lat="38.47706" lon="-123.11815" />
      <trkpt lat="38.47706" lon="-123.11808" />
      <trkpt lat="38.47701" lon="-123.118" />
      <trkpt lat="38.47697" lon="-123.11797" />
      <trkpt lat="38.47678" lon="-123.11793" />
      <trkpt lat="38.47669" lon="-123.11798" />
      <trkpt lat="38.47662" lon="-123.11798" />
      <trkpt lat="38.47643" lon="-123.11808" />
      <trkpt lat="38.47622" lon="-123.11815" />
      <trkpt lat="38.47619" lon="-123.11818" />
      <trkpt lat="38.47603" lon="-123.11817" />
      <trkpt lat="38.476" lon="-123.11814" />
      <trkpt lat="38.47584" lon="-123.11816" />
      <trkpt lat="38.4757" lon="-123.11814" />
      <trkpt lat="38.47545" lon="-123.11802" />
      <trkpt lat="38.47516" lon="-123.11783" />
      <trkpt lat="38.47479" lon="-123.11762" />
      <trkpt lat="38.47439" lon="-123.1175" />
      <trkpt lat="38.47412" lon="-123.11739" />
      <trkpt lat="38.47386" lon="-123.11731" />
      <trkpt lat="38.47363" lon="-123.11722" />
      <trkpt lat="38.47354" lon="-123.1172" />
      <trkpt lat="38.47342" lon="-123.11722" />
      <trkpt lat="38.47324" lon="-123.11727" />
      <trkpt lat="38.47286" lon="-123.11745" />
      <trkpt lat="38.4727" lon="-123.1175" />
      <trkpt lat="38.47247" lon="-123.11753" />
      <trkpt lat="38.47239" lon="-123.11756" />
      <trkpt lat="38.47222" lon="-123.11752" />
      <trkpt lat="38.47209" lon="-123.11744" />
      <trkpt lat="38.47195" lon="-123.11738" />
      <trkpt lat="38.47184" lon="-123.11738" />
      <trkpt lat="38.47181" lon="-123.11741" />
      <trkpt lat="38.47165" lon="-123.1174" />
      <trkpt lat="38.47154" lon="-123.11742" />
      <trkpt lat="38.47142" lon="-123.11741" />
      <trkpt lat="38.47133" lon="-123.11743" />
      <trkpt lat="38.47122" lon="-123.11741" />
      <trkpt lat="38.47114" lon="-123.11743" />
      <trkpt lat="38.47108" lon="-123.1174" />
      <trkpt lat="38.47099" lon="-123.11743" />
      <trkpt lat="38.47086" lon="-123.11744" />
      <trkpt lat="38.47079" lon="-123.11743" />
      <trkpt lat="38.4706" lon="-123.11746" />
      <trkpt lat="38.47056" lon="-123.11754" />
      <trkpt lat="38.47032" lon="-123.11772" />
      <trkpt lat="38.47029" lon="-123.11777" />
      <trkpt lat="38.47029" lon="-123.11802" />
      <trkpt lat="38.47021" lon="-123.11861" />
      <trkpt lat="38.47016" lon="-123.11872" />
      <trkpt lat="38.47009" lon="-123.11905" />
      <trkpt lat="38.46998" lon="-123.11929" />
      <trkpt lat="38.46995" lon="-123.11972" />
      <trkpt lat="38.46991" lon="-123.11989" />
      <trkpt lat="38.46989" lon="-123.12023" />
      <trkpt lat="38.46983" lon="-123.12063" />
      <trkpt lat="38.46967" lon="-123.121" />
      <trkpt lat="38.46966" lon="-123.1211" />
      <trkpt lat="38.4696" lon="-123.12126" />
      <trkpt lat="38.46961" lon="-123.12132" />
      <trkpt lat="38.46955" lon="-123.12137" />
      <trkpt lat="38.46938" lon="-123.12163" />
      <trkpt lat="38.46931" lon="-123.12172" />
      <trkpt lat="38.46913" lon="-123.12182" />
      <trkpt lat="38.46899" lon="-123.12186" />
      <trkpt lat="38.46839" lon="-123.12196" />
      <trkpt lat="38.46832" lon="-123.122" />
      <trkpt lat="38.46825" lon="-123.12208" />
      <trkpt lat="38.46823" lon="-123.12213" />
      <trkpt lat="38.4682" lon="-123.12237" />
      <trkpt lat="38.4683" lon="-123.12336" />
      <trkpt lat="38.46848" lon="-123.12412" />
      <trkpt lat="38.4685" lon="-123.12464" />
      <trkpt lat="38.46849" lon="-123.12488" />
      <trkpt lat="38.46846" lon="-123.12508" />
      <trkpt lat="38.46833" lon="-123.12547" />
      <trkpt lat="38.4683" lon="-123.12583" />
      <trkpt lat="38.46835" lon="-123.12632" />
      <trkpt lat="38.46837" lon="-123.12709" />
      <trkpt lat="38.46842" lon="-123.12736" />
      <trkpt lat="38.46852" lon="-123.1276" />
      <trkpt lat="38.4686" lon="-123.1277" />
      <trkpt lat="38.4687" lon="-123.12777" />
      <trkpt lat="38.46882" lon="-123.1278" />
      <trkpt lat="38.46894" lon="-123.1278" />
      <trkpt lat="38.46901" lon="-123.12782" />
      <trkpt lat="38.46906" lon="-123.12788" />
      <trkpt lat="38.46913" lon="-123.12806" />
      <trkpt lat="38.46918" lon="-123.12814" />
      <trkpt lat="38.46927" lon="-123.12818" />
      <trkpt lat="38.46951" lon="-123.12825" />
      <trkpt lat="38.46956" lon="-123.12831" />
      <trkpt lat="38.46958" lon="-123.12829" />
      <trkpt lat="38.46962" lon="-123.12828" />
      <trkpt lat="38.46968" lon="-123.12831" />
      <trkpt lat="38.47004" lon="-123.12868" />
      <trkpt lat="38.47017" lon="-123.12878" />
      <trkpt lat="38.47029" lon="-123.12886" />
      <trkpt lat="38.47058" lon="-123.12896" />
      <trkpt lat="38.47072" lon="-123.12902" />
      <trkpt lat="38.47091" lon="-123.12906" />
      <trkpt lat="38.47107" lon="-123.12906" />
      <trkpt lat="38.47132" lon="-123.129" />
      <trkpt lat="38.47149" lon="-123.12898" />
      <trkpt lat="38.47163" lon="-123.12899" />
      <trkpt lat="38.47176" lon="-123.12904" />
      <trkpt lat="38.47191" lon="-123.12921" />
      <trkpt lat="38.47206" lon="-123.12951" />
      <trkpt lat="38.47225" lon="-123.13004" />
      <trkpt lat="38.4724" lon="-123.13038" />
      <trkpt lat="38.47248" lon="-123.13062" />
      <trkpt lat="38.47249" lon="-123.13077" />
      <trkpt lat="38.47247" lon="-123.13091" />
      <trkpt lat="38.47216" lon="-123.13181" />
      <trkpt lat="38.47207" lon="-123.13219" />
      <trkpt lat="38.47181" lon="-123.13275" />
      <trkpt lat="38.47177" lon="-123.133" />
      <trkpt lat="38.47178" lon="-123.13326" />
      <trkpt lat="38.47177" lon="-123.13368" />
      <trkpt lat="38.47171" lon="-123.13418" />
      <trkpt lat="38.47159" lon="-123.13457" />
      <trkpt lat="38.47153" lon="-123.13501" />
      <trkpt lat="38.47144" lon="-123.13535" />
      <trkpt lat="38.47122" lon="-123.13592" />
      <trkpt lat="38.47114" lon="-123.13618" />
      <trkpt lat="38.47105" lon="-123.13663" />
      <trkpt lat="38.47097" lon="-123.13724" />
      <trkpt lat="38.47088" lon="-123.13757" />
      <trkpt lat="38.47073" lon="-123.13803" />
      <trkpt lat="38.47063" lon="-123.13854" />
      <trkpt lat="38.47055" lon="-123.13876" />
      <trkpt lat="38.47035" lon="-123.13906" />
      <trkpt lat="38.46994" lon="-123.13956" />
      <trkpt lat="38.46967" lon="-123.14003" />
      <trkpt lat="38.46961" lon="-123.14021" />
      <trkpt lat="38.46953" lon="-123.14057" />
      <trkpt lat="38.46943" lon="-123.14083" />
      <trkpt lat="38.46934" lon="-123.1409" />
      <trkpt lat="38.46928" lon="-123.14104" />
      <trkpt lat="38.46911" lon="-123.14119" />
      <trkpt lat="38.46895" lon="-123.1414" />
      <trkpt lat="38.46875" lon="-123.14171" />
      <trkpt lat="38.46852" lon="-123.14194" />
      <trkpt lat="38.46836" lon="-123.14223" />
      <trkpt lat="38.46815" lon="-123.14273" />
      <trkpt lat="38.46807" lon="-123.14285" />
      <trkpt lat="38.46801" lon="-123.1429" />
      <trkpt lat="38.46764" lon="-123.14304" />
      <trkpt lat="38.46689" lon="-123.1434" />
      <trkpt lat="38.46643" lon="-123.14351" />
      <trkpt lat="38.46629" lon="-123.14358" />
      <trkpt lat="38.46623" lon="-123.14364" />
      <trkpt lat="38.46606" lon="-123.14406" />
      <trkpt lat="38.46598" lon="-123.14417" />
      <trkpt lat="38.46523" lon="-123.14468" />
      <trkpt lat="38.46492" lon="-123.14482" />
      <trkpt lat="38.46469" lon="-123.14504" />
      <trkpt lat="38.46448" lon="-123.1453" />
      <trkpt lat="38.46431" lon="-123.14538" />
      <trkpt lat="38.46418" lon="-123.1454" />
      <trkpt lat="38.46412" lon="-123.14537" />
      <trkpt lat="38.46411" lon="-123.14534" />
      <trkpt lat="38.46417" lon="-123.14495" />
      <trkpt lat="38.46418" lon="-123.14446" />
      <trkpt lat="38.46414" lon="-123.14416" />
      <trkpt lat="38.46407" lon="-123.14392" />
      <trkpt lat="38.46388" lon="-123.14367" />
      <trkpt lat="38.46372" lon="-123.14335" />
      <trkpt lat="38.46369" lon="-123.14311" />
      <trkpt lat="38.46371" lon="-123.14266" />
      <trkpt lat="38.46366" lon="-123.14262" />
      <trkpt lat="38.46356" lon="-123.14261" />
      <trkpt lat="38.46347" lon="-123.14248" />
      <trkpt lat="38.46336" lon="-123.14243" />
      <trkpt lat="38.46336" lon="-123.14233" />
      <trkpt lat="38.46334" lon="-123.1423" />
      <trkpt lat="38.46327" lon="-123.14233" />
      <trkpt lat="38.46322" lon="-123.14239" />
      <trkpt lat="38.46311" lon="-123.14247" />
      <trkpt lat="38.46305" lon="-123.14249" />
      <trkpt lat="38.463" lon="-123.14247" />
      <trkpt lat="38.46298" lon="-123.14236" />
      <trkpt lat="38.46294" lon="-123.14231" />
      <trkpt lat="38.46287" lon="-123.1423" />
      <trkpt lat="38.4628" lon="-123.14233" />
      <trkpt lat="38.46273" lon="-123.14251" />
      <trkpt lat="38.46253" lon="-123.14357" />
      <trkpt lat="38.4625" lon="-123.14363" />
      <trkpt lat="38.46247" lon="-123.14365" />
      <trkpt lat="38.4624" lon="-123.14366" />
      <trkpt lat="38.46236" lon="-123.14364" />
      <trkpt lat="38.46226" lon="-123.14356" />
      <trkpt lat="38.46215" lon="-123.14345" />
      <trkpt lat="38.46202" lon="-123.14327" />
      <trkpt lat="38.46184" lon="-123.14263" />
      <trkpt lat="38.46176" lon="-123.14227" />
      <trkpt lat="38.46174" lon="-123.14208" />
      <trkpt lat="38.46172" lon="-123.14205" />
      <trkpt lat="38.46157" lon="-123.14193" />
      <trkpt lat="38.46141" lon="-123.14186" />
      <trkpt lat="38.46132" lon="-123.14177" />
      <trkpt lat="38.4612" lon="-123.14172" />
      <trkpt lat="38.46094" lon="-123.14153" />
      <trkpt lat="38.45988" lon="-123.14086" />
      <trkpt lat="38.45964" lon="-123.14067" />
      <trkpt lat="38.45935" lon="-123.14042" />
      <trkpt lat="38.45905" lon="-123.14011" />
      <trkpt lat="38.45901" lon="-123.14009" />
      <trkpt lat="38.45898" lon="-123.1401" />
      <trkpt lat="38.45895" lon="-123.14013" />
      <trkpt lat="38.45891" lon="-123.14022" />
      <trkpt lat="38.45886" lon="-123.14053" />
      <trkpt lat="38.45885" lon="-123.14074" />
      <trkpt lat="38.45888" lon="-123.14083" />
      <trkpt lat="38.45929" lon="-123.14153" />
      <trkpt lat="38.4595" lon="-123.14196" />
    </trkseg>
  </trk>
</gpx>