<?xml version="1.0" encoding="UTF-8"?>
<gpx version="1.1" creator="strava-segment-scraper" xmlns="http://www.topografix.com/GPX/1/1">
  <trk>
    <name>Double Dipsea</name>
    <trkseg>
      <trkpt lat="37.89661" lon="-122.63555" />
      <trkpt lat="37.8966" lon="-122.63542" />
      <trkpt lat="37.89656" lon="-122.63535" />
      <trkpt lat="37.89653" lon="-122.63523" />
      <trkpt lat="37.89658" lon="-122.635" />
      <trkpt lat="37.89655" lon="-122.63474" />
      <trkpt lat="37.89656" lon="-122.63472" />
      <trkpt lat="37.89652" lon="-122.63457" />
      <trkpt lat="37.89653" lon="-122.63445" />
      <trkpt lat="37.89647" lon="-122.63433" />
      <trkpt lat="37.89644" lon="-122.63419" />
      <trkpt lat="37.89645" lon="-122.63407" />
      <trkpt lat="37.89636" lon="-122.63404" />
      <trkpt lat="37.89631" lon="-122.63398" />
      <trkpt lat="37.89631" lon="-122.63385" />
      <trkpt lat="37.89628" lon="-122.63366" />
      <trkpt lat="37.8962" lon="-122.63349" />
      <trkpt lat="37.8962" lon="-122.63348" />
      <trkpt lat="37.89618" lon="-122.63342" />
      <trkpt lat="37.89621" lon="-122.63333" />
      <trkpt lat="37.89619" lon="-122.63329" />
      <trkpt lat="37.89621" lon="-122.63325" />
      <trkpt lat="37.89618" lon="-122.63318" />
      <trkpt lat="37.89619" lon="-122.6331" />
      <trkpt lat="37.89616" lon="-122.63307" />
      <trkpt lat="37.89616" lon="-122.63304" />
      <trkpt lat="37.8961" lon="-122.63291" />
      <trkpt lat="37.89598" lon="-122.63278" />
      <trkpt lat="37.89579" lon="-122.63263" />
      <trkpt lat="37.89571" lon="-122.63263" />
      <trkpt lat="37.89559" lon="-122.63247" />
      <trkpt lat="37.89552" lon="-122.63247" />
      <trkpt lat="37.89545" lon="-122.63255" />
      <trkpt lat="37.89547" lon="-122.63266" />
      <trkpt lat="37.89544" lon="-122.63279" />
      <trkpt lat="37.89539" lon="-122.63286" />
      <trkpt lat="37.89519" lon="-122.63299" />
      <trkpt lat="37.89513" lon="-122.63307" />
      <trkpt lat="37.89501" lon="-122.6331" />
      <trkpt lat="37.89485" lon="-122.63309" />
      <trkpt lat="37.89477" lon="-122.63306" />
      <trkpt lat="37.89467" lon="-122.633" />
      <trkpt lat="37.89444" lon="-122.6328" />
      <trkpt lat="37.89435" lon="-122.63269" />
      <trkpt lat="37.89423" lon="-122.63245" />
      <trkpt lat="37.89415" lon="-122.63217" />
      <trkpt lat="37.89411" lon="-122.63213" />
      <trkpt lat="37.894" lon="-122.6321" />
      <trkpt lat="37.89389" lon="-122.63203" />
      <trkpt lat="37.89376" lon="-122.63185" />
      <trkpt lat="37.89366" lon="-122.63153" />
      <trkpt lat="37.89356" lon="-122.63142" />
      <trkpt lat="37.89302" lon="-122.63037" />
      <trkpt lat="37.89296" lon="-122.63029" />
      <trkpt lat="37.8928" lon="-122.6299" />
      <trkpt lat="37.89267" lon="-122.62971" />
      <trkpt lat="37.89233" lon="-122.62891" />
      <trkpt lat="37.89224" lon="-122.62874" />
      <trkpt lat="37.89209" lon="-122.6284" />
      <trkpt lat="37.89196" lon="-122.62819" />
      <trkpt lat="37.89194" lon="-122.62806" />
      <trkpt lat="37.89196" lon="-122.62774" />
      <trkpt lat="37.89192" lon="-122.62732" />
      <trkpt lat="37.89182" lon="-122.62663" />
      <trkpt lat="37.89177" lon="-122.62646" />
      <trkpt lat="37.89162" lon="-122.62622" />
      <trkpt lat="37.89119" lon="-122.62585" />
      <trkpt lat="37.89109" lon="-122.62581" />
      <trkpt lat="37.89099" lon="-122.62579" />
      <trkpt lat="37.89078" lon="-122.6258" />
      <trkpt lat="37.89081" lon="-122.62576" />
      <trkpt lat="37.89107" lon="-122.62557" />
      <trkpt lat="37.89124" lon="-122.62548" />
      <trkpt lat="37.89127" lon="-122.62544" />
      <trkpt lat="37.89127" lon="-122.62535" />
      <trkpt lat="37.89125" lon="-122.6252" />
      <trkpt lat="37.89117" lon="-122.62497" />
      <trkpt lat="37.89127" lon="-122.62428" />
      <trkpt lat="37.89127" lon="-122.62412" />
      <trkpt lat="37.89134" lon="-122.62391" />
      <trkpt lat="37.89136" lon="-122.62377" />
      <trkpt lat="37.89136" lon="-122.62362" />
      <trkpt lat="37.89137" lon="-122.62352" />
      <trkpt lat="37.89137" lon="-122.62332" />
      <trkpt lat="37.89143" lon="-122.62321" />
      <trkpt lat="37.89143" lon="-122.62305" />
      <trkpt lat="37.89145" lon="-122.62296" />
      <trkpt lat="37.89139" lon="-122.62261" />
      <trkpt lat="37.89139" lon="-122.62248" />
      <trkpt lat="37.89133" lon="-122.62222" />
      <trkpt lat="37.8913" lon="-122.62214" />
      <trkpt lat="37.89125" lon="-122.62207" />
      <trkpt lat="37.89117" lon="-122.62182" />
      <trkpt lat="37.89119" lon="-122.6217" />
      <trkpt lat="37.89123" lon="-122.62158" />
      <trkpt lat="37.89127" lon="-122.62153" />
      <trkpt lat="37.89132" lon="-122.6214" />
      <trkpt lat="37.89132" lon="-122.62121" />
      <trkpt lat="37.89137" lon="-122.62113" />
      <trkpt lat="37.89141" lon="-122.62109" />
      <trkpt lat="37.89168" lon="-122.62097" />
      <trkpt lat="37.89173" lon="-122.62082" />
      <trkpt lat="37.8919" lon="-122.62065" />
      <trkpt lat="37.892" lon="-122.62061" />
      <trkpt lat="37.89203" lon="-122.62056" />
      <trkpt lat="37.89223" lon="-122.62049" />
      <trkpt lat="37.89226" lon="-122.62043" />
      <trkpt lat="37.89227" lon="-122.62043" />
      <trkpt lat="37.89231" lon="-122.62032" />
      <trkpt lat="37.89235" lon="-122.6203" />
      <trkpt lat="37.89234" lon="-122.62022" />
      <trkpt lat="37.89239" lon="-122.62018" />
      <trkpt lat="37.89245" lon="-122.62" />
      <trkpt lat="37.89249" lon="-122.61996" />
      <trkpt lat="37.89247" lon="-122.61992" />
      <trkpt lat="37.89248" lon="-122.61978" />
      <trkpt lat="37.89246" lon="-122.61967" />
      <trkpt lat="37.89247" lon="-122.61965" />
      <trkpt lat="37.89251" lon="-122.61964" />
      <trkpt lat="37.89249" lon="-122.61961" />
      <trkpt lat="37.89249" lon="-122.61957" />
      <trkpt lat="37.8924" lon="-122.6195" />
      <trkpt lat="37.89239" lon="-122.61948" />
      <trkpt lat="37.8923" lon="-122.61944" />
      <trkpt lat="37.89231" lon="-122.61943" />
      <trkpt lat="37.89228" lon="-122.61937" />
      <trkpt lat="37.89225" lon="-122.61932" />
      <trkpt lat="37.89214" lon="-122.61925" />
      <trkpt lat="37.89209" lon="-122.61919" />
      <trkpt lat="37.89207" lon="-122.61913" />
      <trkpt lat="37.89203" lon="-122.61906" />
      <trkpt lat="37.89204" lon="-122.61901" />
      <trkpt lat="37.89201" lon="-122.61899" />
      <trkpt lat="37.89198" lon="-122.6189" />
      <trkpt lat="37.89195" lon="-122.61889" />
      <trkpt lat="37.89194" lon="-122.61883" />
      <trkpt lat="37.8919" lon="-122.61877" />
      <trkpt lat="37.8919" lon="-122.61874" />
      <trkpt lat="37.89188" lon="-122.61869" />
      <trkpt lat="37.89191" lon="-122.61863" />
      <trkpt lat="37.89188" lon="-122.61858" />
      <trkpt lat="37.89188" lon="-122.61852" />
      <trkpt lat="37.89186" lon="-122.61849" />
      <trkpt lat="37.89184" lon="-122.61841" />
      <trkpt lat="37.89193" lon="-122.61826" />
      <trkpt lat="37.8919" lon="-122.61825" />
      <trkpt lat="37.89182" lon="-122.6181" />
      <trkpt lat="37.89183" lon="-122.61809" />
      <trkpt lat="37.89188" lon="-122.61813" />
      <trkpt lat="37.89191" lon="-122.61821" />
      <trkpt lat="37.89199" lon="-122.61832" />
      <trkpt lat="37.89208" lon="-122.61833" />
      <trkpt lat="37.89229" lon="-122.61846" />
      <trkpt lat="37.89236" lon="-122.61846" />
      <trkpt lat="37.89245" lon="-122.61842" />
      <trkpt lat="37.8925" lon="-122.61836" />
      <trkpt lat="37.89252" lon="-122.61811" />
      <trkpt lat="37.89254" lon="-122.61801" />
      <trkpt lat="37.89264" lon="-122.61781" />
      <trkpt lat="37.89264" lon="-122.61776" />
      <trkpt lat="37.89258" lon="-122.61755" />
      <trkpt lat="37.8925" lon="-122.61748" />
      <trkpt lat="37.89238" lon="-122.61718" />
      <trkpt lat="37.89222" lon="-122.61693" />
      <trkpt lat="37.89219" lon="-122.61678" />
      <trkpt lat="37.89222" lon="-122.61665" />
      <trkpt lat="37.89248" lon="-122.61632" />
      <trkpt lat="37.89251" lon="-122.61626" />
      <trkpt lat="37.89251" lon="-122.61621" />
      <trkpt lat="37.89258" lon="-122.6161" />
      <trkpt lat="37.89267" lon="-122.61603" />
      <trkpt lat="37.8927" lon="-122.61596" />
      <trkpt lat="37.89281" lon="-122.61585" />
      <trkpt lat="37.89289" lon="-122.61581" />
      <trkpt lat="37.89302" lon="-122.61576" />
      <trkpt lat="37.89316" lon="-122.61575" />
      <trkpt lat="37.89332" lon="-122.6157" />
      <trkpt lat="37.89339" lon="-122.61559" />
      <trkpt lat="37.89336" lon="-122.61551" />
      <trkpt lat="37.89338" lon="-122.61546" />
      <trkpt lat="37.89336" lon="-122.61542" />
      <trkpt lat="37.89337" lon="-122.61508" />
      <trkpt lat="37.89341" lon="-122.61493" />
      <trkpt lat="37.89341" lon="-122.61486" />
      <trkpt lat="37.89346" lon="-122.61478" />
      <trkpt lat="37.89349" lon="-122.61458" />
      <trkpt lat="37.89352" lon="-122.61453" />
      <trkpt lat="37.89351" lon="-122.61448" />
      <trkpt lat="37.89342" lon="-122.61425" />
      <trkpt lat="37.89333" lon="-122.61414" />
      <trkpt lat="37.89323" lon="-122.61409" />
      <trkpt lat="37.89311" lon="-122.61385" />
      <trkpt lat="37.89303" lon="-122.6138" />
      <trkpt lat="37.89299" lon="-122.6138" />
      <trkpt lat="37.89293" lon="-122.61375" />
      <trkpt lat="37.89288" lon="-122.61373" />
      <trkpt lat="37.89276" lon="-122.61363" />
      <trkpt lat="37.89272" lon="-122.61348" />
      <trkpt lat="37.89273" lon="-122.61337" />
      <trkpt lat="37.89277" lon="-122.61327" />
      <trkpt lat="37.89281" lon="-122.61309" />
      <trkpt lat="37.89277" lon="-122.61293" />
      <trkpt lat="37.89273" lon="-122.61307" />
      <trkpt lat="37.89264" lon="-122.61313" />
      <trkpt lat="37.89252" lon="-122.6133" />
      <trkpt lat="37.89246" lon="-122.61354" />
      <trkpt lat="37.89241" lon="-122.61357" />
      <trkpt lat="37.89233" lon="-122.61345" />
      <trkpt lat="37.89232" lon="-122.61322" />
      <trkpt lat="37.89234" lon="-122.61313" />
      <trkpt lat="37.8924" lon="-122.61301" />
      <trkpt lat="37.89239" lon="-122.61276" />
      <trkpt lat="37.89248" lon="-122.6123" />
      <trkpt lat="37.89255" lon="-122.61219" />
      <trkpt lat="37.89262" lon="-122.61214" />
      <trkpt lat="37.89266" lon="-122.61207" />
      <trkpt lat="37.89269" lon="-122.61189" />
      <trkpt lat="37.89276" lon="-122.61174" />
      <trkpt lat="37.89282" lon="-122.61138" />
      <trkpt lat="37.89285" lon="-122.6109" />
      <trkpt lat="37.89287" lon="-122.61085" />
      <trkpt lat="37.89286" lon="-122.6108" />
      <trkpt lat="37.8929" lon="-122.61062" />
      <trkpt lat="37.89298" lon="-122.61042" />
      <trkpt lat="37.8931" lon="-122.6103" />
      <trkpt lat="37.8933" lon="-122.61006" />
      <trkpt lat="37.89336" lon="-122.60993" />
      <trkpt lat="37.89337" lon="-122.60973" />
      <trkpt lat="37.89341" lon="-122.60959" />
      <trkpt lat="37.89352" lon="-122.60937" />
      <trkpt lat="37.89359" lon="-122.60915" />
      <trkpt lat="37.89359" lon="-122.60906" />
      <trkpt lat="37.89355" lon="-122.60888" />
      <trkpt lat="37.89356" lon="-122.60876" />
      <trkpt lat="37.8937" lon="-122.6084" />
      <trkpt lat="37.89381" lon="-122.60818" />
      <trkpt lat="37.89393" lon="-122.60805" />
      <trkpt lat="37.89393" lon="-122.60799" />
      <trkpt lat="37.89397" lon="-122.60791" />
      <trkpt lat="37.89399" lon="-122.60779" />
      <trkpt lat="37.89413" lon="-122.60757" />
      <trkpt lat="37.89414" lon="-122.60753" />
      <trkpt lat="37.89422" lon="-122.60736" />
      <trkpt lat="37.8944" lon="-122.60728" />
      <trkpt lat="37.89457" lon="-122.60727" />
      <trkpt lat="37.89481" lon="-122.60713" />
      <trkpt lat="37.89494" lon="-122.60713" />
      <trkpt lat="37.89508" lon="-122.60716" />
      <trkpt lat="37.89518" lon="-122.60713" />
      <trkpt lat="37.8953" lon="-122.60701" />
      <trkpt lat="37.89547" lon="-122.60681" />
      <trkpt lat="37.89561" lon="-122.60654" />
      <trkpt lat="37.89571" lon="-122.60646" />
      <trkpt lat="37.89573" lon="-122.60632" />
      <trkpt lat="37.89582" lon="-122.6062" />
      <trkpt lat="37.89583" lon="-122.60609" />
      <trkpt lat="37.89589" lon="-122.60598" />
      <trkpt lat="37.89587" lon="-122.60586" />
      <trkpt lat="37.89589" lon="-122.60561" />
      <trkpt lat="37.89592" lon="-122.60548" />
      <trkpt lat="37.89598" lon="-122.60536" />
      <trkpt lat="37.89601" lon="-122.60534" />
      <trkpt lat="37.89603" lon="-122.60529" />
      <trkpt lat="37.89605" lon="-122.60521" />
      <trkpt lat="37.89603" lon="-122.60481" />
      <trkpt lat="37.89611" lon="-122.60463" />
      <trkpt lat="37.89611" lon="-122.60432" />
      <trkpt lat="37.89614" lon="-122.60423" />
      <trkpt lat="37.8962" lon="-122.60413" />
      <trkpt lat="37.89618" lon="-122.60404" />
      <trkpt lat="37.89619" lon="-122.60392" />
      <trkpt lat="37.89629" lon="-122.60365" />
      <trkpt lat="37.89642" lon="-122.60338" />
      <trkpt lat="37.89661" lon="-122.60309" />
      <trkpt lat="37.89666" lon="-122.60306" />
      <trkpt lat="37.89674" lon="-122.60306" />
      <trkpt lat="37.8969" lon="-122.603" />
      <trkpt lat="37.89694" lon="-122.60296" />
      <trkpt lat="37.89699" lon="-122.6028" />
      <trkpt lat="37.89704" lon="-122.60253" />
      <trkpt lat="37.8971" lon="-122.60237" />
      <trkpt lat="37.89723" lon="-122.60218" />
      <trkpt lat="37.89741" lon="-122.60186" />
      <trkpt lat="37.89746" lon="-122.60173" />
      <trkpt lat="37.89746" lon="-122.60162" />
      <trkpt lat="37.89741" lon="-122.60139" />
      <trkpt lat="37.89746" lon="-122.60131" />
      <trkpt lat="37.89743" lon="-122.60131" />
      <trkpt lat="37.89743" lon="-122.60132" />
      <trkpt lat="37.89744" lon="-122.60131" />
      <trkpt lat="37.89741" lon="-122.60131" />
      <trkpt lat="37.89738" lon="-122.60126" />
      <trkpt lat="37.89735" lon="-122.60107" />
      <trkpt lat="37.8974" lon="-122.60087" />
      <trkpt lat="37.89748" lon="-122.6008" />
      <trkpt lat="37.89748" lon="-122.60069" />
      <trkpt lat="37.89754" lon="-122.60066" />
      <trkpt lat="37.89765" lon="-122.60049" />
      <trkpt lat="37.8979" lon="-122.60031" />
      <trkpt lat="37.89804" lon="-122.60012" />
      <trkpt lat="37.89808" lon="-122.60009" />
      <trkpt lat="37.89815" lon="-122.59996" />
      <trkpt lat="37.89814" lon="-122.59993" />
      <trkpt lat="37.89819" lon="-122.59975" />
      <trkpt lat="37.89819" lon="-122.59953" />
      <trkpt lat="37.89812" lon="-122.59929" />
      <trkpt lat="37.8981" lon="-122.59928" />
      <trkpt lat="37.89807" lon="-122.59913" />
      <trkpt lat="37.89801" lon="-122.59905" />
      <trkpt lat="37.89798" lon="-122.59891" />
      <trkpt lat="37.89793" lon="-122.59882" />
      <trkpt lat="37.8979" lon="-122.59862" />
      <trkpt lat="37.89794" lon="-122.59853" />
      <trkpt lat="37.89794" lon="-122.59836" />
      <trkpt lat="37.898" lon="-122.59819" />
      <trkpt lat="37.89799" lon="-122.59789" />
      <trkpt lat="37.89795" lon="-122.59773" />
      <trkpt lat="37.89794" lon="-122.59752" />
      <trkpt lat="37.89796" lon="-122.59727" />
      <trkpt lat="37.89799" lon="-122.59713" />
      <trkpt lat="37.89803" lon="-122.59705" />
      <trkpt lat="37.89815" lon="-122.59696" />
      <trkpt lat="37.89819" lon="-122.59674" />
      <trkpt lat="37.89817" lon="-122.59657" />
      <trkpt lat="37.89817" lon="-122.59596" />
      <trkpt lat="37.8982" lon="-122.59582" />
      <trkpt lat="37.89822" lon="-122.59563" />
      <trkpt lat="37.8981" lon="-122.59492" />
      <trkpt lat="37.8981" lon="-122.59476" />
      <trkpt lat="37.89805" lon="-122.59466" />
      <trkpt lat="37.89792" lon="-122.59455" />
      <trkpt lat="37.89784" lon="-122.59452" />
      <trkpt lat="37.89771" lon="-122.59454" />
      <trkpt lat="37.89763" lon="-122.59449" />
      <trkpt lat="37.89758" lon="-122.5944" />
      <trkpt lat="37.89753" lon="-122.59422" />
      <trkpt lat="37.89752" lon="-122.59395" />
      <trkpt lat="37.89744" lon="-122.59388" />
      <trkpt lat="37.89738" lon="-122.59386" />
      <trkpt lat="37.89715" lon="-122.59375" />
      <trkpt lat="37.89711" lon="-122.59371" />
      <trkpt lat="37.89703" lon="-122.59353" />
      <trkpt lat="37.89701" lon="-122.5935" />
      <trkpt lat="37.89676" lon="-122.59333" />
      <trkpt lat="37.8967" lon="-122.59311" />
      <trkpt lat="37.89665" lon="-122.59278" />
      <trkpt lat="37.89659" lon="-122.59253" />
      <trkpt lat="37.89654" lon="-122.59244" />
      <trkpt lat="37.89648" lon="-122.59236" />
      <trkpt lat="37.89644" lon="-122.59226" />
      <trkpt lat="37.89635" lon="-122.59215" />
      <trkpt lat="37.89626" lon="-122.59208" />
      <trkpt lat="37.89612" lon="-122.59182" />
      <trkpt lat="37.8961" lon="-122.59161" />
      <trkpt lat="37.89614" lon="-122.59143" />
      <trkpt lat="37.89618" lon="-122.59084" />
      <trkpt lat="37.89605" lon="-122.59034" />
      <trkpt lat="37.896" lon="-122.59007" />
      <trkpt lat="37.89596" lon="-122.58979" />
      <trkpt lat="37.89587" lon="-122.58947" />
      <trkpt lat="37.89587" lon="-122.58938" />
      <trkpt lat="37.89593" lon="-122.5892" />
      <trkpt lat="37.89593" lon="-122.58912" />
      <trkpt lat="37.89577" lon="-122.58892" />
      <trkpt lat="37.89558" lon="-122.5886" />
      <trkpt lat="37.8954" lon="-122.58834" />
      <trkpt lat="37.89535" lon="-122.58819" />
      <trkpt lat="37.89525" lon="-122.58799" />
      <trkpt lat="37.89523" lon="-122.58797" />
      <trkpt lat="37.8952" lon="-122.58796" />
      <trkpt lat="37.89507" lon="-122.58796" />
      <trkpt lat="37.89495" lon="-122.5879" />
      <trkpt lat="37.89485" lon="-122.5878" />
      <trkpt lat="37.89467" lon="-122.58726" />
      <trkpt lat="37.89457" lon="-122.58709" />
      <trkpt lat="37.89443" lon="-122.58668" />
      <trkpt lat="37.89438" lon="-122.58657" />
      <trkpt lat="37.89431" lon="-122.58631" />
      <trkpt lat="37.89401" lon="-122.5857" />
      <trkpt lat="37.89397" lon="-122.58565" />
      <trkpt lat="37.89394" lon="-122.58554" />
      <trkpt lat="37.89382" lon="-122.58524" />
      <trkpt lat="37.89369" lon="-122.58499" />
      <trkpt lat="37.89363" lon="-122.58479" />
      <trkpt lat="37.89353" lon="-122.58453" />
      <trkpt lat="37.89348" lon="-122.58442" />
      <trkpt lat="37.89341" lon="-122.58433" />
      <trkpt lat="37.89326" lon="-122.58401" />
      <trkpt lat="37.89323" lon="-122.58391" />
      <trkpt lat="37.89316" lon="-122.58383" />
      <trkpt lat="37.89313" lon="-122.58373" />
      <trkpt lat="37.89301" lon="-122.58353" />
      <trkpt lat="37.89297" lon="-122.5834" />
      <trkpt lat="37.89283" lon="-122.58322" />
      <trkpt lat="37.8928" lon="-122.58307" />
      <trkpt lat="37.89276" lon="-122.58301" />
      <trkpt lat="37.89277" lon="-122.5829" />
      <trkpt lat="37.89276" lon="-122.58284" />
      <trkpt lat="37.89267" lon="-122.58275" />
      <trkpt lat="37.8926" lon="-122.5827" />
      <trkpt lat="37.89254" lon="-122.58255" />
      <trkpt lat="37.89251" lon="-122.58253" />
      <trkpt lat="37.89244" lon="-122.58238" />
      <trkpt lat="37.89243" lon="-122.58225" />
      <trkpt lat="37.89235" lon="-122.58207" />
      <trkpt lat="37.89223" lon="-122.58191" />
      <trkpt lat="37.89213" lon="-122.58186" />
      <trkpt lat="37.89204" lon="-122.58175" />
      <trkpt lat="37.89198" lon="-122.58158" />
      <trkpt lat="37.89185" lon="-122.58111" />
      <trkpt lat="37.89176" lon="-122.58099" />
      <trkpt lat="37.89169" lon="-122.58073" />
      <trkpt lat="37.89166" lon="-122.58047" />
      <trkpt lat="37.89158" lon="-122.58033" />
      <trkpt lat="37.89157" lon="-122.58024" />
      <trkpt lat="37.89151" lon="-122.58019" />
      <trkpt lat="37.89146" lon="-122.58009" />
      <trkpt lat="37.89144" lon="-122.57993" />
      <trkpt lat="37.89137" lon="-122.5798" />
      <trkpt lat="37.89138" lon="-122.57967" />
      <trkpt lat="37.89135" lon="-122.57955" />
      <trkpt lat="37.89132" lon="-122.57947" />
      <trkpt lat="37.89119" lon="-122.57927" />
      <trkpt lat="37.89109" lon="-122.57895" />
      <trkpt lat="37.89104" lon="-122.57888" />
      <trkpt lat="37.89098" lon="-122.57876" />
      <trkpt lat="37.89071" lon="-122.57798" />
      <trkpt lat="37.89058" lon="-122.57775" />
      <trkpt lat="37.89042" lon="-122.57757" />
      <trkpt lat="37.8904" lon="-122.5775" />
      <trkpt lat="37.8903" lon="-122.57735" />
      <trkpt lat="37.89025" lon="-122.5773" />
      <trkpt lat="37.89018" lon="-122.57728" />
      <trkpt lat="37.89007" lon="-122.57716" />
      <trkpt lat="37.89002" lon="-122.57708" />
      <trkpt lat="37.88995" lon="-122.57686" />
      <trkpt lat="37.88988" lon="-122.57675" />
      <trkpt lat="37.88985" lon="-122.57665" />
      <trkpt lat="37.88984" lon="-122.57656" />
      <trkpt lat="37.88984" lon="-122.57626" />
      <trkpt lat="37.88988" lon="-122.57595" />
      <trkpt lat="37.88988" lon="-122.57583" />
      <trkpt lat="37.88983" lon="-122.57564" />
      <trkpt lat="37.88977" lon="-122.5755" />
      <trkpt lat="37.88976" lon="-122.57494" />
      <trkpt lat="37.88974" lon="-122.57478" />
      <trkpt lat="37.88976" lon="-122.57461" />
      <trkpt lat="37.88972" lon="-122.57449" />
      <trkpt lat="37.88971" lon="-122.57436" />
      <trkpt lat="37.88974" lon="-122.57433" />
      <trkpt lat="37.88972" lon="-122.57428" />
      <trkpt lat="37.88971" lon="-122.57386" />
      <trkpt lat="37.88973" lon="-122.57365" />
      <trkpt lat="37.88977" lon="-122.57349" />
      <trkpt lat="37.88978" lon="-122.57331" />
      <trkpt lat="37.88985" lon="-122.57317" />
      <trkpt lat="37.88993" lon="-122.57284" />
      <trkpt lat="37.89002" lon="-122.57262" />
      <trkpt lat="37.89004" lon="-122.57261" />
      <trkpt lat="37.89006" lon="-122.57249" />
      <trkpt lat="37.89011" lon="-122.57242" />
      <trkpt lat="37.89008" lon="-122.57232" />
      <trkpt lat="37.89005" lon="-122.57231" />
      <trkpt lat="37.89004" lon="-122.57229" />
      <trkpt lat="37.89006" lon="-122.57218" />
      <trkpt lat="37.89003" lon="-122.57209" />
      <trkpt lat="37.89001" lon="-122.57208" />
      <trkpt lat="37.88996" lon="-122.57169" />
      <trkpt lat="37.89003" lon="-122.57144" />
      <trkpt lat="37.89012" lon="-122.5713" />
      <trkpt lat="37.89016" lon="-122.57108" />
      <trkpt lat="37.89016" lon="-122.57095" />
      <trkpt lat="37.89024" lon="-122.57082" />
      <trkpt lat="37.89025" lon="-122.57068" />
      <trkpt lat="37.89024" lon="-122.57064" />
      <trkpt lat="37.89021" lon="-122.57061" />
      <trkpt lat="37.89024" lon="-122.5706" />
      <trkpt lat="37.89027" lon="-122.57052" />
      <trkpt lat="37.89031" lon="-122.57048" />
      <trkpt lat="37.89034" lon="-122.57042" />
      <trkpt lat="37.89046" lon="-122.57033" />
      <trkpt lat="37.89053" lon="-122.5704" />
      <trkpt lat="37.89058" lon="-122.5705" />
      <trkpt lat="37.89052" lon="-122.57059" />
      <trkpt lat="37.89054" lon="-122.57061" />
      <trkpt lat="37.89066" lon="-122.57059" />
      <trkpt lat="37.89076" lon="-122.57053" />
      <trkpt lat="37.89089" lon="-122.57042" />
      <trkpt lat="37.89109" lon="-122.57032" />
      <trkpt lat="37.89112" lon="-122.57011" />
      <trkpt lat="37.89115" lon="-122.57005" />
      <trkpt lat="37.8911" lon="-122.56991" />
      <trkpt lat="37.89112" lon="-122.56969" />
      <trkpt lat="37.89119" lon="-122.56955" />
      <trkpt lat="37.89122" lon="-122.56953" />
      <trkpt lat="37.8912" lon="-122.56948" />
      <trkpt lat="37.89122" lon="-122.56941" />
      <trkpt lat="37.89123" lon="-122.5694" />
      <trkpt lat="37.89128" lon="-122.5694" />
      <trkpt lat="37.89132" lon="-122.56935" />
      <trkpt lat="37.8916" lon="-122.5692" />
      <trkpt lat="37.89166" lon="-122.56915" />
      <trkpt lat="37.8917" lon="-122.56906" />
      <trkpt lat="37.89173" lon="-122.56904" />
      <trkpt lat="37.89173" lon="-122.56896" />
      <trkpt lat="37.89171" lon="-122.5689" />
      <trkpt lat="37.89173" lon="-122.56884" />
      <trkpt lat="37.89168" lon="-122.56871" />
      <trkpt lat="37.89169" lon="-122.56858" />
      <trkpt lat="37.89166" lon="-122.56852" />
      <trkpt lat="37.89166" lon="-122.56845" />
      <trkpt lat="37.89163" lon="-122.56843" />
      <trkpt lat="37.89167" lon="-122.56833" />
      <trkpt lat="37.89169" lon="-122.56825" />
      <trkpt lat="37.89174" lon="-122.56817" />
      <trkpt lat="37.89177" lon="-122.56815" />
      <trkpt lat="37.89179" lon="-122.56815" />
      <trkpt lat="37.89184" lon="-122.5682" />
      <trkpt lat="37.89186" lon="-122.56834" />
      <trkpt lat="37.89185" lon="-122.56837" />
      <trkpt lat="37.89188" lon="-122.56843" />
      <trkpt lat="37.89191" lon="-122.56845" />
      <trkpt lat="37.89199" lon="-122.56842" />
      <trkpt lat="37.89203" lon="-122.56839" />
      <trkpt lat="37.89202" lon="-122.56833" />
      <trkpt lat="37.89204" lon="-122.5682" />
      <trkpt lat="37.89204" lon="-122.56815" />
      <trkpt lat="37.892" lon="-122.56808" />
      <trkpt lat="37.89201" lon="-122.56803" />
      <trkpt lat="37.89205" lon="-122.56803" />
      <trkpt lat="37.89221" lon="-122.56787" />
      <trkpt lat="37.89242" lon="-122.56778" />
      <trkpt lat="37.89241" lon="-122.56774" />
      <trkpt lat="37.89233" lon="-122.5677" />
      <trkpt lat="37.89228" lon="-122.56749" />
      <trkpt lat="37.89228" lon="-122.56738" />
      <trkpt lat="37.89237" lon="-122.56724" />
      <trkpt lat="37.89237" lon="-122.56719" />
      <trkpt lat="37.89233" lon="-122.56716" />
      <trkpt lat="37.8922" lon="-122.56711" />
      <trkpt lat="37.89202" lon="-122.56698" />
      <trkpt lat="37.89194" lon="-122.56687" />
      <trkpt lat="37.89191" lon="-122.56678" />
      <trkpt lat="37.89191" lon="-122.56672" />
      <trkpt lat="37.89194" lon="-122.56669" />
      <trkpt lat="37.89195" lon="-122.56662" />
      <trkpt lat="37.89201" lon="-122.56655" />
      <trkpt lat="37.89212" lon="-122.56648" />
      <trkpt lat="37.8923" lon="-122.56643" />
      <trkpt lat="37.8924" lon="-122.56635" />
      <trkpt lat="37.89242" lon="-122.5663" />
      <trkpt lat="37.89246" lon="-122.56627" />
      <trkpt lat="37.89251" lon="-122.56619" />
      <trkpt lat="37.89266" lon="-122.56606" />
      <trkpt lat="37.89271" lon="-122.56597" />
      <trkpt lat="37.89288" lon="-122.56579" />
      <trkpt lat="37.89312" lon="-122.56562" />
      <trkpt lat="37.89322" lon="-122.56553" />
      <trkpt lat="37.89325" lon="-122.56547" />
      <trkpt lat="37.89326" lon="-122.56537" />
      <trkpt lat="37.89322" lon="-122.56491" />
      <trkpt lat="37.89326" lon="-122.56477" />
      <trkpt lat="37.89334" lon="-122.56461" />
      <trkpt lat="37.8935" lon="-122.56446" />
      <trkpt lat="37.89362" lon="-122.56439" />
      <trkpt lat="37.89375" lon="-122.56438" />
      <trkpt lat="37.89404" lon="-122.56446" />
      <trkpt lat="37.89424" lon="-122.56443" />
      <trkpt lat="37.89448" lon="-122.56435" />
      <trkpt lat="37.89473" lon="-122.56422" />
      <trkpt lat="37.89481" lon="-122.5642" />
      <trkpt lat="37.89495" lon="-122.56419" />
      <trkpt lat="37.89508" lon="-122.56413" />
      <trkpt lat="37.89514" lon="-122.56403" />
      <trkpt lat="37.89514" lon="-122.56389" />
      <trkpt lat="37.89508" lon="-122.56368" />
      <trkpt lat="37.89492" lon="-122.56336" />
      <trkpt lat="37.89492" lon="-122.56321" />
      <trkpt lat="37.89493" lon="-122.5631" />
      <trkpt lat="37.89505" lon="-122.56285" />
      <trkpt lat="37.89524" lon="-122.56264" />
      <trkpt lat="37.89539" lon="-122.56251" />
      <trkpt lat="37.89546" lon="-122.56235" />
      <trkpt lat="37.89551" lon="-122.56213" />
      <trkpt lat="37.89559" lon="-122.562" />
      <trkpt lat="37.89572" lon="-122.56186" />
      <trkpt lat="37.89585" lon="-122.56182" />
      <trkpt lat="37.89602" lon="-122.56182" />
      <trkpt lat="37.89626" lon="-122.56178" />
      <trkpt lat="37.89636" lon="-122.56174" />
      <trkpt lat="37.8965" lon="-122.56162" />
      <trkpt lat="37.89663" lon="-122.56173" />
      <trkpt lat="37.8967" lon="-122.56173" />
      <trkpt lat="37.89682" lon="-122.56178" />
      <trkpt lat="37.89703" lon="-122.56182" />
      <trkpt lat="37.8971" lon="-122.5618" />
      <trkpt lat="37.89714" lon="-122.5618" />
      <trkpt lat="37.89736" lon="-122.56199" />
      <trkpt lat="37.89738" lon="-122.562" />
      <trkpt lat="37.89744" lon="-122.56194" />
      <trkpt lat="37.89745" lon="-122.5618" />
      <trkpt lat="37.8974" lon="-122.56155" />
      <trkpt lat="37.89728" lon="-122.56135" />
      <trkpt lat="37.89723" lon="-122.56128" />
      <trkpt lat="37.89718" lon="-122.56118" />
      <trkpt lat="37.89714" lon="-122.56104" />
      <trkpt lat="37.89715" lon="-122.56084" />
      <trkpt lat="37.89697" lon="-122.56046" />
      <trkpt lat="37.89698" lon="-122.56035" />
      <trkpt lat="37.89703" lon="-122.56026" />
      <trkpt lat="37.89709" lon="-122.56023" />
      <trkpt lat="37.89718" lon="-122.56026" />
      <trkpt lat="37.89726" lon="-122.56025" />
      <trkpt lat="37.89742" lon="-122.5601" />
      <trkpt lat="37.89764" lon="-122.55993" />
      <trkpt lat="37.89778" lon="-122.5599" />
      <trkpt lat="37.89808" lon="-122.55988" />
      <trkpt lat="37.89837" lon="-122.55973" />
      <trkpt lat="37.89847" lon="-122.55975" />
      <trkpt lat="37.89857" lon="-122.55987" />
      <trkpt lat="37.89865" lon="-122.55988" />
      <trkpt lat="37.89874" lon="-122.55985" />
      <trkpt lat="37.8989" lon="-122.55975" />
      <trkpt lat="37.89903" lon="-122.55971" />
      <trkpt lat="37.89912" lon="-122.55971" />
      <trkpt lat="37.89919" lon="-122.55974" />
      <trkpt lat="37.89926" lon="-122.5598" />
      <trkpt lat="37.89934" lon="-122.55991" />
      <trkpt lat="37.89938" lon="-122.55998" />
      <trkpt lat="37.89945" lon="-122.56002" />
      <trkpt lat="37.89975" lon="-122.56006" />
      <trkpt lat="37.90002" lon="-122.55999" />
      <trkpt lat="37.90013" lon="-122.5599" />
      <trkpt lat="37.90025" lon="-122.55984" />
      <trkpt lat="37.90047" lon="-122.55965" />
      <trkpt lat="37.90083" lon="-122.55917" />
      <trkpt lat="37.90101" lon="-122.5591" />
      <trkpt lat="37.90142" lon="-122.55913" />
      <trkpt lat="37.90157" lon="-122.55909" />
      <trkpt lat="37.90194" lon="-122.55886" />
      <trkpt lat="37.90204" lon="-122.55878" />
      <trkpt lat="37.90214" lon="-122.55864" />
      <trkpt lat="37.90225" lon="-122.55855" />
      <trkpt lat="37.9023" lon="-122.55848" />
      <trkpt lat="37.90232" lon="-122.5584" />
      <trkpt lat="37.90241" lon="-122.55769" />
      <trkpt lat="37.90256" lon="-122.55728" />
      <trkpt lat="37.90265" lon="-122.55711" />
      <trkpt lat="37.90278" lon="-122.55684" />
      <trkpt lat="37.90284" lon="-122.55676" />
      <trkpt lat="37.90296" lon="-122.5567" />
      <trkpt lat="37.90303" lon="-122.55659" />
      <trkpt lat="37.90317" lon="-122.55646" />
      <trkpt lat="37.90334" lon="-122.55655" />
      <trkpt lat="37.9034" lon="-122.55664" />
      <trkpt lat="37.90344" lon="-122.55666" />
      <trkpt lat="37.90348" lon="-122.55658" />
      <trkpt lat="37.90351" lon="-122.55649" />
      <trkpt lat="37.90367" lon="-122.55636" />
      <trkpt lat="37.90376" lon="-122.55622" />
      <trkpt lat="37.90393" lon="-122.55605" />
      <trkpt lat="37.90395" lon="-122.55601" />
      <trkpt lat="37.90408" lon="-122.55584" />
      <trkpt lat="37.90419" lon="-122.55572" />
      <trkpt lat="37.90428" lon="-122.55566" />
      <trkpt lat="37.90429" lon="-122.55558" />
      <trkpt lat="37.90416" lon="-122.55551" />
      <trkpt lat="37.90402" lon="-122.5554" />
      <trkpt lat="37.90399" lon="-122.55535" />
      <trkpt lat="37.90396" lon="-122.55523" />
      <trkpt lat="37.90398" lon="-122.55518" />
      <trkpt lat="37.904" lon="-122.55517" />
      <trkpt lat="37.90401" lon="-122.55519" />
      <trkpt lat="37.90405" lon="-122.55519" />
      <trkpt lat="37.90412" lon="-122.55517" />
      <trkpt lat="37.90418" lon="-122.55516" />
      <trkpt lat="37.90428" lon="-122.55512" />
      <trkpt lat="37.90452" lon="-122.55487" />
      <trkpt lat="37.90456" lon="-122.55485" />
      <trkpt lat="37.9046" lon="-122.5548" />
      <trkpt lat="37.90473" lon="-122.55473" />
      <trkpt lat="37.90485" lon="-122.55462" />
      <trkpt lat="37.90501" lon="-122.55455" />
      <trkpt lat="37.90501" lon="-122.55449" />
      <trkpt lat="37.9051" lon="-122.55436" />
      <trkpt lat="37.90513" lon="-122.55427" />
      <trkpt lat="37.90511" lon="-122.55412" />
      <trkpt lat="37.90507" lon="-122.55405" />
      <trkpt lat="37.90506" lon="-122.55397" />
      <trkpt lat="37.9051" lon="-122.55383" />
      <trkpt lat="37.90521" lon="-122.55358" />
      <trkpt lat="37.90523" lon="-122.55351" />
      <trkpt lat="37.90523" lon="-122.55347" />
      <trkpt lat="37.90519" lon="-122.5534" />
      <trkpt lat="37.90517" lon="-122.55328" />
      <trkpt lat="37.90516" lon="-122.55315" />
      <trkpt lat="37.90519" lon="-122.55304" />
      <trkpt lat="37.90524" lon="-122.55294" />
      <trkpt lat="37.90522" lon="-122.5529" />
      <trkpt lat="37.90523" lon="-122.55291" />
      <trkpt lat="37.90526" lon="-122.55286" />
      <trkpt lat="37.90531" lon="-122.55264" />
      <trkpt lat="37.90529" lon="-122.55262" />
      <trkpt lat="37.90528" lon="-122.55261" />
      <trkpt lat="37.90527" lon="-122.55263" />
      <trkpt lat="37.90526" lon="-122.55262" />
      <trkpt lat="37.90528" lon="-122.5526" />
      <trkpt lat="37.90528" lon="-122.55261" />
      <trkpt lat="37.90519" lon="-122.55258" />
      <trkpt lat="37.90525" lon="-122.55262" />
      <trkpt lat="37.90523" lon="-122.55261" />
      <trkpt lat="37.90524" lon="-122.55261" />
      <trkpt lat="37.90521" lon="-122.55263" />
      <trkpt lat="37.90521" lon="-122.55258" />
      <trkpt lat="37.9052" lon="-122.5526" />
      <trkpt lat="37.90523" lon="-122.55264" />
      <trkpt lat="37.90516" lon="-122.55276" />
      <trkpt lat="37.90515" lon="-122.55276" />
      <trkpt lat="37.90518" lon="-122.55282" />
      <trkpt lat="37.90515" lon="-122.55288" />
      <trkpt lat="37.90514" lon="-122.55297" />
      <trkpt lat="37.90515" lon="-122.55298" />
      <trkpt lat="37.90512" lon="-122.55297" />
      <trkpt lat="37.90509" lon="-122.55306" />
      <trkpt lat="37.90511" lon="-122.55323" />
      <trkpt lat="37.9052" lon="-122.55337" />
      <trkpt lat="37.90519" lon="-122.55346" />
      <trkpt lat="37.90514" lon="-122.5536" />
      <trkpt lat="37.90511" lon="-122.55364" />
      <trkpt lat="37.9051" lon="-122.55372" />
      <trkpt lat="37.90495" lon="-122.55395" />
      <trkpt lat="37.90498" lon="-122.55402" />
      <trkpt lat="37.90497" lon="-122.55406" />
      <trkpt lat="37.90501" lon="-122.5541" />
      <trkpt lat="37.90501" lon="-122.55413" />
      <trkpt lat="37.90499" lon="-122.55417" />
      <trkpt lat="37.905" lon="-122.5542" />
      <trkpt lat="37.90498" lon="-122.55422" />
      <trkpt lat="37.90496" lon="-122.55429" />
      <trkpt lat="37.905" lon="-122.55436" />
      <trkpt lat="37.90487" lon="-122.55441" />
      <trkpt lat="37.90477" lon="-122.55449" />
      <trkpt lat="37.90474" lon="-122.55455" />
      <trkpt lat="37.9047" lon="-122.55459" />
      <trkpt lat="37.90467" lon="-122.55459" />
      <trkpt lat="37.90459" lon="-122.55468" />
      <trkpt lat="37.90453" lon="-122.5547" />
      <trkpt lat="37.9045" lon="-122.55475" />
      <trkpt lat="37.90447" lon="-122.55474" />
      <trkpt lat="37.90442" lon="-122.55476" />
      <trkpt lat="37.90431" lon="-122.55484" />
      <trkpt lat="37.90423" lon="-122.55492" />
      <trkpt lat="37.90411" lon="-122.55499" />
      <trkpt lat="37.90408" lon="-122.555" />
      <trkpt lat="37.90401" lon="-122.55506" />
      <trkpt lat="37.90397" lon="-122.55508" />
      <trkpt lat="37.90391" lon="-122.55507" />
      <trkpt lat="37.90388" lon="-122.55514" />
      <trkpt lat="37.90394" lon="-122.55524" />
      <trkpt lat="37.904" lon="-122.55528" />
      <trkpt lat="37.90401" lon="-122.55533" />
      <trkpt lat="37.9041" lon="-122.55547" />
      <trkpt lat="37.90411" lon="-122.55554" />
      <trkpt lat="37.90412" lon="-122.55554" />
      <trkpt lat="37.9041" lon="-122.55556" />
      <trkpt lat="37.90411" lon="-122.5556" />
      <trkpt lat="37.90401" lon="-122.55573" />
      <trkpt lat="37.90399" lon="-122.55581" />
      <trkpt lat="37.90396" lon="-122.55581" />
      <trkpt lat="37.90396" lon="-122.55583" />
      <trkpt lat="37.90392" lon="-122.55589" />
      <trkpt lat="37.90393" lon="-122.55591" />
      <trkpt lat="37.90384" lon="-122.55606" />
      <trkpt lat="37.90381" lon="-122.55606" />
      <trkpt lat="37.90379" lon="-122.5561" />
      <trkpt lat="37.90375" lon="-122.55612" />
      <trkpt lat="37.90366" lon="-122.55626" />
      <trkpt lat="37.90359" lon="-122.55632" />
      <trkpt lat="37.90345" lon="-122.5566" />
      <trkpt lat="37.90341" lon="-122.55663" />
      <trkpt lat="37.90339" lon="-122.55661" />
      <trkpt lat="37.90316" lon="-122.55642" />
      <trkpt lat="37.90311" lon="-122.55639" />
      <trkpt lat="37.90307" lon="-122.55642" />
      <trkpt lat="37.90299" lon="-122.55655" />
      <trkpt lat="37.90288" lon="-122.55664" />
      <trkpt lat="37.90283" lon="-122.5567" />
      <trkpt lat="37.9027" lon="-122.55678" />
      <trkpt lat="37.90266" lon="-122.5569" />
      <trkpt lat="37.90248" lon="-122.55719" />
      <trkpt lat="37.90234" lon="-122.55747" />
      <trkpt lat="37.90229" lon="-122.55777" />
      <trkpt lat="37.90232" lon="-122.55786" />
      <trkpt lat="37.90233" lon="-122.55797" />
      <trkpt lat="37.90223" lon="-122.5584" />
      <trkpt lat="37.90215" lon="-122.55852" />
      <trkpt lat="37.902" lon="-122.55869" />
      <trkpt lat="37.90191" lon="-122.55877" />
      <trkpt lat="37.90184" lon="-122.55887" />
      <trkpt lat="37.90175" lon="-122.55893" />
      <trkpt lat="37.90149" lon="-122.55905" />
      <trkpt lat="37.90124" lon="-122.55908" />
      <trkpt lat="37.90093" lon="-122.55906" />
      <trkpt lat="37.90082" lon="-122.55911" />
      <trkpt lat="37.90073" lon="-122.55918" />
      <trkpt lat="37.90059" lon="-122.55942" />
      <trkpt lat="37.90042" lon="-122.5596" />
      <trkpt lat="37.90031" lon="-122.55975" />
      <trkpt lat="37.90015" lon="-122.55987" />
      <trkpt lat="37.90008" lon="-122.55994" />
      <trkpt lat="37.9" lon="-122.55999" />
      <trkpt lat="37.89994" lon="-122.56001" />
      <trkpt lat="37.8997" lon="-122.56" />
      <trkpt lat="37.89961" lon="-122.55997" />
      <trkpt lat="37.89946" lon="-122.55975" />
      <trkpt lat="37.89932" lon="-122.55968" />
      <trkpt lat="37.89921" lon="-122.5597" />
      <trkpt lat="37.89906" lon="-122.55975" />
      <trkpt lat="37.89895" lon="-122.55983" />
      <trkpt lat="37.89884" lon="-122.55985" />
      <trkpt lat="37.89877" lon="-122.55984" />
      <trkpt lat="37.89867" lon="-122.55974" />
      <trkpt lat="37.89854" lon="-122.55971" />
      <trkpt lat="37.89846" lon="-122.55972" />
      <trkpt lat="37.89826" lon="-122.55984" />
      <trkpt lat="37.89788" lon="-122.55986" />
      <trkpt lat="37.89774" lon="-122.5599" />
      <trkpt lat="37.89763" lon="-122.55996" />
      <trkpt lat="37.89746" lon="-122.56017" />
      <trkpt lat="37.89736" lon="-122.56025" />
      <trkpt lat="37.89728" lon="-122.56028" />
      <trkpt lat="37.89718" lon="-122.56027" />
      <trkpt lat="37.89715" lon="-122.56025" />
      <trkpt lat="37.8971" lon="-122.56024" />
      <trkpt lat="37.89704" lon="-122.56027" />
      <trkpt lat="37.89697" lon="-122.56035" />
      <trkpt lat="37.89694" lon="-122.56046" />
      <trkpt lat="37.89693" lon="-122.56057" />
      <trkpt lat="37.8971" lon="-122.56083" />
      <trkpt lat="37.89711" lon="-122.56106" />
      <trkpt lat="37.89716" lon="-122.56122" />
      <trkpt lat="37.89733" lon="-122.56145" />
      <trkpt lat="37.89738" lon="-122.56156" />
      <trkpt lat="37.89743" lon="-122.56179" />
      <trkpt lat="37.89744" lon="-122.56195" />
      <trkpt lat="37.89737" lon="-122.562" />
      <trkpt lat="37.89733" lon="-122.562" />
      <trkpt lat="37.89718" lon="-122.56184" />
      <trkpt lat="37.89712" lon="-122.56182" />
      <trkpt lat="37.89704" lon="-122.56184" />
      <trkpt lat="37.8969" lon="-122.56179" />
      <trkpt lat="37.89681" lon="-122.56174" />
      <trkpt lat="37.89673" lon="-122.56173" />
      <trkpt lat="37.89666" lon="-122.56165" />
      <trkpt lat="37.89651" lon="-122.56167" />
      <trkpt lat="37.89644" lon="-122.56171" />
      <trkpt lat="37.89624" lon="-122.56176" />
      <trkpt lat="37.896" lon="-122.56177" />
      <trkpt lat="37.8958" lon="-122.56175" />
      <trkpt lat="37.89572" lon="-122.56177" />
      <trkpt lat="37.89565" lon="-122.56183" />
      <trkpt lat="37.89556" lon="-122.56195" />
      <trkpt lat="37.8955" lon="-122.56211" />
      <trkpt lat="37.89545" lon="-122.56228" />
      <trkpt lat="37.8954" lon="-122.56239" />
      <trkpt lat="37.89505" lon="-122.56276" />
      <trkpt lat="37.89496" lon="-122.56291" />
      <trkpt lat="37.89493" lon="-122.56301" />
      <trkpt lat="37.8949" lon="-122.56317" />
      <trkpt lat="37.89492" lon="-122.56331" />
      <trkpt lat="37.89494" lon="-122.5634" />
      <trkpt lat="37.89504" lon="-122.56356" />
      <trkpt lat="37.89509" lon="-122.56368" />
      <trkpt lat="37.89515" lon="-122.56391" />
      <trkpt lat="37.89515" lon="-122.56401" />
      <trkpt lat="37.8951" lon="-122.56408" />
      <trkpt lat="37.89504" lon="-122.56413" />
      <trkpt lat="37.89497" lon="-122.56415" />
      <trkpt lat="37.89481" lon="-122.56415" />
      <trkpt lat="37.89467" lon="-122.56418" />
      <trkpt lat="37.89422" lon="-122.56438" />
      <trkpt lat="37.89404" lon="-122.56438" />
      <trkpt lat="37.89382" lon="-122.5643" />
      <trkpt lat="37.89366" lon="-122.56429" />
      <trkpt lat="37.8935" lon="-122.56433" />
      <trkpt lat="37.89335" lon="-122.56445" />
      <trkpt lat="37.89326" lon="-122.5646" />
      <trkpt lat="37.89323" lon="-122.56471" />
      <trkpt lat="37.89322" lon="-122.56493" />
      <trkpt lat="37.89323" lon="-122.56532" />
      <trkpt lat="37.89319" lon="-122.56545" />
      <trkpt lat="37.89307" lon="-122.56554" />
      <trkpt lat="37.89295" lon="-122.56561" />
      <trkpt lat="37.89284" lon="-122.56569" />
      <trkpt lat="37.89272" lon="-122.56586" />
      <trkpt lat="37.89268" lon="-122.56594" />
      <trkpt lat="37.89238" lon="-122.56632" />
      <trkpt lat="37.89203" lon="-122.56643" />
      <trkpt lat="37.89197" lon="-122.56649" />
      <trkpt lat="37.89187" lon="-122.56669" />
      <trkpt lat="37.89188" lon="-122.56676" />
      <trkpt lat="37.89193" lon="-122.56685" />
      <trkpt lat="37.89201" lon="-122.56687" />
      <trkpt lat="37.89213" lon="-122.56694" />
      <trkpt lat="37.89218" lon="-122.56694" />
      <trkpt lat="37.89222" lon="-122.56693" />
      <trkpt lat="37.89225" lon="-122.56695" />
      <trkpt lat="37.89221" lon="-122.56714" />
      <trkpt lat="37.89221" lon="-122.56731" />
      <trkpt lat="37.89228" lon="-122.56748" />
      <trkpt lat="37.89233" lon="-122.5675" />
      <trkpt lat="37.89237" lon="-122.56756" />
      <trkpt lat="37.89227" lon="-122.56757" />
      <trkpt lat="37.89221" lon="-122.56769" />
      <trkpt lat="37.89213" lon="-122.56778" />
      <trkpt lat="37.89202" lon="-122.56785" />
      <trkpt lat="37.89203" lon="-122.568" />
      <trkpt lat="37.89202" lon="-122.56816" />
      <trkpt lat="37.892" lon="-122.56826" />
      <trkpt lat="37.89197" lon="-122.56832" />
      <trkpt lat="37.89192" lon="-122.56835" />
      <trkpt lat="37.89185" lon="-122.5683" />
      <trkpt lat="37.89183" lon="-122.56828" />
      <trkpt lat="37.89179" lon="-122.5681" />
      <trkpt lat="37.89174" lon="-122.56805" />
      <trkpt lat="37.89168" lon="-122.56808" />
      <trkpt lat="37.89164" lon="-122.56815" />
      <trkpt lat="37.89161" lon="-122.56826" />
      <trkpt lat="37.89159" lon="-122.56842" />
      <trkpt lat="37.89161" lon="-122.56871" />
      <trkpt lat="37.89166" lon="-122.5688" />
      <trkpt lat="37.89165" lon="-122.56884" />
      <trkpt lat="37.89167" lon="-122.56895" />
      <trkpt lat="37.89163" lon="-122.56918" />
      <trkpt lat="37.8916" lon="-122.56921" />
      <trkpt lat="37.89153" lon="-122.56919" />
      <trkpt lat="37.89136" lon="-122.56928" />
      <trkpt lat="37.89127" lon="-122.56936" />
      <trkpt lat="37.89117" lon="-122.56935" />
      <trkpt lat="37.89115" lon="-122.56936" />
      <trkpt lat="37.89117" lon="-122.56944" />
      <trkpt lat="37.89103" lon="-122.56978" />
      <trkpt lat="37.89101" lon="-122.5699" />
      <trkpt lat="37.89104" lon="-122.56999" />
      <trkpt lat="37.89102" lon="-122.57012" />
      <trkpt lat="37.89095" lon="-122.57024" />
      <trkpt lat="37.89084" lon="-122.57031" />
      <trkpt lat="37.89083" lon="-122.57035" />
      <trkpt lat="37.89077" lon="-122.57041" />
      <trkpt lat="37.89074" lon="-122.57049" />
      <trkpt lat="37.89069" lon="-122.57055" />
      <trkpt lat="37.89059" lon="-122.5706" />
      <trkpt lat="37.89055" lon="-122.5706" />
      <trkpt lat="37.89053" lon="-122.57048" />
      <trkpt lat="37.89051" lon="-122.57028" />
      <trkpt lat="37.89044" lon="-122.57029" />
      <trkpt lat="37.89036" lon="-122.57034" />
      <trkpt lat="37.8903" lon="-122.57041" />
      <trkpt lat="37.89027" lon="-122.57042" />
      <trkpt lat="37.89023" lon="-122.57049" />
      <trkpt lat="37.89015" lon="-122.57053" />
      <trkpt lat="37.89014" lon="-122.5706" />
      <trkpt lat="37.89005" lon="-122.57076" />
      <trkpt lat="37.89" lon="-122.57088" />
      <trkpt lat="37.89" lon="-122.57098" />
      <trkpt lat="37.88995" lon="-122.57118" />
      <trkpt lat="37.88995" lon="-122.57129" />
      <trkpt lat="37.88989" lon="-122.57141" />
      <trkpt lat="37.8899" lon="-122.57154" />
      <trkpt lat="37.88984" lon="-122.57167" />
      <trkpt lat="37.88988" lon="-122.57182" />
      <trkpt lat="37.88992" lon="-122.57185" />
      <trkpt lat="37.88994" lon="-122.57192" />
      <trkpt lat="37.88995" lon="-122.572" />
      <trkpt lat="37.88999" lon="-122.57204" />
      <trkpt lat="37.89001" lon="-122.57209" />
      <trkpt lat="37.89002" lon="-122.57223" />
      <trkpt lat="37.89006" lon="-122.57227" />
      <trkpt lat="37.89007" lon="-122.57233" />
      <trkpt lat="37.89004" lon="-122.57242" />
      <trkpt lat="37.89005" lon="-122.57245" />
      <trkpt lat="37.89003" lon="-122.57254" />
      <trkpt lat="37.88994" lon="-122.57274" />
      <trkpt lat="37.88991" lon="-122.57288" />
      <trkpt lat="37.88986" lon="-122.573" />
      <trkpt lat="37.88977" lon="-122.57317" />
      <trkpt lat="37.88977" lon="-122.57327" />
      <trkpt lat="37.88968" lon="-122.57354" />
      <trkpt lat="37.88968" lon="-122.5738" />
      <trkpt lat="37.88964" lon="-122.57411" />
      <trkpt lat="37.88966" lon="-122.57419" />
      <trkpt lat="37.88963" lon="-122.57427" />
      <trkpt lat="37.88963" lon="-122.5744" />
      <trkpt lat="37.88966" lon="-122.5745" />
      <trkpt lat="37.88963" lon="-122.57465" />
      <trkpt lat="37.88966" lon="-122.57481" />
      <trkpt lat="37.88968" lon="-122.57546" />
      <trkpt lat="37.88976" lon="-122.57565" />
      <trkpt lat="37.8898" lon="-122.57586" />
      <trkpt lat="37.88976" lon="-122.57619" />
      <trkpt lat="37.88977" lon="-122.57654" />
      <trkpt lat="37.88979" lon="-122.57663" />
      <trkpt lat="37.88993" lon="-122.57684" />
      <trkpt lat="37.89" lon="-122.57705" />
      <trkpt lat="37.89002" lon="-122.57709" />
      <trkpt lat="37.89015" lon="-122.57718" />
      <trkpt lat="37.89023" lon="-122.57728" />
      <trkpt lat="37.89032" lon="-122.57736" />
      <trkpt lat="37.89035" lon="-122.57741" />
      <trkpt lat="37.89036" lon="-122.5775" />
      <trkpt lat="37.89052" lon="-122.57771" />
      <trkpt lat="37.89062" lon="-122.57789" />
      <trkpt lat="37.89065" lon="-122.57805" />
      <trkpt lat="37.89089" lon="-122.57876" />
      <trkpt lat="37.89094" lon="-122.57887" />
      <trkpt lat="37.89102" lon="-122.57899" />
      <trkpt lat="37.89115" lon="-122.57932" />
      <trkpt lat="37.89127" lon="-122.5795" />
      <trkpt lat="37.89132" lon="-122.57962" />
      <trkpt lat="37.89134" lon="-122.57972" />
      <trkpt lat="37.89134" lon="-122.57986" />
      <trkpt lat="37.89139" lon="-122.57996" />
      <trkpt lat="37.89143" lon="-122.58019" />
      <trkpt lat="37.89151" lon="-122.58028" />
      <trkpt lat="37.89154" lon="-122.5804" />
      <trkpt lat="37.89163" lon="-122.58056" />
      <trkpt lat="37.89163" lon="-122.58074" />
      <trkpt lat="37.89164" lon="-122.58081" />
      <trkpt lat="37.89168" lon="-122.58087" />
      <trkpt lat="37.8917" lon="-122.581" />
      <trkpt lat="37.89174" lon="-122.58106" />
      <trkpt lat="37.89181" lon="-122.58111" />
      <trkpt lat="37.89192" lon="-122.58149" />
      <trkpt lat="37.89198" lon="-122.58161" />
      <trkpt lat="37.89217" lon="-122.58184" />
      <trkpt lat="37.8923" lon="-122.58195" />
      <trkpt lat="37.89236" lon="-122.58207" />
      <trkpt lat="37.89236" lon="-122.58211" />
      <trkpt lat="37.89244" lon="-122.58241" />
      <trkpt lat="37.89248" lon="-122.58247" />
      <trkpt lat="37.89252" lon="-122.5826" />
      <trkpt lat="37.89256" lon="-122.58265" />
      <trkpt lat="37.89262" lon="-122.5827" />
      <trkpt lat="37.89265" lon="-122.58277" />
      <trkpt lat="37.89266" lon="-122.58289" />
      <trkpt lat="37.89273" lon="-122.58303" />
      <trkpt lat="37.89275" lon="-122.58315" />
      <trkpt lat="37.89282" lon="-122.58332" />
      <trkpt lat="37.89287" lon="-122.58339" />
      <trkpt lat="37.8929" lon="-122.58353" />
      <trkpt lat="37.89305" lon="-122.58378" />
      <trkpt lat="37.89307" lon="-122.58384" />
      <trkpt lat="37.89315" lon="-122.58393" />
      <trkpt lat="37.89327" lon="-122.58422" />
      <trkpt lat="37.89349" lon="-122.58461" />
      <trkpt lat="37.89362" lon="-122.58497" />
      <trkpt lat="37.89363" lon="-122.58503" />
      <trkpt lat="37.89371" lon="-122.58516" />
      <trkpt lat="37.89386" lon="-122.58548" />
      <trkpt lat="37.89392" lon="-122.58568" />
      <trkpt lat="37.89411" lon="-122.586" />
      <trkpt lat="37.89426" lon="-122.5863" />
      <trkpt lat="37.89429" lon="-122.58636" />
      <trkpt lat="37.89434" lon="-122.58658" />
      <trkpt lat="37.8944" lon="-122.58672" />
      <trkpt lat="37.89453" lon="-122.5871" />
      <trkpt lat="37.89472" lon="-122.5875" />
      <trkpt lat="37.89476" lon="-122.58762" />
      <trkpt lat="37.89491" lon="-122.58782" />
      <trkpt lat="37.89497" lon="-122.58787" />
      <trkpt lat="37.89507" lon="-122.5879" />
      <trkpt lat="37.89515" lon="-122.58797" />
      <trkpt lat="37.8952" lon="-122.58808" />
      <trkpt lat="37.89528" lon="-122.58832" />
      <trkpt lat="37.89581" lon="-122.58911" />
      <trkpt lat="37.89583" lon="-122.58918" />
      <trkpt lat="37.89581" lon="-122.58928" />
      <trkpt lat="37.89577" lon="-122.58936" />
      <trkpt lat="37.89576" lon="-122.58946" />
      <trkpt lat="37.89584" lon="-122.58971" />
      <trkpt lat="37.89585" lon="-122.5898" />
      <trkpt lat="37.89587" lon="-122.58985" />
      <trkpt lat="37.8959" lon="-122.59012" />
      <trkpt lat="37.89596" lon="-122.5903" />
      <trkpt lat="37.89597" lon="-122.59041" />
      <trkpt lat="37.89606" lon="-122.59073" />
      <trkpt lat="37.89609" lon="-122.59096" />
      <trkpt lat="37.89605" lon="-122.59145" />
      <trkpt lat="37.89602" lon="-122.59157" />
      <trkpt lat="37.89606" lon="-122.59175" />
      <trkpt lat="37.89615" lon="-122.59183" />
      <trkpt lat="37.8962" lon="-122.59191" />
      <trkpt lat="37.89632" lon="-122.59196" />
      <trkpt lat="37.89638" lon="-122.59205" />
      <trkpt lat="37.89644" lon="-122.59218" />
      <trkpt lat="37.89643" lon="-122.59223" />
      <trkpt lat="37.89646" lon="-122.59227" />
      <trkpt lat="37.8965" lon="-122.59238" />
      <trkpt lat="37.8965" lon="-122.59244" />
      <trkpt lat="37.89664" lon="-122.59288" />
      <trkpt lat="37.89675" lon="-122.59303" />
      <trkpt lat="37.89691" lon="-122.59328" />
      <trkpt lat="37.89699" lon="-122.59337" />
      <trkpt lat="37.89704" lon="-122.59356" />
      <trkpt lat="37.89711" lon="-122.59363" />
      <trkpt lat="37.89714" lon="-122.59369" />
      <trkpt lat="37.89727" lon="-122.59379" />
      <trkpt lat="37.89732" lon="-122.5938" />
      <trkpt lat="37.89734" lon="-122.59382" />
      <trkpt lat="37.89736" lon="-122.59388" />
      <trkpt lat="37.89736" lon="-122.59402" />
      <trkpt lat="37.89739" lon="-122.59408" />
      <trkpt lat="37.89738" lon="-122.59413" />
      <trkpt lat="37.8974" lon="-122.59414" />
      <trkpt lat="37.89738" lon="-122.59416" />
      <trkpt lat="37.89739" lon="-122.59426" />
      <trkpt lat="37.89744" lon="-122.59439" />
      <trkpt lat="37.89747" lon="-122.59443" />
      <trkpt lat="37.89755" lon="-122.59447" />
      <trkpt lat="37.89767" lon="-122.59446" />
      <trkpt lat="37.89772" lon="-122.59449" />
      <trkpt lat="37.89781" lon="-122.59456" />
      <trkpt lat="37.8979" lon="-122.5947" />
      <trkpt lat="37.89792" lon="-122.59483" />
      <trkpt lat="37.89797" lon="-122.59492" />
      <trkpt lat="37.89804" lon="-122.59514" />
      <trkpt lat="37.89808" lon="-122.59542" />
      <trkpt lat="37.89807" lon="-122.59564" />
      <trkpt lat="37.89808" lon="-122.59586" />
      <trkpt lat="37.89806" lon="-122.59608" />
      <trkpt lat="37.89807" lon="-122.59618" />
      <trkpt lat="37.89806" lon="-122.5963" />
      <trkpt lat="37.8981" lon="-122.59652" />
      <trkpt lat="37.89811" lon="-122.59669" />
      <trkpt lat="37.89809" lon="-122.5968" />
      <trkpt lat="37.89798" lon="-122.59697" />
      <trkpt lat="37.89794" lon="-122.597" />
      <trkpt lat="37.89789" lon="-122.59714" />
      <trkpt lat="37.89791" lon="-122.59742" />
      <trkpt lat="37.89789" lon="-122.59757" />
      <trkpt lat="37.89794" lon="-122.59785" />
      <trkpt lat="37.89791" lon="-122.5981" />
      <trkpt lat="37.8979" lon="-122.59837" />
      <trkpt lat="37.89787" lon="-122.5984" />
      <trkpt lat="37.89786" lon="-122.59848" />
      <trkpt lat="37.89787" lon="-122.59852" />
      <trkpt lat="37.89786" lon="-122.59856" />
      <trkpt lat="37.89789" lon="-122.59875" />
      <trkpt lat="37.898" lon="-122.59896" />
      <trkpt lat="37.89804" lon="-122.59913" />
      <trkpt lat="37.89806" lon="-122.59916" />
      <trkpt lat="37.89806" lon="-122.59932" />
      <trkpt lat="37.89812" lon="-122.59958" />
      <trkpt lat="37.8981" lon="-122.59982" />
      <trkpt lat="37.89808" lon="-122.59988" />
      <trkpt lat="37.89802" lon="-122.59993" />
      <trkpt lat="37.89794" lon="-122.60007" />
      <trkpt lat="37.89784" lon="-122.60013" />
      <trkpt lat="37.89782" lon="-122.60019" />
      <trkpt lat="37.89773" lon="-122.60032" />
      <trkpt lat="37.89762" lon="-122.60041" />
      <trkpt lat="37.89756" lon="-122.60052" />
      <trkpt lat="37.89745" lon="-122.60058" />
      <trkpt lat="37.89743" lon="-122.60069" />
      <trkpt lat="37.89735" lon="-122.60085" />
      <trkpt lat="37.89732" lon="-122.60111" />
      <trkpt lat="37.89732" lon="-122.60115" />
      <trkpt lat="37.89734" lon="-122.60114" />
      <trkpt lat="37.89734" lon="-122.60117" />
      <trkpt lat="37.89733" lon="-122.60125" />
      <trkpt lat="37.89736" lon="-122.60132" />
      <trkpt lat="37.89733" lon="-122.6013" />
      <trkpt lat="37.89734" lon="-122.60142" />
      <trkpt lat="37.89739" lon="-122.60156" />
      <trkpt lat="37.89738" lon="-122.6017" />
      <trkpt lat="37.89718" lon="-122.60211" />
      <trkpt lat="37.897" lon="-122.60239" />
      <trkpt lat="37.89695" lon="-122.60275" />
      <trkpt lat="37.89691" lon="-122.60294" />
      <trkpt lat="37.8967" lon="-122.60299" />
      <trkpt lat="37.89657" lon="-122.60298" />
      <trkpt lat="37.89652" lon="-122.60301" />
      <trkpt lat="37.8964" lon="-122.60316" />
      <trkpt lat="37.89637" lon="-122.60324" />
      <trkpt lat="37.89624" lon="-122.60348" />
      <trkpt lat="37.89618" lon="-122.60362" />
      <trkpt lat="37.89611" lon="-122.60387" />
      <trkpt lat="37.89611" lon="-122.60398" />
      <trkpt lat="37.89613" lon="-122.6041" />
      <trkpt lat="37.89611" lon="-122.60415" />
      <trkpt lat="37.89604" lon="-122.60421" />
      <trkpt lat="37.89602" lon="-122.60426" />
      <trkpt lat="37.89608" lon="-122.60446" />
      <trkpt lat="37.8961" lon="-122.60457" />
      <trkpt lat="37.89601" lon="-122.60474" />
      <trkpt lat="37.89603" lon="-122.60496" />
      <trkpt lat="37.89599" lon="-122.60527" />
      <trkpt lat="37.89594" lon="-122.60532" />
      <trkpt lat="37.89587" lon="-122.60549" />
      <trkpt lat="37.89584" lon="-122.60577" />
      <trkpt lat="37.89588" lon="-122.60589" />
      <trkpt lat="37.89583" lon="-122.60598" />
      <trkpt lat="37.89583" lon="-122.60611" />
      <trkpt lat="37.89573" lon="-122.60623" />
      <trkpt lat="37.89569" lon="-122.60637" />
      <trkpt lat="37.89559" lon="-122.60642" />
      <trkpt lat="37.89555" lon="-122.60648" />
      <trkpt lat="37.89544" lon="-122.60671" />
      <trkpt lat="37.89509" lon="-122.60708" />
      <trkpt lat="37.89497" lon="-122.6071" />
      <trkpt lat="37.89483" lon="-122.60707" />
      <trkpt lat="37.89474" lon="-122.60708" />
      <trkpt lat="37.89453" lon="-122.6072" />
      <trkpt lat="37.89436" lon="-122.60722" />
      <trkpt lat="37.89417" lon="-122.60728" />
      <trkpt lat="37.89411" lon="-122.60738" />
      <trkpt lat="37.89402" lon="-122.6076" />
      <trkpt lat="37.89391" lon="-122.60775" />
      <trkpt lat="37.89385" lon="-122.60777" />
      <trkpt lat="37.89379" lon="-122.60776" />
      <trkpt lat="37.89367" lon="-122.60779" />
      <trkpt lat="37.89355" lon="-122.60785" />
      <trkpt lat="37.89344" lon="-122.60789" />
      <trkpt lat="37.89315" lon="-122.6079" />
      <trkpt lat="37.8931" lon="-122.60795" />
      <trkpt lat="37.89307" lon="-122.60802" />
      <trkpt lat="37.89307" lon="-122.60856" />
      <trkpt lat="37.8931" lon="-122.60874" />
      <trkpt lat="37.89312" lon="-122.60881" />
      <trkpt lat="37.89315" lon="-122.60887" />
      <trkpt lat="37.89319" lon="-122.6089" />
      <trkpt lat="37.8933" lon="-122.60894" />
      <trkpt lat="37.8934" lon="-122.60893" />
      <trkpt lat="37.89348" lon="-122.60897" />
      <trkpt lat="37.89351" lon="-122.60905" />
      <trkpt lat="37.89351" lon="-122.60911" />
      <trkpt lat="37.89347" lon="-122.60929" />
      <trkpt lat="37.8934" lon="-122.60946" />
      <trkpt lat="37.89325" lon="-122.60965" />
      <trkpt lat="37.89309" lon="-122.60981" />
      <trkpt lat="37.89282" lon="-122.61016" />
      <trkpt lat="37.89272" lon="-122.61029" />
      <trkpt lat="37.89268" lon="-122.61039" />
      <trkpt lat="37.89269" lon="-122.61068" />
      <trkpt lat="37.89276" lon="-122.61082" />
      <trkpt lat="37.89277" lon="-122.61089" />
      <trkpt lat="37.89276" lon="-122.61141" />
      <trkpt lat="37.89271" lon="-122.61166" />
      <trkpt lat="37.89265" lon="-122.61185" />
      <trkpt lat="37.89264" lon="-122.61199" />
      <trkpt lat="37.8926" lon="-122.61207" />
      <trkpt lat="37.89245" lon="-122.61222" />
      <trkpt lat="37.8924" lon="-122.61235" />
      <trkpt lat="37.89239" lon="-122.61245" />
      <trkpt lat="37.89236" lon="-122.61255" />
      <trkpt lat="37.89232" lon="-122.61298" />
      <trkpt lat="37.89225" lon="-122.61308" />
      <trkpt lat="37.89223" lon="-122.61323" />
      <trkpt lat="37.89225" lon="-122.6134" />
      <trkpt lat="37.8923" lon="-122.6135" />
      <trkpt lat="37.89232" lon="-122.6136" />
      <trkpt lat="37.89235" lon="-122.6136" />
      <trkpt lat="37.89242" lon="-122.6134" />
      <trkpt lat="37.89248" lon="-122.61332" />
      <trkpt lat="37.89254" lon="-122.61329" />
      <trkpt lat="37.8926" lon="-122.61323" />
      <trkpt lat="37.89264" lon="-122.61317" />
      <trkpt lat="37.89269" lon="-122.61304" />
      <trkpt lat="37.89269" lon="-122.61294" />
      <trkpt lat="37.89274" lon="-122.613" />
      <trkpt lat="37.89276" lon="-122.61306" />
      <trkpt lat="37.89274" lon="-122.61315" />
      <trkpt lat="37.89271" lon="-122.61321" />
      <trkpt lat="37.89263" lon="-122.61329" />
      <trkpt lat="37.89262" lon="-122.61339" />
      <trkpt lat="37.89265" lon="-122.61348" />
      <trkpt lat="37.89272" lon="-122.61357" />
      <trkpt lat="37.89293" lon="-122.61368" />
      <trkpt lat="37.89309" lon="-122.61392" />
      <trkpt lat="37.89326" lon="-122.61406" />
      <trkpt lat="37.89339" lon="-122.6143" />
      <trkpt lat="37.89335" lon="-122.61448" />
      <trkpt lat="37.89334" lon="-122.61463" />
      <trkpt lat="37.89336" lon="-122.6148" />
      <trkpt lat="37.89335" lon="-122.61497" />
      <trkpt lat="37.8934" lon="-122.61517" />
      <trkpt lat="37.89339" lon="-122.61541" />
      <trkpt lat="37.89333" lon="-122.61553" />
      <trkpt lat="37.89316" lon="-122.6156" />
      <trkpt lat="37.89304" lon="-122.61563" />
      <trkpt lat="37.89283" lon="-122.61576" />
      <trkpt lat="37.89258" lon="-122.6161" />
      <trkpt lat="37.89247" lon="-122.61621" />
      <trkpt lat="37.89238" lon="-122.61625" />
      <trkpt lat="37.89228" lon="-122.61634" />
      <trkpt lat="37.8922" lon="-122.61645" />
      <trkpt lat="37.89219" lon="-122.61658" />
      <trkpt lat="37.89222" lon="-122.61675" />
      <trkpt lat="37.89225" lon="-122.61685" />
      <trkpt lat="37.89241" lon="-122.61713" />
      <trkpt lat="37.89256" lon="-122.61732" />
      <trkpt lat="37.89263" lon="-122.61753" />
      <trkpt lat="37.89261" lon="-122.61777" />
      <trkpt lat="37.89258" lon="-122.61789" />
      <trkpt lat="37.89259" lon="-122.61806" />
      <trkpt lat="37.89256" lon="-122.61815" />
      <trkpt lat="37.8925" lon="-122.61822" />
      <trkpt lat="37.89234" lon="-122.61825" />
      <trkpt lat="37.89212" lon="-122.61815" />
      <trkpt lat="37.89196" lon="-122.61812" />
      <trkpt lat="37.89189" lon="-122.61806" />
      <trkpt lat="37.89186" lon="-122.61805" />
      <trkpt lat="37.89184" lon="-122.6181" />
      <trkpt lat="37.89185" lon="-122.61817" />
      <trkpt lat="37.89181" lon="-122.61824" />
      <trkpt lat="37.89183" lon="-122.61839" />
      <trkpt lat="37.89183" lon="-122.61854" />
      <trkpt lat="37.89186" lon="-122.61861" />
      <trkpt lat="37.89185" lon="-122.61866" />
      <trkpt lat="37.89187" lon="-122.61876" />
      <trkpt lat="37.89192" lon="-122.61883" />
      <trkpt lat="37.89193" lon="-122.61889" />
      <trkpt lat="37.89207" lon="-122.61924" />
      <trkpt lat="37.89219" lon="-122.61945" />
      <trkpt lat="37.89225" lon="-122.61958" />
      <trkpt lat="37.89233" lon="-122.61969" />
      <trkpt lat="37.89233" lon="-122.61971" />
      <trkpt lat="37.89229" lon="-122.61972" />
      <trkpt lat="37.89228" lon="-122.61975" />
      <trkpt lat="37.89234" lon="-122.61985" />
      <trkpt lat="37.89236" lon="-122.61999" />
      <trkpt lat="37.89229" lon="-122.62015" />
      <trkpt lat="37.8923" lon="-122.62024" />
      <trkpt lat="37.89227" lon="-122.62029" />
      <trkpt lat="37.89222" lon="-122.62033" />
      <trkpt lat="37.89219" lon="-122.62046" />
      <trkpt lat="37.8921" lon="-122.62058" />
      <trkpt lat="37.892" lon="-122.62065" />
      <trkpt lat="37.89189" lon="-122.62065" />
      <trkpt lat="37.89184" lon="-122.62068" />
      <trkpt lat="37.89173" lon="-122.62086" />
      <trkpt lat="37.89173" lon="-122.6209" />
      <trkpt lat="37.89171" lon="-122.62093" />
      <trkpt lat="37.89138" lon="-122.62101" />
      <trkpt lat="37.89136" lon="-122.62103" />
      <trkpt lat="37.89127" lon="-122.62123" />
      <trkpt lat="37.89126" lon="-122.62132" />
      <trkpt lat="37.89117" lon="-122.6216" />
      <trkpt lat="37.89116" lon="-122.62168" />
      <trkpt lat="37.89119" lon="-122.62198" />
      <trkpt lat="37.89125" lon="-122.62217" />
      <trkpt lat="37.89126" lon="-122.62232" />
      <trkpt lat="37.89134" lon="-122.62278" />
      <trkpt lat="37.89137" lon="-122.62315" />
      <trkpt lat="37.89135" lon="-122.62321" />
      <trkpt lat="37.8913" lon="-122.6233" />
      <trkpt lat="37.89134" lon="-122.62355" />
      <trkpt lat="37.89132" lon="-122.62376" />
      <trkpt lat="37.89123" lon="-122.6241" />
      <trkpt lat="37.89108" lon="-122.62495" />
      <trkpt lat="37.89108" lon="-122.62499" />
      <trkpt lat="37.8912" lon="-122.62528" />
      <trkpt lat="37.89119" lon="-122.6254" />
      <trkpt lat="37.89117" lon="-122.62544" />
      <trkpt lat="37.89094" lon="-122.62557" />
      <trkpt lat="37.89073" lon="-122.62573" />
      <trkpt lat="37.8907" lon="-122.62577" />
      <trkpt lat="37.8907" lon="-122.62579" />
      <trkpt lat="37.89084" lon="-122.62577" />
      <trkpt lat="37.89095" lon="-122.62579" />
      <trkpt lat="37.89102" lon="-122.62581" />
      <trkpt lat="37.89112" lon="-122.62586" />
      <trkpt lat="37.89152" lon="-122.62618" />
      <trkpt lat="37.8916" lon="-122.62629" />
      <trkpt lat="37.8917" lon="-122.62648" />
      <trkpt lat="37.89177" lon="-122.62672" />
      <trkpt lat="37.89185" lon="-122.62748" />
      <trkpt lat="37.89188" lon="-122.62788" />
      <trkpt lat="37.89184" lon="-122.62813" />
      <trkpt lat="37.89187" lon="-122.62826" />
      <trkpt lat="37.89197" lon="-122.6284" />
      <trkpt lat="37.89202" lon="-122.62852" />
      <trkpt lat="37.89251" lon="-122.62964" />
      <trkpt lat="37.89271" lon="-122.62999" />
      <trkpt lat="37.89285" lon="-122.6303" />
      <trkpt lat="37.89325" lon="-122.63103" />
      <trkpt lat="37.8935" lon="-122.63144" />
      <trkpt lat="37.8936" lon="-122.63157" />
      <trkpt lat="37.89371" lon="-122.63187" />
      <trkpt lat="37.89382" lon="-122.63202" />
      <trkpt lat="37.89385" lon="-122.63206" />
      <trkpt lat="37.89407" lon="-122.63217" />
      <trkpt lat="37.89422" lon="-122.63254" />
      <trkpt lat="37.89435" lon="-122.63275" />
      <trkpt lat="37.89457" lon="-122.63297" />
      <trkpt lat="37.89478" lon="-122.63312" />
      <trkpt lat="37.89496" lon="-122.63315" />
      <trkpt lat="37.89506" lon="-122.63315" />
      <trkpt lat="37.89533" lon="-122.63302" />
      <trkpt lat="37.89538" lon="-122.63297" />
      <trkpt lat="37.89544" lon="-122.63282" />
      <trkpt lat="37.89544" lon="-122.63272" />
      <trkpt lat="37.89543" lon="-122.63274" />
      <trkpt lat="37.89542" lon="-122.63272" />
      <trkpt lat="37.89542" lon="-122.63262" />
      <trkpt lat="37.89544" lon="-122.63259" />
      <trkpt lat="37.89549" lon="-122.63258" />
      <trkpt lat="37.89557" lon="-122.6326" />
      <trkpt lat="37.8956" lon="-122.63263" />
      <trkpt lat="37.89565" lon="-122.63265" />
      <trkpt lat="37.89574" lon="-122.63265" />
      <trkpt lat="37.89581" lon="-122.63274" />
      <trkpt lat="37.89599" lon="-122.63288" />
      <trkpt lat="37.89604" lon="-122.6329" />
      <trkpt lat="37.89615" lon="-122.633" />
      <trkpt lat="37.89619" lon="-122.63316" />
      <trkpt lat="37.89621" lon="-122.63332" />
      <trkpt lat="37.89627" lon="-122.63344" />
      <trkpt lat="37.89628" lon="-122.6335" />
      <trkpt lat="37.89628" lon="-122.63372" />
      <trkpt lat="37.89629" lon="-122.63377" />
      <trkpt lat="37.89642" lon="-122.6339" />
      <trkpt lat="37.89642" lon="-122.63408" />
      <trkpt lat="37.89649" lon="-122.63427" />
      <trkpt lat="37.89649" lon="-122.63444" />
      <trkpt lat="37.89653" lon="-122.63453" />
      <trkpt lat="37.89655" lon="-122.63471" />
      <trkpt lat="37.89655" lon="-122.63483" />
      <trkpt lat="37.89654" lon="-122.63492" />
      <trkpt lat="37.8965" lon="-122.635" />
      <trkpt lat="37.89648" lon="-122.6351" />
      <trkpt lat="37.89649" lon="-122.63518" />
      <trkpt lat="37.89654" lon="-122.6353" />
      <trkpt lat="37.89657" lon="-122.63559" />
    </trkseg>
  </trk>
</gpx>