<?xml version="1.0" encoding="UTF-8"?>
<gpx version="1.1" creator="strava-segment-scraper" xmlns="http://www.topografix.com/GPX/1/1">
  <trk>
    <name>Bike Path In</name>
    <trkseg>
      <trkpt lat="39.1496" lon="-121.75358" />
      <trkpt lat="39.1496" lon="-121.75352" />
      <trkpt lat="39.14971" lon="-121.75337" />
      <trkpt lat="39.14972" lon="-121.75327" />
      <trkpt lat="39.14978" lon="-121.75313" />
      <trkpt lat="39.1498" lon="-121.75298" />
      <trkpt lat="39.14978" lon="-121.75291" />
      <trkpt lat="39.14979" lon="-121.75266" />
      <trkpt lat="39.14978" lon="-121.75258" />
      <trkpt lat="39.1497" lon="-121.75242" />
      <trkpt lat="39.14972" lon="-121.75228" />
      <trkpt lat="39.14973" lon="-121.75203" />
      <trkpt lat="39.14973" lon="-121.75199" />
      <trkpt lat="39.14968" lon="-121.75188" />
      <trkpt lat="39.14971" lon="-121.75131" />
      <trkpt lat="39.14973" lon="-121.75112" />
      <trkpt lat="39.1497" lon="-121.75086" />
      <trkpt lat="39.14971" lon="-121.75076" />
      <trkpt lat="39.14976" lon="-121.75068" />
      <trkpt lat="39.14976" lon="-121.75061" />
      <trkpt lat="39.14969" lon="-121.75015" />
      <trkpt lat="39.14961" lon="-121.74978" />
      <trkpt lat="39.14958" lon="-121.74969" />
      <trkpt lat="39.14958" lon="-121.74959" />
      <trkpt lat="39.14962" lon="-121.74923" />
      <trkpt lat="39.14962" lon="-121.749" />
      <trkpt lat="39.14953" lon="-121.74834" />
      <trkpt lat="39.14951" lon="-121.74776" />
      <trkpt lat="39.1496" lon="-121.74727" />
      <trkpt lat="39.14955" lon="-121.74679" />
      <trkpt lat="39.14955" lon="-121.74625" />
      <trkpt lat="39.14958" lon="-121.74595" />
      <trkpt lat="39.14954" lon="-121.7457" />
      <trkpt lat="39.14952" lon="-121.74523" />
      <trkpt lat="39.14952" lon="-121.74466" />
      <trkpt lat="39.14948" lon="-121.74388" />
      <trkpt lat="39.14952" lon="-121.74356" />
      <trkpt lat="39.14948" lon="-121.74282" />
      <trkpt lat="39.14948" lon="-121.7424" />
      <trkpt lat="39.14946" lon="-121.74216" />
      <trkpt lat="39.14948" lon="-121.74192" />
      <trkpt lat="39.14948" lon="-121.74168" />
      <trkpt lat="39.14943" lon="-121.74096" />
      <trkpt lat="39.14945" lon="-121.74049" />
      <trkpt lat="39.14944" lon="-121.74017" />
      <trkpt lat="39.14945" lon="-121.73925" />
      <trkpt lat="39.14944" lon="-121.73864" />
      <trkpt lat="39.14942" lon="-121.73837" />
      <trkpt lat="39.14941" lon="-121.73697" />
      <trkpt lat="39.14945" lon="-121.73657" />
      <trkpt lat="39.1494" lon="-121.73601" />
      <trkpt lat="39.14937" lon="-121.7352" />
      <trkpt lat="39.14938" lon="-121.73452" />
      <trkpt lat="39.14937" lon="-121.73388" />
      <trkpt lat="39.14938" lon="-121.73351" />
      <trkpt lat="39.14934" lon="-121.73246" />
      <trkpt lat="39.14936" lon="-121.73155" />
      <trkpt lat="39.14934" lon="-121.73109" />
      <trkpt lat="39.14932" lon="-121.72971" />
      <trkpt lat="39.14929" lon="-121.72941" />
      <trkpt lat="39.14933" lon="-121.72884" />
      <trkpt lat="39.1493" lon="-121.72861" />
      <trkpt lat="39.1493" lon="-121.72783" />
      <trkpt lat="39.14926" lon="-121.72689" />
      <trkpt lat="39.14929" lon="-121.7261" />
      <trkpt lat="39.14926" lon="-121.726" />
      <trkpt lat="39.14929" lon="-121.72564" />
      <trkpt lat="39.1492" lon="-121.72493" />
      <trkpt lat="39.14924" lon="-121.72408" />
      <trkpt lat="39.14923" lon="-121.72362" />
      <trkpt lat="39.14926" lon="-121.72336" />
      <trkpt lat="39.14917" lon="-121.72235" />
      <trkpt lat="39.1492" lon="-121.72211" />
      <trkpt lat="39.1492" lon="-121.72197" />
      <trkpt lat="39.14922" lon="-121.72184" />
      <trkpt lat="39.1492" lon="-121.72112" />
      <trkpt lat="39.14917" lon="-121.72082" />
      <trkpt lat="39.1492" lon="-121.72075" />
      <trkpt lat="39.14919" lon="-121.72039" />
      <trkpt lat="39.14921" lon="-121.72019" />
      <trkpt lat="39.14919" lon="-121.72015" />
      <trkpt lat="39.14918" lon="-121.71999" />
      <trkpt lat="39.14919" lon="-121.71966" />
      <trkpt lat="39.14915" lon="-121.71905" />
      <trkpt lat="39.14913" lon="-121.719" />
      <trkpt lat="39.14914" lon="-121.71873" />
      <trkpt lat="39.14912" lon="-121.71857" />
      <trkpt lat="39.14917" lon="-121.71816" />
      <trkpt lat="39.14918" lon="-121.71773" />
      <trkpt lat="39.14916" lon="-121.71747" />
      <trkpt lat="39.14916" lon="-121.71729" />
      <trkpt lat="39.14918" lon="-121.71705" />
      <trkpt lat="39.14914" lon="-121.71617" />
      <trkpt lat="39.14913" lon="-121.71539" />
      <trkpt lat="39.14914" lon="-121.71474" />
      <trkpt lat="39.14917" lon="-121.71424" />
      <trkpt lat="39.14911" lon="-121.71374" />
      <trkpt lat="39.1491" lon="-121.71349" />
      <trkpt lat="39.14912" lon="-121.71313" />
      <trkpt lat="39.1491" lon="-121.71301" />
      <trkpt lat="39.14909" lon="-121.71253" />
      <trkpt lat="39.14905" lon="-121.71214" />
      <trkpt lat="39.14905" lon="-121.71161" />
      <trkpt lat="39.14907" lon="-121.71119" />
      <trkpt lat="39.14905" lon="-121.71088" />
      <trkpt lat="39.1491" lon="-121.70987" />
      <trkpt lat="39.14901" lon="-121.7092" />
      <trkpt lat="39.14904" lon="-121.70876" />
      <trkpt lat="39.14902" lon="-121.70753" />
      <trkpt lat="39.14905" lon="-121.70741" />
      <trkpt lat="39.14904" lon="-121.70698" />
      <trkpt lat="39.14906" lon="-121.7069" />
      <trkpt lat="39.14901" lon="-121.70648" />
      <trkpt lat="39.149" lon="-121.70605" />
      <trkpt lat="39.149" lon="-121.70568" />
      <trkpt lat="39.14901" lon="-121.70544" />
      <trkpt lat="39.14901" lon="-121.70484" />
      <trkpt lat="39.149" lon="-121.70453" />
      <trkpt lat="39.14902" lon="-121.70426" />
      <trkpt lat="39.14902" lon="-121.704" />
      <trkpt lat="39.14899" lon="-121.70378" />
      <trkpt lat="39.14898" lon="-121.70342" />
      <trkpt lat="39.14898" lon="-121.70328" />
      <trkpt lat="39.14894" lon="-121.70231" />
      <trkpt lat="39.14893" lon="-121.70183" />
      <trkpt lat="39.14895" lon="-121.70161" />
      <trkpt lat="39.14894" lon="-121.70143" />
      <trkpt lat="39.149" lon="-121.70118" />
      <trkpt lat="39.149" lon="-121.7011" />
      <trkpt lat="39.14896" lon="-121.70098" />
      <trkpt lat="39.14898" lon="-121.70065" />
      <trkpt lat="39.14892" lon="-121.69925" />
      <trkpt lat="39.14897" lon="-121.69894" />
      <trkpt lat="39.14894" lon="-121.6985" />
      <trkpt lat="39.14895" lon="-121.69826" />
      <trkpt lat="39.14892" lon="-121.69795" />
      <trkpt lat="39.1489" lon="-121.69788" />
      <trkpt lat="39.14893" lon="-121.69725" />
      <trkpt lat="39.14892" lon="-121.69701" />
      <trkpt lat="39.14888" lon="-121.69669" />
      <trkpt lat="39.14889" lon="-121.69634" />
      <trkpt lat="39.14888" lon="-121.69608" />
      <trkpt lat="39.14895" lon="-121.69521" />
      <trkpt lat="39.14891" lon="-121.6949" />
      <trkpt lat="39.14892" lon="-121.6948" />
      <trkpt lat="39.14887" lon="-121.69386" />
      <trkpt lat="39.14889" lon="-121.69335" />
      <trkpt lat="39.14888" lon="-121.69299" />
      <trkpt lat="39.14882" lon="-121.6925" />
      <trkpt lat="39.14884" lon="-121.69214" />
      <trkpt lat="39.14889" lon="-121.69173" />
      <trkpt lat="39.14889" lon="-121.69126" />
      <trkpt lat="39.14884" lon="-121.69093" />
      <trkpt lat="39.14884" lon="-121.69072" />
      <trkpt lat="39.14887" lon="-121.69049" />
      <trkpt lat="39.14887" lon="-121.69012" />
      <trkpt lat="39.14884" lon="-121.68894" />
      <trkpt lat="39.14882" lon="-121.68873" />
      <trkpt lat="39.14882" lon="-121.68848" />
      <trkpt lat="39.1488" lon="-121.68823" />
      <trkpt lat="39.1488" lon="-121.6878" />
      <trkpt lat="39.14878" lon="-121.68741" />
      <trkpt lat="39.14882" lon="-121.68672" />
      <trkpt lat="39.1488" lon="-121.68596" />
      <trkpt lat="39.14875" lon="-121.68557" />
      <trkpt lat="39.14878" lon="-121.68494" />
      <trkpt lat="39.14876" lon="-121.68443" />
      <trkpt lat="39.14876" lon="-121.68375" />
      <trkpt lat="39.14871" lon="-121.68349" />
      <trkpt lat="39.14871" lon="-121.68262" />
      <trkpt lat="39.14867" lon="-121.682" />
      <trkpt lat="39.1487" lon="-121.68097" />
      <trkpt lat="39.14874" lon="-121.68071" />
      <trkpt lat="39.14876" lon="-121.68045" />
      <trkpt lat="39.14874" lon="-121.68016" />
      <trkpt lat="39.14874" lon="-121.68005" />
      <trkpt lat="39.1487" lon="-121.67971" />
      <trkpt lat="39.14868" lon="-121.67895" />
      <trkpt lat="39.1487" lon="-121.67867" />
      <trkpt lat="39.14866" lon="-121.67752" />
      <trkpt lat="39.14864" lon="-121.67719" />
      <trkpt lat="39.14865" lon="-121.67672" />
      <trkpt lat="39.14864" lon="-121.67656" />
      <trkpt lat="39.14867" lon="-121.6764" />
      <trkpt lat="39.14866" lon="-121.67639" />
      <trkpt lat="39.14863" lon="-121.67602" />
      <trkpt lat="39.14865" lon="-121.6758" />
      <trkpt lat="39.14865" lon="-121.67521" />
      <trkpt lat="39.14871" lon="-121.67431" />
      <trkpt lat="39.14866" lon="-121.67404" />
      <trkpt lat="39.14864" lon="-121.67356" />
      <trkpt lat="39.14863" lon="-121.67344" />
      <trkpt lat="39.14866" lon="-121.67326" />
      <trkpt lat="39.14863" lon="-121.67297" />
      <trkpt lat="39.14864" lon="-121.67226" />
      <trkpt lat="39.14861" lon="-121.67198" />
      <trkpt lat="39.14863" lon="-121.67118" />
      <trkpt lat="39.14859" lon="-121.67043" />
      <trkpt lat="39.14856" lon="-121.66923" />
      <trkpt lat="39.14858" lon="-121.668" />
      <trkpt lat="39.14857" lon="-121.66761" />
      <trkpt lat="39.14859" lon="-121.66736" />
    </trkseg>
  </trk>
</gpx>