<?xml version="1.0" encoding="UTF-8"?>
<gpx version="1.1" creator="strava-segment-scraper" xmlns="http://www.topografix.com/GPX/1/1">
  <trk>
    <name>Jamison Creek</name>
    <trkseg>
      <trkpt lat="37.14625" lon="-122.15853" />
      <trkpt lat="37.14647" lon="-122.159" />
      <trkpt lat="37.14664" lon="-122.15924" />
      <trkpt lat="37.14673" lon="-122.1594" />
      <trkpt lat="37.14673" lon="-122.15966" />
      <trkpt lat="37.14682" lon="-122.15996" />
      <trkpt lat="37.14724" lon="-122.16064" />
      <trkpt lat="37.14762" lon="-122.16117" />
      <trkpt lat="37.14781" lon="-122.16147" />
      <trkpt lat="37.14788" lon="-122.16167" />
      <trkpt lat="37.14796" lon="-122.16205" />
      <trkpt lat="37.14803" lon="-122.1623" />
      <trkpt lat="37.14811" lon="-122.16251" />
      <trkpt lat="37.14827" lon="-122.16278" />
      <trkpt lat="37.14847" lon="-122.16299" />
      <trkpt lat="37.14873" lon="-122.1632" />
      <trkpt lat="37.14899" lon="-122.16347" />
      <trkpt lat="37.14926" lon="-122.16369" />
      <trkpt lat="37.14954" lon="-122.16404" />
      <trkpt lat="37.14966" lon="-122.16416" />
      <trkpt lat="37.14981" lon="-122.16451" />
      <trkpt lat="37.14988" lon="-122.16474" />
      <trkpt lat="37.14988" lon="-122.16496" />
      <trkpt lat="37.14985" lon="-122.16521" />
      <trkpt lat="37.14983" lon="-122.16565" />
      <trkpt lat="37.14987" lon="-122.16584" />
      <trkpt lat="37.1501" lon="-122.16636" />
      <trkpt lat="37.15021" lon="-122.16666" />
      <trkpt lat="37.15026" lon="-122.16695" />
      <trkpt lat="37.15026" lon="-122.16751" />
      <trkpt lat="37.15024" lon="-122.16773" />
      <trkpt lat="37.15016" lon="-122.168" />
      <trkpt lat="37.15006" lon="-122.16822" />
      <trkpt lat="37.1494" lon="-122.16941" />
      <trkpt lat="37.14921" lon="-122.16998" />
      <trkpt lat="37.1492" lon="-122.17011" />
      <trkpt lat="37.14925" lon="-122.1706" />
      <trkpt lat="37.14927" lon="-122.17137" />
      <trkpt lat="37.14923" lon="-122.17184" />
      <trkpt lat="37.14932" lon="-122.1721" />
      <trkpt lat="37.14958" lon="-122.17233" />
      <trkpt lat="37.1497" lon="-122.17249" />
      <trkpt lat="37.14986" lon="-122.17281" />
      <trkpt lat="37.14993" lon="-122.17338" />
      <trkpt lat="37.14998" lon="-122.17368" />
      <trkpt lat="37.15023" lon="-122.17383" />
      <trkpt lat="37.1503" lon="-122.17397" />
      <trkpt lat="37.15038" lon="-122.1743" />
      <trkpt lat="37.15026" lon="-122.17475" />
      <trkpt lat="37.15027" lon="-122.17489" />
      <trkpt lat="37.15042" lon="-122.17488" />
      <trkpt lat="37.15044" lon="-122.17491" />
      <trkpt lat="37.15051" lon="-122.17532" />
      <trkpt lat="37.15065" lon="-122.17564" />
      <trkpt lat="37.15081" lon="-122.17625" />
      <trkpt lat="37.15084" lon="-122.17679" />
      <trkpt lat="37.15087" lon="-122.17698" />
      <trkpt lat="37.15095" lon="-122.17718" />
      <trkpt lat="37.15103" lon="-122.17738" />
      <trkpt lat="37.15131" lon="-122.1778" />
      <trkpt lat="37.15137" lon="-122.17783" />
      <trkpt lat="37.15131" lon="-122.17788" />
      <trkpt lat="37.15126" lon="-122.17789" />
      <trkpt lat="37.15073" lon="-122.17748" />
      <trkpt lat="37.15059" lon="-122.17728" />
      <trkpt lat="37.15051" lon="-122.17709" />
      <trkpt lat="37.15037" lon="-122.17686" />
      <trkpt lat="37.15026" lon="-122.17683" />
      <trkpt lat="37.15009" lon="-122.17699" />
      <trkpt lat="37.15005" lon="-122.17701" />
      <trkpt lat="37.14992" lon="-122.17702" />
      <trkpt lat="37.14969" lon="-122.17702" />
      <trkpt lat="37.1495" lon="-122.17708" />
      <trkpt lat="37.14932" lon="-122.17709" />
      <trkpt lat="37.14922" lon="-122.17703" />
      <trkpt lat="37.14916" lon="-122.17702" />
      <trkpt lat="37.14903" lon="-122.17703" />
      <trkpt lat="37.14909" lon="-122.17687" />
      <trkpt lat="37.1491" lon="-122.1767" />
      <trkpt lat="37.14914" lon="-122.17654" />
      <trkpt lat="37.1491" lon="-122.1763" />
      <trkpt lat="37.14915" lon="-122.17583" />
      <trkpt lat="37.14922" lon="-122.17559" />
      <trkpt lat="37.14923" lon="-122.17533" />
      <trkpt lat="37.14914" lon="-122.17516" />
      <trkpt lat="37.14872" lon="-122.17491" />
      <trkpt lat="37.1486" lon="-122.17479" />
      <trkpt lat="37.14848" lon="-122.17446" />
      <trkpt lat="37.1483" lon="-122.17425" />
      <trkpt lat="37.14824" lon="-122.17421" />
      <trkpt lat="37.14813" lon="-122.17422" />
      <trkpt lat="37.14803" lon="-122.17434" />
      <trkpt lat="37.148" lon="-122.17445" />
      <trkpt lat="37.1481" lon="-122.17508" />
      <trkpt lat="37.14822" lon="-122.17552" />
      <trkpt lat="37.14826" lon="-122.17578" />
      <trkpt lat="37.14823" lon="-122.17592" />
      <trkpt lat="37.14817" lon="-122.17605" />
      <trkpt lat="37.14797" lon="-122.17625" />
      <trkpt lat="37.14785" lon="-122.17635" />
      <trkpt lat="37.14774" lon="-122.17649" />
      <trkpt lat="37.14771" lon="-122.17662" />
      <trkpt lat="37.1477" lon="-122.17675" />
      <trkpt lat="37.14779" lon="-122.17713" />
      <trkpt lat="37.14777" lon="-122.17728" />
      <trkpt lat="37.14771" lon="-122.1774" />
      <trkpt lat="37.14761" lon="-122.17754" />
      <trkpt lat="37.14746" lon="-122.17766" />
      <trkpt lat="37.14717" lon="-122.17779" />
      <trkpt lat="37.14705" lon="-122.17788" />
      <trkpt lat="37.14699" lon="-122.178" />
      <trkpt lat="37.14689" lon="-122.17813" />
      <trkpt lat="37.14677" lon="-122.17817" />
      <trkpt lat="37.14667" lon="-122.17822" />
      <trkpt lat="37.14666" lon="-122.17825" />
      <trkpt lat="37.14665" lon="-122.17832" />
      <trkpt lat="37.14674" lon="-122.17838" />
      <trkpt lat="37.1469" lon="-122.17839" />
      <trkpt lat="37.14705" lon="-122.17847" />
      <trkpt lat="37.14716" lon="-122.17856" />
      <trkpt lat="37.14726" lon="-122.17875" />
      <trkpt lat="37.14731" lon="-122.17891" />
      <trkpt lat="37.14725" lon="-122.17911" />
      <trkpt lat="37.14718" lon="-122.17927" />
      <trkpt lat="37.14705" lon="-122.17969" />
      <trkpt lat="37.14688" lon="-122.17999" />
      <trkpt lat="37.14673" lon="-122.18011" />
      <trkpt lat="37.14655" lon="-122.18017" />
      <trkpt lat="37.14643" lon="-122.18023" />
      <trkpt lat="37.14622" lon="-122.18049" />
      <trkpt lat="37.14616" lon="-122.18062" />
      <trkpt lat="37.14602" lon="-122.18071" />
      <trkpt lat="37.14572" lon="-122.18074" />
      <trkpt lat="37.14559" lon="-122.18078" />
      <trkpt lat="37.14541" lon="-122.18076" />
      <trkpt lat="37.14517" lon="-122.18065" />
      <trkpt lat="37.14506" lon="-122.18066" />
      <trkpt lat="37.14478" lon="-122.18062" />
      <trkpt lat="37.14464" lon="-122.18057" />
      <trkpt lat="37.14451" lon="-122.18043" />
      <trkpt lat="37.14424" lon="-122.18024" />
      <trkpt lat="37.14415" lon="-122.18014" />
      <trkpt lat="37.14399" lon="-122.18009" />
      <trkpt lat="37.14371" lon="-122.18019" />
      <trkpt lat="37.14321" lon="-122.18043" />
      <trkpt lat="37.14314" lon="-122.1805" />
      <trkpt lat="37.14309" lon="-122.18072" />
      <trkpt lat="37.14315" lon="-122.18085" />
      <trkpt lat="37.1432" lon="-122.18102" />
      <trkpt lat="37.1433" lon="-122.18121" />
      <trkpt lat="37.14328" lon="-122.1816" />
      <trkpt lat="37.14331" lon="-122.1818" />
      <trkpt lat="37.14336" lon="-122.182" />
      <trkpt lat="37.14344" lon="-122.18217" />
      <trkpt lat="37.14351" lon="-122.18246" />
      <trkpt lat="37.14342" lon="-122.18252" />
      <trkpt lat="37.14323" lon="-122.18254" />
      <trkpt lat="37.14313" lon="-122.18233" />
      <trkpt lat="37.14307" lon="-122.18211" />
      <trkpt lat="37.143" lon="-122.18197" />
      <trkpt lat="37.1427" lon="-122.18175" />
      <trkpt lat="37.14246" lon="-122.18159" />
      <trkpt lat="37.14234" lon="-122.18153" />
      <trkpt lat="37.1422" lon="-122.18158" />
      <trkpt lat="37.14211" lon="-122.18165" />
      <trkpt lat="37.14208" lon="-122.18179" />
      <trkpt lat="37.14209" lon="-122.18187" />
      <trkpt lat="37.14215" lon="-122.18208" />
      <trkpt lat="37.14243" lon="-122.18227" />
      <trkpt lat="37.14253" lon="-122.18243" />
      <trkpt lat="37.14259" lon="-122.18257" />
      <trkpt lat="37.14263" lon="-122.18282" />
      <trkpt lat="37.14261" lon="-122.18313" />
      <trkpt lat="37.14257" lon="-122.18328" />
      <trkpt lat="37.14248" lon="-122.1834" />
      <trkpt lat="37.14238" lon="-122.18357" />
      <trkpt lat="37.14231" lon="-122.18383" />
      <trkpt lat="37.14241" lon="-122.18403" />
      <trkpt lat="37.14266" lon="-122.18426" />
      <trkpt lat="37.14287" lon="-122.1845" />
      <trkpt lat="37.14295" lon="-122.18465" />
      <trkpt lat="37.143" lon="-122.18484" />
      <trkpt lat="37.143" lon="-122.18503" />
      <trkpt lat="37.143" lon="-122.18521" />
      <trkpt lat="37.14295" lon="-122.18539" />
      <trkpt lat="37.14278" lon="-122.18579" />
      <trkpt lat="37.14263" lon="-122.18608" />
      <trkpt lat="37.1422" lon="-122.18683" />
    </trkseg>
  </trk>
</gpx>