<?xml version="1.0" encoding="UTF-8"?>
<gpx version="1.1" creator="strava-segment-scraper" xmlns="http://www.topografix.com/GPX/1/1">
  <trk>
    <name>Johnson Camp Cool Down</name>
    <trkseg>
      <trkpt lat="40.32782" lon="-123.98011" />
      <trkpt lat="40.32787" lon="-123.97991" />
      <trkpt lat="40.328" lon="-123.97981" />
      <trkpt lat="40.32809" lon="-123.97986" />
      <trkpt lat="40.32827" lon="-123.97991" />
      <trkpt lat="40.32835" lon="-123.97986" />
      <trkpt lat="40.32852" lon="-123.97966" />
      <trkpt lat="40.32861" lon="-123.97949" />
      <trkpt lat="40.32871" lon="-123.97904" />
      <trkpt lat="40.32874" lon="-123.97883" />
      <trkpt lat="40.32879" lon="-123.97866" />
      <trkpt lat="40.32882" lon="-123.97836" />
      <trkpt lat="40.32889" lon="-123.97803" />
      <trkpt lat="40.32891" lon="-123.97778" />
      <trkpt lat="40.32887" lon="-123.97764" />
      <trkpt lat="40.32884" lon="-123.97759" />
      <trkpt lat="40.32882" lon="-123.97733" />
      <trkpt lat="40.32885" lon="-123.97709" />
      <trkpt lat="40.32893" lon="-123.97665" />
      <trkpt lat="40.329" lon="-123.9764" />
      <trkpt lat="40.32912" lon="-123.9761" />
      <trkpt lat="40.32919" lon="-123.97598" />
      <trkpt lat="40.32927" lon="-123.9759" />
      <trkpt lat="40.32933" lon="-123.9758" />
      <trkpt lat="40.32943" lon="-123.9757" />
      <trkpt lat="40.32964" lon="-123.97562" />
      <trkpt lat="40.32981" lon="-123.9756" />
      <trkpt lat="40.32987" lon="-123.97556" />
      <trkpt lat="40.33007" lon="-123.97538" />
      <trkpt lat="40.33022" lon="-123.97526" />
      <trkpt lat="40.33034" lon="-123.97514" />
      <trkpt lat="40.33042" lon="-123.9751" />
      <trkpt lat="40.33057" lon="-123.97496" />
      <trkpt lat="40.33059" lon="-123.97489" />
      <trkpt lat="40.33046" lon="-123.97447" />
      <trkpt lat="40.33033" lon="-123.9743" />
      <trkpt lat="40.33018" lon="-123.97418" />
      <trkpt lat="40.33012" lon="-123.9742" />
      <trkpt lat="40.33001" lon="-123.97433" />
      <trkpt lat="40.32985" lon="-123.97447" />
      <trkpt lat="40.32969" lon="-123.97455" />
      <trkpt lat="40.32948" lon="-123.97442" />
      <trkpt lat="40.32942" lon="-123.97432" />
      <trkpt lat="40.3294" lon="-123.97422" />
      <trkpt lat="40.32936" lon="-123.97413" />
      <trkpt lat="40.32931" lon="-123.97407" />
      <trkpt lat="40.32925" lon="-123.97402" />
      <trkpt lat="40.329" lon="-123.97387" />
      <trkpt lat="40.32891" lon="-123.97379" />
      <trkpt lat="40.3289" lon="-123.97374" />
      <trkpt lat="40.32895" lon="-123.97373" />
      <trkpt lat="40.32904" lon="-123.97366" />
      <trkpt lat="40.32915" lon="-123.97347" />
      <trkpt lat="40.32927" lon="-123.97317" />
      <trkpt lat="40.32936" lon="-123.97301" />
      <trkpt lat="40.32941" lon="-123.97295" />
      <trkpt lat="40.32948" lon="-123.97282" />
      <trkpt lat="40.32959" lon="-123.97267" />
      <trkpt lat="40.32955" lon="-123.97256" />
      <trkpt lat="40.32956" lon="-123.97247" />
      <trkpt lat="40.32961" lon="-123.97225" />
      <trkpt lat="40.32967" lon="-123.97218" />
      <trkpt lat="40.3297" lon="-123.97206" />
      <trkpt lat="40.32972" lon="-123.9717" />
      <trkpt lat="40.32978" lon="-123.97156" />
      <trkpt lat="40.32972" lon="-123.97137" />
      <trkpt lat="40.32963" lon="-123.97128" />
      <trkpt lat="40.32953" lon="-123.9711" />
      <trkpt lat="40.32917" lon="-123.97093" />
      <trkpt lat="40.32902" lon="-123.97061" />
      <trkpt lat="40.32902" lon="-123.97053" />
      <trkpt lat="40.32899" lon="-123.97048" />
      <trkpt lat="40.32882" lon="-123.97048" />
      <trkpt lat="40.32878" lon="-123.97043" />
      <trkpt lat="40.3287" lon="-123.9704" />
      <trkpt lat="40.32859" lon="-123.97026" />
      <trkpt lat="40.32859" lon="-123.97019" />
      <trkpt lat="40.32861" lon="-123.97014" />
      <trkpt lat="40.32875" lon="-123.96999" />
      <trkpt lat="40.32873" lon="-123.9698" />
      <trkpt lat="40.32865" lon="-123.96958" />
      <trkpt lat="40.32865" lon="-123.9695" />
      <trkpt lat="40.32872" lon="-123.96944" />
      <trkpt lat="40.32875" lon="-123.96937" />
      <trkpt lat="40.32891" lon="-123.96916" />
      <trkpt lat="40.32887" lon="-123.96895" />
      <trkpt lat="40.32895" lon="-123.96877" />
      <trkpt lat="40.32893" lon="-123.96868" />
      <trkpt lat="40.32886" lon="-123.96868" />
      <trkpt lat="40.32876" lon="-123.96861" />
      <trkpt lat="40.32877" lon="-123.96826" />
      <trkpt lat="40.32884" lon="-123.96816" />
      <trkpt lat="40.32888" lon="-123.96798" />
      <trkpt lat="40.32899" lon="-123.96778" />
      <trkpt lat="40.32902" lon="-123.96774" />
      <trkpt lat="40.32909" lon="-123.9676" />
      <trkpt lat="40.32927" lon="-123.96731" />
      <trkpt lat="40.32925" lon="-123.96717" />
      <trkpt lat="40.32922" lon="-123.96714" />
      <trkpt lat="40.32906" lon="-123.96707" />
      <trkpt lat="40.32889" lon="-123.96696" />
      <trkpt lat="40.32859" lon="-123.96671" />
      <trkpt lat="40.32857" lon="-123.96662" />
      <trkpt lat="40.32865" lon="-123.96653" />
      <trkpt lat="40.3287" lon="-123.96642" />
      <trkpt lat="40.32872" lon="-123.96632" />
      <trkpt lat="40.32871" lon="-123.96608" />
      <trkpt lat="40.32866" lon="-123.96601" />
      <trkpt lat="40.32862" lon="-123.96599" />
      <trkpt lat="40.32857" lon="-123.96585" />
      <trkpt lat="40.32866" lon="-123.9657" />
      <trkpt lat="40.32868" lon="-123.96552" />
      <trkpt lat="40.32865" lon="-123.96536" />
      <trkpt lat="40.32864" lon="-123.96512" />
      <trkpt lat="40.32862" lon="-123.96507" />
      <trkpt lat="40.32855" lon="-123.96502" />
      <trkpt lat="40.32857" lon="-123.96481" />
      <trkpt lat="40.3286" lon="-123.96462" />
      <trkpt lat="40.32875" lon="-123.96445" />
      <trkpt lat="40.32883" lon="-123.96429" />
      <trkpt lat="40.32885" lon="-123.96415" />
      <trkpt lat="40.32881" lon="-123.964" />
      <trkpt lat="40.32887" lon="-123.96378" />
      <trkpt lat="40.32892" lon="-123.96354" />
      <trkpt lat="40.329" lon="-123.96332" />
      <trkpt lat="40.32903" lon="-123.9631" />
      <trkpt lat="40.32906" lon="-123.96299" />
      <trkpt lat="40.32915" lon="-123.96292" />
      <trkpt lat="40.32917" lon="-123.96285" />
      <trkpt lat="40.32926" lon="-123.96279" />
      <trkpt lat="40.32941" lon="-123.96267" />
      <trkpt lat="40.32955" lon="-123.9625" />
      <trkpt lat="40.32963" lon="-123.96245" />
      <trkpt lat="40.32969" lon="-123.96237" />
      <trkpt lat="40.32975" lon="-123.96236" />
      <trkpt lat="40.32978" lon="-123.96238" />
      <trkpt lat="40.32978" lon="-123.9624" />
      <trkpt lat="40.32966" lon="-123.96249" />
      <trkpt lat="40.3296" lon="-123.96259" />
      <trkpt lat="40.32956" lon="-123.96271" />
      <trkpt lat="40.32941" lon="-123.96294" />
      <trkpt lat="40.3294" lon="-123.96315" />
      <trkpt lat="40.32942" lon="-123.96322" />
      <trkpt lat="40.3294" lon="-123.96328" />
      <trkpt lat="40.32951" lon="-123.96352" />
      <trkpt lat="40.32949" lon="-123.96359" />
      <trkpt lat="40.32947" lon="-123.96375" />
      <trkpt lat="40.32937" lon="-123.96397" />
      <trkpt lat="40.3293" lon="-123.96406" />
      <trkpt lat="40.32923" lon="-123.96426" />
      <trkpt lat="40.32927" lon="-123.96445" />
      <trkpt lat="40.3294" lon="-123.96465" />
      <trkpt lat="40.32941" lon="-123.96486" />
      <trkpt lat="40.32959" lon="-123.9652" />
      <trkpt lat="40.32958" lon="-123.96543" />
      <trkpt lat="40.3298" lon="-123.96565" />
      <trkpt lat="40.3298" lon="-123.96567" />
      <trkpt lat="40.32989" lon="-123.96579" />
      <trkpt lat="40.32996" lon="-123.96578" />
      <trkpt lat="40.33019" lon="-123.9657" />
      <trkpt lat="40.33032" lon="-123.96574" />
      <trkpt lat="40.33052" lon="-123.96597" />
      <trkpt lat="40.33064" lon="-123.96602" />
      <trkpt lat="40.33066" lon="-123.96605" />
      <trkpt lat="40.3307" lon="-123.9662" />
      <trkpt lat="40.33063" lon="-123.96651" />
      <trkpt lat="40.33064" lon="-123.96674" />
      <trkpt lat="40.33057" lon="-123.96707" />
      <trkpt lat="40.33056" lon="-123.96728" />
      <trkpt lat="40.33052" lon="-123.96754" />
      <trkpt lat="40.33048" lon="-123.96762" />
      <trkpt lat="40.33047" lon="-123.96777" />
      <trkpt lat="40.33052" lon="-123.96785" />
      <trkpt lat="40.33061" lon="-123.96792" />
      <trkpt lat="40.33061" lon="-123.96796" />
      <trkpt lat="40.33059" lon="-123.96798" />
      <trkpt lat="40.33059" lon="-123.96809" />
      <trkpt lat="40.33065" lon="-123.96818" />
      <trkpt lat="40.33071" lon="-123.9683" />
      <trkpt lat="40.33074" lon="-123.96833" />
      <trkpt lat="40.33077" lon="-123.96839" />
      <trkpt lat="40.33094" lon="-123.96851" />
      <trkpt lat="40.33095" lon="-123.96879" />
      <trkpt lat="40.33102" lon="-123.96888" />
      <trkpt lat="40.33114" lon="-123.96897" />
      <trkpt lat="40.33122" lon="-123.96897" />
      <trkpt lat="40.3313" lon="-123.96899" />
      <trkpt lat="40.33136" lon="-123.96897" />
      <trkpt lat="40.3315" lon="-123.96891" />
      <trkpt lat="40.33167" lon="-123.96886" />
      <trkpt lat="40.33174" lon="-123.96885" />
      <trkpt lat="40.33185" lon="-123.96882" />
      <trkpt lat="40.33224" lon="-123.96864" />
      <trkpt lat="40.33242" lon="-123.96861" />
      <trkpt lat="40.33267" lon="-123.96839" />
      <trkpt lat="40.33276" lon="-123.96836" />
      <trkpt lat="40.33284" lon="-123.96839" />
      <trkpt lat="40.33292" lon="-123.9684" />
      <trkpt lat="40.333" lon="-123.96834" />
      <trkpt lat="40.33308" lon="-123.96836" />
      <trkpt lat="40.33319" lon="-123.96843" />
      <trkpt lat="40.3333" lon="-123.96844" />
      <trkpt lat="40.33348" lon="-123.9684" />
      <trkpt lat="40.33359" lon="-123.96843" />
      <trkpt lat="40.3337" lon="-123.96848" />
      <trkpt lat="40.33397" lon="-123.96856" />
      <trkpt lat="40.33402" lon="-123.96863" />
      <trkpt lat="40.33413" lon="-123.96874" />
      <trkpt lat="40.33425" lon="-123.96877" />
      <trkpt lat="40.33449" lon="-123.96864" />
      <trkpt lat="40.33483" lon="-123.96842" />
      <trkpt lat="40.33488" lon="-123.96837" />
      <trkpt lat="40.3351" lon="-123.96824" />
      <trkpt lat="40.33542" lon="-123.96828" />
      <trkpt lat="40.33571" lon="-123.96835" />
      <trkpt lat="40.33583" lon="-123.96827" />
      <trkpt lat="40.33598" lon="-123.96827" />
      <trkpt lat="40.33619" lon="-123.96837" />
      <trkpt lat="40.33626" lon="-123.96833" />
      <trkpt lat="40.33635" lon="-123.96828" />
      <trkpt lat="40.33664" lon="-123.96836" />
      <trkpt lat="40.33671" lon="-123.9683" />
      <trkpt lat="40.33677" lon="-123.96818" />
      <trkpt lat="40.33693" lon="-123.96803" />
      <trkpt lat="40.3371" lon="-123.96807" />
      <trkpt lat="40.33735" lon="-123.96802" />
      <trkpt lat="40.33758" lon="-123.96792" />
      <trkpt lat="40.33757" lon="-123.96789" />
      <trkpt lat="40.33758" lon="-123.96783" />
      <trkpt lat="40.33756" lon="-123.96785" />
      <trkpt lat="40.33774" lon="-123.96779" />
      <trkpt lat="40.33789" lon="-123.96777" />
      <trkpt lat="40.33792" lon="-123.96775" />
      <trkpt lat="40.33796" lon="-123.96766" />
      <trkpt lat="40.33806" lon="-123.9675" />
      <trkpt lat="40.33817" lon="-123.9674" />
      <trkpt lat="40.33828" lon="-123.96721" />
      <trkpt lat="40.3383" lon="-123.96703" />
      <trkpt lat="40.33835" lon="-123.96695" />
      <trkpt lat="40.33855" lon="-123.9668" />
      <trkpt lat="40.33863" lon="-123.96662" />
      <trkpt lat="40.33875" lon="-123.96652" />
      <trkpt lat="40.33884" lon="-123.96649" />
      <trkpt lat="40.33911" lon="-123.96659" />
      <trkpt lat="40.33926" lon="-123.96672" />
      <trkpt lat="40.33935" lon="-123.96717" />
      <trkpt lat="40.33945" lon="-123.96735" />
      <trkpt lat="40.33945" lon="-123.96742" />
      <trkpt lat="40.33942" lon="-123.96748" />
      <trkpt lat="40.33937" lon="-123.96751" />
      <trkpt lat="40.33934" lon="-123.9675" />
      <trkpt lat="40.33926" lon="-123.96757" />
      <trkpt lat="40.33918" lon="-123.9678" />
      <trkpt lat="40.33917" lon="-123.96793" />
      <trkpt lat="40.33909" lon="-123.96828" />
      <trkpt lat="40.3389" lon="-123.96854" />
      <trkpt lat="40.33885" lon="-123.96863" />
      <trkpt lat="40.33881" lon="-123.96879" />
      <trkpt lat="40.33874" lon="-123.9688" />
      <trkpt lat="40.33861" lon="-123.96898" />
      <trkpt lat="40.33848" lon="-123.96902" />
      <trkpt lat="40.3384" lon="-123.96901" />
      <trkpt lat="40.33838" lon="-123.96898" />
      <trkpt lat="40.33833" lon="-123.96899" />
      <trkpt lat="40.33826" lon="-123.96904" />
      <trkpt lat="40.33804" lon="-123.9693" />
      <trkpt lat="40.33792" lon="-123.96928" />
      <trkpt lat="40.33781" lon="-123.96929" />
      <trkpt lat="40.33763" lon="-123.96925" />
      <trkpt lat="40.33756" lon="-123.96925" />
      <trkpt lat="40.33743" lon="-123.96933" />
      <trkpt lat="40.33735" lon="-123.96934" />
      <trkpt lat="40.33725" lon="-123.96944" />
      <trkpt lat="40.33719" lon="-123.96947" />
      <trkpt lat="40.33719" lon="-123.96957" />
      <trkpt lat="40.33721" lon="-123.96955" />
      <trkpt lat="40.3372" lon="-123.96954" />
      <trkpt lat="40.33715" lon="-123.96964" />
      <trkpt lat="40.33721" lon="-123.96979" />
      <trkpt lat="40.33725" lon="-123.96997" />
      <trkpt lat="40.3373" lon="-123.97009" />
      <trkpt lat="40.33768" lon="-123.97063" />
      <trkpt lat="40.33777" lon="-123.97082" />
      <trkpt lat="40.33777" lon="-123.97092" />
      <trkpt lat="40.33791" lon="-123.97107" />
      <trkpt lat="40.33795" lon="-123.9712" />
      <trkpt lat="40.33805" lon="-123.97126" />
      <trkpt lat="40.33816" lon="-123.97114" />
      <trkpt lat="40.33821" lon="-123.97113" />
      <trkpt lat="40.33844" lon="-123.97151" />
      <trkpt lat="40.33854" lon="-123.9716" />
      <trkpt lat="40.33857" lon="-123.97179" />
      <trkpt lat="40.33859" lon="-123.97182" />
      <trkpt lat="40.33897" lon="-123.97198" />
      <trkpt lat="40.33913" lon="-123.97208" />
      <trkpt lat="40.33922" lon="-123.97222" />
      <trkpt lat="40.33924" lon="-123.97246" />
      <trkpt lat="40.33936" lon="-123.97263" />
      <trkpt lat="40.33943" lon="-123.9727" />
      <trkpt lat="40.33953" lon="-123.97286" />
      <trkpt lat="40.33958" lon="-123.973" />
      <trkpt lat="40.33967" lon="-123.97314" />
      <trkpt lat="40.33979" lon="-123.97322" />
      <trkpt lat="40.33992" lon="-123.97334" />
      <trkpt lat="40.34006" lon="-123.97357" />
      <trkpt lat="40.3402" lon="-123.97372" />
      <trkpt lat="40.34024" lon="-123.97386" />
      <trkpt lat="40.34033" lon="-123.97398" />
      <trkpt lat="40.34053" lon="-123.97413" />
      <trkpt lat="40.34072" lon="-123.9742" />
      <trkpt lat="40.34079" lon="-123.9742" />
      <trkpt lat="40.34091" lon="-123.97424" />
      <trkpt lat="40.341" lon="-123.97426" />
      <trkpt lat="40.34108" lon="-123.97433" />
      <trkpt lat="40.34116" lon="-123.97449" />
      <trkpt lat="40.34121" lon="-123.97483" />
      <trkpt lat="40.34126" lon="-123.97491" />
      <trkpt lat="40.34129" lon="-123.97504" />
      <trkpt lat="40.34139" lon="-123.97512" />
      <trkpt lat="40.34146" lon="-123.97528" />
      <trkpt lat="40.34159" lon="-123.97536" />
      <trkpt lat="40.34173" lon="-123.97549" />
      <trkpt lat="40.34196" lon="-123.97565" />
      <trkpt lat="40.342" lon="-123.97566" />
      <trkpt lat="40.34219" lon="-123.97555" />
      <trkpt lat="40.34237" lon="-123.97573" />
      <trkpt lat="40.34264" lon="-123.97592" />
      <trkpt lat="40.34272" lon="-123.97602" />
      <trkpt lat="40.34286" lon="-123.97611" />
      <trkpt lat="40.34297" lon="-123.97615" />
      <trkpt lat="40.34317" lon="-123.97612" />
      <trkpt lat="40.34325" lon="-123.97613" />
      <trkpt lat="40.3434" lon="-123.97623" />
      <trkpt lat="40.34345" lon="-123.97637" />
      <trkpt lat="40.34346" lon="-123.97676" />
      <trkpt lat="40.34349" lon="-123.97691" />
      <trkpt lat="40.34357" lon="-123.97705" />
      <trkpt lat="40.3436" lon="-123.9773" />
      <trkpt lat="40.34365" lon="-123.9774" />
      <trkpt lat="40.34388" lon="-123.97752" />
      <trkpt lat="40.344" lon="-123.97774" />
      <trkpt lat="40.34403" lon="-123.97791" />
      <trkpt lat="40.34398" lon="-123.97837" />
      <trkpt lat="40.34399" lon="-123.97851" />
      <trkpt lat="40.34402" lon="-123.97868" />
      <trkpt lat="40.34414" lon="-123.97896" />
      <trkpt lat="40.34416" lon="-123.97911" />
      <trkpt lat="40.34408" lon="-123.97928" />
      <trkpt lat="40.344" lon="-123.9794" />
      <trkpt lat="40.34387" lon="-123.9795" />
      <trkpt lat="40.34382" lon="-123.97949" />
      <trkpt lat="40.34371" lon="-123.97935" />
      <trkpt lat="40.34366" lon="-123.97922" />
      <trkpt lat="40.34348" lon="-123.97927" />
      <trkpt lat="40.34335" lon="-123.97933" />
      <trkpt lat="40.34319" lon="-123.97927" />
      <trkpt lat="40.34306" lon="-123.97928" />
      <trkpt lat="40.34292" lon="-123.97915" />
      <trkpt lat="40.34284" lon="-123.9791" />
      <trkpt lat="40.3427" lon="-123.97906" />
      <trkpt lat="40.34275" lon="-123.97926" />
      <trkpt lat="40.34281" lon="-123.97931" />
      <trkpt lat="40.34287" lon="-123.97951" />
      <trkpt lat="40.34301" lon="-123.97971" />
      <trkpt lat="40.34321" lon="-123.97967" />
      <trkpt lat="40.34332" lon="-123.97971" />
      <trkpt lat="40.34338" lon="-123.9798" />
      <trkpt lat="40.34349" lon="-123.97992" />
      <trkpt lat="40.3436" lon="-123.98033" />
      <trkpt lat="40.34367" lon="-123.98044" />
      <trkpt lat="40.34385" lon="-123.98044" />
      <trkpt lat="40.34399" lon="-123.98041" />
      <trkpt lat="40.34435" lon="-123.98002" />
      <trkpt lat="40.3445" lon="-123.98007" />
      <trkpt lat="40.34461" lon="-123.98026" />
      <trkpt lat="40.34467" lon="-123.98032" />
      <trkpt lat="40.34472" lon="-123.98031" />
      <trkpt lat="40.3448" lon="-123.98032" />
      <trkpt lat="40.34495" lon="-123.98016" />
      <trkpt lat="40.34502" lon="-123.98014" />
      <trkpt lat="40.34516" lon="-123.98013" />
      <trkpt lat="40.34524" lon="-123.98022" />
      <trkpt lat="40.34532" lon="-123.98027" />
      <trkpt lat="40.34531" lon="-123.98027" />
      <trkpt lat="40.34522" lon="-123.98017" />
      <trkpt lat="40.34518" lon="-123.98014" />
      <trkpt lat="40.34504" lon="-123.98019" />
      <trkpt lat="40.3449" lon="-123.9805" />
      <trkpt lat="40.34488" lon="-123.98065" />
      <trkpt lat="40.34483" lon="-123.98071" />
      <trkpt lat="40.34478" lon="-123.9807" />
      <trkpt lat="40.34473" lon="-123.98071" />
      <trkpt lat="40.3446" lon="-123.98081" />
      <trkpt lat="40.34433" lon="-123.98088" />
      <trkpt lat="40.34427" lon="-123.98091" />
      <trkpt lat="40.34408" lon="-123.98103" />
      <trkpt lat="40.34394" lon="-123.98117" />
      <trkpt lat="40.34381" lon="-123.98125" />
      <trkpt lat="40.34376" lon="-123.98126" />
      <trkpt lat="40.34363" lon="-123.98119" />
      <trkpt lat="40.34359" lon="-123.9812" />
      <trkpt lat="40.34357" lon="-123.98126" />
      <trkpt lat="40.3435" lon="-123.98139" />
      <trkpt lat="40.34344" lon="-123.98145" />
      <trkpt lat="40.34345" lon="-123.98152" />
      <trkpt lat="40.34354" lon="-123.98162" />
      <trkpt lat="40.34355" lon="-123.98176" />
      <trkpt lat="40.34361" lon="-123.98175" />
      <trkpt lat="40.34373" lon="-123.98186" />
      <trkpt lat="40.34393" lon="-123.9822" />
      <trkpt lat="40.34411" lon="-123.98224" />
      <trkpt lat="40.34428" lon="-123.98234" />
      <trkpt lat="40.34446" lon="-123.98237" />
      <trkpt lat="40.34463" lon="-123.98249" />
      <trkpt lat="40.34467" lon="-123.98255" />
      <trkpt lat="40.34468" lon="-123.98284" />
      <trkpt lat="40.34476" lon="-123.98284" />
      <trkpt lat="40.34485" lon="-123.98282" />
      <trkpt lat="40.34506" lon="-123.98302" />
      <trkpt lat="40.34515" lon="-123.98298" />
      <trkpt lat="40.34519" lon="-123.98298" />
      <trkpt lat="40.34537" lon="-123.98304" />
      <trkpt lat="40.34562" lon="-123.98302" />
      <trkpt lat="40.346" lon="-123.98284" />
      <trkpt lat="40.34607" lon="-123.98275" />
      <trkpt lat="40.34625" lon="-123.98264" />
      <trkpt lat="40.34639" lon="-123.98238" />
      <trkpt lat="40.34649" lon="-123.98225" />
      <trkpt lat="40.34655" lon="-123.98222" />
      <trkpt lat="40.34679" lon="-123.98233" />
      <trkpt lat="40.34699" lon="-123.98238" />
      <trkpt lat="40.34725" lon="-123.98239" />
      <trkpt lat="40.34727" lon="-123.98242" />
      <trkpt lat="40.34727" lon="-123.98245" />
      <trkpt lat="40.34717" lon="-123.98264" />
      <trkpt lat="40.34712" lon="-123.98317" />
      <trkpt lat="40.34707" lon="-123.98347" />
      <trkpt lat="40.347" lon="-123.98362" />
      <trkpt lat="40.34694" lon="-123.98363" />
      <trkpt lat="40.34687" lon="-123.98361" />
      <trkpt lat="40.34687" lon="-123.98373" />
      <trkpt lat="40.34682" lon="-123.98398" />
      <trkpt lat="40.3468" lon="-123.98413" />
      <trkpt lat="40.34683" lon="-123.98422" />
      <trkpt lat="40.34691" lon="-123.98436" />
      <trkpt lat="40.34702" lon="-123.98419" />
      <trkpt lat="40.34706" lon="-123.98415" />
      <trkpt lat="40.3471" lon="-123.98419" />
      <trkpt lat="40.34717" lon="-123.98434" />
      <trkpt lat="40.34721" lon="-123.98447" />
      <trkpt lat="40.34715" lon="-123.98468" />
      <trkpt lat="40.34723" lon="-123.98477" />
      <trkpt lat="40.34724" lon="-123.98481" />
      <trkpt lat="40.34723" lon="-123.98496" />
      <trkpt lat="40.34728" lon="-123.98507" />
      <trkpt lat="40.34745" lon="-123.98526" />
      <trkpt lat="40.34751" lon="-123.9854" />
      <trkpt lat="40.34746" lon="-123.98563" />
      <trkpt lat="40.34744" lon="-123.98592" />
      <trkpt lat="40.3474" lon="-123.98608" />
      <trkpt lat="40.34739" lon="-123.98621" />
      <trkpt lat="40.34732" lon="-123.98666" />
      <trkpt lat="40.34732" lon="-123.98685" />
      <trkpt lat="40.34734" lon="-123.98704" />
      <trkpt lat="40.34731" lon="-123.98735" />
      <trkpt lat="40.34738" lon="-123.98754" />
      <trkpt lat="40.34755" lon="-123.98759" />
      <trkpt lat="40.34775" lon="-123.9877" />
      <trkpt lat="40.34783" lon="-123.98772" />
    </trkseg>
  </trk>
</gpx>