<?xml version="1.0" encoding="UTF-8"?>
<gpx version="1.1" creator="strava-segment-scraper" xmlns="http://www.topografix.com/GPX/1/1">
  <trk>
    <name>2021 Norcal Six Sigma Clockwise</name>
    <trkseg>
      <trkpt lat="38.85376" lon="-122.53784" />
      <trkpt lat="38.85363" lon="-122.53807" />
      <trkpt lat="38.85357" lon="-122.53822" />
      <trkpt lat="38.85353" lon="-122.53824" />
      <trkpt lat="38.85342" lon="-122.53821" />
      <trkpt lat="38.85339" lon="-122.53822" />
      <trkpt lat="38.85327" lon="-122.53833" />
      <trkpt lat="38.85326" lon="-122.53844" />
      <trkpt lat="38.85329" lon="-122.53853" />
      <trkpt lat="38.85332" lon="-122.5386" />
      <trkpt lat="38.85357" lon="-122.53895" />
      <trkpt lat="38.85367" lon="-122.53928" />
      <trkpt lat="38.85383" lon="-122.5394" />
      <trkpt lat="38.85387" lon="-122.53949" />
      <trkpt lat="38.85394" lon="-122.53977" />
      <trkpt lat="38.85405" lon="-122.5399" />
      <trkpt lat="38.85414" lon="-122.54008" />
      <trkpt lat="38.85417" lon="-122.5402" />
      <trkpt lat="38.85418" lon="-122.54032" />
      <trkpt lat="38.85413" lon="-122.54062" />
      <trkpt lat="38.85407" lon="-122.54077" />
      <trkpt lat="38.8538" lon="-122.54119" />
      <trkpt lat="38.85377" lon="-122.54129" />
      <trkpt lat="38.85379" lon="-122.5415" />
      <trkpt lat="38.85416" lon="-122.54249" />
      <trkpt lat="38.85421" lon="-122.54274" />
      <trkpt lat="38.85424" lon="-122.54283" />
      <trkpt lat="38.85435" lon="-122.543" />
      <trkpt lat="38.8545" lon="-122.54316" />
      <trkpt lat="38.85456" lon="-122.54326" />
      <trkpt lat="38.85467" lon="-122.54364" />
      <trkpt lat="38.85469" lon="-122.5439" />
      <trkpt lat="38.85476" lon="-122.54406" />
      <trkpt lat="38.8548" lon="-122.54431" />
      <trkpt lat="38.85484" lon="-122.5444" />
      <trkpt lat="38.85492" lon="-122.54447" />
      <trkpt lat="38.85506" lon="-122.54465" />
      <trkpt lat="38.85512" lon="-122.54482" />
      <trkpt lat="38.85519" lon="-122.54497" />
      <trkpt lat="38.85522" lon="-122.54526" />
      <trkpt lat="38.85537" lon="-122.54558" />
      <trkpt lat="38.8554" lon="-122.5457" />
      <trkpt lat="38.85542" lon="-122.5462" />
      <trkpt lat="38.85546" lon="-122.54644" />
      <trkpt lat="38.85549" lon="-122.54713" />
      <trkpt lat="38.85551" lon="-122.54719" />
      <trkpt lat="38.8556" lon="-122.54734" />
      <trkpt lat="38.85565" lon="-122.54747" />
      <trkpt lat="38.85566" lon="-122.54761" />
      <trkpt lat="38.85561" lon="-122.54784" />
      <trkpt lat="38.85562" lon="-122.54796" />
      <trkpt lat="38.85566" lon="-122.54822" />
      <trkpt lat="38.85582" lon="-122.54897" />
      <trkpt lat="38.85582" lon="-122.5493" />
      <trkpt lat="38.85585" lon="-122.54943" />
      <trkpt lat="38.85589" lon="-122.55035" />
      <trkpt lat="38.85602" lon="-122.55053" />
      <trkpt lat="38.85626" lon="-122.55074" />
      <trkpt lat="38.85636" lon="-122.55088" />
      <trkpt lat="38.85651" lon="-122.55104" />
      <trkpt lat="38.85658" lon="-122.55127" />
      <trkpt lat="38.85673" lon="-122.55151" />
      <trkpt lat="38.85688" lon="-122.55189" />
      <trkpt lat="38.85696" lon="-122.55198" />
      <trkpt lat="38.85708" lon="-122.55207" />
      <trkpt lat="38.85716" lon="-122.55216" />
      <trkpt lat="38.85786" lon="-122.5527" />
      <trkpt lat="38.85803" lon="-122.55291" />
      <trkpt lat="38.85812" lon="-122.55295" />
      <trkpt lat="38.85824" lon="-122.55295" />
      <trkpt lat="38.85831" lon="-122.55298" />
      <trkpt lat="38.85836" lon="-122.5531" />
      <trkpt lat="38.8585" lon="-122.5536" />
      <trkpt lat="38.85853" lon="-122.55377" />
      <trkpt lat="38.85859" lon="-122.5542" />
      <trkpt lat="38.85849" lon="-122.55463" />
      <trkpt lat="38.8585" lon="-122.5547" />
      <trkpt lat="38.85848" lon="-122.55476" />
      <trkpt lat="38.85841" lon="-122.55473" />
      <trkpt lat="38.85832" lon="-122.5546" />
      <trkpt lat="38.85823" lon="-122.55432" />
      <trkpt lat="38.85827" lon="-122.5542" />
      <trkpt lat="38.85839" lon="-122.554" />
      <trkpt lat="38.8584" lon="-122.55394" />
      <trkpt lat="38.85835" lon="-122.55376" />
      <trkpt lat="38.85833" lon="-122.55373" />
      <trkpt lat="38.8583" lon="-122.55373" />
      <trkpt lat="38.85828" lon="-122.55375" />
      <trkpt lat="38.85828" lon="-122.55387" />
      <trkpt lat="38.85825" lon="-122.5539" />
      <trkpt lat="38.85819" lon="-122.55384" />
      <trkpt lat="38.85804" lon="-122.55377" />
      <trkpt lat="38.85799" lon="-122.55356" />
      <trkpt lat="38.85792" lon="-122.55342" />
      <trkpt lat="38.85786" lon="-122.55341" />
      <trkpt lat="38.85785" lon="-122.55343" />
      <trkpt lat="38.85784" lon="-122.55351" />
      <trkpt lat="38.85787" lon="-122.55363" />
      <trkpt lat="38.85787" lon="-122.55368" />
      <trkpt lat="38.85783" lon="-122.55372" />
      <trkpt lat="38.8578" lon="-122.55373" />
      <trkpt lat="38.85777" lon="-122.55369" />
      <trkpt lat="38.85771" lon="-122.55348" />
      <trkpt lat="38.85768" lon="-122.55345" />
      <trkpt lat="38.85765" lon="-122.55345" />
      <trkpt lat="38.8576" lon="-122.5535" />
      <trkpt lat="38.85758" lon="-122.55365" />
      <trkpt lat="38.8575" lon="-122.55371" />
      <trkpt lat="38.8575" lon="-122.55386" />
      <trkpt lat="38.85745" lon="-122.5539" />
      <trkpt lat="38.85738" lon="-122.55387" />
      <trkpt lat="38.85731" lon="-122.55376" />
      <trkpt lat="38.85722" lon="-122.55338" />
      <trkpt lat="38.85719" lon="-122.55336" />
      <trkpt lat="38.85715" lon="-122.55335" />
      <trkpt lat="38.85703" lon="-122.55344" />
      <trkpt lat="38.85697" lon="-122.55345" />
      <trkpt lat="38.85684" lon="-122.55343" />
      <trkpt lat="38.85672" lon="-122.55335" />
      <trkpt lat="38.85665" lon="-122.55336" />
      <trkpt lat="38.85661" lon="-122.55347" />
      <trkpt lat="38.85661" lon="-122.55356" />
      <trkpt lat="38.85675" lon="-122.55363" />
      <trkpt lat="38.85685" lon="-122.55364" />
      <trkpt lat="38.85689" lon="-122.55368" />
      <trkpt lat="38.8569" lon="-122.55373" />
      <trkpt lat="38.8569" lon="-122.55381" />
      <trkpt lat="38.85685" lon="-122.55392" />
      <trkpt lat="38.85677" lon="-122.55399" />
      <trkpt lat="38.85674" lon="-122.55404" />
      <trkpt lat="38.85676" lon="-122.55411" />
      <trkpt lat="38.85687" lon="-122.55424" />
      <trkpt lat="38.8569" lon="-122.55426" />
      <trkpt lat="38.85696" lon="-122.55424" />
      <trkpt lat="38.85702" lon="-122.55415" />
      <trkpt lat="38.85703" lon="-122.5541" />
      <trkpt lat="38.857" lon="-122.55398" />
      <trkpt lat="38.85701" lon="-122.55389" />
      <trkpt lat="38.85705" lon="-122.55391" />
      <trkpt lat="38.85708" lon="-122.55395" />
      <trkpt lat="38.85714" lon="-122.5541" />
      <trkpt lat="38.85716" lon="-122.55425" />
      <trkpt lat="38.85715" lon="-122.55432" />
      <trkpt lat="38.857" lon="-122.55463" />
      <trkpt lat="38.85694" lon="-122.55462" />
      <trkpt lat="38.85689" lon="-122.55454" />
      <trkpt lat="38.85684" lon="-122.5545" />
      <trkpt lat="38.85676" lon="-122.55445" />
      <trkpt lat="38.85674" lon="-122.55446" />
      <trkpt lat="38.85674" lon="-122.55449" />
      <trkpt lat="38.85681" lon="-122.55463" />
      <trkpt lat="38.85682" lon="-122.55467" />
      <trkpt lat="38.85681" lon="-122.55471" />
      <trkpt lat="38.85677" lon="-122.55476" />
      <trkpt lat="38.85673" lon="-122.55474" />
      <trkpt lat="38.85665" lon="-122.55468" />
      <trkpt lat="38.8566" lon="-122.55472" />
      <trkpt lat="38.85659" lon="-122.55497" />
      <trkpt lat="38.85662" lon="-122.55512" />
      <trkpt lat="38.85671" lon="-122.55525" />
      <trkpt lat="38.85685" lon="-122.55535" />
      <trkpt lat="38.85706" lon="-122.55559" />
      <trkpt lat="38.85713" lon="-122.55563" />
      <trkpt lat="38.85719" lon="-122.55562" />
      <trkpt lat="38.85723" lon="-122.55557" />
      <trkpt lat="38.85726" lon="-122.55549" />
      <trkpt lat="38.85738" lon="-122.55543" />
      <trkpt lat="38.85746" lon="-122.55536" />
      <trkpt lat="38.85753" lon="-122.55526" />
      <trkpt lat="38.85757" lon="-122.55526" />
      <trkpt lat="38.8576" lon="-122.55529" />
      <trkpt lat="38.8576" lon="-122.55536" />
      <trkpt lat="38.85756" lon="-122.5554" />
      <trkpt lat="38.85755" lon="-122.55548" />
      <trkpt lat="38.85762" lon="-122.55568" />
      <trkpt lat="38.85764" lon="-122.55578" />
      <trkpt lat="38.85763" lon="-122.5558" />
      <trkpt lat="38.85755" lon="-122.55576" />
      <trkpt lat="38.85755" lon="-122.55582" />
      <trkpt lat="38.85753" lon="-122.55583" />
      <trkpt lat="38.85741" lon="-122.55569" />
      <trkpt lat="38.85738" lon="-122.55568" />
      <trkpt lat="38.85735" lon="-122.55571" />
      <trkpt lat="38.85735" lon="-122.55576" />
      <trkpt lat="38.85745" lon="-122.55593" />
      <trkpt lat="38.85753" lon="-122.55614" />
      <trkpt lat="38.85761" lon="-122.55627" />
      <trkpt lat="38.85763" lon="-122.55634" />
      <trkpt lat="38.85772" lon="-122.55645" />
      <trkpt lat="38.85786" lon="-122.55656" />
      <trkpt lat="38.85807" lon="-122.55678" />
      <trkpt lat="38.85801" lon="-122.55705" />
      <trkpt lat="38.85805" lon="-122.5571" />
      <trkpt lat="38.85814" lon="-122.55712" />
      <trkpt lat="38.85833" lon="-122.55724" />
      <trkpt lat="38.85836" lon="-122.55723" />
      <trkpt lat="38.8584" lon="-122.55718" />
      <trkpt lat="38.85847" lon="-122.55718" />
      <trkpt lat="38.85861" lon="-122.55711" />
      <trkpt lat="38.85886" lon="-122.55703" />
      <trkpt lat="38.8589" lon="-122.55697" />
      <trkpt lat="38.85901" lon="-122.55673" />
      <trkpt lat="38.85922" lon="-122.55639" />
      <trkpt lat="38.85925" lon="-122.55637" />
      <trkpt lat="38.85927" lon="-122.55638" />
      <trkpt lat="38.85927" lon="-122.55646" />
      <trkpt lat="38.85922" lon="-122.55665" />
      <trkpt lat="38.85922" lon="-122.55706" />
      <trkpt lat="38.85918" lon="-122.55715" />
      <trkpt lat="38.85913" lon="-122.55721" />
      <trkpt lat="38.85901" lon="-122.55726" />
      <trkpt lat="38.85889" lon="-122.55721" />
      <trkpt lat="38.85886" lon="-122.55725" />
      <trkpt lat="38.85888" lon="-122.55731" />
      <trkpt lat="38.85885" lon="-122.55733" />
      <trkpt lat="38.85883" lon="-122.55723" />
      <trkpt lat="38.85881" lon="-122.55721" />
      <trkpt lat="38.85877" lon="-122.55722" />
      <trkpt lat="38.85877" lon="-122.55725" />
      <trkpt lat="38.8588" lon="-122.55733" />
      <trkpt lat="38.85878" lon="-122.55736" />
      <trkpt lat="38.85874" lon="-122.55734" />
      <trkpt lat="38.85873" lon="-122.55725" />
      <trkpt lat="38.85869" lon="-122.55725" />
      <trkpt lat="38.85867" lon="-122.55727" />
      <trkpt lat="38.85868" lon="-122.55737" />
      <trkpt lat="38.85865" lon="-122.55741" />
      <trkpt lat="38.85863" lon="-122.55741" />
      <trkpt lat="38.85861" lon="-122.55738" />
      <trkpt lat="38.85861" lon="-122.55731" />
      <trkpt lat="38.85858" lon="-122.55728" />
      <trkpt lat="38.85856" lon="-122.55732" />
      <trkpt lat="38.85857" lon="-122.55739" />
      <trkpt lat="38.85855" lon="-122.55743" />
      <trkpt lat="38.85852" lon="-122.55739" />
      <trkpt lat="38.85851" lon="-122.55732" />
      <trkpt lat="38.85847" lon="-122.5573" />
      <trkpt lat="38.85846" lon="-122.55733" />
      <trkpt lat="38.85847" lon="-122.55744" />
      <trkpt lat="38.85846" lon="-122.55746" />
      <trkpt lat="38.85844" lon="-122.55745" />
      <trkpt lat="38.8584" lon="-122.55732" />
      <trkpt lat="38.85838" lon="-122.5573" />
      <trkpt lat="38.85834" lon="-122.55733" />
      <trkpt lat="38.85833" lon="-122.55743" />
      <trkpt lat="38.85832" lon="-122.55745" />
      <trkpt lat="38.85824" lon="-122.55731" />
      <trkpt lat="38.8582" lon="-122.55729" />
      <trkpt lat="38.85817" lon="-122.5573" />
      <trkpt lat="38.85812" lon="-122.55778" />
      <trkpt lat="38.85807" lon="-122.55795" />
      <trkpt lat="38.85814" lon="-122.55802" />
      <trkpt lat="38.85815" lon="-122.55807" />
      <trkpt lat="38.85822" lon="-122.55815" />
      <trkpt lat="38.85828" lon="-122.55831" />
      <trkpt lat="38.85837" lon="-122.55841" />
      <trkpt lat="38.8584" lon="-122.55843" />
      <trkpt lat="38.85849" lon="-122.55842" />
      <trkpt lat="38.85873" lon="-122.5585" />
      <trkpt lat="38.85904" lon="-122.55858" />
      <trkpt lat="38.85907" lon="-122.55856" />
      <trkpt lat="38.85909" lon="-122.55854" />
      <trkpt lat="38.85909" lon="-122.5585" />
      <trkpt lat="38.85902" lon="-122.55837" />
      <trkpt lat="38.85864" lon="-122.55815" />
      <trkpt lat="38.85865" lon="-122.55813" />
      <trkpt lat="38.8587" lon="-122.55809" />
      <trkpt lat="38.85881" lon="-122.55807" />
      <trkpt lat="38.85888" lon="-122.55811" />
      <trkpt lat="38.85895" lon="-122.55811" />
      <trkpt lat="38.85899" lon="-122.55813" />
      <trkpt lat="38.85913" lon="-122.55828" />
      <trkpt lat="38.8592" lon="-122.55827" />
      <trkpt lat="38.8592" lon="-122.55813" />
      <trkpt lat="38.85924" lon="-122.55817" />
      <trkpt lat="38.85931" lon="-122.55828" />
      <trkpt lat="38.85933" lon="-122.55827" />
      <trkpt lat="38.85936" lon="-122.55823" />
      <trkpt lat="38.85937" lon="-122.55813" />
      <trkpt lat="38.85936" lon="-122.55796" />
      <trkpt lat="38.85925" lon="-122.55788" />
      <trkpt lat="38.85911" lon="-122.55789" />
      <trkpt lat="38.85905" lon="-122.55787" />
      <trkpt lat="38.85901" lon="-122.55781" />
      <trkpt lat="38.85906" lon="-122.55775" />
      <trkpt lat="38.85914" lon="-122.55768" />
      <trkpt lat="38.8592" lon="-122.55765" />
      <trkpt lat="38.8593" lon="-122.55765" />
      <trkpt lat="38.85938" lon="-122.5576" />
      <trkpt lat="38.85945" lon="-122.55727" />
      <trkpt lat="38.85962" lon="-122.55684" />
      <trkpt lat="38.85964" lon="-122.55683" />
      <trkpt lat="38.85973" lon="-122.55689" />
      <trkpt lat="38.85972" lon="-122.55701" />
      <trkpt lat="38.85969" lon="-122.55712" />
      <trkpt lat="38.85964" lon="-122.55724" />
      <trkpt lat="38.85953" lon="-122.55775" />
      <trkpt lat="38.85947" lon="-122.55782" />
      <trkpt lat="38.85945" lon="-122.55792" />
      <trkpt lat="38.8595" lon="-122.55806" />
      <trkpt lat="38.85961" lon="-122.5584" />
      <trkpt lat="38.85965" lon="-122.55845" />
      <trkpt lat="38.85967" lon="-122.55844" />
      <trkpt lat="38.85969" lon="-122.55838" />
      <trkpt lat="38.8597" lon="-122.55837" />
      <trkpt lat="38.85971" lon="-122.55839" />
      <trkpt lat="38.85971" lon="-122.55853" />
      <trkpt lat="38.85976" lon="-122.55877" />
      <trkpt lat="38.8598" lon="-122.55881" />
      <trkpt lat="38.85985" lon="-122.5588" />
      <trkpt lat="38.86002" lon="-122.55867" />
      <trkpt lat="38.86014" lon="-122.55864" />
      <trkpt lat="38.86028" lon="-122.55857" />
      <trkpt lat="38.86033" lon="-122.55855" />
      <trkpt lat="38.86038" lon="-122.55861" />
      <trkpt lat="38.86055" lon="-122.55918" />
      <trkpt lat="38.86061" lon="-122.55923" />
      <trkpt lat="38.86065" lon="-122.55923" />
      <trkpt lat="38.86077" lon="-122.55915" />
      <trkpt lat="38.86094" lon="-122.55895" />
      <trkpt lat="38.86102" lon="-122.55873" />
      <trkpt lat="38.8611" lon="-122.55861" />
      <trkpt lat="38.8611" lon="-122.55853" />
      <trkpt lat="38.86104" lon="-122.55842" />
      <trkpt lat="38.8611" lon="-122.5584" />
      <trkpt lat="38.86113" lon="-122.55841" />
      <trkpt lat="38.86117" lon="-122.55849" />
      <trkpt lat="38.86119" lon="-122.55884" />
      <trkpt lat="38.86133" lon="-122.5593" />
      <trkpt lat="38.86139" lon="-122.55937" />
      <trkpt lat="38.86143" lon="-122.55949" />
      <trkpt lat="38.8615" lon="-122.55939" />
      <trkpt lat="38.86168" lon="-122.5593" />
      <trkpt lat="38.8618" lon="-122.55926" />
      <trkpt lat="38.86184" lon="-122.55921" />
      <trkpt lat="38.86185" lon="-122.55892" />
      <trkpt lat="38.86183" lon="-122.55888" />
      <trkpt lat="38.86179" lon="-122.55886" />
      <trkpt lat="38.86169" lon="-122.55869" />
      <trkpt lat="38.86164" lon="-122.55856" />
      <trkpt lat="38.86166" lon="-122.55845" />
      <trkpt lat="38.86169" lon="-122.55842" />
      <trkpt lat="38.86172" lon="-122.5584" />
      <trkpt lat="38.86178" lon="-122.55844" />
      <trkpt lat="38.86203" lon="-122.5587" />
      <trkpt lat="38.86218" lon="-122.55876" />
      <trkpt lat="38.86224" lon="-122.55881" />
      <trkpt lat="38.86237" lon="-122.55883" />
      <trkpt lat="38.86241" lon="-122.55882" />
      <trkpt lat="38.86258" lon="-122.5587" />
      <trkpt lat="38.86283" lon="-122.55838" />
      <trkpt lat="38.86295" lon="-122.55816" />
      <trkpt lat="38.86297" lon="-122.55817" />
      <trkpt lat="38.86304" lon="-122.55823" />
      <trkpt lat="38.86305" lon="-122.55829" />
      <trkpt lat="38.86305" lon="-122.55845" />
      <trkpt lat="38.86308" lon="-122.55852" />
      <trkpt lat="38.86311" lon="-122.55855" />
      <trkpt lat="38.86319" lon="-122.55859" />
      <trkpt lat="38.86328" lon="-122.5586" />
      <trkpt lat="38.86334" lon="-122.55865" />
      <trkpt lat="38.86335" lon="-122.55865" />
      <trkpt lat="38.86337" lon="-122.55862" />
      <trkpt lat="38.86336" lon="-122.55848" />
      <trkpt lat="38.86325" lon="-122.55841" />
      <trkpt lat="38.86322" lon="-122.55834" />
      <trkpt lat="38.86325" lon="-122.55813" />
      <trkpt lat="38.86324" lon="-122.55808" />
      <trkpt lat="38.86314" lon="-122.55795" />
      <trkpt lat="38.863" lon="-122.55792" />
      <trkpt lat="38.86292" lon="-122.55793" />
      <trkpt lat="38.86283" lon="-122.558" />
      <trkpt lat="38.86267" lon="-122.55806" />
      <trkpt lat="38.86264" lon="-122.55814" />
      <trkpt lat="38.86263" lon="-122.55823" />
      <trkpt lat="38.86253" lon="-122.5583" />
      <trkpt lat="38.86249" lon="-122.55843" />
      <trkpt lat="38.8624" lon="-122.55851" />
      <trkpt lat="38.86236" lon="-122.5585" />
      <trkpt lat="38.86221" lon="-122.55844" />
      <trkpt lat="38.86213" lon="-122.55827" />
      <trkpt lat="38.8621" lon="-122.55825" />
      <trkpt lat="38.86202" lon="-122.55826" />
      <trkpt lat="38.86196" lon="-122.55823" />
      <trkpt lat="38.86196" lon="-122.5582" />
      <trkpt lat="38.86201" lon="-122.55813" />
      <trkpt lat="38.86202" lon="-122.55805" />
      <trkpt lat="38.86197" lon="-122.55801" />
      <trkpt lat="38.86193" lon="-122.55808" />
      <trkpt lat="38.86189" lon="-122.5581" />
      <trkpt lat="38.86185" lon="-122.5581" />
      <trkpt lat="38.86181" lon="-122.55807" />
      <trkpt lat="38.86172" lon="-122.55785" />
      <trkpt lat="38.86169" lon="-122.55781" />
      <trkpt lat="38.86159" lon="-122.55778" />
      <trkpt lat="38.86154" lon="-122.55779" />
      <trkpt lat="38.86138" lon="-122.5579" />
      <trkpt lat="38.86131" lon="-122.55793" />
      <trkpt lat="38.86127" lon="-122.55793" />
      <trkpt lat="38.86126" lon="-122.55791" />
      <trkpt lat="38.86126" lon="-122.55785" />
      <trkpt lat="38.86138" lon="-122.55756" />
      <trkpt lat="38.86146" lon="-122.55743" />
      <trkpt lat="38.86141" lon="-122.55718" />
      <trkpt lat="38.8614" lon="-122.557" />
      <trkpt lat="38.86137" lon="-122.55701" />
      <trkpt lat="38.86136" lon="-122.55705" />
      <trkpt lat="38.86138" lon="-122.55723" />
      <trkpt lat="38.86133" lon="-122.55747" />
      <trkpt lat="38.8613" lon="-122.55748" />
      <trkpt lat="38.86132" lon="-122.55731" />
      <trkpt lat="38.86131" lon="-122.55725" />
      <trkpt lat="38.86129" lon="-122.55724" />
      <trkpt lat="38.86126" lon="-122.55728" />
      <trkpt lat="38.86119" lon="-122.55752" />
      <trkpt lat="38.86117" lon="-122.55776" />
      <trkpt lat="38.86115" lon="-122.5578" />
      <trkpt lat="38.86112" lon="-122.55783" />
      <trkpt lat="38.86105" lon="-122.55783" />
      <trkpt lat="38.86097" lon="-122.55776" />
      <trkpt lat="38.86079" lon="-122.55746" />
      <trkpt lat="38.86045" lon="-122.55727" />
      <trkpt lat="38.86036" lon="-122.55717" />
      <trkpt lat="38.86031" lon="-122.55703" />
      <trkpt lat="38.86023" lon="-122.55692" />
      <trkpt lat="38.86013" lon="-122.55684" />
      <trkpt lat="38.86003" lon="-122.5568" />
      <trkpt lat="38.85999" lon="-122.55675" />
      <trkpt lat="38.85993" lon="-122.55664" />
      <trkpt lat="38.8599" lon="-122.55638" />
      <trkpt lat="38.85977" lon="-122.55616" />
      <trkpt lat="38.85962" lon="-122.556" />
      <trkpt lat="38.85962" lon="-122.55597" />
      <trkpt lat="38.85965" lon="-122.55596" />
      <trkpt lat="38.85971" lon="-122.55599" />
      <trkpt lat="38.85983" lon="-122.55606" />
      <trkpt lat="38.85994" lon="-122.55617" />
      <trkpt lat="38.86007" lon="-122.55623" />
      <trkpt lat="38.86009" lon="-122.55622" />
      <trkpt lat="38.86011" lon="-122.55618" />
      <trkpt lat="38.86011" lon="-122.55592" />
      <trkpt lat="38.86008" lon="-122.55585" />
      <trkpt lat="38.86005" lon="-122.55582" />
      <trkpt lat="38.85992" lon="-122.55581" />
      <trkpt lat="38.85985" lon="-122.55577" />
      <trkpt lat="38.85984" lon="-122.55572" />
      <trkpt lat="38.85986" lon="-122.55553" />
      <trkpt lat="38.85984" lon="-122.55543" />
      <trkpt lat="38.85965" lon="-122.55492" />
      <trkpt lat="38.85953" lon="-122.55476" />
      <trkpt lat="38.85952" lon="-122.55473" />
      <trkpt lat="38.85954" lon="-122.55473" />
      <trkpt lat="38.85959" lon="-122.55476" />
      <trkpt lat="38.85972" lon="-122.55493" />
      <trkpt lat="38.85976" lon="-122.55497" />
      <trkpt lat="38.85981" lon="-122.55497" />
      <trkpt lat="38.85983" lon="-122.55495" />
      <trkpt lat="38.85987" lon="-122.55486" />
      <trkpt lat="38.85982" lon="-122.55455" />
      <trkpt lat="38.85983" lon="-122.55447" />
      <trkpt lat="38.85987" lon="-122.55445" />
      <trkpt lat="38.86007" lon="-122.55441" />
      <trkpt lat="38.86013" lon="-122.55437" />
      <trkpt lat="38.86017" lon="-122.5543" />
      <trkpt lat="38.8602" lon="-122.55415" />
      <trkpt lat="38.86021" lon="-122.55402" />
      <trkpt lat="38.86017" lon="-122.55388" />
      <trkpt lat="38.86015" lon="-122.55373" />
      <trkpt lat="38.86008" lon="-122.55357" />
      <trkpt lat="38.86007" lon="-122.55352" />
      <trkpt lat="38.86011" lon="-122.55335" />
      <trkpt lat="38.8601" lon="-122.55322" />
      <trkpt lat="38.86004" lon="-122.55314" />
      <trkpt lat="38.85982" lon="-122.55305" />
      <trkpt lat="38.85969" lon="-122.55294" />
      <trkpt lat="38.85954" lon="-122.55276" />
      <trkpt lat="38.85953" lon="-122.55266" />
      <trkpt lat="38.85946" lon="-122.55252" />
      <trkpt lat="38.85941" lon="-122.55248" />
      <trkpt lat="38.85929" lon="-122.55242" />
      <trkpt lat="38.85919" lon="-122.55231" />
      <trkpt lat="38.85904" lon="-122.55207" />
      <trkpt lat="38.85889" lon="-122.552" />
      <trkpt lat="38.85884" lon="-122.55193" />
      <trkpt lat="38.85875" lon="-122.55174" />
      <trkpt lat="38.85853" lon="-122.55144" />
      <trkpt lat="38.85848" lon="-122.55139" />
      <trkpt lat="38.85838" lon="-122.55132" />
      <trkpt lat="38.85832" lon="-122.55126" />
      <trkpt lat="38.85819" lon="-122.55103" />
      <trkpt lat="38.85808" lon="-122.55072" />
      <trkpt lat="38.85797" lon="-122.55053" />
      <trkpt lat="38.85794" lon="-122.55051" />
      <trkpt lat="38.85768" lon="-122.55039" />
      <trkpt lat="38.85758" lon="-122.55032" />
      <trkpt lat="38.85748" lon="-122.55021" />
      <trkpt lat="38.85724" lon="-122.54971" />
      <trkpt lat="38.85723" lon="-122.54958" />
      <trkpt lat="38.85725" lon="-122.54952" />
      <trkpt lat="38.85739" lon="-122.54937" />
      <trkpt lat="38.8574" lon="-122.5493" />
      <trkpt lat="38.85738" lon="-122.54927" />
      <trkpt lat="38.85732" lon="-122.54926" />
      <trkpt lat="38.85713" lon="-122.54933" />
      <trkpt lat="38.85709" lon="-122.54934" />
      <trkpt lat="38.85707" lon="-122.54932" />
      <trkpt lat="38.85707" lon="-122.54929" />
      <trkpt lat="38.8571" lon="-122.54926" />
      <trkpt lat="38.85732" lon="-122.54915" />
      <trkpt lat="38.85735" lon="-122.54912" />
      <trkpt lat="38.85741" lon="-122.549" />
      <trkpt lat="38.85739" lon="-122.54899" />
      <trkpt lat="38.85737" lon="-122.549" />
      <trkpt lat="38.85734" lon="-122.54907" />
      <trkpt lat="38.85724" lon="-122.54913" />
      <trkpt lat="38.85715" lon="-122.54915" />
      <trkpt lat="38.85701" lon="-122.54914" />
      <trkpt lat="38.85694" lon="-122.54906" />
      <trkpt lat="38.85688" lon="-122.54882" />
      <trkpt lat="38.85685" lon="-122.54863" />
      <trkpt lat="38.85686" lon="-122.54841" />
      <trkpt lat="38.85685" lon="-122.54837" />
      <trkpt lat="38.85678" lon="-122.54835" />
      <trkpt lat="38.85663" lon="-122.54838" />
      <trkpt lat="38.85652" lon="-122.54835" />
      <trkpt lat="38.8565" lon="-122.5483" />
      <trkpt lat="38.8565" lon="-122.54825" />
      <trkpt lat="38.85653" lon="-122.54814" />
      <trkpt lat="38.85656" lon="-122.5481" />
      <trkpt lat="38.85675" lon="-122.54796" />
      <trkpt lat="38.85678" lon="-122.54791" />
      <trkpt lat="38.85679" lon="-122.54787" />
      <trkpt lat="38.85679" lon="-122.5478" />
      <trkpt lat="38.85676" lon="-122.54772" />
      <trkpt lat="38.85687" lon="-122.54768" />
      <trkpt lat="38.85691" lon="-122.54763" />
      <trkpt lat="38.8569" lon="-122.54761" />
      <trkpt lat="38.85667" lon="-122.54758" />
      <trkpt lat="38.85634" lon="-122.54748" />
      <trkpt lat="38.8563" lon="-122.54744" />
      <trkpt lat="38.85629" lon="-122.54736" />
      <trkpt lat="38.85631" lon="-122.54727" />
      <trkpt lat="38.85652" lon="-122.54703" />
      <trkpt lat="38.85654" lon="-122.54699" />
      <trkpt lat="38.85652" lon="-122.54694" />
      <trkpt lat="38.85643" lon="-122.54692" />
      <trkpt lat="38.85633" lon="-122.54685" />
      <trkpt lat="38.85631" lon="-122.54681" />
      <trkpt lat="38.85633" lon="-122.54677" />
      <trkpt lat="38.85637" lon="-122.54674" />
      <trkpt lat="38.85655" lon="-122.54677" />
      <trkpt lat="38.85671" lon="-122.54673" />
      <trkpt lat="38.85679" lon="-122.54674" />
      <trkpt lat="38.85704" lon="-122.54673" />
      <trkpt lat="38.85725" lon="-122.54673" />
      <trkpt lat="38.85743" lon="-122.54679" />
      <trkpt lat="38.85761" lon="-122.5468" />
      <trkpt lat="38.85769" lon="-122.54688" />
      <trkpt lat="38.85792" lon="-122.54685" />
      <trkpt lat="38.85804" lon="-122.54688" />
      <trkpt lat="38.85809" lon="-122.54688" />
      <trkpt lat="38.85817" lon="-122.54685" />
      <trkpt lat="38.85829" lon="-122.54685" />
      <trkpt lat="38.85846" lon="-122.54694" />
      <trkpt lat="38.85866" lon="-122.54711" />
      <trkpt lat="38.8588" lon="-122.54718" />
      <trkpt lat="38.85906" lon="-122.54726" />
      <trkpt lat="38.8593" lon="-122.54739" />
      <trkpt lat="38.8594" lon="-122.54742" />
      <trkpt lat="38.85955" lon="-122.54738" />
      <trkpt lat="38.85981" lon="-122.54709" />
      <trkpt lat="38.85983" lon="-122.54695" />
      <trkpt lat="38.85974" lon="-122.54661" />
      <trkpt lat="38.85981" lon="-122.54654" />
      <trkpt lat="38.85987" lon="-122.54637" />
      <trkpt lat="38.85997" lon="-122.54621" />
      <trkpt lat="38.85997" lon="-122.54616" />
      <trkpt lat="38.85988" lon="-122.54583" />
      <trkpt lat="38.85988" lon="-122.54563" />
      <trkpt lat="38.85986" lon="-122.5454" />
      <trkpt lat="38.85989" lon="-122.54541" />
      <trkpt lat="38.85999" lon="-122.54556" />
      <trkpt lat="38.86003" lon="-122.5457" />
      <trkpt lat="38.86012" lon="-122.54591" />
      <trkpt lat="38.86026" lon="-122.54604" />
      <trkpt lat="38.86028" lon="-122.54602" />
      <trkpt lat="38.8603" lon="-122.54596" />
      <trkpt lat="38.86025" lon="-122.54576" />
      <trkpt lat="38.86025" lon="-122.54569" />
      <trkpt lat="38.86029" lon="-122.54527" />
      <trkpt lat="38.86048" lon="-122.54501" />
      <trkpt lat="38.86048" lon="-122.54489" />
      <trkpt lat="38.86053" lon="-122.54484" />
      <trkpt lat="38.86067" lon="-122.54484" />
      <trkpt lat="38.86071" lon="-122.54482" />
      <trkpt lat="38.86079" lon="-122.54477" />
      <trkpt lat="38.86081" lon="-122.54473" />
      <trkpt lat="38.86081" lon="-122.54469" />
      <trkpt lat="38.86072" lon="-122.54456" />
      <trkpt lat="38.86064" lon="-122.5444" />
      <trkpt lat="38.86061" lon="-122.54427" />
      <trkpt lat="38.86058" lon="-122.54421" />
      <trkpt lat="38.86048" lon="-122.54411" />
      <trkpt lat="38.86039" lon="-122.54399" />
      <trkpt lat="38.86037" lon="-122.54393" />
      <trkpt lat="38.86041" lon="-122.54375" />
      <trkpt lat="38.86041" lon="-122.54368" />
      <trkpt lat="38.86036" lon="-122.54357" />
      <trkpt lat="38.8602" lon="-122.54336" />
      <trkpt lat="38.86017" lon="-122.54327" />
      <trkpt lat="38.86018" lon="-122.54317" />
      <trkpt lat="38.86019" lon="-122.54313" />
      <trkpt lat="38.86024" lon="-122.5431" />
      <trkpt lat="38.86047" lon="-122.54306" />
      <trkpt lat="38.86051" lon="-122.54306" />
      <trkpt lat="38.86103" lon="-122.54334" />
      <trkpt lat="38.86108" lon="-122.54331" />
      <trkpt lat="38.86108" lon="-122.54325" />
      <trkpt lat="38.86103" lon="-122.54313" />
      <trkpt lat="38.86096" lon="-122.54303" />
      <trkpt lat="38.86095" lon="-122.54299" />
      <trkpt lat="38.86099" lon="-122.54294" />
      <trkpt lat="38.8611" lon="-122.54289" />
      <trkpt lat="38.86115" lon="-122.54282" />
      <trkpt lat="38.86114" lon="-122.54278" />
      <trkpt lat="38.86111" lon="-122.54277" />
      <trkpt lat="38.86097" lon="-122.54283" />
      <trkpt lat="38.86085" lon="-122.54283" />
      <trkpt lat="38.86068" lon="-122.54273" />
      <trkpt lat="38.8606" lon="-122.5427" />
      <trkpt lat="38.8605" lon="-122.54274" />
      <trkpt lat="38.86042" lon="-122.54274" />
      <trkpt lat="38.86032" lon="-122.54269" />
      <trkpt lat="38.86011" lon="-122.54263" />
      <trkpt lat="38.85996" lon="-122.54261" />
      <trkpt lat="38.85972" lon="-122.54263" />
      <trkpt lat="38.85957" lon="-122.54266" />
      <trkpt lat="38.85947" lon="-122.54262" />
      <trkpt lat="38.85944" lon="-122.54257" />
      <trkpt lat="38.85938" lon="-122.54235" />
      <trkpt lat="38.85934" lon="-122.54183" />
      <trkpt lat="38.85932" lon="-122.54176" />
      <trkpt lat="38.85933" lon="-122.54163" />
      <trkpt lat="38.8594" lon="-122.54154" />
      <trkpt lat="38.85979" lon="-122.5413" />
      <trkpt lat="38.85992" lon="-122.54127" />
      <trkpt lat="38.85999" lon="-122.54127" />
      <trkpt lat="38.86007" lon="-122.54128" />
      <trkpt lat="38.86024" lon="-122.54136" />
      <trkpt lat="38.86046" lon="-122.54138" />
      <trkpt lat="38.86058" lon="-122.54134" />
      <trkpt lat="38.86064" lon="-122.54129" />
      <trkpt lat="38.86068" lon="-122.54118" />
      <trkpt lat="38.86079" lon="-122.54108" />
      <trkpt lat="38.86085" lon="-122.541" />
      <trkpt lat="38.86101" lon="-122.54066" />
      <trkpt lat="38.86099" lon="-122.54033" />
      <trkpt lat="38.8609" lon="-122.53996" />
      <trkpt lat="38.86087" lon="-122.5399" />
      <trkpt lat="38.86071" lon="-122.53975" />
      <trkpt lat="38.86056" lon="-122.53958" />
      <trkpt lat="38.86053" lon="-122.53957" />
      <trkpt lat="38.86045" lon="-122.5396" />
      <trkpt lat="38.86037" lon="-122.53959" />
      <trkpt lat="38.86026" lon="-122.53947" />
      <trkpt lat="38.8601" lon="-122.53911" />
      <trkpt lat="38.85998" lon="-122.53895" />
      <trkpt lat="38.85993" lon="-122.53896" />
      <trkpt lat="38.8599" lon="-122.539" />
      <trkpt lat="38.85989" lon="-122.53905" />
      <trkpt lat="38.85991" lon="-122.53915" />
      <trkpt lat="38.85991" lon="-122.53921" />
      <trkpt lat="38.8598" lon="-122.53924" />
      <trkpt lat="38.85975" lon="-122.53933" />
      <trkpt lat="38.85964" lon="-122.5398" />
      <trkpt lat="38.85961" lon="-122.54008" />
      <trkpt lat="38.85953" lon="-122.54021" />
      <trkpt lat="38.85933" lon="-122.54043" />
      <trkpt lat="38.85928" lon="-122.54046" />
      <trkpt lat="38.85927" lon="-122.54046" />
      <trkpt lat="38.85926" lon="-122.54042" />
      <trkpt lat="38.85931" lon="-122.54035" />
      <trkpt lat="38.85936" lon="-122.5402" />
      <trkpt lat="38.8594" lon="-122.54007" />
      <trkpt lat="38.85941" lon="-122.53998" />
      <trkpt lat="38.85937" lon="-122.53987" />
      <trkpt lat="38.85926" lon="-122.53979" />
      <trkpt lat="38.85915" lon="-122.5398" />
      <trkpt lat="38.85897" lon="-122.53973" />
      <trkpt lat="38.85883" lon="-122.53971" />
      <trkpt lat="38.85866" lon="-122.53958" />
      <trkpt lat="38.85858" lon="-122.53954" />
      <trkpt lat="38.85837" lon="-122.53952" />
      <trkpt lat="38.85807" lon="-122.53953" />
      <trkpt lat="38.85783" lon="-122.5395" />
      <trkpt lat="38.8576" lon="-122.53943" />
      <trkpt lat="38.85744" lon="-122.53936" />
      <trkpt lat="38.85733" lon="-122.53926" />
      <trkpt lat="38.85723" lon="-122.53912" />
      <trkpt lat="38.85719" lon="-122.53908" />
      <trkpt lat="38.85715" lon="-122.53907" />
      <trkpt lat="38.85705" lon="-122.5392" />
      <trkpt lat="38.85695" lon="-122.53929" />
      <trkpt lat="38.85685" lon="-122.53935" />
      <trkpt lat="38.85661" lon="-122.53941" />
      <trkpt lat="38.85654" lon="-122.5394" />
      <trkpt lat="38.85649" lon="-122.53935" />
      <trkpt lat="38.85626" lon="-122.53893" />
      <trkpt lat="38.8562" lon="-122.53872" />
      <trkpt lat="38.8562" lon="-122.53853" />
      <trkpt lat="38.85626" lon="-122.53841" />
      <trkpt lat="38.85653" lon="-122.53808" />
      <trkpt lat="38.85675" lon="-122.53778" />
      <trkpt lat="38.85676" lon="-122.53772" />
      <trkpt lat="38.85675" lon="-122.53766" />
      <trkpt lat="38.85671" lon="-122.53757" />
      <trkpt lat="38.85664" lon="-122.5375" />
      <trkpt lat="38.8566" lon="-122.53749" />
      <trkpt lat="38.85646" lon="-122.53757" />
      <trkpt lat="38.85635" lon="-122.53762" />
      <trkpt lat="38.85629" lon="-122.53762" />
      <trkpt lat="38.85616" lon="-122.53759" />
      <trkpt lat="38.85592" lon="-122.53747" />
      <trkpt lat="38.85586" lon="-122.53743" />
      <trkpt lat="38.85581" lon="-122.53737" />
      <trkpt lat="38.85579" lon="-122.53732" />
      <trkpt lat="38.85578" lon="-122.53723" />
      <trkpt lat="38.8558" lon="-122.53706" />
      <trkpt lat="38.85584" lon="-122.53699" />
      <trkpt lat="38.8559" lon="-122.53695" />
      <trkpt lat="38.85627" lon="-122.53699" />
      <trkpt lat="38.8564" lon="-122.53699" />
      <trkpt lat="38.8565" lon="-122.53702" />
      <trkpt lat="38.85663" lon="-122.53694" />
      <trkpt lat="38.85668" lon="-122.53697" />
      <trkpt lat="38.85677" lon="-122.53705" />
      <trkpt lat="38.8569" lon="-122.53701" />
      <trkpt lat="38.85705" lon="-122.53706" />
      <trkpt lat="38.85708" lon="-122.53706" />
      <trkpt lat="38.85714" lon="-122.53703" />
      <trkpt lat="38.8573" lon="-122.53688" />
      <trkpt lat="38.85741" lon="-122.53667" />
      <trkpt lat="38.85756" lon="-122.5365" />
      <trkpt lat="38.85758" lon="-122.53646" />
      <trkpt lat="38.85755" lon="-122.53638" />
      <trkpt lat="38.85751" lon="-122.53631" />
      <trkpt lat="38.85741" lon="-122.53626" />
      <trkpt lat="38.85691" lon="-122.5362" />
      <trkpt lat="38.85686" lon="-122.53615" />
      <trkpt lat="38.85672" lon="-122.53591" />
      <trkpt lat="38.85664" lon="-122.53573" />
      <trkpt lat="38.8566" lon="-122.53572" />
      <trkpt lat="38.85651" lon="-122.5359" />
      <trkpt lat="38.85643" lon="-122.5359" />
      <trkpt lat="38.85629" lon="-122.53577" />
      <trkpt lat="38.85602" lon="-122.53567" />
      <trkpt lat="38.85581" lon="-122.53555" />
      <trkpt lat="38.85559" lon="-122.53547" />
      <trkpt lat="38.85532" lon="-122.53542" />
      <trkpt lat="38.85515" lon="-122.53541" />
      <trkpt lat="38.85507" lon="-122.53544" />
      <trkpt lat="38.85499" lon="-122.53549" />
      <trkpt lat="38.85488" lon="-122.53563" />
      <trkpt lat="38.8547" lon="-122.53593" />
    </trkseg>
  </trk>
</gpx>