<?xml version="1.0" encoding="UTF-8"?>
<gpx version="1.1" creator="strava-segment-scraper" xmlns="http://www.topografix.com/GPX/1/1">
  <trk>
    <name>F50 - Liberty to the line</name>
    <trkseg>
      <trkpt lat="39.70789" lon="-121.8685" />
      <trkpt lat="39.70748" lon="-121.86851" />
      <trkpt lat="39.70743" lon="-121.86854" />
      <trkpt lat="39.70735" lon="-121.86851" />
      <trkpt lat="39.70729" lon="-121.8685" />
      <trkpt lat="39.70694" lon="-121.8685" />
      <trkpt lat="39.70428" lon="-121.86856" />
      <trkpt lat="39.70386" lon="-121.86854" />
      <trkpt lat="39.70132" lon="-121.8686" />
      <trkpt lat="39.70086" lon="-121.86863" />
      <trkpt lat="39.70008" lon="-121.86864" />
      <trkpt lat="39.69921" lon="-121.86869" />
      <trkpt lat="39.69872" lon="-121.86869" />
      <trkpt lat="39.69781" lon="-121.86872" />
      <trkpt lat="39.69469" lon="-121.86879" />
      <trkpt lat="39.69351" lon="-121.86883" />
      <trkpt lat="39.69269" lon="-121.86884" />
      <trkpt lat="39.6921" lon="-121.86886" />
      <trkpt lat="39.69185" lon="-121.86889" />
      <trkpt lat="39.69142" lon="-121.86901" />
      <trkpt lat="39.69133" lon="-121.86906" />
      <trkpt lat="39.69082" lon="-121.86927" />
      <trkpt lat="39.68878" lon="-121.87007" />
      <trkpt lat="39.6887" lon="-121.87012" />
      <trkpt lat="39.68863" lon="-121.87019" />
      <trkpt lat="39.68858" lon="-121.87028" />
      <trkpt lat="39.68845" lon="-121.87057" />
      <trkpt lat="39.68839" lon="-121.87064" />
      <trkpt lat="39.68832" lon="-121.8707" />
      <trkpt lat="39.68797" lon="-121.87082" />
      <trkpt lat="39.68574" lon="-121.8717" />
      <trkpt lat="39.68566" lon="-121.87172" />
      <trkpt lat="39.6856" lon="-121.87168" />
      <trkpt lat="39.68551" lon="-121.87153" />
      <trkpt lat="39.68548" lon="-121.87144" />
      <trkpt lat="39.68423" lon="-121.86627" />
      <trkpt lat="39.68277" lon="-121.86009" />
      <trkpt lat="39.6823" lon="-121.8582" />
      <trkpt lat="39.68207" lon="-121.85715" />
      <trkpt lat="39.68199" lon="-121.85686" />
      <trkpt lat="39.68186" lon="-121.85623" />
      <trkpt lat="39.68184" lon="-121.85605" />
      <trkpt lat="39.68184" lon="-121.85546" />
      <trkpt lat="39.68187" lon="-121.85254" />
      <trkpt lat="39.6819" lon="-121.85215" />
      <trkpt lat="39.68202" lon="-121.85159" />
      <trkpt lat="39.682" lon="-121.8514" />
      <trkpt lat="39.68196" lon="-121.85132" />
      <trkpt lat="39.68172" lon="-121.85114" />
      <trkpt lat="39.68129" lon="-121.85075" />
      <trkpt lat="39.68069" lon="-121.85018" />
      <trkpt lat="39.67815" lon="-121.84762" />
      <trkpt lat="39.67758" lon="-121.84702" />
      <trkpt lat="39.67669" lon="-121.84612" />
      <trkpt lat="39.67469" lon="-121.84402" />
      <trkpt lat="39.67321" lon="-121.84258" />
      <trkpt lat="39.67213" lon="-121.84149" />
      <trkpt lat="39.6718" lon="-121.8412" />
      <trkpt lat="39.66985" lon="-121.83929" />
      <trkpt lat="39.66803" lon="-121.83756" />
      <trkpt lat="39.66782" lon="-121.83732" />
      <trkpt lat="39.66764" lon="-121.83704" />
      <trkpt lat="39.6675" lon="-121.83658" />
      <trkpt lat="39.66744" lon="-121.83623" />
      <trkpt lat="39.66743" lon="-121.8355" />
      <trkpt lat="39.66745" lon="-121.8327" />
      <trkpt lat="39.66743" lon="-121.83063" />
      <trkpt lat="39.66741" lon="-121.83037" />
      <trkpt lat="39.6673" lon="-121.82997" />
      <trkpt lat="39.66718" lon="-121.82972" />
      <trkpt lat="39.66676" lon="-121.82913" />
      <trkpt lat="39.66505" lon="-121.82698" />
      <trkpt lat="39.66464" lon="-121.82644" />
      <trkpt lat="39.6633" lon="-121.82473" />
      <trkpt lat="39.66312" lon="-121.82452" />
      <trkpt lat="39.66301" lon="-121.82444" />
      <trkpt lat="39.66278" lon="-121.8243" />
      <trkpt lat="39.66266" lon="-121.82426" />
      <trkpt lat="39.66241" lon="-121.82422" />
      <trkpt lat="39.66097" lon="-121.82422" />
      <trkpt lat="39.66004" lon="-121.82421" />
      <trkpt lat="39.65388" lon="-121.82424" />
      <trkpt lat="39.653" lon="-121.8242" />
      <trkpt lat="39.65292" lon="-121.82421" />
      <trkpt lat="39.65286" lon="-121.82427" />
      <trkpt lat="39.65281" lon="-121.82434" />
      <trkpt lat="39.65279" lon="-121.82453" />
      <trkpt lat="39.65283" lon="-121.82513" />
      <trkpt lat="39.65286" lon="-121.82745" />
      <trkpt lat="39.65285" lon="-121.8282" />
      <trkpt lat="39.65288" lon="-121.83111" />
      <trkpt lat="39.65288" lon="-121.83209" />
      <trkpt lat="39.65294" lon="-121.83934" />
      <trkpt lat="39.65293" lon="-121.84027" />
      <trkpt lat="39.65295" lon="-121.84267" />
      <trkpt lat="39.65294" lon="-121.8429" />
      <trkpt lat="39.65292" lon="-121.843" />
      <trkpt lat="39.65287" lon="-121.84308" />
      <trkpt lat="39.6528" lon="-121.84313" />
      <trkpt lat="39.65259" lon="-121.84314" />
      <trkpt lat="39.65215" lon="-121.84312" />
      <trkpt lat="39.65102" lon="-121.84313" />
      <trkpt lat="39.65062" lon="-121.8431" />
      <trkpt lat="39.64985" lon="-121.84309" />
      <trkpt lat="39.64698" lon="-121.84308" />
      <trkpt lat="39.645" lon="-121.84305" />
      <trkpt lat="39.64445" lon="-121.84302" />
      <trkpt lat="39.64294" lon="-121.84301" />
      <trkpt lat="39.64195" lon="-121.84298" />
      <trkpt lat="39.63762" lon="-121.84295" />
      <trkpt lat="39.63435" lon="-121.84285" />
      <trkpt lat="39.63308" lon="-121.84284" />
      <trkpt lat="39.6326" lon="-121.84283" />
      <trkpt lat="39.63203" lon="-121.8428" />
      <trkpt lat="39.63089" lon="-121.84279" />
      <trkpt lat="39.62963" lon="-121.84271" />
      <trkpt lat="39.62879" lon="-121.84268" />
      <trkpt lat="39.62773" lon="-121.84266" />
      <trkpt lat="39.62508" lon="-121.84259" />
      <trkpt lat="39.62462" lon="-121.84255" />
      <trkpt lat="39.62429" lon="-121.84255" />
      <trkpt lat="39.62407" lon="-121.84258" />
      <trkpt lat="39.62397" lon="-121.84262" />
      <trkpt lat="39.62387" lon="-121.84269" />
      <trkpt lat="39.62378" lon="-121.84278" />
      <trkpt lat="39.62372" lon="-121.84291" />
      <trkpt lat="39.62365" lon="-121.84318" />
      <trkpt lat="39.62365" lon="-121.84348" />
      <trkpt lat="39.62368" lon="-121.84406" />
      <trkpt lat="39.62369" lon="-121.84479" />
      <trkpt lat="39.62373" lon="-121.84724" />
      <trkpt lat="39.62372" lon="-121.85389" />
      <trkpt lat="39.62375" lon="-121.85794" />
      <trkpt lat="39.62375" lon="-121.85971" />
      <trkpt lat="39.62372" lon="-121.86088" />
      <trkpt lat="39.62374" lon="-121.86108" />
      <trkpt lat="39.6238" lon="-121.86116" />
      <trkpt lat="39.62386" lon="-121.86121" />
      <trkpt lat="39.62435" lon="-121.86133" />
      <trkpt lat="39.6248" lon="-121.86139" />
      <trkpt lat="39.62837" lon="-121.86146" />
      <trkpt lat="39.62892" lon="-121.8615" />
      <trkpt lat="39.62922" lon="-121.8615" />
      <trkpt lat="39.63114" lon="-121.86155" />
      <trkpt lat="39.63473" lon="-121.86169" />
      <trkpt lat="39.63682" lon="-121.86171" />
      <trkpt lat="39.63786" lon="-121.86175" />
      <trkpt lat="39.63987" lon="-121.86174" />
      <trkpt lat="39.6413" lon="-121.86172" />
      <trkpt lat="39.64225" lon="-121.86174" />
      <trkpt lat="39.64488" lon="-121.86173" />
      <trkpt lat="39.64699" lon="-121.86176" />
      <trkpt lat="39.65279" lon="-121.86179" />
      <trkpt lat="39.65286" lon="-121.8618" />
      <trkpt lat="39.65292" lon="-121.86183" />
      <trkpt lat="39.65298" lon="-121.86189" />
      <trkpt lat="39.65301" lon="-121.86197" />
      <trkpt lat="39.65302" lon="-121.86207" />
      <trkpt lat="39.65302" lon="-121.86411" />
      <trkpt lat="39.653" lon="-121.86493" />
      <trkpt lat="39.65292" lon="-121.86539" />
      <trkpt lat="39.65282" lon="-121.86572" />
      <trkpt lat="39.6527" lon="-121.86605" />
      <trkpt lat="39.65254" lon="-121.86635" />
      <trkpt lat="39.65223" lon="-121.86682" />
      <trkpt lat="39.65054" lon="-121.86905" />
      <trkpt lat="39.65033" lon="-121.86936" />
      <trkpt lat="39.64871" lon="-121.87226" />
      <trkpt lat="39.64739" lon="-121.87465" />
      <trkpt lat="39.64686" lon="-121.87557" />
      <trkpt lat="39.64523" lon="-121.87811" />
      <trkpt lat="39.64464" lon="-121.87904" />
      <trkpt lat="39.64416" lon="-121.87984" />
      <trkpt lat="39.64345" lon="-121.88092" />
      <trkpt lat="39.64213" lon="-121.88303" />
      <trkpt lat="39.6419" lon="-121.88334" />
      <trkpt lat="39.64153" lon="-121.88372" />
      <trkpt lat="39.64124" lon="-121.88397" />
      <trkpt lat="39.63986" lon="-121.885" />
      <trkpt lat="39.63966" lon="-121.88517" />
      <trkpt lat="39.63938" lon="-121.88547" />
      <trkpt lat="39.63913" lon="-121.8858" />
      <trkpt lat="39.63885" lon="-121.88627" />
      <trkpt lat="39.63859" lon="-121.88691" />
      <trkpt lat="39.6385" lon="-121.88718" />
      <trkpt lat="39.63836" lon="-121.88787" />
      <trkpt lat="39.63832" lon="-121.88816" />
      <trkpt lat="39.6383" lon="-121.88862" />
      <trkpt lat="39.63832" lon="-121.89038" />
      <trkpt lat="39.63828" lon="-121.89178" />
      <trkpt lat="39.63826" lon="-121.89972" />
      <trkpt lat="39.63824" lon="-121.90169" />
      <trkpt lat="39.63819" lon="-121.90327" />
      <trkpt lat="39.63806" lon="-121.90421" />
      <trkpt lat="39.63748" lon="-121.9065" />
      <trkpt lat="39.63698" lon="-121.90843" />
      <trkpt lat="39.63678" lon="-121.90925" />
      <trkpt lat="39.63606" lon="-121.91181" />
      <trkpt lat="39.63459" lon="-121.9176" />
      <trkpt lat="39.63418" lon="-121.91908" />
      <trkpt lat="39.63391" lon="-121.92024" />
      <trkpt lat="39.63375" lon="-121.92076" />
      <trkpt lat="39.6326" lon="-121.92519" />
      <trkpt lat="39.63213" lon="-121.9271" />
      <trkpt lat="39.63138" lon="-121.92991" />
      <trkpt lat="39.63124" lon="-121.93039" />
      <trkpt lat="39.63011" lon="-121.9347" />
      <trkpt lat="39.62991" lon="-121.93538" />
      <trkpt lat="39.62952" lon="-121.93685" />
      <trkpt lat="39.62823" lon="-121.942" />
      <trkpt lat="39.62728" lon="-121.94561" />
      <trkpt lat="39.62725" lon="-121.94581" />
      <trkpt lat="39.62728" lon="-121.94598" />
      <trkpt lat="39.62735" lon="-121.94601" />
      <trkpt lat="39.62756" lon="-121.94602" />
      <trkpt lat="39.62787" lon="-121.946" />
      <trkpt lat="39.62902" lon="-121.94599" />
      <trkpt lat="39.631" lon="-121.946" />
      <trkpt lat="39.63396" lon="-121.94598" />
      <trkpt lat="39.63458" lon="-121.946" />
      <trkpt lat="39.63618" lon="-121.94596" />
      <trkpt lat="39.63924" lon="-121.94599" />
      <trkpt lat="39.63976" lon="-121.94597" />
      <trkpt lat="39.64089" lon="-121.94599" />
      <trkpt lat="39.6419" lon="-121.94596" />
      <trkpt lat="39.64248" lon="-121.94596" />
      <trkpt lat="39.64283" lon="-121.94598" />
      <trkpt lat="39.6433" lon="-121.94595" />
      <trkpt lat="39.64427" lon="-121.94596" />
      <trkpt lat="39.64631" lon="-121.94594" />
      <trkpt lat="39.64691" lon="-121.94595" />
      <trkpt lat="39.64769" lon="-121.94592" />
      <trkpt lat="39.64853" lon="-121.94591" />
      <trkpt lat="39.64897" lon="-121.94593" />
      <trkpt lat="39.65032" lon="-121.94591" />
      <trkpt lat="39.65265" lon="-121.9459" />
      <trkpt lat="39.65301" lon="-121.94586" />
      <trkpt lat="39.65339" lon="-121.94577" />
      <trkpt lat="39.65366" lon="-121.94565" />
      <trkpt lat="39.65392" lon="-121.94549" />
      <trkpt lat="39.65433" lon="-121.94517" />
      <trkpt lat="39.65534" lon="-121.94415" />
      <trkpt lat="39.65571" lon="-121.9438" />
      <trkpt lat="39.65624" lon="-121.94319" />
      <trkpt lat="39.65645" lon="-121.94284" />
      <trkpt lat="39.65663" lon="-121.9425" />
      <trkpt lat="39.65774" lon="-121.94011" />
      <trkpt lat="39.65888" lon="-121.93774" />
      <trkpt lat="39.65911" lon="-121.93738" />
      <trkpt lat="39.65928" lon="-121.93717" />
      <trkpt lat="39.65946" lon="-121.93698" />
      <trkpt lat="39.65976" lon="-121.93673" />
      <trkpt lat="39.66006" lon="-121.93654" />
      <trkpt lat="39.66036" lon="-121.9364" />
      <trkpt lat="39.66067" lon="-121.93633" />
      <trkpt lat="39.66098" lon="-121.9363" />
      <trkpt lat="39.66157" lon="-121.93632" />
      <trkpt lat="39.66227" lon="-121.93631" />
      <trkpt lat="39.66257" lon="-121.93632" />
      <trkpt lat="39.66349" lon="-121.93633" />
      <trkpt lat="39.66513" lon="-121.93631" />
      <trkpt lat="39.66574" lon="-121.93632" />
      <trkpt lat="39.66605" lon="-121.93631" />
      <trkpt lat="39.66678" lon="-121.93633" />
      <trkpt lat="39.66741" lon="-121.93631" />
      <trkpt lat="39.66919" lon="-121.93603" />
      <trkpt lat="39.67031" lon="-121.93587" />
      <trkpt lat="39.67334" lon="-121.93539" />
      <trkpt lat="39.67373" lon="-121.93531" />
      <trkpt lat="39.67393" lon="-121.93524" />
      <trkpt lat="39.6742" lon="-121.93512" />
      <trkpt lat="39.67429" lon="-121.93505" />
      <trkpt lat="39.67458" lon="-121.93483" />
      <trkpt lat="39.67476" lon="-121.93466" />
      <trkpt lat="39.67569" lon="-121.9336" />
      <trkpt lat="39.67624" lon="-121.93293" />
      <trkpt lat="39.67651" lon="-121.93252" />
      <trkpt lat="39.67669" lon="-121.93219" />
      <trkpt lat="39.6773" lon="-121.93092" />
      <trkpt lat="39.67749" lon="-121.93061" />
      <trkpt lat="39.67776" lon="-121.93025" />
      <trkpt lat="39.67808" lon="-121.92994" />
      <trkpt lat="39.67833" lon="-121.92974" />
      <trkpt lat="39.67868" lon="-121.92954" />
      <trkpt lat="39.67904" lon="-121.92942" />
      <trkpt lat="39.6794" lon="-121.92936" />
      <trkpt lat="39.67984" lon="-121.92935" />
      <trkpt lat="39.68216" lon="-121.9294" />
      <trkpt lat="39.68798" lon="-121.92942" />
      <trkpt lat="39.69036" lon="-121.92945" />
      <trkpt lat="39.69096" lon="-121.92947" />
      <trkpt lat="39.69219" lon="-121.92947" />
      <trkpt lat="39.69261" lon="-121.92945" />
      <trkpt lat="39.69282" lon="-121.92943" />
      <trkpt lat="39.69323" lon="-121.92931" />
      <trkpt lat="39.69352" lon="-121.92919" />
      <trkpt lat="39.69374" lon="-121.92905" />
      <trkpt lat="39.69408" lon="-121.92877" />
      <trkpt lat="39.69437" lon="-121.92844" />
      <trkpt lat="39.69471" lon="-121.92792" />
      <trkpt lat="39.69487" lon="-121.92758" />
      <trkpt lat="39.69498" lon="-121.92723" />
      <trkpt lat="39.69586" lon="-121.92406" />
      <trkpt lat="39.6959" lon="-121.92399" />
      <trkpt lat="39.69595" lon="-121.92394" />
      <trkpt lat="39.69602" lon="-121.92392" />
      <trkpt lat="39.6961" lon="-121.92394" />
      <trkpt lat="39.69617" lon="-121.924" />
      <trkpt lat="39.69622" lon="-121.92409" />
      <trkpt lat="39.6964" lon="-121.92452" />
      <trkpt lat="39.69677" lon="-121.92526" />
      <trkpt lat="39.69762" lon="-121.92695" />
      <trkpt lat="39.69782" lon="-121.92732" />
      <trkpt lat="39.69973" lon="-121.93114" />
      <trkpt lat="39.70092" lon="-121.93346" />
      <trkpt lat="39.70302" lon="-121.93772" />
      <trkpt lat="39.70314" lon="-121.93791" />
      <trkpt lat="39.70335" lon="-121.93815" />
      <trkpt lat="39.70419" lon="-121.93888" />
      <trkpt lat="39.70436" lon="-121.93905" />
      <trkpt lat="39.70459" lon="-121.93932" />
      <trkpt lat="39.70485" lon="-121.93969" />
      <trkpt lat="39.70526" lon="-121.94039" />
      <trkpt lat="39.70546" lon="-121.94068" />
      <trkpt lat="39.70666" lon="-121.94236" />
      <trkpt lat="39.70727" lon="-121.94317" />
      <trkpt lat="39.7076" lon="-121.94357" />
      <trkpt lat="39.70769" lon="-121.94363" />
      <trkpt lat="39.70778" lon="-121.94368" />
      <trkpt lat="39.70798" lon="-121.94372" />
      <trkpt lat="39.70835" lon="-121.94374" />
      <trkpt lat="39.70921" lon="-121.94369" />
      <trkpt lat="39.70989" lon="-121.94371" />
      <trkpt lat="39.71049" lon="-121.9438" />
      <trkpt lat="39.71136" lon="-121.94398" />
      <trkpt lat="39.71156" lon="-121.94405" />
      <trkpt lat="39.71175" lon="-121.94415" />
      <trkpt lat="39.71212" lon="-121.9444" />
      <trkpt lat="39.7126" lon="-121.94467" />
      <trkpt lat="39.71306" lon="-121.94498" />
      <trkpt lat="39.71356" lon="-121.94511" />
      <trkpt lat="39.71395" lon="-121.94518" />
      <trkpt lat="39.71522" lon="-121.94568" />
      <trkpt lat="39.7154" lon="-121.94573" />
      <trkpt lat="39.71559" lon="-121.94575" />
      <trkpt lat="39.71568" lon="-121.94575" />
      <trkpt lat="39.71577" lon="-121.94573" />
      <trkpt lat="39.71595" lon="-121.9457" />
      <trkpt lat="39.71641" lon="-121.94567" />
      <trkpt lat="39.71715" lon="-121.94577" />
      <trkpt lat="39.718" lon="-121.94584" />
      <trkpt lat="39.7182" lon="-121.94582" />
      <trkpt lat="39.71916" lon="-121.94567" />
      <trkpt lat="39.72026" lon="-121.94556" />
      <trkpt lat="39.72094" lon="-121.94552" />
      <trkpt lat="39.72228" lon="-121.94549" />
      <trkpt lat="39.72269" lon="-121.9455" />
      <trkpt lat="39.72298" lon="-121.94552" />
      <trkpt lat="39.72455" lon="-121.94578" />
      <trkpt lat="39.72474" lon="-121.94581" />
      <trkpt lat="39.72484" lon="-121.9458" />
      <trkpt lat="39.72494" lon="-121.94579" />
      <trkpt lat="39.72513" lon="-121.94572" />
      <trkpt lat="39.72558" lon="-121.94547" />
      <trkpt lat="39.72577" lon="-121.94539" />
      <trkpt lat="39.72587" lon="-121.94537" />
      <trkpt lat="39.72647" lon="-121.9454" />
      <trkpt lat="39.72667" lon="-121.94539" />
      <trkpt lat="39.72733" lon="-121.94523" />
      <trkpt lat="39.72793" lon="-121.94514" />
      <trkpt lat="39.72861" lon="-121.94508" />
      <trkpt lat="39.7287" lon="-121.94506" />
      <trkpt lat="39.72888" lon="-121.94494" />
      <trkpt lat="39.72895" lon="-121.94486" />
      <trkpt lat="39.72899" lon="-121.94476" />
      <trkpt lat="39.72902" lon="-121.94465" />
      <trkpt lat="39.72903" lon="-121.94351" />
      <trkpt lat="39.72899" lon="-121.93997" />
      <trkpt lat="39.72904" lon="-121.9384" />
      <trkpt lat="39.72901" lon="-121.93643" />
      <trkpt lat="39.72903" lon="-121.93471" />
      <trkpt lat="39.72898" lon="-121.93037" />
      <trkpt lat="39.72899" lon="-121.92649" />
      <trkpt lat="39.72898" lon="-121.91924" />
      <trkpt lat="39.72901" lon="-121.91843" />
      <trkpt lat="39.72913" lon="-121.91659" />
      <trkpt lat="39.72921" lon="-121.91506" />
      <trkpt lat="39.7295" lon="-121.91098" />
      <trkpt lat="39.73008" lon="-121.90179" />
      <trkpt lat="39.73012" lon="-121.90153" />
      <trkpt lat="39.73026" lon="-121.90102" />
      <trkpt lat="39.73035" lon="-121.90077" />
      <trkpt lat="39.73079" lon="-121.89988" />
      <trkpt lat="39.73088" lon="-121.89961" />
      <trkpt lat="39.73097" lon="-121.89917" />
      <trkpt lat="39.73099" lon="-121.89872" />
      <trkpt lat="39.73097" lon="-121.89795" />
      <trkpt lat="39.73097" lon="-121.89578" />
    </trkseg>
  </trk>
</gpx>