<?xml version="1.0" encoding="UTF-8"?>
<gpx version="1.1" creator="strava-segment-scraper" xmlns="http://www.topografix.com/GPX/1/1">
  <trk>
    <name>Oberlin E-W</name>
    <trkseg>
      <trkpt lat="41.70564" lon="-122.54018" />
      <trkpt lat="41.7057" lon="-122.54237" />
      <trkpt lat="41.70563" lon="-122.56227" />
      <trkpt lat="41.70564" lon="-122.56289" />
      <trkpt lat="41.70567" lon="-122.56352" />
      <trkpt lat="41.70575" lon="-122.56415" />
      <trkpt lat="41.70587" lon="-122.56475" />
      <trkpt lat="41.70602" lon="-122.56534" />
      <trkpt lat="41.70619" lon="-122.56586" />
      <trkpt lat="41.7094" lon="-122.57409" />
      <trkpt lat="41.70961" lon="-122.57467" />
      <trkpt lat="41.7098" lon="-122.57526" />
      <trkpt lat="41.70996" lon="-122.57588" />
      <trkpt lat="41.71008" lon="-122.5765" />
      <trkpt lat="41.71083" lon="-122.58109" />
      <trkpt lat="41.71091" lon="-122.5817" />
      <trkpt lat="41.71096" lon="-122.58232" />
      <trkpt lat="41.71107" lon="-122.58486" />
      <trkpt lat="41.71199" lon="-122.60978" />
      <trkpt lat="41.71203" lon="-122.61163" />
      <trkpt lat="41.71208" lon="-122.61497" />
      <trkpt lat="41.71213" lon="-122.61584" />
      <trkpt lat="41.7122" lon="-122.61646" />
      <trkpt lat="41.71233" lon="-122.61718" />
      <trkpt lat="41.71472" lon="-122.62725" />
      <trkpt lat="41.71495" lon="-122.62837" />
      <trkpt lat="41.71508" lon="-122.62922" />
      <trkpt lat="41.71519" lon="-122.6301" />
      <trkpt lat="41.71551" lon="-122.63302" />
      <trkpt lat="41.71559" lon="-122.63392" />
      <trkpt lat="41.71611" lon="-122.63851" />
    </trkseg>
  </trk>
</gpx>