<?xml version="1.0" encoding="UTF-8"?>
<gpx version="1.1" creator="strava-segment-scraper" xmlns="http://www.topografix.com/GPX/1/1">
  <trk>
    <name>Alder Point DH into Garberville</name>
    <trkseg>
      <trkpt lat="40.11228" lon="-123.75439" />
      <trkpt lat="40.11273" lon="-123.7544" />
      <trkpt lat="40.11284" lon="-123.75439" />
      <trkpt lat="40.11295" lon="-123.75435" />
      <trkpt lat="40.11327" lon="-123.7542" />
      <trkpt lat="40.1135" lon="-123.75425" />
      <trkpt lat="40.11359" lon="-123.75433" />
      <trkpt lat="40.11403" lon="-123.75482" />
      <trkpt lat="40.11424" lon="-123.75499" />
      <trkpt lat="40.11458" lon="-123.7552" />
      <trkpt lat="40.11467" lon="-123.75531" />
      <trkpt lat="40.11476" lon="-123.75562" />
      <trkpt lat="40.1146" lon="-123.75606" />
      <trkpt lat="40.11441" lon="-123.75631" />
      <trkpt lat="40.11424" lon="-123.75659" />
      <trkpt lat="40.11409" lon="-123.75689" />
      <trkpt lat="40.11404" lon="-123.75706" />
      <trkpt lat="40.11401" lon="-123.75725" />
      <trkpt lat="40.11404" lon="-123.7578" />
      <trkpt lat="40.11403" lon="-123.75799" />
      <trkpt lat="40.11393" lon="-123.75853" />
      <trkpt lat="40.11391" lon="-123.75872" />
      <trkpt lat="40.11392" lon="-123.7589" />
      <trkpt lat="40.11401" lon="-123.75926" />
      <trkpt lat="40.11415" lon="-123.7596" />
      <trkpt lat="40.11441" lon="-123.76007" />
      <trkpt lat="40.11447" lon="-123.76025" />
      <trkpt lat="40.11451" lon="-123.76044" />
      <trkpt lat="40.1146" lon="-123.76105" />
      <trkpt lat="40.11463" lon="-123.76145" />
      <trkpt lat="40.11464" lon="-123.76184" />
      <trkpt lat="40.1146" lon="-123.76221" />
      <trkpt lat="40.1145" lon="-123.76255" />
      <trkpt lat="40.11429" lon="-123.76303" />
      <trkpt lat="40.11419" lon="-123.76354" />
      <trkpt lat="40.11414" lon="-123.7637" />
      <trkpt lat="40.11407" lon="-123.76385" />
      <trkpt lat="40.11391" lon="-123.76414" />
      <trkpt lat="40.11362" lon="-123.76452" />
      <trkpt lat="40.11349" lon="-123.76484" />
      <trkpt lat="40.11338" lon="-123.76535" />
      <trkpt lat="40.11323" lon="-123.76563" />
      <trkpt lat="40.11301" lon="-123.76582" />
      <trkpt lat="40.11232" lon="-123.7661" />
      <trkpt lat="40.11171" lon="-123.76633" />
      <trkpt lat="40.11145" lon="-123.76651" />
      <trkpt lat="40.11132" lon="-123.76658" />
      <trkpt lat="40.1112" lon="-123.76661" />
      <trkpt lat="40.11107" lon="-123.76662" />
      <trkpt lat="40.11074" lon="-123.7665" />
      <trkpt lat="40.11064" lon="-123.7665" />
      <trkpt lat="40.11048" lon="-123.76663" />
      <trkpt lat="40.11034" lon="-123.76685" />
      <trkpt lat="40.11024" lon="-123.76707" />
      <trkpt lat="40.11029" lon="-123.7673" />
      <trkpt lat="40.11047" lon="-123.76749" />
      <trkpt lat="40.11067" lon="-123.76764" />
      <trkpt lat="40.11075" lon="-123.76775" />
      <trkpt lat="40.11082" lon="-123.76788" />
      <trkpt lat="40.11094" lon="-123.76838" />
      <trkpt lat="40.11105" lon="-123.76872" />
      <trkpt lat="40.11133" lon="-123.76935" />
      <trkpt lat="40.11144" lon="-123.76971" />
      <trkpt lat="40.11151" lon="-123.76988" />
      <trkpt lat="40.11159" lon="-123.77003" />
      <trkpt lat="40.11185" lon="-123.77044" />
      <trkpt lat="40.11199" lon="-123.77074" />
      <trkpt lat="40.11234" lon="-123.77176" />
      <trkpt lat="40.11256" lon="-123.77224" />
      <trkpt lat="40.11262" lon="-123.77241" />
      <trkpt lat="40.11265" lon="-123.77258" />
      <trkpt lat="40.11265" lon="-123.77275" />
      <trkpt lat="40.11262" lon="-123.77292" />
      <trkpt lat="40.11256" lon="-123.77306" />
      <trkpt lat="40.11242" lon="-123.77327" />
      <trkpt lat="40.11238" lon="-123.77336" />
      <trkpt lat="40.11243" lon="-123.77352" />
      <trkpt lat="40.11266" lon="-123.77348" />
      <trkpt lat="40.11283" lon="-123.77335" />
      <trkpt lat="40.11315" lon="-123.77323" />
      <trkpt lat="40.11327" lon="-123.7732" />
      <trkpt lat="40.11339" lon="-123.7732" />
      <trkpt lat="40.11351" lon="-123.77322" />
      <trkpt lat="40.11397" lon="-123.77334" />
      <trkpt lat="40.1141" lon="-123.77348" />
      <trkpt lat="40.11407" lon="-123.77367" />
      <trkpt lat="40.11391" lon="-123.77376" />
      <trkpt lat="40.11381" lon="-123.7738" />
      <trkpt lat="40.11358" lon="-123.77395" />
      <trkpt lat="40.11311" lon="-123.77464" />
      <trkpt lat="40.113" lon="-123.77478" />
      <trkpt lat="40.11203" lon="-123.77583" />
      <trkpt lat="40.11161" lon="-123.7764" />
      <trkpt lat="40.11136" lon="-123.77669" />
      <trkpt lat="40.11109" lon="-123.77697" />
      <trkpt lat="40.1108" lon="-123.77724" />
      <trkpt lat="40.11054" lon="-123.77753" />
      <trkpt lat="40.11032" lon="-123.77786" />
      <trkpt lat="40.11016" lon="-123.77825" />
      <trkpt lat="40.11005" lon="-123.77863" />
      <trkpt lat="40.11002" lon="-123.77881" />
      <trkpt lat="40.11001" lon="-123.77898" />
      <trkpt lat="40.11001" lon="-123.77916" />
      <trkpt lat="40.11006" lon="-123.77932" />
      <trkpt lat="40.11015" lon="-123.77947" />
      <trkpt lat="40.11051" lon="-123.77983" />
      <trkpt lat="40.11061" lon="-123.77998" />
      <trkpt lat="40.1107" lon="-123.78016" />
      <trkpt lat="40.11075" lon="-123.78037" />
      <trkpt lat="40.11077" lon="-123.78059" />
      <trkpt lat="40.11072" lon="-123.78146" />
      <trkpt lat="40.11073" lon="-123.78167" />
      <trkpt lat="40.11093" lon="-123.78246" />
      <trkpt lat="40.11113" lon="-123.78304" />
      <trkpt lat="40.11117" lon="-123.78323" />
      <trkpt lat="40.11118" lon="-123.78344" />
      <trkpt lat="40.1111" lon="-123.78382" />
      <trkpt lat="40.11098" lon="-123.78416" />
      <trkpt lat="40.11081" lon="-123.78449" />
      <trkpt lat="40.11072" lon="-123.78463" />
      <trkpt lat="40.11061" lon="-123.78476" />
      <trkpt lat="40.11048" lon="-123.78487" />
      <trkpt lat="40.11035" lon="-123.78496" />
      <trkpt lat="40.11008" lon="-123.78511" />
      <trkpt lat="40.1098" lon="-123.78523" />
      <trkpt lat="40.10952" lon="-123.78533" />
      <trkpt lat="40.10879" lon="-123.78555" />
      <trkpt lat="40.10864" lon="-123.78557" />
      <trkpt lat="40.10835" lon="-123.78553" />
      <trkpt lat="40.10821" lon="-123.78546" />
      <trkpt lat="40.10795" lon="-123.78526" />
      <trkpt lat="40.10782" lon="-123.78517" />
      <trkpt lat="40.10767" lon="-123.78513" />
      <trkpt lat="40.10738" lon="-123.78518" />
      <trkpt lat="40.10709" lon="-123.78534" />
      <trkpt lat="40.10665" lon="-123.78555" />
      <trkpt lat="40.10634" lon="-123.7856" />
      <trkpt lat="40.10618" lon="-123.78565" />
      <trkpt lat="40.10603" lon="-123.78572" />
      <trkpt lat="40.10591" lon="-123.78584" />
      <trkpt lat="40.1058" lon="-123.786" />
      <trkpt lat="40.10571" lon="-123.78616" />
      <trkpt lat="40.10555" lon="-123.78653" />
      <trkpt lat="40.10543" lon="-123.78691" />
      <trkpt lat="40.10538" lon="-123.78711" />
      <trkpt lat="40.1053" lon="-123.78773" />
      <trkpt lat="40.10521" lon="-123.78831" />
      <trkpt lat="40.1052" lon="-123.78848" />
      <trkpt lat="40.10522" lon="-123.78864" />
      <trkpt lat="40.10528" lon="-123.7888" />
      <trkpt lat="40.10535" lon="-123.78894" />
      <trkpt lat="40.10544" lon="-123.78907" />
      <trkpt lat="40.10577" lon="-123.78947" />
      <trkpt lat="40.10632" lon="-123.79024" />
      <trkpt lat="40.10651" lon="-123.7906" />
      <trkpt lat="40.1066" lon="-123.79079" />
      <trkpt lat="40.10683" lon="-123.79158" />
      <trkpt lat="40.10703" lon="-123.79214" />
      <trkpt lat="40.10707" lon="-123.79234" />
      <trkpt lat="40.1071" lon="-123.79255" />
      <trkpt lat="40.10711" lon="-123.79297" />
      <trkpt lat="40.1073" lon="-123.79351" />
      <trkpt lat="40.10765" lon="-123.79387" />
      <trkpt lat="40.10787" lon="-123.79415" />
      <trkpt lat="40.10796" lon="-123.79432" />
      <trkpt lat="40.10802" lon="-123.79451" />
      <trkpt lat="40.10805" lon="-123.7947" />
      <trkpt lat="40.10805" lon="-123.7949" />
      <trkpt lat="40.10802" lon="-123.7951" />
      <trkpt lat="40.10795" lon="-123.79542" />
    </trkseg>
  </trk>
</gpx>