<?xml version="1.0" encoding="UTF-8"?>
<gpx version="1.1" creator="strava-segment-scraper" xmlns="http://www.topografix.com/GPX/1/1">
  <trk>
    <name>Old Cazadero (Full Climb)</name>
    <trkseg>
      <trkpt lat="38.50482" lon="-123.03146" />
      <trkpt lat="38.50483" lon="-123.03137" />
      <trkpt lat="38.50479" lon="-123.03112" />
      <trkpt lat="38.50472" lon="-123.03103" />
      <trkpt lat="38.50473" lon="-123.03097" />
      <trkpt lat="38.50477" lon="-123.03095" />
      <trkpt lat="38.50483" lon="-123.03084" />
      <trkpt lat="38.50489" lon="-123.03062" />
      <trkpt lat="38.50472" lon="-123.03043" />
      <trkpt lat="38.50475" lon="-123.0304" />
      <trkpt lat="38.50478" lon="-123.03018" />
      <trkpt lat="38.50474" lon="-123.03006" />
      <trkpt lat="38.5045" lon="-123.02979" />
      <trkpt lat="38.50452" lon="-123.02968" />
      <trkpt lat="38.50478" lon="-123.02951" />
      <trkpt lat="38.50482" lon="-123.02951" />
      <trkpt lat="38.50526" lon="-123.02941" />
      <trkpt lat="38.50553" lon="-123.02948" />
      <trkpt lat="38.5056" lon="-123.02952" />
      <trkpt lat="38.50587" lon="-123.02956" />
      <trkpt lat="38.506" lon="-123.02953" />
      <trkpt lat="38.50617" lon="-123.02946" />
      <trkpt lat="38.50628" lon="-123.02944" />
      <trkpt lat="38.50645" lon="-123.02951" />
      <trkpt lat="38.50654" lon="-123.02956" />
      <trkpt lat="38.50663" lon="-123.02958" />
      <trkpt lat="38.50666" lon="-123.02958" />
      <trkpt lat="38.50674" lon="-123.0295" />
      <trkpt lat="38.50678" lon="-123.02948" />
      <trkpt lat="38.50701" lon="-123.02948" />
      <trkpt lat="38.50724" lon="-123.02953" />
      <trkpt lat="38.50757" lon="-123.02968" />
      <trkpt lat="38.50786" lon="-123.02988" />
      <trkpt lat="38.50801" lon="-123.03018" />
      <trkpt lat="38.50809" lon="-123.03043" />
      <trkpt lat="38.50808" lon="-123.03055" />
      <trkpt lat="38.50809" lon="-123.03065" />
      <trkpt lat="38.50808" lon="-123.03092" />
      <trkpt lat="38.50812" lon="-123.03108" />
      <trkpt lat="38.50833" lon="-123.03141" />
      <trkpt lat="38.50837" lon="-123.03146" />
      <trkpt lat="38.5084" lon="-123.03147" />
      <trkpt lat="38.50864" lon="-123.03179" />
      <trkpt lat="38.509" lon="-123.03202" />
      <trkpt lat="38.50917" lon="-123.03218" />
      <trkpt lat="38.5092" lon="-123.03219" />
      <trkpt lat="38.50945" lon="-123.03213" />
      <trkpt lat="38.50967" lon="-123.03204" />
      <trkpt lat="38.5104" lon="-123.0319" />
      <trkpt lat="38.51065" lon="-123.03203" />
      <trkpt lat="38.51106" lon="-123.03234" />
      <trkpt lat="38.51109" lon="-123.03239" />
      <trkpt lat="38.51111" lon="-123.03246" />
      <trkpt lat="38.5111" lon="-123.03267" />
      <trkpt lat="38.51101" lon="-123.03328" />
      <trkpt lat="38.51097" lon="-123.03345" />
      <trkpt lat="38.511" lon="-123.0336" />
      <trkpt lat="38.511" lon="-123.03376" />
      <trkpt lat="38.51106" lon="-123.03389" />
      <trkpt lat="38.5112" lon="-123.03411" />
      <trkpt lat="38.51124" lon="-123.03416" />
      <trkpt lat="38.51141" lon="-123.03421" />
      <trkpt lat="38.51144" lon="-123.03423" />
      <trkpt lat="38.51153" lon="-123.0344" />
      <trkpt lat="38.51175" lon="-123.03457" />
      <trkpt lat="38.51197" lon="-123.03478" />
      <trkpt lat="38.51236" lon="-123.03503" />
      <trkpt lat="38.51246" lon="-123.03501" />
      <trkpt lat="38.51252" lon="-123.03497" />
      <trkpt lat="38.51282" lon="-123.03469" />
      <trkpt lat="38.51295" lon="-123.03464" />
      <trkpt lat="38.51301" lon="-123.03465" />
      <trkpt lat="38.51305" lon="-123.03482" />
      <trkpt lat="38.51287" lon="-123.03518" />
      <trkpt lat="38.51289" lon="-123.0353" />
      <trkpt lat="38.51278" lon="-123.03567" />
      <trkpt lat="38.51275" lon="-123.03571" />
      <trkpt lat="38.51242" lon="-123.03581" />
      <trkpt lat="38.51228" lon="-123.0358" />
      <trkpt lat="38.51204" lon="-123.03574" />
      <trkpt lat="38.51201" lon="-123.03571" />
      <trkpt lat="38.51182" lon="-123.03567" />
      <trkpt lat="38.51171" lon="-123.0358" />
      <trkpt lat="38.51166" lon="-123.03597" />
      <trkpt lat="38.51169" lon="-123.03618" />
      <trkpt lat="38.5119" lon="-123.03628" />
      <trkpt lat="38.5121" lon="-123.03643" />
      <trkpt lat="38.5123" lon="-123.03663" />
      <trkpt lat="38.5124" lon="-123.0367" />
      <trkpt lat="38.51278" lon="-123.03687" />
      <trkpt lat="38.51314" lon="-123.03697" />
      <trkpt lat="38.51342" lon="-123.03699" />
      <trkpt lat="38.51351" lon="-123.03697" />
      <trkpt lat="38.51434" lon="-123.0368" />
      <trkpt lat="38.51506" lon="-123.03693" />
      <trkpt lat="38.51542" lon="-123.03705" />
      <trkpt lat="38.51555" lon="-123.03702" />
      <trkpt lat="38.51627" lon="-123.03711" />
      <trkpt lat="38.51648" lon="-123.03729" />
      <trkpt lat="38.51666" lon="-123.03776" />
      <trkpt lat="38.51683" lon="-123.0381" />
      <trkpt lat="38.51689" lon="-123.03816" />
      <trkpt lat="38.51737" lon="-123.03825" />
      <trkpt lat="38.51756" lon="-123.03859" />
      <trkpt lat="38.51764" lon="-123.03908" />
      <trkpt lat="38.51764" lon="-123.0392" />
      <trkpt lat="38.51768" lon="-123.03945" />
      <trkpt lat="38.51777" lon="-123.03956" />
      <trkpt lat="38.51815" lon="-123.03958" />
      <trkpt lat="38.51843" lon="-123.03942" />
      <trkpt lat="38.51857" lon="-123.03938" />
      <trkpt lat="38.51902" lon="-123.03943" />
      <trkpt lat="38.51943" lon="-123.03945" />
      <trkpt lat="38.51967" lon="-123.03935" />
      <trkpt lat="38.51979" lon="-123.03937" />
      <trkpt lat="38.51988" lon="-123.03945" />
      <trkpt lat="38.52017" lon="-123.03964" />
      <trkpt lat="38.52031" lon="-123.03983" />
      <trkpt lat="38.52047" lon="-123.04017" />
      <trkpt lat="38.52055" lon="-123.04027" />
      <trkpt lat="38.52077" lon="-123.04024" />
      <trkpt lat="38.52095" lon="-123.04028" />
      <trkpt lat="38.52124" lon="-123.04044" />
      <trkpt lat="38.52133" lon="-123.04051" />
      <trkpt lat="38.52147" lon="-123.04065" />
      <trkpt lat="38.52164" lon="-123.04087" />
      <trkpt lat="38.5218" lon="-123.04104" />
      <trkpt lat="38.52221" lon="-123.04117" />
      <trkpt lat="38.52238" lon="-123.04128" />
      <trkpt lat="38.52244" lon="-123.04135" />
      <trkpt lat="38.52255" lon="-123.04156" />
      <trkpt lat="38.52262" lon="-123.04184" />
      <trkpt lat="38.52258" lon="-123.04218" />
      <trkpt lat="38.52259" lon="-123.04239" />
      <trkpt lat="38.52283" lon="-123.04323" />
      <trkpt lat="38.52286" lon="-123.04344" />
      <trkpt lat="38.52288" lon="-123.04399" />
      <trkpt lat="38.52296" lon="-123.04425" />
      <trkpt lat="38.52301" lon="-123.04432" />
      <trkpt lat="38.52327" lon="-123.04449" />
      <trkpt lat="38.52342" lon="-123.04455" />
      <trkpt lat="38.52358" lon="-123.04482" />
      <trkpt lat="38.52361" lon="-123.04495" />
      <trkpt lat="38.52375" lon="-123.04532" />
      <trkpt lat="38.52405" lon="-123.04567" />
      <trkpt lat="38.52449" lon="-123.04648" />
      <trkpt lat="38.52463" lon="-123.04668" />
      <trkpt lat="38.52518" lon="-123.04696" />
      <trkpt lat="38.52528" lon="-123.04716" />
      <trkpt lat="38.52532" lon="-123.04737" />
      <trkpt lat="38.52537" lon="-123.04747" />
      <trkpt lat="38.52566" lon="-123.04777" />
      <trkpt lat="38.52617" lon="-123.04819" />
      <trkpt lat="38.5262" lon="-123.0484" />
      <trkpt lat="38.52621" lon="-123.04852" />
      <trkpt lat="38.52626" lon="-123.04869" />
      <trkpt lat="38.52637" lon="-123.04883" />
      <trkpt lat="38.52641" lon="-123.04937" />
      <trkpt lat="38.5267" lon="-123.04949" />
      <trkpt lat="38.52697" lon="-123.04953" />
      <trkpt lat="38.52718" lon="-123.04958" />
      <trkpt lat="38.52752" lon="-123.04979" />
      <trkpt lat="38.52777" lon="-123.04985" />
      <trkpt lat="38.52834" lon="-123.04981" />
      <trkpt lat="38.5284" lon="-123.04982" />
      <trkpt lat="38.52907" lon="-123.05001" />
      <trkpt lat="38.52914" lon="-123.05004" />
      <trkpt lat="38.52944" lon="-123.05028" />
      <trkpt lat="38.52965" lon="-123.0506" />
      <trkpt lat="38.52981" lon="-123.05093" />
      <trkpt lat="38.52994" lon="-123.05106" />
      <trkpt lat="38.53009" lon="-123.05111" />
      <trkpt lat="38.5303" lon="-123.05114" />
      <trkpt lat="38.53051" lon="-123.05104" />
      <trkpt lat="38.53072" lon="-123.05098" />
      <trkpt lat="38.53111" lon="-123.05096" />
      <trkpt lat="38.53123" lon="-123.051" />
      <trkpt lat="38.53141" lon="-123.05113" />
      <trkpt lat="38.53149" lon="-123.05112" />
      <trkpt lat="38.53184" lon="-123.05124" />
      <trkpt lat="38.53188" lon="-123.05127" />
      <trkpt lat="38.53206" lon="-123.05162" />
      <trkpt lat="38.53225" lon="-123.05165" />
      <trkpt lat="38.53239" lon="-123.0518" />
      <trkpt lat="38.53274" lon="-123.05224" />
      <trkpt lat="38.53297" lon="-123.05235" />
      <trkpt lat="38.53317" lon="-123.05238" />
      <trkpt lat="38.5333" lon="-123.05246" />
      <trkpt lat="38.53335" lon="-123.05252" />
      <trkpt lat="38.5334" lon="-123.05255" />
      <trkpt lat="38.53364" lon="-123.05262" />
      <trkpt lat="38.53394" lon="-123.05276" />
      <trkpt lat="38.53399" lon="-123.05288" />
      <trkpt lat="38.53399" lon="-123.05301" />
      <trkpt lat="38.53419" lon="-123.05325" />
      <trkpt lat="38.53426" lon="-123.05328" />
      <trkpt lat="38.53439" lon="-123.05345" />
      <trkpt lat="38.53449" lon="-123.05353" />
      <trkpt lat="38.53468" lon="-123.05376" />
      <trkpt lat="38.53501" lon="-123.0542" />
      <trkpt lat="38.53502" lon="-123.05424" />
      <trkpt lat="38.53499" lon="-123.05437" />
      <trkpt lat="38.53499" lon="-123.05455" />
      <trkpt lat="38.53519" lon="-123.05449" />
      <trkpt lat="38.53536" lon="-123.05459" />
      <trkpt lat="38.53571" lon="-123.05474" />
      <trkpt lat="38.5359" lon="-123.05499" />
      <trkpt lat="38.53614" lon="-123.05552" />
    </trkseg>
  </trk>
</gpx>