<?xml version="1.0" encoding="UTF-8"?>
<gpx version="1.1" creator="strava-segment-scraper" xmlns="http://www.topografix.com/GPX/1/1">
  <trk>
    <name>Butler Run (upriver)</name>
    <trkseg>
      <trkpt lat="41.37431" lon="-123.4286" />
      <trkpt lat="41.37429" lon="-123.42837" />
      <trkpt lat="41.37435" lon="-123.42803" />
      <trkpt lat="41.37459" lon="-123.42745" />
      <trkpt lat="41.37472" lon="-123.42702" />
      <trkpt lat="41.37485" lon="-123.42631" />
      <trkpt lat="41.37496" lon="-123.42599" />
      <trkpt lat="41.37505" lon="-123.42561" />
      <trkpt lat="41.37532" lon="-123.42482" />
      <trkpt lat="41.37538" lon="-123.42453" />
      <trkpt lat="41.37542" lon="-123.42424" />
      <trkpt lat="41.37546" lon="-123.42355" />
      <trkpt lat="41.3756" lon="-123.42259" />
      <trkpt lat="41.37566" lon="-123.42194" />
      <trkpt lat="41.37566" lon="-123.42176" />
      <trkpt lat="41.37563" lon="-123.42158" />
      <trkpt lat="41.37553" lon="-123.42131" />
      <trkpt lat="41.37517" lon="-123.42077" />
      <trkpt lat="41.37486" lon="-123.42046" />
      <trkpt lat="41.37449" lon="-123.41992" />
      <trkpt lat="41.37421" lon="-123.41958" />
      <trkpt lat="41.37409" lon="-123.4194" />
      <trkpt lat="41.374" lon="-123.41918" />
      <trkpt lat="41.37386" lon="-123.41869" />
      <trkpt lat="41.37376" lon="-123.41847" />
      <trkpt lat="41.37368" lon="-123.41835" />
      <trkpt lat="41.37359" lon="-123.41827" />
      <trkpt lat="41.37331" lon="-123.41814" />
      <trkpt lat="41.37305" lon="-123.41795" />
      <trkpt lat="41.37287" lon="-123.41785" />
      <trkpt lat="41.37248" lon="-123.41768" />
      <trkpt lat="41.37214" lon="-123.41757" />
      <trkpt lat="41.37162" lon="-123.41748" />
      <trkpt lat="41.37117" lon="-123.41741" />
      <trkpt lat="41.37107" lon="-123.41739" />
      <trkpt lat="41.37086" lon="-123.41729" />
      <trkpt lat="41.37064" lon="-123.41708" />
      <trkpt lat="41.37051" lon="-123.4169" />
      <trkpt lat="41.37042" lon="-123.41681" />
      <trkpt lat="41.36986" lon="-123.41609" />
      <trkpt lat="41.3694" lon="-123.41563" />
      <trkpt lat="41.36875" lon="-123.4152" />
      <trkpt lat="41.36861" lon="-123.41507" />
      <trkpt lat="41.36835" lon="-123.41473" />
      <trkpt lat="41.36821" lon="-123.4146" />
      <trkpt lat="41.36774" lon="-123.4144" />
      <trkpt lat="41.36748" lon="-123.41433" />
      <trkpt lat="41.36717" lon="-123.41426" />
      <trkpt lat="41.36697" lon="-123.41427" />
      <trkpt lat="41.36624" lon="-123.41454" />
      <trkpt lat="41.366" lon="-123.41465" />
      <trkpt lat="41.36588" lon="-123.41465" />
      <trkpt lat="41.36572" lon="-123.41464" />
      <trkpt lat="41.36553" lon="-123.41459" />
      <trkpt lat="41.36524" lon="-123.41466" />
      <trkpt lat="41.3649" lon="-123.41486" />
      <trkpt lat="41.36469" lon="-123.41497" />
      <trkpt lat="41.3645" lon="-123.41504" />
      <trkpt lat="41.36405" lon="-123.41535" />
      <trkpt lat="41.36385" lon="-123.41541" />
      <trkpt lat="41.36362" lon="-123.41546" />
      <trkpt lat="41.36336" lon="-123.41555" />
      <trkpt lat="41.363" lon="-123.41553" />
      <trkpt lat="41.36271" lon="-123.41548" />
      <trkpt lat="41.36252" lon="-123.4155" />
      <trkpt lat="41.36214" lon="-123.41539" />
      <trkpt lat="41.36179" lon="-123.41519" />
      <trkpt lat="41.36157" lon="-123.41499" />
      <trkpt lat="41.36149" lon="-123.41486" />
      <trkpt lat="41.36142" lon="-123.41468" />
      <trkpt lat="41.36116" lon="-123.41382" />
      <trkpt lat="41.3611" lon="-123.41306" />
      <trkpt lat="41.36103" lon="-123.41292" />
      <trkpt lat="41.36091" lon="-123.41281" />
      <trkpt lat="41.36071" lon="-123.41272" />
      <trkpt lat="41.3604" lon="-123.41252" />
      <trkpt lat="41.36004" lon="-123.4124" />
      <trkpt lat="41.35969" lon="-123.41225" />
      <trkpt lat="41.35951" lon="-123.41214" />
      <trkpt lat="41.35945" lon="-123.41208" />
      <trkpt lat="41.35934" lon="-123.41195" />
      <trkpt lat="41.35922" lon="-123.41171" />
      <trkpt lat="41.35906" lon="-123.41147" />
      <trkpt lat="41.35874" lon="-123.41107" />
      <trkpt lat="41.35867" lon="-123.411" />
      <trkpt lat="41.358" lon="-123.4106" />
      <trkpt lat="41.35792" lon="-123.41053" />
      <trkpt lat="41.35774" lon="-123.41034" />
      <trkpt lat="41.35746" lon="-123.41" />
      <trkpt lat="41.35727" lon="-123.40991" />
      <trkpt lat="41.35702" lon="-123.40981" />
      <trkpt lat="41.35679" lon="-123.40965" />
      <trkpt lat="41.35667" lon="-123.40954" />
      <trkpt lat="41.35651" lon="-123.40933" />
      <trkpt lat="41.3563" lon="-123.40897" />
      <trkpt lat="41.35617" lon="-123.40886" />
      <trkpt lat="41.35599" lon="-123.40881" />
      <trkpt lat="41.35565" lon="-123.40878" />
      <trkpt lat="41.35505" lon="-123.40881" />
      <trkpt lat="41.3547" lon="-123.4088" />
      <trkpt lat="41.35417" lon="-123.40896" />
      <trkpt lat="41.35345" lon="-123.40913" />
      <trkpt lat="41.35315" lon="-123.40926" />
      <trkpt lat="41.35268" lon="-123.4095" />
      <trkpt lat="41.35227" lon="-123.40957" />
      <trkpt lat="41.35208" lon="-123.40955" />
      <trkpt lat="41.35187" lon="-123.40944" />
      <trkpt lat="41.35171" lon="-123.40928" />
      <trkpt lat="41.35147" lon="-123.40891" />
      <trkpt lat="41.35121" lon="-123.40857" />
      <trkpt lat="41.35086" lon="-123.40792" />
      <trkpt lat="41.3507" lon="-123.40768" />
      <trkpt lat="41.35053" lon="-123.40747" />
      <trkpt lat="41.35034" lon="-123.40726" />
      <trkpt lat="41.3501" lon="-123.40707" />
      <trkpt lat="41.34998" lon="-123.407" />
      <trkpt lat="41.34971" lon="-123.40692" />
      <trkpt lat="41.34944" lon="-123.40689" />
      <trkpt lat="41.34919" lon="-123.40693" />
      <trkpt lat="41.34886" lon="-123.40702" />
      <trkpt lat="41.3487" lon="-123.40702" />
      <trkpt lat="41.34849" lon="-123.40716" />
      <trkpt lat="41.34803" lon="-123.407" />
      <trkpt lat="41.3479" lon="-123.40691" />
      <trkpt lat="41.34772" lon="-123.40666" />
      <trkpt lat="41.34745" lon="-123.40611" />
      <trkpt lat="41.34741" lon="-123.40598" />
      <trkpt lat="41.34721" lon="-123.40559" />
      <trkpt lat="41.34717" lon="-123.40555" />
      <trkpt lat="41.34723" lon="-123.40549" />
      <trkpt lat="41.34723" lon="-123.40545" />
      <trkpt lat="41.34705" lon="-123.40485" />
      <trkpt lat="41.34694" lon="-123.40459" />
      <trkpt lat="41.34653" lon="-123.40384" />
      <trkpt lat="41.3465" lon="-123.40377" />
      <trkpt lat="41.34649" lon="-123.40369" />
      <trkpt lat="41.34647" lon="-123.40367" />
      <trkpt lat="41.34642" lon="-123.4037" />
      <trkpt lat="41.34635" lon="-123.40363" />
      <trkpt lat="41.3463" lon="-123.40354" />
      <trkpt lat="41.346" lon="-123.40329" />
      <trkpt lat="41.34589" lon="-123.40322" />
      <trkpt lat="41.34567" lon="-123.40313" />
      <trkpt lat="41.34557" lon="-123.40312" />
      <trkpt lat="41.34535" lon="-123.40316" />
      <trkpt lat="41.34499" lon="-123.40337" />
      <trkpt lat="41.34478" lon="-123.40346" />
      <trkpt lat="41.34461" lon="-123.40359" />
      <trkpt lat="41.34442" lon="-123.40386" />
      <trkpt lat="41.34431" lon="-123.40404" />
      <trkpt lat="41.344" lon="-123.4044" />
      <trkpt lat="41.34382" lon="-123.40447" />
      <trkpt lat="41.34376" lon="-123.40453" />
      <trkpt lat="41.34371" lon="-123.40454" />
      <trkpt lat="41.34355" lon="-123.40466" />
      <trkpt lat="41.34331" lon="-123.40496" />
      <trkpt lat="41.34318" lon="-123.4051" />
      <trkpt lat="41.34292" lon="-123.40529" />
      <trkpt lat="41.34257" lon="-123.40559" />
      <trkpt lat="41.34241" lon="-123.40585" />
      <trkpt lat="41.34231" lon="-123.40596" />
      <trkpt lat="41.34202" lon="-123.40619" />
      <trkpt lat="41.34181" lon="-123.40642" />
      <trkpt lat="41.34174" lon="-123.40647" />
      <trkpt lat="41.34153" lon="-123.4066" />
      <trkpt lat="41.3414" lon="-123.40666" />
      <trkpt lat="41.34123" lon="-123.40666" />
      <trkpt lat="41.34104" lon="-123.4066" />
      <trkpt lat="41.3409" lon="-123.40659" />
      <trkpt lat="41.34064" lon="-123.40668" />
      <trkpt lat="41.34031" lon="-123.40683" />
      <trkpt lat="41.3402" lon="-123.40695" />
      <trkpt lat="41.33988" lon="-123.40742" />
      <trkpt lat="41.33966" lon="-123.40777" />
      <trkpt lat="41.33955" lon="-123.408" />
      <trkpt lat="41.33906" lon="-123.40844" />
      <trkpt lat="41.33872" lon="-123.40865" />
      <trkpt lat="41.33838" lon="-123.40877" />
      <trkpt lat="41.33822" lon="-123.4088" />
      <trkpt lat="41.33777" lon="-123.40882" />
    </trkseg>
  </trk>
</gpx>