<?xml version="1.0" encoding="UTF-8"?>
<gpx version="1.1" creator="strava-segment-scraper" xmlns="http://www.topografix.com/GPX/1/1">
  <trk>
    <name>Panther Gap</name>
    <trkseg>
      <trkpt lat="40.33173" lon="-124.02962" />
      <trkpt lat="40.33172" lon="-124.02983" />
      <trkpt lat="40.33169" lon="-124.03011" />
      <trkpt lat="40.33159" lon="-124.03042" />
      <trkpt lat="40.33143" lon="-124.03071" />
      <trkpt lat="40.33129" lon="-124.03086" />
      <trkpt lat="40.33118" lon="-124.03103" />
      <trkpt lat="40.33113" lon="-124.03118" />
      <trkpt lat="40.33111" lon="-124.03156" />
      <trkpt lat="40.33114" lon="-124.03186" />
      <trkpt lat="40.33121" lon="-124.03211" />
      <trkpt lat="40.33128" lon="-124.03225" />
      <trkpt lat="40.33137" lon="-124.03267" />
      <trkpt lat="40.33142" lon="-124.03278" />
      <trkpt lat="40.33153" lon="-124.03313" />
      <trkpt lat="40.33168" lon="-124.03346" />
      <trkpt lat="40.33169" lon="-124.03353" />
      <trkpt lat="40.33177" lon="-124.03373" />
      <trkpt lat="40.33185" lon="-124.03399" />
      <trkpt lat="40.33195" lon="-124.0342" />
      <trkpt lat="40.33202" lon="-124.03427" />
      <trkpt lat="40.33207" lon="-124.03434" />
      <trkpt lat="40.3321" lon="-124.03447" />
      <trkpt lat="40.33219" lon="-124.03461" />
      <trkpt lat="40.33223" lon="-124.03478" />
      <trkpt lat="40.33236" lon="-124.03495" />
      <trkpt lat="40.33239" lon="-124.03501" />
      <trkpt lat="40.33241" lon="-124.03512" />
      <trkpt lat="40.33239" lon="-124.03524" />
      <trkpt lat="40.33246" lon="-124.03533" />
      <trkpt lat="40.33249" lon="-124.03542" />
      <trkpt lat="40.33249" lon="-124.03554" />
      <trkpt lat="40.33252" lon="-124.03558" />
      <trkpt lat="40.33257" lon="-124.03573" />
      <trkpt lat="40.33273" lon="-124.03592" />
      <trkpt lat="40.3328" lon="-124.03606" />
      <trkpt lat="40.3328" lon="-124.03622" />
      <trkpt lat="40.33274" lon="-124.03627" />
      <trkpt lat="40.33268" lon="-124.03628" />
      <trkpt lat="40.3326" lon="-124.03633" />
      <trkpt lat="40.33247" lon="-124.03636" />
      <trkpt lat="40.33244" lon="-124.03635" />
      <trkpt lat="40.33241" lon="-124.0363" />
      <trkpt lat="40.33239" lon="-124.03622" />
      <trkpt lat="40.3324" lon="-124.03614" />
      <trkpt lat="40.3323" lon="-124.03583" />
      <trkpt lat="40.33219" lon="-124.03568" />
      <trkpt lat="40.3321" lon="-124.03549" />
      <trkpt lat="40.332" lon="-124.03534" />
      <trkpt lat="40.33197" lon="-124.03527" />
      <trkpt lat="40.33191" lon="-124.03518" />
      <trkpt lat="40.33186" lon="-124.03509" />
      <trkpt lat="40.33169" lon="-124.0349" />
      <trkpt lat="40.33161" lon="-124.03485" />
      <trkpt lat="40.33148" lon="-124.03481" />
      <trkpt lat="40.33103" lon="-124.03427" />
      <trkpt lat="40.33097" lon="-124.03422" />
      <trkpt lat="40.33092" lon="-124.03414" />
      <trkpt lat="40.33079" lon="-124.03405" />
      <trkpt lat="40.33066" lon="-124.03395" />
      <trkpt lat="40.3306" lon="-124.03393" />
      <trkpt lat="40.33048" lon="-124.03395" />
      <trkpt lat="40.33044" lon="-124.03398" />
      <trkpt lat="40.33042" lon="-124.03402" />
      <trkpt lat="40.33035" lon="-124.03408" />
      <trkpt lat="40.3303" lon="-124.03409" />
      <trkpt lat="40.3302" lon="-124.03419" />
      <trkpt lat="40.32994" lon="-124.03458" />
      <trkpt lat="40.32986" lon="-124.03464" />
      <trkpt lat="40.32982" lon="-124.0347" />
      <trkpt lat="40.32961" lon="-124.0351" />
      <trkpt lat="40.32958" lon="-124.0352" />
      <trkpt lat="40.32956" lon="-124.03544" />
      <trkpt lat="40.32962" lon="-124.03623" />
      <trkpt lat="40.32959" lon="-124.03645" />
      <trkpt lat="40.32958" lon="-124.03669" />
      <trkpt lat="40.3295" lon="-124.03709" />
      <trkpt lat="40.32951" lon="-124.03742" />
      <trkpt lat="40.32947" lon="-124.03752" />
      <trkpt lat="40.32944" lon="-124.03774" />
      <trkpt lat="40.32944" lon="-124.03792" />
      <trkpt lat="40.32939" lon="-124.03816" />
      <trkpt lat="40.32938" lon="-124.03834" />
      <trkpt lat="40.32931" lon="-124.0386" />
      <trkpt lat="40.32923" lon="-124.03941" />
      <trkpt lat="40.32914" lon="-124.03979" />
      <trkpt lat="40.32914" lon="-124.04" />
      <trkpt lat="40.32901" lon="-124.04049" />
      <trkpt lat="40.3288" lon="-124.04092" />
      <trkpt lat="40.32873" lon="-124.04102" />
      <trkpt lat="40.32864" lon="-124.04112" />
      <trkpt lat="40.32841" lon="-124.04128" />
      <trkpt lat="40.32832" lon="-124.04126" />
      <trkpt lat="40.3282" lon="-124.04132" />
      <trkpt lat="40.32806" lon="-124.04133" />
      <trkpt lat="40.32799" lon="-124.04127" />
      <trkpt lat="40.32791" lon="-124.04118" />
      <trkpt lat="40.32783" lon="-124.04116" />
      <trkpt lat="40.32765" lon="-124.04117" />
      <trkpt lat="40.32762" lon="-124.04119" />
      <trkpt lat="40.32753" lon="-124.0412" />
      <trkpt lat="40.3275" lon="-124.04123" />
      <trkpt lat="40.32742" lon="-124.04124" />
      <trkpt lat="40.32731" lon="-124.04135" />
      <trkpt lat="40.32712" lon="-124.04143" />
      <trkpt lat="40.32709" lon="-124.04143" />
      <trkpt lat="40.32706" lon="-124.0414" />
      <trkpt lat="40.32703" lon="-124.04141" />
      <trkpt lat="40.327" lon="-124.04141" />
      <trkpt lat="40.32668" lon="-124.0415" />
      <trkpt lat="40.32655" lon="-124.04152" />
      <trkpt lat="40.32639" lon="-124.0416" />
      <trkpt lat="40.32631" lon="-124.04162" />
      <trkpt lat="40.32608" lon="-124.04181" />
      <trkpt lat="40.32594" lon="-124.04199" />
      <trkpt lat="40.32572" lon="-124.04243" />
      <trkpt lat="40.32536" lon="-124.04292" />
      <trkpt lat="40.32534" lon="-124.04299" />
      <trkpt lat="40.32534" lon="-124.04308" />
      <trkpt lat="40.32539" lon="-124.04315" />
      <trkpt lat="40.32547" lon="-124.04318" />
      <trkpt lat="40.3256" lon="-124.04313" />
      <trkpt lat="40.32581" lon="-124.04297" />
      <trkpt lat="40.32593" lon="-124.0429" />
      <trkpt lat="40.32609" lon="-124.04274" />
      <trkpt lat="40.32615" lon="-124.04271" />
      <trkpt lat="40.32638" lon="-124.04267" />
      <trkpt lat="40.32653" lon="-124.04268" />
      <trkpt lat="40.3268" lon="-124.04274" />
      <trkpt lat="40.32706" lon="-124.04287" />
      <trkpt lat="40.32721" lon="-124.04305" />
      <trkpt lat="40.32751" lon="-124.04335" />
      <trkpt lat="40.32761" lon="-124.04343" />
      <trkpt lat="40.32785" lon="-124.04348" />
      <trkpt lat="40.32809" lon="-124.04351" />
      <trkpt lat="40.32821" lon="-124.04361" />
      <trkpt lat="40.32826" lon="-124.04367" />
      <trkpt lat="40.32827" lon="-124.04374" />
      <trkpt lat="40.32825" lon="-124.04381" />
      <trkpt lat="40.32818" lon="-124.04387" />
      <trkpt lat="40.3281" lon="-124.04391" />
      <trkpt lat="40.32801" lon="-124.04392" />
      <trkpt lat="40.32785" lon="-124.0439" />
      <trkpt lat="40.32752" lon="-124.04378" />
      <trkpt lat="40.32714" lon="-124.0438" />
      <trkpt lat="40.32699" lon="-124.04386" />
      <trkpt lat="40.32687" lon="-124.04392" />
      <trkpt lat="40.32686" lon="-124.04395" />
      <trkpt lat="40.32674" lon="-124.04401" />
      <trkpt lat="40.32659" lon="-124.04406" />
      <trkpt lat="40.32637" lon="-124.04422" />
      <trkpt lat="40.32619" lon="-124.04429" />
      <trkpt lat="40.32614" lon="-124.04433" />
      <trkpt lat="40.32601" lon="-124.04458" />
      <trkpt lat="40.3258" lon="-124.04517" />
      <trkpt lat="40.32572" lon="-124.04527" />
      <trkpt lat="40.32564" lon="-124.04532" />
      <trkpt lat="40.32543" lon="-124.04541" />
      <trkpt lat="40.32506" lon="-124.04551" />
      <trkpt lat="40.32504" lon="-124.04554" />
      <trkpt lat="40.32501" lon="-124.04554" />
      <trkpt lat="40.32496" lon="-124.04564" />
      <trkpt lat="40.32497" lon="-124.04576" />
      <trkpt lat="40.325" lon="-124.0458" />
      <trkpt lat="40.32507" lon="-124.04581" />
      <trkpt lat="40.32541" lon="-124.04567" />
      <trkpt lat="40.3255" lon="-124.0457" />
      <trkpt lat="40.32586" lon="-124.04573" />
      <trkpt lat="40.326" lon="-124.04567" />
      <trkpt lat="40.32614" lon="-124.04558" />
      <trkpt lat="40.32624" lon="-124.04546" />
      <trkpt lat="40.3264" lon="-124.04534" />
      <trkpt lat="40.32649" lon="-124.0453" />
      <trkpt lat="40.32674" lon="-124.04529" />
      <trkpt lat="40.32694" lon="-124.04537" />
      <trkpt lat="40.32715" lon="-124.04555" />
      <trkpt lat="40.32742" lon="-124.04569" />
      <trkpt lat="40.32742" lon="-124.04596" />
      <trkpt lat="40.32735" lon="-124.04606" />
      <trkpt lat="40.3273" lon="-124.04608" />
      <trkpt lat="40.32703" lon="-124.04585" />
      <trkpt lat="40.32691" lon="-124.04581" />
      <trkpt lat="40.32685" lon="-124.04581" />
      <trkpt lat="40.32671" lon="-124.04591" />
      <trkpt lat="40.32664" lon="-124.046" />
      <trkpt lat="40.32656" lon="-124.04618" />
      <trkpt lat="40.32648" lon="-124.04627" />
      <trkpt lat="40.32638" lon="-124.04637" />
      <trkpt lat="40.32626" lon="-124.0464" />
      <trkpt lat="40.32594" lon="-124.04644" />
      <trkpt lat="40.32579" lon="-124.04648" />
      <trkpt lat="40.32571" lon="-124.04653" />
      <trkpt lat="40.32567" lon="-124.0466" />
      <trkpt lat="40.3257" lon="-124.04676" />
      <trkpt lat="40.32579" lon="-124.04681" />
      <trkpt lat="40.32585" lon="-124.04681" />
      <trkpt lat="40.32626" lon="-124.04672" />
      <trkpt lat="40.3264" lon="-124.04673" />
      <trkpt lat="40.32646" lon="-124.04675" />
      <trkpt lat="40.32655" lon="-124.04681" />
      <trkpt lat="40.32661" lon="-124.04689" />
      <trkpt lat="40.32668" lon="-124.0471" />
      <trkpt lat="40.32667" lon="-124.0473" />
      <trkpt lat="40.32656" lon="-124.04772" />
      <trkpt lat="40.32654" lon="-124.04787" />
      <trkpt lat="40.32636" lon="-124.04841" />
      <trkpt lat="40.32629" lon="-124.0487" />
      <trkpt lat="40.32625" lon="-124.04896" />
      <trkpt lat="40.32625" lon="-124.04906" />
      <trkpt lat="40.32622" lon="-124.04918" />
      <trkpt lat="40.32624" lon="-124.04933" />
      <trkpt lat="40.32621" lon="-124.04956" />
      <trkpt lat="40.32621" lon="-124.04979" />
      <trkpt lat="40.32619" lon="-124.04999" />
      <trkpt lat="40.32621" lon="-124.05015" />
      <trkpt lat="40.32627" lon="-124.05033" />
      <trkpt lat="40.32627" lon="-124.05044" />
      <trkpt lat="40.32633" lon="-124.05061" />
      <trkpt lat="40.32633" lon="-124.05082" />
      <trkpt lat="40.32631" lon="-124.05097" />
      <trkpt lat="40.32634" lon="-124.05113" />
      <trkpt lat="40.3263" lon="-124.05128" />
      <trkpt lat="40.32626" lon="-124.05137" />
      <trkpt lat="40.32625" lon="-124.05158" />
      <trkpt lat="40.32621" lon="-124.05181" />
      <trkpt lat="40.32617" lon="-124.05191" />
      <trkpt lat="40.32618" lon="-124.05196" />
      <trkpt lat="40.32614" lon="-124.05206" />
      <trkpt lat="40.32614" lon="-124.05214" />
      <trkpt lat="40.32608" lon="-124.05228" />
      <trkpt lat="40.32606" lon="-124.05238" />
      <trkpt lat="40.32592" lon="-124.05274" />
      <trkpt lat="40.32581" lon="-124.05297" />
      <trkpt lat="40.32576" lon="-124.05315" />
      <trkpt lat="40.32568" lon="-124.05325" />
      <trkpt lat="40.32562" lon="-124.05327" />
      <trkpt lat="40.32557" lon="-124.05326" />
      <trkpt lat="40.32549" lon="-124.05309" />
      <trkpt lat="40.32554" lon="-124.0529" />
      <trkpt lat="40.32558" lon="-124.05282" />
      <trkpt lat="40.32563" lon="-124.05257" />
      <trkpt lat="40.32563" lon="-124.05238" />
      <trkpt lat="40.32559" lon="-124.05203" />
      <trkpt lat="40.32535" lon="-124.05145" />
      <trkpt lat="40.32537" lon="-124.05133" />
      <trkpt lat="40.3254" lon="-124.05129" />
      <trkpt lat="40.32541" lon="-124.05118" />
      <trkpt lat="40.32539" lon="-124.05104" />
      <trkpt lat="40.32539" lon="-124.05091" />
      <trkpt lat="40.32533" lon="-124.05079" />
      <trkpt lat="40.32525" lon="-124.05071" />
      <trkpt lat="40.32515" lon="-124.05066" />
      <trkpt lat="40.32504" lon="-124.05064" />
      <trkpt lat="40.32473" lon="-124.05067" />
      <trkpt lat="40.3246" lon="-124.05062" />
      <trkpt lat="40.3244" lon="-124.05049" />
      <trkpt lat="40.32423" lon="-124.05048" />
      <trkpt lat="40.32415" lon="-124.05049" />
      <trkpt lat="40.32414" lon="-124.05051" />
      <trkpt lat="40.32407" lon="-124.05052" />
      <trkpt lat="40.32381" lon="-124.05068" />
      <trkpt lat="40.32358" lon="-124.05088" />
      <trkpt lat="40.32354" lon="-124.05096" />
      <trkpt lat="40.32355" lon="-124.05106" />
      <trkpt lat="40.32359" lon="-124.05112" />
      <trkpt lat="40.32367" lon="-124.05113" />
      <trkpt lat="40.3239" lon="-124.051" />
      <trkpt lat="40.32415" lon="-124.05094" />
      <trkpt lat="40.32425" lon="-124.05095" />
      <trkpt lat="40.32439" lon="-124.05101" />
      <trkpt lat="40.32468" lon="-124.05126" />
      <trkpt lat="40.32472" lon="-124.05138" />
      <trkpt lat="40.32473" lon="-124.05148" />
      <trkpt lat="40.32477" lon="-124.05153" />
      <trkpt lat="40.32476" lon="-124.0516" />
      <trkpt lat="40.32467" lon="-124.05168" />
      <trkpt lat="40.32449" lon="-124.05173" />
      <trkpt lat="40.32441" lon="-124.05174" />
      <trkpt lat="40.32434" lon="-124.05172" />
      <trkpt lat="40.32413" lon="-124.05171" />
      <trkpt lat="40.32395" lon="-124.05172" />
      <trkpt lat="40.32382" lon="-124.05175" />
      <trkpt lat="40.32372" lon="-124.05179" />
      <trkpt lat="40.32363" lon="-124.05186" />
      <trkpt lat="40.32348" lon="-124.05202" />
      <trkpt lat="40.32341" lon="-124.05213" />
      <trkpt lat="40.32334" lon="-124.05243" />
      <trkpt lat="40.32333" lon="-124.05255" />
      <trkpt lat="40.32336" lon="-124.05286" />
      <trkpt lat="40.32339" lon="-124.05304" />
      <trkpt lat="40.32343" lon="-124.05314" />
      <trkpt lat="40.32352" lon="-124.05408" />
      <trkpt lat="40.3235" lon="-124.05447" />
      <trkpt lat="40.32347" lon="-124.05462" />
      <trkpt lat="40.32343" lon="-124.05466" />
      <trkpt lat="40.3234" lon="-124.05482" />
      <trkpt lat="40.32334" lon="-124.05489" />
      <trkpt lat="40.32325" lon="-124.05508" />
      <trkpt lat="40.32321" lon="-124.05515" />
      <trkpt lat="40.32312" lon="-124.05518" />
      <trkpt lat="40.32311" lon="-124.05521" />
      <trkpt lat="40.32306" lon="-124.05526" />
      <trkpt lat="40.32303" lon="-124.05533" />
      <trkpt lat="40.32287" lon="-124.05554" />
      <trkpt lat="40.32283" lon="-124.05564" />
      <trkpt lat="40.32267" lon="-124.05592" />
      <trkpt lat="40.32261" lon="-124.0564" />
      <trkpt lat="40.32262" lon="-124.05659" />
      <trkpt lat="40.32259" lon="-124.05669" />
      <trkpt lat="40.32243" lon="-124.05693" />
      <trkpt lat="40.32232" lon="-124.05701" />
      <trkpt lat="40.32227" lon="-124.057" />
      <trkpt lat="40.32219" lon="-124.05705" />
      <trkpt lat="40.32207" lon="-124.05716" />
      <trkpt lat="40.32194" lon="-124.05725" />
      <trkpt lat="40.32188" lon="-124.05732" />
      <trkpt lat="40.32184" lon="-124.0574" />
      <trkpt lat="40.32181" lon="-124.05744" />
      <trkpt lat="40.32177" lon="-124.05744" />
      <trkpt lat="40.32173" lon="-124.05752" />
      <trkpt lat="40.32167" lon="-124.05758" />
      <trkpt lat="40.32161" lon="-124.05794" />
      <trkpt lat="40.32157" lon="-124.0581" />
      <trkpt lat="40.32157" lon="-124.05818" />
      <trkpt lat="40.32154" lon="-124.0582" />
      <trkpt lat="40.32153" lon="-124.05823" />
      <trkpt lat="40.32154" lon="-124.05858" />
      <trkpt lat="40.32161" lon="-124.05874" />
      <trkpt lat="40.32159" lon="-124.05887" />
      <trkpt lat="40.32163" lon="-124.05905" />
      <trkpt lat="40.32161" lon="-124.05933" />
      <trkpt lat="40.32155" lon="-124.05958" />
      <trkpt lat="40.32124" lon="-124.05984" />
      <trkpt lat="40.32119" lon="-124.05984" />
      <trkpt lat="40.32094" lon="-124.05995" />
      <trkpt lat="40.32063" lon="-124.06018" />
      <trkpt lat="40.32058" lon="-124.06025" />
      <trkpt lat="40.3205" lon="-124.06046" />
      <trkpt lat="40.32042" lon="-124.06078" />
      <trkpt lat="40.32036" lon="-124.06091" />
      <trkpt lat="40.32027" lon="-124.06103" />
      <trkpt lat="40.32017" lon="-124.06111" />
      <trkpt lat="40.32005" lon="-124.06131" />
      <trkpt lat="40.3199" lon="-124.06146" />
      <trkpt lat="40.31985" lon="-124.06157" />
      <trkpt lat="40.3197" lon="-124.06172" />
      <trkpt lat="40.31961" lon="-124.06186" />
      <trkpt lat="40.31948" lon="-124.06193" />
      <trkpt lat="40.31938" lon="-124.06202" />
      <trkpt lat="40.31917" lon="-124.06209" />
      <trkpt lat="40.31892" lon="-124.06208" />
      <trkpt lat="40.31857" lon="-124.06201" />
      <trkpt lat="40.31853" lon="-124.06198" />
      <trkpt lat="40.31828" lon="-124.06189" />
      <trkpt lat="40.31819" lon="-124.06173" />
      <trkpt lat="40.31815" lon="-124.0617" />
      <trkpt lat="40.31801" lon="-124.0615" />
      <trkpt lat="40.31791" lon="-124.06138" />
      <trkpt lat="40.31772" lon="-124.06103" />
      <trkpt lat="40.31758" lon="-124.06081" />
      <trkpt lat="40.31746" lon="-124.06049" />
      <trkpt lat="40.31724" lon="-124.06006" />
      <trkpt lat="40.31719" lon="-124.06001" />
      <trkpt lat="40.31698" lon="-124.05985" />
      <trkpt lat="40.31687" lon="-124.05979" />
      <trkpt lat="40.31684" lon="-124.05979" />
      <trkpt lat="40.31669" lon="-124.05972" />
      <trkpt lat="40.31647" lon="-124.05953" />
      <trkpt lat="40.31638" lon="-124.05948" />
      <trkpt lat="40.31644" lon="-124.05943" />
      <trkpt lat="40.31645" lon="-124.05939" />
      <trkpt lat="40.31642" lon="-124.05936" />
      <trkpt lat="40.31614" lon="-124.05947" />
      <trkpt lat="40.31607" lon="-124.05953" />
      <trkpt lat="40.31596" lon="-124.05959" />
      <trkpt lat="40.31592" lon="-124.05964" />
      <trkpt lat="40.31582" lon="-124.05968" />
      <trkpt lat="40.31572" lon="-124.05978" />
      <trkpt lat="40.31552" lon="-124.05991" />
      <trkpt lat="40.31525" lon="-124.06018" />
      <trkpt lat="40.31502" lon="-124.06051" />
      <trkpt lat="40.31483" lon="-124.06071" />
      <trkpt lat="40.31476" lon="-124.06076" />
      <trkpt lat="40.31464" lon="-124.06092" />
      <trkpt lat="40.31455" lon="-124.06101" />
      <trkpt lat="40.31453" lon="-124.06107" />
      <trkpt lat="40.31444" lon="-124.06113" />
      <trkpt lat="40.31422" lon="-124.06122" />
      <trkpt lat="40.31407" lon="-124.06125" />
      <trkpt lat="40.31391" lon="-124.06124" />
      <trkpt lat="40.31383" lon="-124.06121" />
      <trkpt lat="40.31378" lon="-124.06122" />
      <trkpt lat="40.31358" lon="-124.06114" />
      <trkpt lat="40.31356" lon="-124.06117" />
      <trkpt lat="40.31348" lon="-124.06114" />
      <trkpt lat="40.31339" lon="-124.06114" />
      <trkpt lat="40.31332" lon="-124.06111" />
      <trkpt lat="40.3133" lon="-124.06113" />
      <trkpt lat="40.31322" lon="-124.06108" />
      <trkpt lat="40.31318" lon="-124.06108" />
      <trkpt lat="40.31293" lon="-124.06087" />
      <trkpt lat="40.31292" lon="-124.06086" />
      <trkpt lat="40.31291" lon="-124.06088" />
      <trkpt lat="40.31289" lon="-124.06088" />
      <trkpt lat="40.3128" lon="-124.06082" />
      <trkpt lat="40.31257" lon="-124.06082" />
      <trkpt lat="40.31242" lon="-124.06086" />
      <trkpt lat="40.31232" lon="-124.06092" />
      <trkpt lat="40.31212" lon="-124.06118" />
      <trkpt lat="40.31207" lon="-124.06122" />
      <trkpt lat="40.31197" lon="-124.06128" />
      <trkpt lat="40.31191" lon="-124.06128" />
      <trkpt lat="40.31176" lon="-124.06122" />
      <trkpt lat="40.31164" lon="-124.06124" />
      <trkpt lat="40.31145" lon="-124.06117" />
      <trkpt lat="40.31137" lon="-124.06121" />
      <trkpt lat="40.31119" lon="-124.06134" />
      <trkpt lat="40.31102" lon="-124.06139" />
      <trkpt lat="40.31084" lon="-124.0614" />
      <trkpt lat="40.31051" lon="-124.06138" />
      <trkpt lat="40.31048" lon="-124.06139" />
      <trkpt lat="40.31033" lon="-124.06153" />
      <trkpt lat="40.31022" lon="-124.06159" />
      <trkpt lat="40.3102" lon="-124.06158" />
      <trkpt lat="40.31011" lon="-124.06165" />
      <trkpt lat="40.31008" lon="-124.06164" />
      <trkpt lat="40.31" lon="-124.06169" />
      <trkpt lat="40.30988" lon="-124.06181" />
      <trkpt lat="40.30978" lon="-124.0621" />
      <trkpt lat="40.30974" lon="-124.06216" />
      <trkpt lat="40.30934" lon="-124.0625" />
      <trkpt lat="40.30923" lon="-124.06253" />
      <trkpt lat="40.30919" lon="-124.06257" />
      <trkpt lat="40.309" lon="-124.06252" />
      <trkpt lat="40.30878" lon="-124.06238" />
      <trkpt lat="40.30857" lon="-124.06221" />
      <trkpt lat="40.30852" lon="-124.06216" />
      <trkpt lat="40.3085" lon="-124.0621" />
      <trkpt lat="40.30827" lon="-124.06197" />
      <trkpt lat="40.30811" lon="-124.06183" />
      <trkpt lat="40.30792" lon="-124.06174" />
      <trkpt lat="40.30781" lon="-124.06172" />
      <trkpt lat="40.30774" lon="-124.06174" />
      <trkpt lat="40.30763" lon="-124.06181" />
      <trkpt lat="40.30737" lon="-124.06183" />
      <trkpt lat="40.30729" lon="-124.06188" />
      <trkpt lat="40.30692" lon="-124.06195" />
      <trkpt lat="40.30677" lon="-124.06194" />
      <trkpt lat="40.30647" lon="-124.06207" />
      <trkpt lat="40.30622" lon="-124.06212" />
      <trkpt lat="40.30589" lon="-124.06207" />
      <trkpt lat="40.30578" lon="-124.06211" />
      <trkpt lat="40.30568" lon="-124.06209" />
      <trkpt lat="40.30565" lon="-124.06211" />
      <trkpt lat="40.3055" lon="-124.06211" />
      <trkpt lat="40.30514" lon="-124.06223" />
      <trkpt lat="40.30497" lon="-124.06226" />
      <trkpt lat="40.30474" lon="-124.06226" />
      <trkpt lat="40.30465" lon="-124.06234" />
      <trkpt lat="40.3046" lon="-124.06236" />
      <trkpt lat="40.30453" lon="-124.06237" />
      <trkpt lat="40.30442" lon="-124.06236" />
      <trkpt lat="40.30426" lon="-124.0623" />
      <trkpt lat="40.30409" lon="-124.06229" />
      <trkpt lat="40.30408" lon="-124.06221" />
      <trkpt lat="40.304" lon="-124.06209" />
      <trkpt lat="40.30395" lon="-124.06204" />
      <trkpt lat="40.30387" lon="-124.06175" />
      <trkpt lat="40.30384" lon="-124.06173" />
      <trkpt lat="40.30378" lon="-124.06156" />
      <trkpt lat="40.30369" lon="-124.06135" />
      <trkpt lat="40.30353" lon="-124.06116" />
      <trkpt lat="40.30341" lon="-124.06095" />
      <trkpt lat="40.3032" lon="-124.06072" />
      <trkpt lat="40.30318" lon="-124.06065" />
      <trkpt lat="40.30306" lon="-124.06045" />
      <trkpt lat="40.30298" lon="-124.06037" />
      <trkpt lat="40.30295" lon="-124.0603" />
      <trkpt lat="40.30288" lon="-124.06021" />
      <trkpt lat="40.3028" lon="-124.06014" />
      <trkpt lat="40.30273" lon="-124.06006" />
      <trkpt lat="40.3025" lon="-124.0597" />
      <trkpt lat="40.30242" lon="-124.05962" />
      <trkpt lat="40.30234" lon="-124.05946" />
      <trkpt lat="40.30229" lon="-124.05945" />
      <trkpt lat="40.30221" lon="-124.05929" />
      <trkpt lat="40.30213" lon="-124.05896" />
      <trkpt lat="40.30214" lon="-124.05887" />
      <trkpt lat="40.30219" lon="-124.05869" />
      <trkpt lat="40.30219" lon="-124.05837" />
      <trkpt lat="40.30213" lon="-124.0582" />
      <trkpt lat="40.30206" lon="-124.05821" />
      <trkpt lat="40.30215" lon="-124.05809" />
      <trkpt lat="40.30226" lon="-124.05782" />
      <trkpt lat="40.30231" lon="-124.05775" />
      <trkpt lat="40.30234" lon="-124.05766" />
      <trkpt lat="40.30234" lon="-124.05762" />
      <trkpt lat="40.30237" lon="-124.05752" />
      <trkpt lat="40.30232" lon="-124.05747" />
      <trkpt lat="40.30235" lon="-124.05737" />
      <trkpt lat="40.30229" lon="-124.05729" />
      <trkpt lat="40.30227" lon="-124.05721" />
      <trkpt lat="40.30237" lon="-124.0571" />
      <trkpt lat="40.30239" lon="-124.05706" />
      <trkpt lat="40.30242" lon="-124.05707" />
      <trkpt lat="40.30253" lon="-124.05692" />
      <trkpt lat="40.30255" lon="-124.05689" />
      <trkpt lat="40.30254" lon="-124.05686" />
      <trkpt lat="40.3026" lon="-124.05679" />
      <trkpt lat="40.30276" lon="-124.05665" />
      <trkpt lat="40.30282" lon="-124.05662" />
      <trkpt lat="40.30282" lon="-124.05658" />
      <trkpt lat="40.30293" lon="-124.05643" />
      <trkpt lat="40.30303" lon="-124.05627" />
      <trkpt lat="40.30304" lon="-124.05622" />
      <trkpt lat="40.30312" lon="-124.05604" />
      <trkpt lat="40.30311" lon="-124.05589" />
      <trkpt lat="40.30315" lon="-124.05558" />
      <trkpt lat="40.30282" lon="-124.05542" />
      <trkpt lat="40.30271" lon="-124.05531" />
      <trkpt lat="40.30263" lon="-124.05527" />
      <trkpt lat="40.3025" lon="-124.05531" />
      <trkpt lat="40.30243" lon="-124.05531" />
      <trkpt lat="40.30234" lon="-124.05533" />
      <trkpt lat="40.30236" lon="-124.05533" />
      <trkpt lat="40.30229" lon="-124.05541" />
      <trkpt lat="40.30228" lon="-124.05539" />
      <trkpt lat="40.30226" lon="-124.05541" />
      <trkpt lat="40.30222" lon="-124.05542" />
      <trkpt lat="40.30215" lon="-124.05546" />
      <trkpt lat="40.30208" lon="-124.05546" />
      <trkpt lat="40.30203" lon="-124.05556" />
      <trkpt lat="40.30199" lon="-124.05557" />
      <trkpt lat="40.30191" lon="-124.05564" />
      <trkpt lat="40.30184" lon="-124.05568" />
      <trkpt lat="40.30175" lon="-124.05571" />
      <trkpt lat="40.30173" lon="-124.05574" />
      <trkpt lat="40.30163" lon="-124.05579" />
      <trkpt lat="40.30157" lon="-124.05577" />
      <trkpt lat="40.30139" lon="-124.05584" />
      <trkpt lat="40.30125" lon="-124.05593" />
      <trkpt lat="40.30102" lon="-124.05595" />
      <trkpt lat="40.30097" lon="-124.0559" />
      <trkpt lat="40.30084" lon="-124.05582" />
      <trkpt lat="40.30066" lon="-124.05577" />
      <trkpt lat="40.30061" lon="-124.05578" />
      <trkpt lat="40.30057" lon="-124.0558" />
      <trkpt lat="40.30053" lon="-124.05585" />
      <trkpt lat="40.30038" lon="-124.05589" />
      <trkpt lat="40.30035" lon="-124.05591" />
      <trkpt lat="40.30024" lon="-124.05607" />
      <trkpt lat="40.30008" lon="-124.05624" />
      <trkpt lat="40.29999" lon="-124.05626" />
      <trkpt lat="40.29992" lon="-124.05631" />
      <trkpt lat="40.29972" lon="-124.05656" />
      <trkpt lat="40.29964" lon="-124.05663" />
      <trkpt lat="40.29963" lon="-124.05667" />
      <trkpt lat="40.29954" lon="-124.05674" />
      <trkpt lat="40.29945" lon="-124.05677" />
      <trkpt lat="40.29923" lon="-124.05679" />
      <trkpt lat="40.299" lon="-124.05689" />
      <trkpt lat="40.29887" lon="-124.05692" />
      <trkpt lat="40.29856" lon="-124.05694" />
      <trkpt lat="40.29838" lon="-124.05688" />
      <trkpt lat="40.29828" lon="-124.05681" />
      <trkpt lat="40.29795" lon="-124.0568" />
      <trkpt lat="40.29767" lon="-124.05685" />
      <trkpt lat="40.29746" lon="-124.05693" />
      <trkpt lat="40.29743" lon="-124.05693" />
      <trkpt lat="40.29734" lon="-124.05689" />
      <trkpt lat="40.29709" lon="-124.05692" />
      <trkpt lat="40.29689" lon="-124.05701" />
      <trkpt lat="40.29675" lon="-124.05711" />
      <trkpt lat="40.29672" lon="-124.05713" />
      <trkpt lat="40.29668" lon="-124.05712" />
      <trkpt lat="40.29656" lon="-124.0572" />
      <trkpt lat="40.29643" lon="-124.05724" />
      <trkpt lat="40.29622" lon="-124.05736" />
      <trkpt lat="40.29618" lon="-124.05735" />
      <trkpt lat="40.29589" lon="-124.05748" />
      <trkpt lat="40.29559" lon="-124.05754" />
      <trkpt lat="40.29543" lon="-124.05758" />
      <trkpt lat="40.29513" lon="-124.05762" />
      <trkpt lat="40.29484" lon="-124.05763" />
      <trkpt lat="40.29462" lon="-124.05751" />
      <trkpt lat="40.29452" lon="-124.0574" />
      <trkpt lat="40.29448" lon="-124.05732" />
      <trkpt lat="40.29419" lon="-124.05696" />
      <trkpt lat="40.29409" lon="-124.05686" />
      <trkpt lat="40.29403" lon="-124.05681" />
      <trkpt lat="40.29399" lon="-124.0568" />
      <trkpt lat="40.29385" lon="-124.05683" />
      <trkpt lat="40.29362" lon="-124.05693" />
      <trkpt lat="40.29341" lon="-124.05694" />
      <trkpt lat="40.29314" lon="-124.05705" />
      <trkpt lat="40.29297" lon="-124.05715" />
      <trkpt lat="40.29261" lon="-124.05732" />
      <trkpt lat="40.29242" lon="-124.05733" />
      <trkpt lat="40.29224" lon="-124.0572" />
      <trkpt lat="40.29196" lon="-124.05691" />
      <trkpt lat="40.29168" lon="-124.0564" />
      <trkpt lat="40.2917" lon="-124.05637" />
      <trkpt lat="40.29164" lon="-124.05629" />
      <trkpt lat="40.29163" lon="-124.05624" />
      <trkpt lat="40.29157" lon="-124.05619" />
      <trkpt lat="40.29139" lon="-124.0562" />
      <trkpt lat="40.29119" lon="-124.05625" />
      <trkpt lat="40.29102" lon="-124.05622" />
      <trkpt lat="40.29079" lon="-124.05626" />
      <trkpt lat="40.29054" lon="-124.05624" />
      <trkpt lat="40.29025" lon="-124.05633" />
      <trkpt lat="40.29022" lon="-124.0563" />
      <trkpt lat="40.29012" lon="-124.0563" />
      <trkpt lat="40.2901" lon="-124.05628" />
      <trkpt lat="40.29" lon="-124.05625" />
      <trkpt lat="40.28992" lon="-124.0562" />
      <trkpt lat="40.28983" lon="-124.05624" />
      <trkpt lat="40.28977" lon="-124.05619" />
      <trkpt lat="40.28966" lon="-124.05621" />
      <trkpt lat="40.28957" lon="-124.05627" />
      <trkpt lat="40.28939" lon="-124.05633" />
      <trkpt lat="40.28936" lon="-124.05633" />
      <trkpt lat="40.28936" lon="-124.05636" />
      <trkpt lat="40.2892" lon="-124.05641" />
      <trkpt lat="40.28911" lon="-124.05646" />
    </trkseg>
  </trk>
</gpx>