<?xml version="1.0" encoding="UTF-8"?>
<gpx version="1.1" creator="strava-segment-scraper" xmlns="http://www.topografix.com/GPX/1/1">
  <trk>
    <name>Quarry Park to Sanborn (Stuart Ridge)</name>
    <trkseg>
      <trkpt lat="37.25039" lon="-122.04557" />
      <trkpt lat="37.2504" lon="-122.04565" />
      <trkpt lat="37.25036" lon="-122.04579" />
      <trkpt lat="37.25036" lon="-122.04585" />
      <trkpt lat="37.25029" lon="-122.04605" />
      <trkpt lat="37.2503" lon="-122.0461" />
      <trkpt lat="37.25023" lon="-122.04622" />
      <trkpt lat="37.25023" lon="-122.04633" />
      <trkpt lat="37.25028" lon="-122.04652" />
      <trkpt lat="37.25026" lon="-122.04663" />
      <trkpt lat="37.25022" lon="-122.04673" />
      <trkpt lat="37.25021" lon="-122.04683" />
      <trkpt lat="37.25018" lon="-122.0469" />
      <trkpt lat="37.25018" lon="-122.04728" />
      <trkpt lat="37.25009" lon="-122.04758" />
      <trkpt lat="37.25006" lon="-122.04782" />
      <trkpt lat="37.25005" lon="-122.04791" />
      <trkpt lat="37.25016" lon="-122.04825" />
      <trkpt lat="37.25014" lon="-122.04834" />
      <trkpt lat="37.25016" lon="-122.04846" />
      <trkpt lat="37.25015" lon="-122.04855" />
      <trkpt lat="37.25011" lon="-122.04863" />
      <trkpt lat="37.25004" lon="-122.04891" />
      <trkpt lat="37.25003" lon="-122.04892" />
      <trkpt lat="37.24997" lon="-122.04887" />
      <trkpt lat="37.24994" lon="-122.04886" />
      <trkpt lat="37.24993" lon="-122.04896" />
      <trkpt lat="37.24991" lon="-122.049" />
      <trkpt lat="37.24984" lon="-122.04906" />
      <trkpt lat="37.24975" lon="-122.04908" />
      <trkpt lat="37.24966" lon="-122.04916" />
      <trkpt lat="37.24962" lon="-122.04939" />
      <trkpt lat="37.24964" lon="-122.04947" />
      <trkpt lat="37.24969" lon="-122.04951" />
      <trkpt lat="37.24995" lon="-122.04963" />
      <trkpt lat="37.25007" lon="-122.04971" />
      <trkpt lat="37.25024" lon="-122.04978" />
      <trkpt lat="37.25063" lon="-122.04983" />
      <trkpt lat="37.25071" lon="-122.0498" />
      <trkpt lat="37.25075" lon="-122.04982" />
      <trkpt lat="37.25077" lon="-122.04986" />
      <trkpt lat="37.25075" lon="-122.0499" />
      <trkpt lat="37.25068" lon="-122.04997" />
      <trkpt lat="37.25063" lon="-122.05005" />
      <trkpt lat="37.25067" lon="-122.05023" />
      <trkpt lat="37.25061" lon="-122.05037" />
      <trkpt lat="37.25056" lon="-122.05043" />
      <trkpt lat="37.25055" lon="-122.05047" />
      <trkpt lat="37.2504" lon="-122.05074" />
      <trkpt lat="37.25031" lon="-122.05085" />
      <trkpt lat="37.25024" lon="-122.05088" />
      <trkpt lat="37.25012" lon="-122.05091" />
      <trkpt lat="37.25007" lon="-122.05088" />
      <trkpt lat="37.24996" lon="-122.05089" />
      <trkpt lat="37.2497" lon="-122.05085" />
      <trkpt lat="37.24964" lon="-122.0508" />
      <trkpt lat="37.24956" lon="-122.05077" />
      <trkpt lat="37.24941" lon="-122.05066" />
      <trkpt lat="37.2493" lon="-122.05066" />
      <trkpt lat="37.24913" lon="-122.05061" />
      <trkpt lat="37.24897" lon="-122.05053" />
      <trkpt lat="37.24886" lon="-122.05052" />
      <trkpt lat="37.24874" lon="-122.0505" />
      <trkpt lat="37.24867" lon="-122.05051" />
      <trkpt lat="37.2486" lon="-122.05049" />
      <trkpt lat="37.24858" lon="-122.0505" />
      <trkpt lat="37.24848" lon="-122.05062" />
      <trkpt lat="37.24842" lon="-122.05087" />
      <trkpt lat="37.24842" lon="-122.05098" />
      <trkpt lat="37.24844" lon="-122.05105" />
      <trkpt lat="37.24853" lon="-122.05119" />
      <trkpt lat="37.2485" lon="-122.05148" />
      <trkpt lat="37.24852" lon="-122.05152" />
      <trkpt lat="37.24856" lon="-122.05156" />
      <trkpt lat="37.24872" lon="-122.05162" />
      <trkpt lat="37.24883" lon="-122.05174" />
      <trkpt lat="37.24895" lon="-122.05177" />
      <trkpt lat="37.24899" lon="-122.05183" />
      <trkpt lat="37.24901" lon="-122.05192" />
      <trkpt lat="37.249" lon="-122.05197" />
      <trkpt lat="37.24894" lon="-122.05203" />
      <trkpt lat="37.24885" lon="-122.05206" />
      <trkpt lat="37.24879" lon="-122.05206" />
      <trkpt lat="37.24868" lon="-122.05208" />
      <trkpt lat="37.24854" lon="-122.05207" />
      <trkpt lat="37.24831" lon="-122.05193" />
      <trkpt lat="37.24827" lon="-122.05182" />
      <trkpt lat="37.24819" lon="-122.05173" />
      <trkpt lat="37.24809" lon="-122.05157" />
      <trkpt lat="37.2481" lon="-122.05146" />
      <trkpt lat="37.24816" lon="-122.0514" />
      <trkpt lat="37.24822" lon="-122.05126" />
      <trkpt lat="37.24799" lon="-122.05081" />
      <trkpt lat="37.24796" lon="-122.05077" />
      <trkpt lat="37.24793" lon="-122.05075" />
      <trkpt lat="37.2479" lon="-122.05076" />
      <trkpt lat="37.24787" lon="-122.05082" />
      <trkpt lat="37.24785" lon="-122.05091" />
      <trkpt lat="37.24786" lon="-122.05102" />
      <trkpt lat="37.24789" lon="-122.05109" />
      <trkpt lat="37.24779" lon="-122.05134" />
      <trkpt lat="37.24777" lon="-122.05149" />
      <trkpt lat="37.2478" lon="-122.05158" />
      <trkpt lat="37.24779" lon="-122.05175" />
      <trkpt lat="37.24765" lon="-122.05194" />
      <trkpt lat="37.24754" lon="-122.05192" />
      <trkpt lat="37.24728" lon="-122.05202" />
      <trkpt lat="37.24724" lon="-122.0521" />
      <trkpt lat="37.24716" lon="-122.05222" />
      <trkpt lat="37.24713" lon="-122.05231" />
      <trkpt lat="37.24708" lon="-122.05238" />
      <trkpt lat="37.24706" lon="-122.05248" />
      <trkpt lat="37.24681" lon="-122.05261" />
      <trkpt lat="37.24677" lon="-122.05262" />
      <trkpt lat="37.24657" lon="-122.05278" />
      <trkpt lat="37.24651" lon="-122.05291" />
      <trkpt lat="37.24649" lon="-122.05299" />
      <trkpt lat="37.24648" lon="-122.05309" />
      <trkpt lat="37.2465" lon="-122.05321" />
      <trkpt lat="37.24647" lon="-122.05335" />
      <trkpt lat="37.24637" lon="-122.05351" />
      <trkpt lat="37.24617" lon="-122.05374" />
      <trkpt lat="37.24583" lon="-122.05385" />
      <trkpt lat="37.24578" lon="-122.05388" />
      <trkpt lat="37.24573" lon="-122.05395" />
      <trkpt lat="37.24567" lon="-122.05415" />
      <trkpt lat="37.24555" lon="-122.05435" />
      <trkpt lat="37.24544" lon="-122.05459" />
      <trkpt lat="37.24539" lon="-122.05472" />
      <trkpt lat="37.24538" lon="-122.05486" />
      <trkpt lat="37.24535" lon="-122.05491" />
      <trkpt lat="37.24532" lon="-122.05488" />
      <trkpt lat="37.2453" lon="-122.05485" />
      <trkpt lat="37.24529" lon="-122.05472" />
      <trkpt lat="37.24532" lon="-122.0546" />
      <trkpt lat="37.24536" lon="-122.0545" />
      <trkpt lat="37.24529" lon="-122.05432" />
      <trkpt lat="37.24521" lon="-122.05419" />
      <trkpt lat="37.24522" lon="-122.0541" />
      <trkpt lat="37.24515" lon="-122.0539" />
      <trkpt lat="37.24514" lon="-122.05382" />
      <trkpt lat="37.24516" lon="-122.05372" />
      <trkpt lat="37.24513" lon="-122.05365" />
      <trkpt lat="37.24514" lon="-122.05362" />
      <trkpt lat="37.24509" lon="-122.05351" />
      <trkpt lat="37.24496" lon="-122.05338" />
      <trkpt lat="37.24491" lon="-122.05323" />
      <trkpt lat="37.24482" lon="-122.05314" />
      <trkpt lat="37.24475" lon="-122.05313" />
      <trkpt lat="37.24474" lon="-122.05317" />
      <trkpt lat="37.24482" lon="-122.05343" />
      <trkpt lat="37.2448" lon="-122.05362" />
      <trkpt lat="37.24483" lon="-122.05376" />
      <trkpt lat="37.24482" lon="-122.05387" />
      <trkpt lat="37.24485" lon="-122.05396" />
      <trkpt lat="37.24484" lon="-122.05405" />
      <trkpt lat="37.2448" lon="-122.05411" />
      <trkpt lat="37.24482" lon="-122.05428" />
      <trkpt lat="37.24479" lon="-122.05447" />
      <trkpt lat="37.24474" lon="-122.05453" />
      <trkpt lat="37.24468" lon="-122.05468" />
      <trkpt lat="37.24464" lon="-122.05472" />
      <trkpt lat="37.24469" lon="-122.05469" />
      <trkpt lat="37.24474" lon="-122.0546" />
      <trkpt lat="37.24477" lon="-122.05458" />
      <trkpt lat="37.24477" lon="-122.05451" />
      <trkpt lat="37.24484" lon="-122.05435" />
      <trkpt lat="37.24483" lon="-122.05418" />
      <trkpt lat="37.2448" lon="-122.05417" />
      <trkpt lat="37.24478" lon="-122.05419" />
      <trkpt lat="37.24474" lon="-122.05428" />
      <trkpt lat="37.24452" lon="-122.05451" />
      <trkpt lat="37.24451" lon="-122.05455" />
      <trkpt lat="37.24455" lon="-122.05464" />
      <trkpt lat="37.24451" lon="-122.05472" />
      <trkpt lat="37.24443" lon="-122.05476" />
      <trkpt lat="37.2444" lon="-122.0548" />
      <trkpt lat="37.24434" lon="-122.05484" />
      <trkpt lat="37.24401" lon="-122.05492" />
      <trkpt lat="37.24391" lon="-122.05502" />
      <trkpt lat="37.24387" lon="-122.05502" />
      <trkpt lat="37.2438" lon="-122.05502" />
      <trkpt lat="37.24377" lon="-122.05499" />
      <trkpt lat="37.24373" lon="-122.05492" />
      <trkpt lat="37.24369" lon="-122.05489" />
      <trkpt lat="37.24366" lon="-122.0548" />
      <trkpt lat="37.24355" lon="-122.05474" />
      <trkpt lat="37.2435" lon="-122.05469" />
      <trkpt lat="37.24349" lon="-122.05463" />
      <trkpt lat="37.24346" lon="-122.05462" />
      <trkpt lat="37.24334" lon="-122.05464" />
      <trkpt lat="37.24326" lon="-122.05458" />
      <trkpt lat="37.24323" lon="-122.05452" />
      <trkpt lat="37.24327" lon="-122.05449" />
      <trkpt lat="37.24346" lon="-122.05449" />
      <trkpt lat="37.24351" lon="-122.05452" />
      <trkpt lat="37.2436" lon="-122.05463" />
      <trkpt lat="37.24367" lon="-122.0546" />
      <trkpt lat="37.24378" lon="-122.05457" />
      <trkpt lat="37.24393" lon="-122.05464" />
      <trkpt lat="37.24398" lon="-122.05461" />
      <trkpt lat="37.24399" lon="-122.05452" />
      <trkpt lat="37.2436" lon="-122.05429" />
      <trkpt lat="37.24313" lon="-122.05414" />
      <trkpt lat="37.24305" lon="-122.05419" />
      <trkpt lat="37.24304" lon="-122.05415" />
      <trkpt lat="37.24314" lon="-122.05406" />
      <trkpt lat="37.24323" lon="-122.05411" />
      <trkpt lat="37.24336" lon="-122.05416" />
      <trkpt lat="37.24358" lon="-122.05418" />
      <trkpt lat="37.24374" lon="-122.05415" />
      <trkpt lat="37.24392" lon="-122.05402" />
      <trkpt lat="37.24398" lon="-122.05391" />
      <trkpt lat="37.24399" lon="-122.0539" />
      <trkpt lat="37.24397" lon="-122.05389" />
      <trkpt lat="37.24389" lon="-122.05388" />
      <trkpt lat="37.2437" lon="-122.05394" />
      <trkpt lat="37.24356" lon="-122.05393" />
      <trkpt lat="37.24338" lon="-122.05387" />
      <trkpt lat="37.24317" lon="-122.05377" />
      <trkpt lat="37.24293" lon="-122.05369" />
      <trkpt lat="37.24272" lon="-122.05373" />
      <trkpt lat="37.24255" lon="-122.05383" />
      <trkpt lat="37.24246" lon="-122.05381" />
      <trkpt lat="37.24245" lon="-122.05379" />
      <trkpt lat="37.24246" lon="-122.05375" />
      <trkpt lat="37.24254" lon="-122.05371" />
      <trkpt lat="37.24258" lon="-122.05364" />
      <trkpt lat="37.24262" lon="-122.05361" />
      <trkpt lat="37.24272" lon="-122.05362" />
      <trkpt lat="37.24281" lon="-122.05357" />
      <trkpt lat="37.24294" lon="-122.05352" />
      <trkpt lat="37.24295" lon="-122.0535" />
      <trkpt lat="37.24289" lon="-122.05336" />
      <trkpt lat="37.24281" lon="-122.05326" />
      <trkpt lat="37.24272" lon="-122.05298" />
      <trkpt lat="37.24271" lon="-122.05298" />
      <trkpt lat="37.24269" lon="-122.05303" />
      <trkpt lat="37.24271" lon="-122.05309" />
      <trkpt lat="37.24267" lon="-122.05325" />
      <trkpt lat="37.24263" lon="-122.05325" />
      <trkpt lat="37.24243" lon="-122.05316" />
      <trkpt lat="37.24233" lon="-122.05315" />
      <trkpt lat="37.24223" lon="-122.05331" />
      <trkpt lat="37.24216" lon="-122.05333" />
      <trkpt lat="37.2423" lon="-122.05317" />
      <trkpt lat="37.2425" lon="-122.05312" />
      <trkpt lat="37.24253" lon="-122.0531" />
      <trkpt lat="37.24254" lon="-122.05307" />
      <trkpt lat="37.24252" lon="-122.05304" />
      <trkpt lat="37.24247" lon="-122.05302" />
      <trkpt lat="37.24236" lon="-122.05302" />
      <trkpt lat="37.24218" lon="-122.05306" />
      <trkpt lat="37.24206" lon="-122.05319" />
      <trkpt lat="37.24205" lon="-122.05325" />
      <trkpt lat="37.24205" lon="-122.05322" />
      <trkpt lat="37.24208" lon="-122.05318" />
      <trkpt lat="37.24216" lon="-122.05315" />
      <trkpt lat="37.24222" lon="-122.05302" />
      <trkpt lat="37.24236" lon="-122.0529" />
      <trkpt lat="37.24237" lon="-122.05284" />
      <trkpt lat="37.24235" lon="-122.05281" />
      <trkpt lat="37.24237" lon="-122.05279" />
      <trkpt lat="37.24234" lon="-122.05278" />
      <trkpt lat="37.24229" lon="-122.05283" />
      <trkpt lat="37.24207" lon="-122.05297" />
      <trkpt lat="37.24198" lon="-122.05308" />
      <trkpt lat="37.24189" lon="-122.05315" />
      <trkpt lat="37.24162" lon="-122.05321" />
      <trkpt lat="37.24156" lon="-122.05326" />
      <trkpt lat="37.24154" lon="-122.05326" />
      <trkpt lat="37.24147" lon="-122.0532" />
      <trkpt lat="37.2415" lon="-122.05319" />
      <trkpt lat="37.24152" lon="-122.05321" />
      <trkpt lat="37.2416" lon="-122.05329" />
      <trkpt lat="37.24177" lon="-122.05325" />
      <trkpt lat="37.2418" lon="-122.05326" />
      <trkpt lat="37.24185" lon="-122.05322" />
      <trkpt lat="37.24187" lon="-122.05315" />
      <trkpt lat="37.24185" lon="-122.0529" />
      <trkpt lat="37.24187" lon="-122.05282" />
      <trkpt lat="37.24192" lon="-122.05275" />
      <trkpt lat="37.24194" lon="-122.05266" />
      <trkpt lat="37.24191" lon="-122.0526" />
      <trkpt lat="37.24188" lon="-122.05257" />
      <trkpt lat="37.24181" lon="-122.05255" />
      <trkpt lat="37.2417" lon="-122.05262" />
      <trkpt lat="37.24157" lon="-122.05268" />
      <trkpt lat="37.24152" lon="-122.05276" />
      <trkpt lat="37.2415" lon="-122.05276" />
      <trkpt lat="37.2415" lon="-122.05271" />
      <trkpt lat="37.24155" lon="-122.05261" />
      <trkpt lat="37.24154" lon="-122.05253" />
      <trkpt lat="37.24157" lon="-122.05246" />
      <trkpt lat="37.24159" lon="-122.05234" />
      <trkpt lat="37.24158" lon="-122.05224" />
      <trkpt lat="37.24154" lon="-122.05214" />
      <trkpt lat="37.24153" lon="-122.05197" />
      <trkpt lat="37.2415" lon="-122.05182" />
      <trkpt lat="37.24145" lon="-122.05174" />
      <trkpt lat="37.24139" lon="-122.05169" />
      <trkpt lat="37.2413" lon="-122.05155" />
      <trkpt lat="37.24123" lon="-122.05149" />
      <trkpt lat="37.24117" lon="-122.05138" />
      <trkpt lat="37.24115" lon="-122.05132" />
      <trkpt lat="37.24113" lon="-122.05132" />
      <trkpt lat="37.24109" lon="-122.05139" />
      <trkpt lat="37.24108" lon="-122.05159" />
      <trkpt lat="37.24112" lon="-122.05168" />
      <trkpt lat="37.24119" lon="-122.05177" />
      <trkpt lat="37.24122" lon="-122.05189" />
      <trkpt lat="37.24121" lon="-122.0521" />
      <trkpt lat="37.24119" lon="-122.05214" />
      <trkpt lat="37.24119" lon="-122.0522" />
      <trkpt lat="37.24121" lon="-122.05237" />
      <trkpt lat="37.24118" lon="-122.05247" />
      <trkpt lat="37.24112" lon="-122.05251" />
      <trkpt lat="37.2408" lon="-122.05245" />
      <trkpt lat="37.24078" lon="-122.05243" />
      <trkpt lat="37.24075" lon="-122.05244" />
      <trkpt lat="37.24075" lon="-122.05248" />
      <trkpt lat="37.24083" lon="-122.0526" />
      <trkpt lat="37.24087" lon="-122.05271" />
      <trkpt lat="37.24086" lon="-122.05276" />
      <trkpt lat="37.24083" lon="-122.0528" />
      <trkpt lat="37.24075" lon="-122.05279" />
      <trkpt lat="37.2407" lon="-122.05272" />
      <trkpt lat="37.24066" lon="-122.05261" />
      <trkpt lat="37.24061" lon="-122.0526" />
      <trkpt lat="37.24059" lon="-122.05263" />
      <trkpt lat="37.24054" lon="-122.05273" />
      <trkpt lat="37.24044" lon="-122.05278" />
      <trkpt lat="37.24042" lon="-122.05283" />
      <trkpt lat="37.24043" lon="-122.05301" />
      <trkpt lat="37.24048" lon="-122.05318" />
      <trkpt lat="37.24056" lon="-122.05331" />
      <trkpt lat="37.24056" lon="-122.05348" />
      <trkpt lat="37.2406" lon="-122.05358" />
      <trkpt lat="37.24058" lon="-122.05369" />
      <trkpt lat="37.24051" lon="-122.05381" />
      <trkpt lat="37.24034" lon="-122.05395" />
      <trkpt lat="37.24021" lon="-122.05398" />
      <trkpt lat="37.23991" lon="-122.05414" />
      <trkpt lat="37.23984" lon="-122.05415" />
      <trkpt lat="37.23977" lon="-122.05418" />
      <trkpt lat="37.23974" lon="-122.05423" />
      <trkpt lat="37.23956" lon="-122.05434" />
      <trkpt lat="37.23935" lon="-122.05437" />
      <trkpt lat="37.23914" lon="-122.05428" />
      <trkpt lat="37.23909" lon="-122.05421" />
      <trkpt lat="37.23881" lon="-122.05401" />
      <trkpt lat="37.23867" lon="-122.05401" />
      <trkpt lat="37.23865" lon="-122.05403" />
      <trkpt lat="37.23859" lon="-122.05435" />
      <trkpt lat="37.23852" lon="-122.05448" />
      <trkpt lat="37.23847" lon="-122.05473" />
      <trkpt lat="37.23837" lon="-122.05501" />
      <trkpt lat="37.23835" lon="-122.05524" />
      <trkpt lat="37.23839" lon="-122.05541" />
      <trkpt lat="37.23848" lon="-122.0556" />
      <trkpt lat="37.23856" lon="-122.05574" />
      <trkpt lat="37.23867" lon="-122.05575" />
      <trkpt lat="37.23874" lon="-122.05578" />
      <trkpt lat="37.23882" lon="-122.05576" />
      <trkpt lat="37.23887" lon="-122.05576" />
      <trkpt lat="37.23917" lon="-122.05601" />
      <trkpt lat="37.23939" lon="-122.05608" />
      <trkpt lat="37.23963" lon="-122.05622" />
      <trkpt lat="37.23972" lon="-122.05641" />
      <trkpt lat="37.23978" lon="-122.05678" />
      <trkpt lat="37.23981" lon="-122.05681" />
      <trkpt lat="37.23987" lon="-122.05698" />
      <trkpt lat="37.24002" lon="-122.05721" />
      <trkpt lat="37.24006" lon="-122.05727" />
      <trkpt lat="37.2402" lon="-122.05739" />
      <trkpt lat="37.24033" lon="-122.05749" />
      <trkpt lat="37.2404" lon="-122.05748" />
      <trkpt lat="37.24051" lon="-122.05751" />
      <trkpt lat="37.24064" lon="-122.0575" />
      <trkpt lat="37.24072" lon="-122.05752" />
      <trkpt lat="37.24077" lon="-122.05759" />
      <trkpt lat="37.24076" lon="-122.05784" />
      <trkpt lat="37.24079" lon="-122.05789" />
      <trkpt lat="37.24085" lon="-122.05794" />
      <trkpt lat="37.24096" lon="-122.05795" />
      <trkpt lat="37.24114" lon="-122.05792" />
      <trkpt lat="37.24127" lon="-122.05793" />
      <trkpt lat="37.24141" lon="-122.058" />
      <trkpt lat="37.24147" lon="-122.05802" />
      <trkpt lat="37.24162" lon="-122.05811" />
      <trkpt lat="37.24179" lon="-122.05828" />
      <trkpt lat="37.24189" lon="-122.05835" />
      <trkpt lat="37.24198" lon="-122.05849" />
      <trkpt lat="37.24203" lon="-122.05865" />
      <trkpt lat="37.24209" lon="-122.05869" />
      <trkpt lat="37.24217" lon="-122.05871" />
      <trkpt lat="37.24222" lon="-122.05877" />
      <trkpt lat="37.24226" lon="-122.05885" />
      <trkpt lat="37.24229" lon="-122.05887" />
      <trkpt lat="37.24248" lon="-122.05887" />
      <trkpt lat="37.24263" lon="-122.05885" />
      <trkpt lat="37.24296" lon="-122.05887" />
      <trkpt lat="37.24331" lon="-122.05897" />
      <trkpt lat="37.24375" lon="-122.05924" />
      <trkpt lat="37.24394" lon="-122.05929" />
      <trkpt lat="37.24414" lon="-122.05926" />
      <trkpt lat="37.24434" lon="-122.05926" />
      <trkpt lat="37.24447" lon="-122.05929" />
      <trkpt lat="37.24459" lon="-122.05925" />
      <trkpt lat="37.24462" lon="-122.05926" />
    </trkseg>
  </trk>
</gpx>