<?xml version="1.0" encoding="UTF-8"?>
<gpx version="1.1" creator="strava-segment-scraper" xmlns="http://www.topografix.com/GPX/1/1">
  <trk>
    <name>1st Bridge to Whalen Summit</name>
    <trkseg>
      <trkpt lat="41.16628" lon="-122.37299" />
      <trkpt lat="41.1665" lon="-122.3734" />
      <trkpt lat="41.16664" lon="-122.3736" />
      <trkpt lat="41.16671" lon="-122.37373" />
      <trkpt lat="41.16673" lon="-122.37385" />
      <trkpt lat="41.1667" lon="-122.37403" />
      <trkpt lat="41.16668" lon="-122.37408" />
      <trkpt lat="41.16657" lon="-122.37414" />
      <trkpt lat="41.16633" lon="-122.37415" />
      <trkpt lat="41.16606" lon="-122.37412" />
      <trkpt lat="41.16578" lon="-122.37418" />
      <trkpt lat="41.16561" lon="-122.37418" />
      <trkpt lat="41.16546" lon="-122.37415" />
      <trkpt lat="41.16501" lon="-122.37403" />
      <trkpt lat="41.16489" lon="-122.37403" />
      <trkpt lat="41.16484" lon="-122.37406" />
      <trkpt lat="41.16478" lon="-122.37413" />
      <trkpt lat="41.16476" lon="-122.37421" />
      <trkpt lat="41.16476" lon="-122.37465" />
      <trkpt lat="41.16467" lon="-122.37491" />
      <trkpt lat="41.16433" lon="-122.37541" />
      <trkpt lat="41.16418" lon="-122.37572" />
      <trkpt lat="41.16405" lon="-122.3759" />
      <trkpt lat="41.16388" lon="-122.37604" />
      <trkpt lat="41.16365" lon="-122.37627" />
      <trkpt lat="41.16347" lon="-122.3764" />
      <trkpt lat="41.16336" lon="-122.37642" />
      <trkpt lat="41.16324" lon="-122.37639" />
      <trkpt lat="41.16312" lon="-122.3763" />
      <trkpt lat="41.16304" lon="-122.37621" />
      <trkpt lat="41.163" lon="-122.3761" />
      <trkpt lat="41.16308" lon="-122.37573" />
      <trkpt lat="41.1632" lon="-122.37543" />
      <trkpt lat="41.16322" lon="-122.37532" />
      <trkpt lat="41.16322" lon="-122.3752" />
      <trkpt lat="41.16318" lon="-122.37505" />
      <trkpt lat="41.16303" lon="-122.37482" />
      <trkpt lat="41.16256" lon="-122.37438" />
      <trkpt lat="41.16238" lon="-122.37422" />
      <trkpt lat="41.16221" lon="-122.37401" />
      <trkpt lat="41.16199" lon="-122.37353" />
      <trkpt lat="41.16183" lon="-122.3731" />
      <trkpt lat="41.16175" lon="-122.37297" />
      <trkpt lat="41.1617" lon="-122.37292" />
      <trkpt lat="41.16156" lon="-122.37288" />
      <trkpt lat="41.16141" lon="-122.3729" />
      <trkpt lat="41.16127" lon="-122.37297" />
      <trkpt lat="41.16106" lon="-122.37316" />
      <trkpt lat="41.16096" lon="-122.37326" />
      <trkpt lat="41.16085" lon="-122.37342" />
      <trkpt lat="41.16071" lon="-122.37377" />
      <trkpt lat="41.16056" lon="-122.37403" />
      <trkpt lat="41.1604" lon="-122.37448" />
      <trkpt lat="41.16026" lon="-122.37478" />
      <trkpt lat="41.1602" lon="-122.37495" />
      <trkpt lat="41.16014" lon="-122.37502" />
      <trkpt lat="41.16007" lon="-122.37506" />
      <trkpt lat="41.1599" lon="-122.3751" />
      <trkpt lat="41.15959" lon="-122.37502" />
      <trkpt lat="41.15951" lon="-122.37497" />
      <trkpt lat="41.15936" lon="-122.37481" />
      <trkpt lat="41.15921" lon="-122.37462" />
      <trkpt lat="41.15914" lon="-122.3745" />
      <trkpt lat="41.15904" lon="-122.37426" />
      <trkpt lat="41.15898" lon="-122.37418" />
      <trkpt lat="41.15892" lon="-122.37401" />
      <trkpt lat="41.15858" lon="-122.37342" />
      <trkpt lat="41.15849" lon="-122.37317" />
      <trkpt lat="41.15831" lon="-122.37282" />
      <trkpt lat="41.15824" lon="-122.37278" />
      <trkpt lat="41.15799" lon="-122.37268" />
      <trkpt lat="41.15783" lon="-122.37265" />
      <trkpt lat="41.15769" lon="-122.3727" />
      <trkpt lat="41.15765" lon="-122.37273" />
      <trkpt lat="41.15752" lon="-122.37291" />
      <trkpt lat="41.15743" lon="-122.3732" />
      <trkpt lat="41.15732" lon="-122.37382" />
      <trkpt lat="41.15718" lon="-122.37441" />
      <trkpt lat="41.15718" lon="-122.37459" />
      <trkpt lat="41.15716" lon="-122.37471" />
      <trkpt lat="41.157" lon="-122.37514" />
      <trkpt lat="41.15693" lon="-122.37538" />
      <trkpt lat="41.15688" lon="-122.37546" />
      <trkpt lat="41.1568" lon="-122.37585" />
      <trkpt lat="41.1568" lon="-122.37602" />
      <trkpt lat="41.15679" lon="-122.37611" />
      <trkpt lat="41.15675" lon="-122.37619" />
      <trkpt lat="41.15672" lon="-122.3764" />
      <trkpt lat="41.15673" lon="-122.3767" />
      <trkpt lat="41.15683" lon="-122.37755" />
      <trkpt lat="41.15677" lon="-122.37821" />
      <trkpt lat="41.15669" lon="-122.37836" />
      <trkpt lat="41.15664" lon="-122.37857" />
      <trkpt lat="41.15655" lon="-122.37877" />
      <trkpt lat="41.15651" lon="-122.37891" />
      <trkpt lat="41.15644" lon="-122.37906" />
      <trkpt lat="41.15629" lon="-122.37915" />
      <trkpt lat="41.156" lon="-122.37923" />
      <trkpt lat="41.15594" lon="-122.37926" />
      <trkpt lat="41.15587" lon="-122.37933" />
      <trkpt lat="41.15573" lon="-122.37959" />
      <trkpt lat="41.15567" lon="-122.37967" />
      <trkpt lat="41.15555" lon="-122.3799" />
      <trkpt lat="41.15551" lon="-122.38002" />
      <trkpt lat="41.15544" lon="-122.38018" />
      <trkpt lat="41.15529" lon="-122.38039" />
      <trkpt lat="41.15511" lon="-122.3806" />
      <trkpt lat="41.15499" lon="-122.3808" />
      <trkpt lat="41.15493" lon="-122.38093" />
      <trkpt lat="41.15489" lon="-122.38107" />
      <trkpt lat="41.15487" lon="-122.38115" />
      <trkpt lat="41.15488" lon="-122.3814" />
      <trkpt lat="41.15492" lon="-122.38186" />
      <trkpt lat="41.1549" lon="-122.38215" />
      <trkpt lat="41.15492" lon="-122.38236" />
      <trkpt lat="41.15491" lon="-122.38247" />
      <trkpt lat="41.15499" lon="-122.38319" />
      <trkpt lat="41.15507" lon="-122.38362" />
      <trkpt lat="41.15521" lon="-122.38416" />
      <trkpt lat="41.15521" lon="-122.38442" />
      <trkpt lat="41.15523" lon="-122.38459" />
      <trkpt lat="41.15521" lon="-122.38481" />
      <trkpt lat="41.15515" lon="-122.38498" />
      <trkpt lat="41.15503" lon="-122.38515" />
      <trkpt lat="41.15491" lon="-122.38541" />
      <trkpt lat="41.15488" lon="-122.38566" />
      <trkpt lat="41.15489" lon="-122.38571" />
      <trkpt lat="41.15491" lon="-122.38573" />
      <trkpt lat="41.15495" lon="-122.386" />
      <trkpt lat="41.15493" lon="-122.38624" />
      <trkpt lat="41.1549" lon="-122.38636" />
      <trkpt lat="41.15486" lon="-122.38643" />
      <trkpt lat="41.15469" lon="-122.38663" />
      <trkpt lat="41.15452" lon="-122.38678" />
      <trkpt lat="41.15442" lon="-122.38703" />
      <trkpt lat="41.15439" lon="-122.38719" />
      <trkpt lat="41.15444" lon="-122.38782" />
      <trkpt lat="41.15443" lon="-122.38813" />
      <trkpt lat="41.15439" lon="-122.38835" />
      <trkpt lat="41.1544" lon="-122.38873" />
      <trkpt lat="41.15439" lon="-122.38907" />
      <trkpt lat="41.15443" lon="-122.38931" />
      <trkpt lat="41.15455" lon="-122.38959" />
      <trkpt lat="41.15455" lon="-122.38965" />
      <trkpt lat="41.15459" lon="-122.38971" />
      <trkpt lat="41.15458" lon="-122.38983" />
      <trkpt lat="41.15461" lon="-122.3899" />
      <trkpt lat="41.1546" lon="-122.38997" />
      <trkpt lat="41.15464" lon="-122.39001" />
      <trkpt lat="41.15467" lon="-122.39009" />
      <trkpt lat="41.15464" lon="-122.3902" />
      <trkpt lat="41.15466" lon="-122.39024" />
      <trkpt lat="41.1547" lon="-122.3903" />
      <trkpt lat="41.15474" lon="-122.3905" />
      <trkpt lat="41.15476" lon="-122.39071" />
      <trkpt lat="41.15475" lon="-122.39086" />
      <trkpt lat="41.1548" lon="-122.39093" />
      <trkpt lat="41.15482" lon="-122.39099" />
      <trkpt lat="41.15482" lon="-122.39108" />
      <trkpt lat="41.15484" lon="-122.39111" />
      <trkpt lat="41.15496" lon="-122.39119" />
      <trkpt lat="41.15498" lon="-122.3913" />
      <trkpt lat="41.15509" lon="-122.39135" />
      <trkpt lat="41.15515" lon="-122.39149" />
      <trkpt lat="41.15522" lon="-122.39152" />
      <trkpt lat="41.15527" lon="-122.39157" />
      <trkpt lat="41.15541" lon="-122.39179" />
      <trkpt lat="41.15545" lon="-122.39193" />
      <trkpt lat="41.15542" lon="-122.39213" />
      <trkpt lat="41.15537" lon="-122.3923" />
      <trkpt lat="41.15532" lon="-122.39235" />
      <trkpt lat="41.15528" lon="-122.39249" />
      <trkpt lat="41.15519" lon="-122.39258" />
      <trkpt lat="41.15518" lon="-122.39267" />
      <trkpt lat="41.15516" lon="-122.39273" />
      <trkpt lat="41.15509" lon="-122.39277" />
      <trkpt lat="41.15501" lon="-122.39296" />
      <trkpt lat="41.1549" lon="-122.39314" />
      <trkpt lat="41.15485" lon="-122.39325" />
      <trkpt lat="41.15478" lon="-122.39334" />
      <trkpt lat="41.15482" lon="-122.39374" />
      <trkpt lat="41.15481" lon="-122.39391" />
      <trkpt lat="41.1549" lon="-122.39401" />
      <trkpt lat="41.15495" lon="-122.39402" />
      <trkpt lat="41.155" lon="-122.39407" />
      <trkpt lat="41.15511" lon="-122.39405" />
      <trkpt lat="41.15525" lon="-122.39412" />
      <trkpt lat="41.15527" lon="-122.39408" />
      <trkpt lat="41.15533" lon="-122.39406" />
      <trkpt lat="41.1554" lon="-122.39411" />
      <trkpt lat="41.15547" lon="-122.39404" />
      <trkpt lat="41.15554" lon="-122.39406" />
      <trkpt lat="41.15558" lon="-122.39404" />
      <trkpt lat="41.15563" lon="-122.3941" />
      <trkpt lat="41.15568" lon="-122.39406" />
      <trkpt lat="41.15574" lon="-122.39416" />
      <trkpt lat="41.15579" lon="-122.39416" />
      <trkpt lat="41.15583" lon="-122.39423" />
      <trkpt lat="41.15596" lon="-122.39422" />
      <trkpt lat="41.15598" lon="-122.39428" />
      <trkpt lat="41.15605" lon="-122.3943" />
      <trkpt lat="41.15609" lon="-122.39439" />
      <trkpt lat="41.15621" lon="-122.39443" />
      <trkpt lat="41.15633" lon="-122.39464" />
      <trkpt lat="41.15637" lon="-122.39476" />
      <trkpt lat="41.15636" lon="-122.39486" />
      <trkpt lat="41.15634" lon="-122.39494" />
      <trkpt lat="41.1562" lon="-122.3951" />
      <trkpt lat="41.15593" lon="-122.39531" />
      <trkpt lat="41.15571" lon="-122.3956" />
      <trkpt lat="41.15562" lon="-122.39581" />
      <trkpt lat="41.1556" lon="-122.39587" />
      <trkpt lat="41.15563" lon="-122.39597" />
      <trkpt lat="41.15576" lon="-122.39618" />
      <trkpt lat="41.15592" lon="-122.39627" />
      <trkpt lat="41.15616" lon="-122.39649" />
      <trkpt lat="41.15629" lon="-122.3967" />
      <trkpt lat="41.15633" lon="-122.39672" />
      <trkpt lat="41.15642" lon="-122.39682" />
      <trkpt lat="41.15653" lon="-122.39704" />
      <trkpt lat="41.15667" lon="-122.39717" />
      <trkpt lat="41.15672" lon="-122.3973" />
      <trkpt lat="41.15684" lon="-122.39743" />
      <trkpt lat="41.15687" lon="-122.39745" />
      <trkpt lat="41.15701" lon="-122.39746" />
      <trkpt lat="41.1571" lon="-122.39751" />
      <trkpt lat="41.15726" lon="-122.39753" />
      <trkpt lat="41.15739" lon="-122.3976" />
      <trkpt lat="41.15758" lon="-122.39758" />
      <trkpt lat="41.1577" lon="-122.39762" />
      <trkpt lat="41.15803" lon="-122.39765" />
      <trkpt lat="41.15812" lon="-122.39774" />
      <trkpt lat="41.15818" lon="-122.39787" />
      <trkpt lat="41.15814" lon="-122.39823" />
      <trkpt lat="41.15809" lon="-122.39836" />
      <trkpt lat="41.15808" lon="-122.39846" />
      <trkpt lat="41.1581" lon="-122.39857" />
      <trkpt lat="41.15818" lon="-122.39872" />
      <trkpt lat="41.1582" lon="-122.39888" />
      <trkpt lat="41.15809" lon="-122.39938" />
      <trkpt lat="41.15807" lon="-122.39954" />
      <trkpt lat="41.15803" lon="-122.39964" />
      <trkpt lat="41.15803" lon="-122.39971" />
      <trkpt lat="41.15812" lon="-122.39995" />
      <trkpt lat="41.15816" lon="-122.40003" />
      <trkpt lat="41.15819" lon="-122.40017" />
      <trkpt lat="41.15819" lon="-122.40025" />
      <trkpt lat="41.15823" lon="-122.40043" />
      <trkpt lat="41.15823" lon="-122.40066" />
      <trkpt lat="41.15817" lon="-122.40087" />
      <trkpt lat="41.15823" lon="-122.40114" />
      <trkpt lat="41.15822" lon="-122.40127" />
      <trkpt lat="41.15828" lon="-122.40152" />
      <trkpt lat="41.15827" lon="-122.4017" />
      <trkpt lat="41.15831" lon="-122.40188" />
      <trkpt lat="41.15842" lon="-122.4022" />
      <trkpt lat="41.15845" lon="-122.40233" />
      <trkpt lat="41.15841" lon="-122.4026" />
      <trkpt lat="41.15839" lon="-122.4027" />
      <trkpt lat="41.15839" lon="-122.40287" />
      <trkpt lat="41.15844" lon="-122.4033" />
      <trkpt lat="41.15854" lon="-122.40357" />
      <trkpt lat="41.15856" lon="-122.40369" />
      <trkpt lat="41.15858" lon="-122.40387" />
      <trkpt lat="41.15855" lon="-122.40397" />
      <trkpt lat="41.15843" lon="-122.40415" />
      <trkpt lat="41.15836" lon="-122.40432" />
      <trkpt lat="41.1583" lon="-122.40476" />
      <trkpt lat="41.15826" lon="-122.4049" />
      <trkpt lat="41.15815" lon="-122.40513" />
      <trkpt lat="41.15813" lon="-122.40527" />
      <trkpt lat="41.158" lon="-122.40549" />
      <trkpt lat="41.15797" lon="-122.40564" />
      <trkpt lat="41.15803" lon="-122.40586" />
      <trkpt lat="41.15811" lon="-122.40601" />
      <trkpt lat="41.15815" lon="-122.40615" />
      <trkpt lat="41.15826" lon="-122.40627" />
      <trkpt lat="41.15834" lon="-122.40639" />
      <trkpt lat="41.15839" lon="-122.40643" />
      <trkpt lat="41.15851" lon="-122.4066" />
      <trkpt lat="41.15856" lon="-122.40661" />
      <trkpt lat="41.15874" lon="-122.40677" />
      <trkpt lat="41.15877" lon="-122.40685" />
      <trkpt lat="41.15877" lon="-122.407" />
      <trkpt lat="41.15875" lon="-122.40712" />
      <trkpt lat="41.15868" lon="-122.40721" />
      <trkpt lat="41.15841" lon="-122.40729" />
      <trkpt lat="41.15812" lon="-122.40733" />
      <trkpt lat="41.15797" lon="-122.4074" />
      <trkpt lat="41.15787" lon="-122.4075" />
      <trkpt lat="41.15782" lon="-122.40758" />
      <trkpt lat="41.1578" lon="-122.40773" />
      <trkpt lat="41.1578" lon="-122.40788" />
      <trkpt lat="41.15788" lon="-122.40804" />
      <trkpt lat="41.15816" lon="-122.40842" />
      <trkpt lat="41.1583" lon="-122.40851" />
      <trkpt lat="41.15837" lon="-122.40859" />
      <trkpt lat="41.15842" lon="-122.40871" />
      <trkpt lat="41.1584" lon="-122.40888" />
      <trkpt lat="41.15835" lon="-122.40896" />
      <trkpt lat="41.15835" lon="-122.40923" />
      <trkpt lat="41.15832" lon="-122.40941" />
      <trkpt lat="41.15833" lon="-122.40959" />
      <trkpt lat="41.15842" lon="-122.41014" />
      <trkpt lat="41.15839" lon="-122.41034" />
      <trkpt lat="41.15837" lon="-122.4107" />
      <trkpt lat="41.15836" lon="-122.41075" />
      <trkpt lat="41.15829" lon="-122.41088" />
      <trkpt lat="41.15828" lon="-122.41097" />
      <trkpt lat="41.1583" lon="-122.41114" />
      <trkpt lat="41.15836" lon="-122.41125" />
      <trkpt lat="41.15844" lon="-122.41152" />
      <trkpt lat="41.15852" lon="-122.41165" />
      <trkpt lat="41.15865" lon="-122.41197" />
      <trkpt lat="41.15877" lon="-122.41213" />
      <trkpt lat="41.15879" lon="-122.4122" />
      <trkpt lat="41.15888" lon="-122.4123" />
      <trkpt lat="41.15892" lon="-122.41238" />
      <trkpt lat="41.159" lon="-122.41246" />
      <trkpt lat="41.15913" lon="-122.41264" />
      <trkpt lat="41.15927" lon="-122.41276" />
      <trkpt lat="41.15936" lon="-122.41289" />
      <trkpt lat="41.1595" lon="-122.4133" />
      <trkpt lat="41.1595" lon="-122.41336" />
      <trkpt lat="41.15947" lon="-122.41358" />
      <trkpt lat="41.15947" lon="-122.41372" />
      <trkpt lat="41.15951" lon="-122.41384" />
      <trkpt lat="41.15963" lon="-122.41407" />
      <trkpt lat="41.15973" lon="-122.41418" />
      <trkpt lat="41.15991" lon="-122.41421" />
      <trkpt lat="41.15999" lon="-122.41423" />
      <trkpt lat="41.1601" lon="-122.41424" />
      <trkpt lat="41.16033" lon="-122.41431" />
      <trkpt lat="41.16044" lon="-122.41444" />
      <trkpt lat="41.16052" lon="-122.41447" />
      <trkpt lat="41.16067" lon="-122.41461" />
      <trkpt lat="41.16073" lon="-122.41486" />
      <trkpt lat="41.16083" lon="-122.41516" />
      <trkpt lat="41.16101" lon="-122.41535" />
      <trkpt lat="41.16114" lon="-122.41542" />
      <trkpt lat="41.16136" lon="-122.41561" />
      <trkpt lat="41.16142" lon="-122.41568" />
      <trkpt lat="41.16152" lon="-122.41585" />
      <trkpt lat="41.16163" lon="-122.41609" />
      <trkpt lat="41.16168" lon="-122.41624" />
      <trkpt lat="41.16179" lon="-122.41639" />
      <trkpt lat="41.16189" lon="-122.41656" />
      <trkpt lat="41.16201" lon="-122.41686" />
      <trkpt lat="41.16224" lon="-122.41716" />
      <trkpt lat="41.16232" lon="-122.41721" />
      <trkpt lat="41.16246" lon="-122.41734" />
      <trkpt lat="41.16273" lon="-122.41768" />
      <trkpt lat="41.16286" lon="-122.41792" />
      <trkpt lat="41.16288" lon="-122.4181" />
      <trkpt lat="41.16293" lon="-122.41819" />
      <trkpt lat="41.16294" lon="-122.4183" />
      <trkpt lat="41.16293" lon="-122.41846" />
      <trkpt lat="41.16295" lon="-122.41861" />
      <trkpt lat="41.16293" lon="-122.41872" />
      <trkpt lat="41.16294" lon="-122.4188" />
      <trkpt lat="41.16303" lon="-122.41889" />
      <trkpt lat="41.1631" lon="-122.41903" />
      <trkpt lat="41.1632" lon="-122.41909" />
      <trkpt lat="41.16338" lon="-122.41931" />
      <trkpt lat="41.16345" lon="-122.41945" />
      <trkpt lat="41.16351" lon="-122.41965" />
      <trkpt lat="41.16353" lon="-122.42002" />
      <trkpt lat="41.16358" lon="-122.42015" />
      <trkpt lat="41.16367" lon="-122.42025" />
      <trkpt lat="41.16376" lon="-122.42027" />
      <trkpt lat="41.16382" lon="-122.42033" />
      <trkpt lat="41.16393" lon="-122.42032" />
      <trkpt lat="41.16415" lon="-122.42038" />
      <trkpt lat="41.16423" lon="-122.42038" />
      <trkpt lat="41.16434" lon="-122.42041" />
      <trkpt lat="41.16442" lon="-122.42045" />
      <trkpt lat="41.16461" lon="-122.42068" />
      <trkpt lat="41.16469" lon="-122.42076" />
      <trkpt lat="41.16478" lon="-122.42087" />
      <trkpt lat="41.16495" lon="-122.4212" />
      <trkpt lat="41.16514" lon="-122.42149" />
      <trkpt lat="41.16516" lon="-122.42159" />
      <trkpt lat="41.16515" lon="-122.42165" />
      <trkpt lat="41.16511" lon="-122.42175" />
      <trkpt lat="41.16503" lon="-122.42179" />
      <trkpt lat="41.16479" lon="-122.42188" />
      <trkpt lat="41.16469" lon="-122.42195" />
      <trkpt lat="41.16457" lon="-122.42213" />
      <trkpt lat="41.16452" lon="-122.4223" />
      <trkpt lat="41.16454" lon="-122.42249" />
      <trkpt lat="41.16463" lon="-122.42285" />
      <trkpt lat="41.1647" lon="-122.42339" />
      <trkpt lat="41.16481" lon="-122.42381" />
      <trkpt lat="41.16488" lon="-122.42439" />
      <trkpt lat="41.16488" lon="-122.42462" />
      <trkpt lat="41.16476" lon="-122.42495" />
      <trkpt lat="41.16476" lon="-122.42512" />
      <trkpt lat="41.1649" lon="-122.42554" />
      <trkpt lat="41.16498" lon="-122.42601" />
      <trkpt lat="41.16506" lon="-122.42627" />
      <trkpt lat="41.16514" lon="-122.42673" />
      <trkpt lat="41.16514" lon="-122.42701" />
      <trkpt lat="41.16518" lon="-122.42709" />
      <trkpt lat="41.16527" lon="-122.42723" />
      <trkpt lat="41.16532" lon="-122.42748" />
      <trkpt lat="41.16542" lon="-122.42769" />
      <trkpt lat="41.16552" lon="-122.42835" />
      <trkpt lat="41.16551" lon="-122.42875" />
      <trkpt lat="41.16555" lon="-122.42888" />
      <trkpt lat="41.16563" lon="-122.42905" />
      <trkpt lat="41.16577" lon="-122.42924" />
      <trkpt lat="41.16604" lon="-122.42954" />
      <trkpt lat="41.16615" lon="-122.42968" />
      <trkpt lat="41.16622" lon="-122.42986" />
      <trkpt lat="41.16631" lon="-122.43" />
      <trkpt lat="41.16639" lon="-122.43029" />
      <trkpt lat="41.16648" lon="-122.43044" />
      <trkpt lat="41.16662" lon="-122.43102" />
      <trkpt lat="41.16685" lon="-122.43139" />
      <trkpt lat="41.16692" lon="-122.43144" />
      <trkpt lat="41.16708" lon="-122.43159" />
      <trkpt lat="41.16711" lon="-122.43169" />
      <trkpt lat="41.16718" lon="-122.43196" />
      <trkpt lat="41.16714" lon="-122.43212" />
      <trkpt lat="41.16693" lon="-122.43248" />
      <trkpt lat="41.16685" lon="-122.4326" />
      <trkpt lat="41.16679" lon="-122.43272" />
      <trkpt lat="41.16678" lon="-122.43281" />
      <trkpt lat="41.16669" lon="-122.4329" />
      <trkpt lat="41.16665" lon="-122.43302" />
      <trkpt lat="41.16659" lon="-122.43308" />
      <trkpt lat="41.16654" lon="-122.43318" />
      <trkpt lat="41.16645" lon="-122.43333" />
      <trkpt lat="41.1664" lon="-122.43337" />
      <trkpt lat="41.16614" lon="-122.43348" />
      <trkpt lat="41.16591" lon="-122.43363" />
      <trkpt lat="41.16574" lon="-122.43369" />
      <trkpt lat="41.16561" lon="-122.43362" />
      <trkpt lat="41.16552" lon="-122.43355" />
      <trkpt lat="41.16539" lon="-122.43346" />
      <trkpt lat="41.16534" lon="-122.43344" />
      <trkpt lat="41.16526" lon="-122.43344" />
      <trkpt lat="41.16512" lon="-122.43337" />
      <trkpt lat="41.165" lon="-122.43334" />
      <trkpt lat="41.16489" lon="-122.43327" />
      <trkpt lat="41.16472" lon="-122.43324" />
      <trkpt lat="41.16463" lon="-122.43318" />
      <trkpt lat="41.16452" lon="-122.43314" />
      <trkpt lat="41.16443" lon="-122.43307" />
      <trkpt lat="41.16431" lon="-122.43305" />
      <trkpt lat="41.16408" lon="-122.43291" />
      <trkpt lat="41.16401" lon="-122.43289" />
      <trkpt lat="41.16384" lon="-122.43276" />
      <trkpt lat="41.16376" lon="-122.43275" />
      <trkpt lat="41.16347" lon="-122.43262" />
      <trkpt lat="41.16328" lon="-122.43259" />
      <trkpt lat="41.16308" lon="-122.43258" />
      <trkpt lat="41.16276" lon="-122.43244" />
      <trkpt lat="41.16226" lon="-122.43191" />
      <trkpt lat="41.162" lon="-122.43172" />
      <trkpt lat="41.16192" lon="-122.43169" />
      <trkpt lat="41.16157" lon="-122.43165" />
      <trkpt lat="41.16138" lon="-122.43174" />
      <trkpt lat="41.16123" lon="-122.43178" />
      <trkpt lat="41.16104" lon="-122.43192" />
      <trkpt lat="41.16092" lon="-122.43194" />
      <trkpt lat="41.16085" lon="-122.43199" />
      <trkpt lat="41.16075" lon="-122.43201" />
      <trkpt lat="41.16061" lon="-122.4321" />
      <trkpt lat="41.1605" lon="-122.43214" />
      <trkpt lat="41.16029" lon="-122.43217" />
      <trkpt lat="41.16012" lon="-122.43215" />
      <trkpt lat="41.15984" lon="-122.43203" />
      <trkpt lat="41.15962" lon="-122.43188" />
      <trkpt lat="41.1594" lon="-122.43165" />
      <trkpt lat="41.15931" lon="-122.43149" />
      <trkpt lat="41.15927" lon="-122.43137" />
      <trkpt lat="41.15924" lon="-122.431" />
      <trkpt lat="41.1592" lon="-122.43081" />
      <trkpt lat="41.15907" lon="-122.43049" />
      <trkpt lat="41.15898" lon="-122.43037" />
      <trkpt lat="41.15894" lon="-122.43031" />
      <trkpt lat="41.15884" lon="-122.42998" />
      <trkpt lat="41.15881" lon="-122.42964" />
      <trkpt lat="41.15883" lon="-122.42948" />
      <trkpt lat="41.15882" lon="-122.42921" />
      <trkpt lat="41.15885" lon="-122.4287" />
      <trkpt lat="41.15882" lon="-122.42855" />
      <trkpt lat="41.15876" lon="-122.42842" />
      <trkpt lat="41.15865" lon="-122.42834" />
      <trkpt lat="41.1585" lon="-122.42833" />
      <trkpt lat="41.15836" lon="-122.42835" />
      <trkpt lat="41.15828" lon="-122.42832" />
      <trkpt lat="41.15812" lon="-122.42834" />
      <trkpt lat="41.15808" lon="-122.42837" />
      <trkpt lat="41.15793" lon="-122.42834" />
      <trkpt lat="41.15786" lon="-122.42838" />
      <trkpt lat="41.15779" lon="-122.42835" />
      <trkpt lat="41.15768" lon="-122.42838" />
      <trkpt lat="41.15763" lon="-122.42835" />
      <trkpt lat="41.15754" lon="-122.42837" />
      <trkpt lat="41.15743" lon="-122.42834" />
      <trkpt lat="41.15734" lon="-122.42835" />
      <trkpt lat="41.15716" lon="-122.42825" />
      <trkpt lat="41.15705" lon="-122.42815" />
      <trkpt lat="41.15698" lon="-122.42813" />
      <trkpt lat="41.15692" lon="-122.42804" />
      <trkpt lat="41.15686" lon="-122.42798" />
      <trkpt lat="41.15674" lon="-122.42794" />
      <trkpt lat="41.1566" lon="-122.42782" />
      <trkpt lat="41.15653" lon="-122.42782" />
      <trkpt lat="41.15643" lon="-122.42773" />
      <trkpt lat="41.15639" lon="-122.42772" />
      <trkpt lat="41.15634" lon="-122.42774" />
      <trkpt lat="41.15626" lon="-122.42768" />
      <trkpt lat="41.1562" lon="-122.4277" />
      <trkpt lat="41.15614" lon="-122.42764" />
      <trkpt lat="41.15609" lon="-122.42767" />
      <trkpt lat="41.15601" lon="-122.42763" />
      <trkpt lat="41.1559" lon="-122.42766" />
      <trkpt lat="41.15587" lon="-122.42766" />
      <trkpt lat="41.15582" lon="-122.42761" />
      <trkpt lat="41.15578" lon="-122.42762" />
      <trkpt lat="41.15573" lon="-122.42765" />
      <trkpt lat="41.15571" lon="-122.42771" />
      <trkpt lat="41.15566" lon="-122.42771" />
      <trkpt lat="41.15556" lon="-122.42776" />
      <trkpt lat="41.15552" lon="-122.4278" />
      <trkpt lat="41.15551" lon="-122.42784" />
      <trkpt lat="41.15542" lon="-122.42787" />
      <trkpt lat="41.15538" lon="-122.42792" />
      <trkpt lat="41.15527" lon="-122.42795" />
      <trkpt lat="41.15516" lon="-122.42803" />
      <trkpt lat="41.15507" lon="-122.42805" />
      <trkpt lat="41.15496" lon="-122.42816" />
      <trkpt lat="41.15487" lon="-122.42818" />
      <trkpt lat="41.15478" lon="-122.42825" />
      <trkpt lat="41.15475" lon="-122.42825" />
      <trkpt lat="41.15466" lon="-122.42835" />
      <trkpt lat="41.15462" lon="-122.42833" />
      <trkpt lat="41.15459" lon="-122.42835" />
      <trkpt lat="41.15455" lon="-122.4284" />
      <trkpt lat="41.15452" lon="-122.42839" />
      <trkpt lat="41.15448" lon="-122.42841" />
      <trkpt lat="41.15447" lon="-122.42846" />
      <trkpt lat="41.15444" lon="-122.4285" />
      <trkpt lat="41.15439" lon="-122.42852" />
      <trkpt lat="41.15436" lon="-122.42862" />
      <trkpt lat="41.15432" lon="-122.42863" />
      <trkpt lat="41.15426" lon="-122.42867" />
      <trkpt lat="41.15426" lon="-122.42873" />
      <trkpt lat="41.1542" lon="-122.42882" />
      <trkpt lat="41.15421" lon="-122.42894" />
      <trkpt lat="41.15415" lon="-122.42902" />
      <trkpt lat="41.15413" lon="-122.42909" />
      <trkpt lat="41.15413" lon="-122.42946" />
      <trkpt lat="41.15415" lon="-122.42953" />
      <trkpt lat="41.15417" lon="-122.4297" />
      <trkpt lat="41.15421" lon="-122.42973" />
      <trkpt lat="41.15424" lon="-122.42986" />
      <trkpt lat="41.15423" lon="-122.43009" />
      <trkpt lat="41.15421" lon="-122.43022" />
      <trkpt lat="41.15424" lon="-122.43033" />
      <trkpt lat="41.15422" lon="-122.43043" />
      <trkpt lat="41.15426" lon="-122.43048" />
      <trkpt lat="41.15422" lon="-122.43059" />
      <trkpt lat="41.15424" lon="-122.43066" />
      <trkpt lat="41.15424" lon="-122.43079" />
      <trkpt lat="41.15427" lon="-122.43093" />
      <trkpt lat="41.15423" lon="-122.43101" />
      <trkpt lat="41.15425" lon="-122.43111" />
      <trkpt lat="41.15424" lon="-122.43117" />
      <trkpt lat="41.15425" lon="-122.43123" />
      <trkpt lat="41.15429" lon="-122.43132" />
      <trkpt lat="41.15427" lon="-122.43138" />
      <trkpt lat="41.15427" lon="-122.43143" />
      <trkpt lat="41.1543" lon="-122.43148" />
      <trkpt lat="41.15432" lon="-122.43149" />
      <trkpt lat="41.15432" lon="-122.43158" />
      <trkpt lat="41.15433" lon="-122.43161" />
      <trkpt lat="41.15437" lon="-122.43164" />
      <trkpt lat="41.15438" lon="-122.43173" />
      <trkpt lat="41.15443" lon="-122.43177" />
      <trkpt lat="41.15444" lon="-122.43189" />
      <trkpt lat="41.15449" lon="-122.43193" />
      <trkpt lat="41.15453" lon="-122.43206" />
      <trkpt lat="41.15458" lon="-122.43207" />
      <trkpt lat="41.1546" lon="-122.43217" />
      <trkpt lat="41.15466" lon="-122.43221" />
      <trkpt lat="41.15468" lon="-122.43233" />
      <trkpt lat="41.15475" lon="-122.4324" />
      <trkpt lat="41.15476" lon="-122.43249" />
      <trkpt lat="41.15483" lon="-122.43255" />
      <trkpt lat="41.15483" lon="-122.43264" />
      <trkpt lat="41.15485" lon="-122.43268" />
      <trkpt lat="41.15492" lon="-122.43272" />
      <trkpt lat="41.15493" lon="-122.4328" />
      <trkpt lat="41.155" lon="-122.43286" />
      <trkpt lat="41.15507" lon="-122.43299" />
      <trkpt lat="41.15512" lon="-122.43305" />
      <trkpt lat="41.15513" lon="-122.43314" />
      <trkpt lat="41.15518" lon="-122.43321" />
      <trkpt lat="41.15519" lon="-122.43339" />
      <trkpt lat="41.15518" lon="-122.43351" />
      <trkpt lat="41.15513" lon="-122.43368" />
      <trkpt lat="41.15507" lon="-122.43374" />
      <trkpt lat="41.15506" lon="-122.43382" />
      <trkpt lat="41.15502" lon="-122.43384" />
      <trkpt lat="41.15498" lon="-122.43396" />
      <trkpt lat="41.15493" lon="-122.43401" />
      <trkpt lat="41.15494" lon="-122.43409" />
      <trkpt lat="41.15489" lon="-122.43411" />
      <trkpt lat="41.15487" lon="-122.43413" />
      <trkpt lat="41.15489" lon="-122.43421" />
      <trkpt lat="41.15483" lon="-122.43428" />
      <trkpt lat="41.15483" lon="-122.43439" />
      <trkpt lat="41.15477" lon="-122.43442" />
      <trkpt lat="41.15479" lon="-122.4345" />
      <trkpt lat="41.15475" lon="-122.43457" />
      <trkpt lat="41.15477" lon="-122.43463" />
      <trkpt lat="41.15474" lon="-122.43468" />
      <trkpt lat="41.15476" lon="-122.43474" />
      <trkpt lat="41.15471" lon="-122.43482" />
      <trkpt lat="41.15469" lon="-122.435" />
      <trkpt lat="41.15471" lon="-122.43512" />
      <trkpt lat="41.15467" lon="-122.43519" />
      <trkpt lat="41.1547" lon="-122.43527" />
      <trkpt lat="41.15467" lon="-122.43536" />
      <trkpt lat="41.15469" lon="-122.43546" />
      <trkpt lat="41.15464" lon="-122.43552" />
      <trkpt lat="41.15463" lon="-122.43562" />
      <trkpt lat="41.15457" lon="-122.43567" />
      <trkpt lat="41.15454" lon="-122.43571" />
      <trkpt lat="41.15453" lon="-122.43586" />
      <trkpt lat="41.15447" lon="-122.43592" />
      <trkpt lat="41.15443" lon="-122.43603" />
      <trkpt lat="41.15443" lon="-122.43609" />
      <trkpt lat="41.15439" lon="-122.43613" />
      <trkpt lat="41.15437" lon="-122.43621" />
      <trkpt lat="41.15433" lon="-122.43626" />
      <trkpt lat="41.15434" lon="-122.43633" />
      <trkpt lat="41.15428" lon="-122.43641" />
      <trkpt lat="41.15428" lon="-122.43648" />
      <trkpt lat="41.15424" lon="-122.43653" />
      <trkpt lat="41.15422" lon="-122.43665" />
      <trkpt lat="41.15417" lon="-122.43676" />
      <trkpt lat="41.15419" lon="-122.43685" />
      <trkpt lat="41.15414" lon="-122.43709" />
      <trkpt lat="41.15409" lon="-122.43718" />
      <trkpt lat="41.15409" lon="-122.43727" />
      <trkpt lat="41.15405" lon="-122.43735" />
      <trkpt lat="41.15406" lon="-122.43751" />
      <trkpt lat="41.15402" lon="-122.4376" />
      <trkpt lat="41.15403" lon="-122.43783" />
      <trkpt lat="41.15404" lon="-122.43787" />
      <trkpt lat="41.15409" lon="-122.43792" />
      <trkpt lat="41.1541" lon="-122.43802" />
      <trkpt lat="41.15413" lon="-122.43804" />
      <trkpt lat="41.15415" lon="-122.43815" />
      <trkpt lat="41.15418" lon="-122.43817" />
      <trkpt lat="41.15422" lon="-122.43827" />
      <trkpt lat="41.15426" lon="-122.43831" />
      <trkpt lat="41.15433" lon="-122.43855" />
      <trkpt lat="41.15439" lon="-122.43858" />
      <trkpt lat="41.15441" lon="-122.43867" />
      <trkpt lat="41.15444" lon="-122.43872" />
      <trkpt lat="41.15466" lon="-122.43893" />
      <trkpt lat="41.15471" lon="-122.43895" />
      <trkpt lat="41.15473" lon="-122.43898" />
      <trkpt lat="41.15482" lon="-122.43899" />
      <trkpt lat="41.15485" lon="-122.43903" />
      <trkpt lat="41.15491" lon="-122.43906" />
      <trkpt lat="41.15495" lon="-122.43907" />
      <trkpt lat="41.15498" lon="-122.43905" />
      <trkpt lat="41.15505" lon="-122.43908" />
      <trkpt lat="41.1551" lon="-122.43913" />
      <trkpt lat="41.15518" lon="-122.4391" />
      <trkpt lat="41.15526" lon="-122.43912" />
      <trkpt lat="41.15534" lon="-122.43911" />
      <trkpt lat="41.1554" lon="-122.43914" />
      <trkpt lat="41.15554" lon="-122.43909" />
      <trkpt lat="41.1556" lon="-122.43915" />
      <trkpt lat="41.15569" lon="-122.4391" />
      <trkpt lat="41.15572" lon="-122.43911" />
      <trkpt lat="41.15576" lon="-122.43916" />
      <trkpt lat="41.15581" lon="-122.43913" />
      <trkpt lat="41.15584" lon="-122.43913" />
      <trkpt lat="41.15588" lon="-122.43916" />
      <trkpt lat="41.15593" lon="-122.43927" />
      <trkpt lat="41.15601" lon="-122.4393" />
      <trkpt lat="41.15604" lon="-122.43937" />
      <trkpt lat="41.15608" lon="-122.43941" />
      <trkpt lat="41.15611" lon="-122.43949" />
      <trkpt lat="41.15618" lon="-122.43954" />
      <trkpt lat="41.15619" lon="-122.4396" />
      <trkpt lat="41.15624" lon="-122.43962" />
      <trkpt lat="41.15627" lon="-122.43965" />
      <trkpt lat="41.15641" lon="-122.43975" />
      <trkpt lat="41.1565" lon="-122.43971" />
      <trkpt lat="41.15655" lon="-122.43968" />
      <trkpt lat="41.15665" lon="-122.43945" />
      <trkpt lat="41.15672" lon="-122.43938" />
      <trkpt lat="41.1568" lon="-122.43921" />
      <trkpt lat="41.157" lon="-122.43899" />
      <trkpt lat="41.15712" lon="-122.43878" />
      <trkpt lat="41.15732" lon="-122.43862" />
      <trkpt lat="41.15757" lon="-122.43848" />
      <trkpt lat="41.15762" lon="-122.43843" />
      <trkpt lat="41.1578" lon="-122.43838" />
      <trkpt lat="41.15785" lon="-122.43842" />
      <trkpt lat="41.1579" lon="-122.43838" />
      <trkpt lat="41.15796" lon="-122.43837" />
      <trkpt lat="41.15804" lon="-122.4384" />
      <trkpt lat="41.15809" lon="-122.43845" />
      <trkpt lat="41.15817" lon="-122.43844" />
      <trkpt lat="41.15824" lon="-122.43849" />
      <trkpt lat="41.15829" lon="-122.43846" />
      <trkpt lat="41.15831" lon="-122.43849" />
      <trkpt lat="41.15839" lon="-122.43847" />
      <trkpt lat="41.15841" lon="-122.43851" />
      <trkpt lat="41.15852" lon="-122.43851" />
      <trkpt lat="41.15856" lon="-122.43854" />
      <trkpt lat="41.1586" lon="-122.43859" />
      <trkpt lat="41.15869" lon="-122.43862" />
      <trkpt lat="41.15871" lon="-122.43866" />
      <trkpt lat="41.15881" lon="-122.43875" />
      <trkpt lat="41.15884" lon="-122.43887" />
      <trkpt lat="41.15893" lon="-122.4389" />
      <trkpt lat="41.15896" lon="-122.43894" />
      <trkpt lat="41.159" lon="-122.43909" />
      <trkpt lat="41.15908" lon="-122.43916" />
      <trkpt lat="41.1591" lon="-122.43924" />
      <trkpt lat="41.15917" lon="-122.43934" />
      <trkpt lat="41.15919" lon="-122.43943" />
      <trkpt lat="41.15926" lon="-122.4395" />
      <trkpt lat="41.15937" lon="-122.43974" />
      <trkpt lat="41.15942" lon="-122.43981" />
      <trkpt lat="41.15953" lon="-122.43988" />
      <trkpt lat="41.15961" lon="-122.43995" />
      <trkpt lat="41.15967" lon="-122.43997" />
      <trkpt lat="41.1597" lon="-122.44004" />
      <trkpt lat="41.15976" lon="-122.44005" />
      <trkpt lat="41.15978" lon="-122.44011" />
      <trkpt lat="41.15988" lon="-122.44013" />
      <trkpt lat="41.16005" lon="-122.44026" />
      <trkpt lat="41.16009" lon="-122.44035" />
      <trkpt lat="41.1602" lon="-122.44038" />
      <trkpt lat="41.16026" lon="-122.44046" />
      <trkpt lat="41.16033" lon="-122.44048" />
      <trkpt lat="41.16035" lon="-122.44052" />
      <trkpt lat="41.1604" lon="-122.44051" />
      <trkpt lat="41.16046" lon="-122.44058" />
      <trkpt lat="41.16053" lon="-122.44059" />
      <trkpt lat="41.16057" lon="-122.44066" />
      <trkpt lat="41.16061" lon="-122.44065" />
      <trkpt lat="41.16065" lon="-122.44066" />
      <trkpt lat="41.16069" lon="-122.4407" />
      <trkpt lat="41.16076" lon="-122.44073" />
      <trkpt lat="41.16086" lon="-122.4408" />
      <trkpt lat="41.16091" lon="-122.44095" />
      <trkpt lat="41.16098" lon="-122.44102" />
      <trkpt lat="41.16104" lon="-122.44112" />
      <trkpt lat="41.16109" lon="-122.44128" />
      <trkpt lat="41.16117" lon="-122.44142" />
      <trkpt lat="41.1612" lon="-122.44156" />
      <trkpt lat="41.16129" lon="-122.44161" />
      <trkpt lat="41.16131" lon="-122.44176" />
      <trkpt lat="41.1614" lon="-122.44182" />
      <trkpt lat="41.16141" lon="-122.44194" />
      <trkpt lat="41.16147" lon="-122.44199" />
      <trkpt lat="41.16147" lon="-122.44211" />
      <trkpt lat="41.16154" lon="-122.44218" />
      <trkpt lat="41.16152" lon="-122.44223" />
      <trkpt lat="41.16153" lon="-122.44228" />
      <trkpt lat="41.16164" lon="-122.44247" />
      <trkpt lat="41.16168" lon="-122.44259" />
      <trkpt lat="41.16168" lon="-122.44268" />
      <trkpt lat="41.16171" lon="-122.44273" />
      <trkpt lat="41.16178" lon="-122.44281" />
      <trkpt lat="41.16187" lon="-122.443" />
      <trkpt lat="41.16193" lon="-122.44302" />
      <trkpt lat="41.16196" lon="-122.44305" />
      <trkpt lat="41.16207" lon="-122.44326" />
      <trkpt lat="41.16228" lon="-122.44343" />
      <trkpt lat="41.16231" lon="-122.44355" />
      <trkpt lat="41.16238" lon="-122.4436" />
      <trkpt lat="41.16241" lon="-122.44373" />
      <trkpt lat="41.16247" lon="-122.44378" />
      <trkpt lat="41.16245" lon="-122.44385" />
      <trkpt lat="41.16249" lon="-122.44387" />
      <trkpt lat="41.16252" lon="-122.44394" />
      <trkpt lat="41.16252" lon="-122.44404" />
      <trkpt lat="41.16257" lon="-122.44415" />
      <trkpt lat="41.16255" lon="-122.4443" />
      <trkpt lat="41.16259" lon="-122.4445" />
      <trkpt lat="41.16254" lon="-122.44454" />
      <trkpt lat="41.16255" lon="-122.44465" />
      <trkpt lat="41.16251" lon="-122.44472" />
      <trkpt lat="41.16252" lon="-122.44477" />
      <trkpt lat="41.16248" lon="-122.44481" />
      <trkpt lat="41.16248" lon="-122.44489" />
      <trkpt lat="41.16243" lon="-122.44494" />
      <trkpt lat="41.16244" lon="-122.44504" />
      <trkpt lat="41.16239" lon="-122.44511" />
      <trkpt lat="41.1624" lon="-122.44529" />
      <trkpt lat="41.16249" lon="-122.44544" />
      <trkpt lat="41.16252" lon="-122.44544" />
      <trkpt lat="41.16258" lon="-122.44546" />
      <trkpt lat="41.16263" lon="-122.44549" />
      <trkpt lat="41.16268" lon="-122.44556" />
      <trkpt lat="41.16278" lon="-122.44558" />
      <trkpt lat="41.16322" lon="-122.44584" />
      <trkpt lat="41.16327" lon="-122.44595" />
      <trkpt lat="41.16333" lon="-122.44596" />
      <trkpt lat="41.16336" lon="-122.44598" />
      <trkpt lat="41.16341" lon="-122.44609" />
      <trkpt lat="41.16348" lon="-122.44615" />
      <trkpt lat="41.16353" lon="-122.44625" />
      <trkpt lat="41.16357" lon="-122.44629" />
      <trkpt lat="41.16361" lon="-122.44645" />
      <trkpt lat="41.16363" lon="-122.44649" />
      <trkpt lat="41.16373" lon="-122.44658" />
      <trkpt lat="41.16378" lon="-122.44675" />
      <trkpt lat="41.16387" lon="-122.44695" />
      <trkpt lat="41.16387" lon="-122.4471" />
      <trkpt lat="41.16391" lon="-122.44719" />
      <trkpt lat="41.16389" lon="-122.44732" />
      <trkpt lat="41.16393" lon="-122.4474" />
      <trkpt lat="41.16394" lon="-122.4475" />
      <trkpt lat="41.16394" lon="-122.44761" />
      <trkpt lat="41.16391" lon="-122.44772" />
    </trkseg>
  </trk>
</gpx>