<?xml version="1.0" encoding="UTF-8"?>
<gpx version="1.1" creator="strava-segment-scraper" xmlns="http://www.topografix.com/GPX/1/1">
  <trk>
    <name>11th Flint to Dover North</name>
    <trkseg>
      <trkpt lat="36.37326" lon="-119.65502" />
      <trkpt lat="36.37356" lon="-119.65506" />
      <trkpt lat="36.374" lon="-119.65506" />
      <trkpt lat="36.37493" lon="-119.65503" />
      <trkpt lat="36.37564" lon="-119.65506" />
      <trkpt lat="36.3767" lon="-119.65499" />
      <trkpt lat="36.3774" lon="-119.65497" />
      <trkpt lat="36.37978" lon="-119.655" />
      <trkpt lat="36.38138" lon="-119.65495" />
      <trkpt lat="36.38171" lon="-119.65495" />
      <trkpt lat="36.38206" lon="-119.65492" />
      <trkpt lat="36.38281" lon="-119.65492" />
      <trkpt lat="36.38359" lon="-119.65497" />
      <trkpt lat="36.38408" lon="-119.65496" />
      <trkpt lat="36.38453" lon="-119.65497" />
      <trkpt lat="36.3853" lon="-119.65495" />
      <trkpt lat="36.38586" lon="-119.65499" />
      <trkpt lat="36.38641" lon="-119.65497" />
      <trkpt lat="36.38865" lon="-119.65501" />
      <trkpt lat="36.38948" lon="-119.65498" />
      <trkpt lat="36.39025" lon="-119.65499" />
      <trkpt lat="36.39067" lon="-119.65501" />
      <trkpt lat="36.39154" lon="-119.65499" />
      <trkpt lat="36.39197" lon="-119.65501" />
      <trkpt lat="36.39269" lon="-119.65497" />
      <trkpt lat="36.39318" lon="-119.65499" />
      <trkpt lat="36.39405" lon="-119.65496" />
      <trkpt lat="36.39518" lon="-119.655" />
      <trkpt lat="36.39606" lon="-119.65495" />
      <trkpt lat="36.39658" lon="-119.65499" />
      <trkpt lat="36.39701" lon="-119.655" />
      <trkpt lat="36.39792" lon="-119.65495" />
      <trkpt lat="36.3987" lon="-119.65498" />
      <trkpt lat="36.39974" lon="-119.65495" />
      <trkpt lat="36.40055" lon="-119.65496" />
      <trkpt lat="36.40099" lon="-119.65493" />
      <trkpt lat="36.40108" lon="-119.65497" />
      <trkpt lat="36.40111" lon="-119.65501" />
      <trkpt lat="36.40132" lon="-119.65497" />
      <trkpt lat="36.40172" lon="-119.65497" />
      <trkpt lat="36.40182" lon="-119.65492" />
      <trkpt lat="36.40197" lon="-119.65491" />
      <trkpt lat="36.40268" lon="-119.65492" />
      <trkpt lat="36.40373" lon="-119.6549" />
      <trkpt lat="36.40442" lon="-119.65493" />
      <trkpt lat="36.40523" lon="-119.65492" />
      <trkpt lat="36.40581" lon="-119.6549" />
      <trkpt lat="36.40808" lon="-119.65489" />
      <trkpt lat="36.41004" lon="-119.65484" />
      <trkpt lat="36.41124" lon="-119.65485" />
      <trkpt lat="36.41146" lon="-119.65487" />
      <trkpt lat="36.4123" lon="-119.65485" />
      <trkpt lat="36.41299" lon="-119.6548" />
      <trkpt lat="36.41369" lon="-119.65477" />
    </trkseg>
  </trk>
</gpx>