<?xml version="1.0" encoding="UTF-8"?>
<gpx version="1.1" creator="strava-segment-scraper" xmlns="http://www.topografix.com/GPX/1/1">
  <trk>
    <name>Goat Rock to Coleman Valley Rd</name>
    <trkseg>
      <trkpt lat="38.43052" lon="-123.10869" />
      <trkpt lat="38.42986" lon="-123.10855" />
      <trkpt lat="38.42956" lon="-123.10847" />
      <trkpt lat="38.42899" lon="-123.10837" />
      <trkpt lat="38.42876" lon="-123.1083" />
      <trkpt lat="38.42864" lon="-123.10824" />
      <trkpt lat="38.4283" lon="-123.10803" />
      <trkpt lat="38.42774" lon="-123.10759" />
      <trkpt lat="38.42715" lon="-123.107" />
      <trkpt lat="38.42678" lon="-123.10658" />
      <trkpt lat="38.42654" lon="-123.10638" />
      <trkpt lat="38.42638" lon="-123.1063" />
      <trkpt lat="38.42589" lon="-123.10622" />
      <trkpt lat="38.42573" lon="-123.10618" />
      <trkpt lat="38.42557" lon="-123.10611" />
      <trkpt lat="38.42532" lon="-123.10596" />
      <trkpt lat="38.42485" lon="-123.10565" />
      <trkpt lat="38.42367" lon="-123.10479" />
      <trkpt lat="38.42336" lon="-123.10461" />
      <trkpt lat="38.42314" lon="-123.10454" />
      <trkpt lat="38.42257" lon="-123.10448" />
      <trkpt lat="38.42228" lon="-123.10438" />
      <trkpt lat="38.42203" lon="-123.10425" />
      <trkpt lat="38.42123" lon="-123.10376" />
      <trkpt lat="38.42035" lon="-123.10318" />
      <trkpt lat="38.41975" lon="-123.10285" />
      <trkpt lat="38.4194" lon="-123.10261" />
      <trkpt lat="38.41916" lon="-123.1024" />
      <trkpt lat="38.41891" lon="-123.10221" />
      <trkpt lat="38.41773" lon="-123.10142" />
      <trkpt lat="38.41731" lon="-123.10118" />
      <trkpt lat="38.41715" lon="-123.10112" />
      <trkpt lat="38.41699" lon="-123.10109" />
      <trkpt lat="38.41612" lon="-123.10097" />
      <trkpt lat="38.41585" lon="-123.10091" />
      <trkpt lat="38.41568" lon="-123.10085" />
      <trkpt lat="38.4156" lon="-123.10079" />
      <trkpt lat="38.41548" lon="-123.10064" />
      <trkpt lat="38.4154" lon="-123.10046" />
      <trkpt lat="38.41537" lon="-123.10026" />
      <trkpt lat="38.41541" lon="-123.09984" />
      <trkpt lat="38.41546" lon="-123.09963" />
      <trkpt lat="38.41554" lon="-123.09943" />
      <trkpt lat="38.41567" lon="-123.09915" />
      <trkpt lat="38.41573" lon="-123.09895" />
      <trkpt lat="38.41571" lon="-123.09877" />
      <trkpt lat="38.41561" lon="-123.09861" />
      <trkpt lat="38.41549" lon="-123.09852" />
      <trkpt lat="38.41534" lon="-123.09853" />
      <trkpt lat="38.4151" lon="-123.09864" />
      <trkpt lat="38.41498" lon="-123.09872" />
      <trkpt lat="38.41472" lon="-123.09896" />
      <trkpt lat="38.41456" lon="-123.09906" />
      <trkpt lat="38.41417" lon="-123.09919" />
      <trkpt lat="38.41395" lon="-123.09924" />
      <trkpt lat="38.41384" lon="-123.09925" />
      <trkpt lat="38.41365" lon="-123.09923" />
      <trkpt lat="38.4133" lon="-123.09914" />
      <trkpt lat="38.41267" lon="-123.09891" />
      <trkpt lat="38.41209" lon="-123.09875" />
      <trkpt lat="38.41185" lon="-123.0987" />
      <trkpt lat="38.41117" lon="-123.09846" />
      <trkpt lat="38.41077" lon="-123.09833" />
      <trkpt lat="38.41063" lon="-123.09828" />
      <trkpt lat="38.41049" lon="-123.09818" />
      <trkpt lat="38.41038" lon="-123.09805" />
      <trkpt lat="38.41029" lon="-123.0979" />
      <trkpt lat="38.41022" lon="-123.09771" />
      <trkpt lat="38.41009" lon="-123.09729" />
      <trkpt lat="38.41004" lon="-123.09718" />
      <trkpt lat="38.40992" lon="-123.09703" />
      <trkpt lat="38.40981" lon="-123.09693" />
      <trkpt lat="38.4094" lon="-123.09681" />
      <trkpt lat="38.40877" lon="-123.09668" />
      <trkpt lat="38.40856" lon="-123.0966" />
      <trkpt lat="38.40784" lon="-123.0961" />
      <trkpt lat="38.40755" lon="-123.09593" />
      <trkpt lat="38.40711" lon="-123.09563" />
      <trkpt lat="38.40696" lon="-123.09558" />
      <trkpt lat="38.40681" lon="-123.09556" />
      <trkpt lat="38.40665" lon="-123.09556" />
      <trkpt lat="38.40649" lon="-123.0956" />
      <trkpt lat="38.40598" lon="-123.09575" />
      <trkpt lat="38.40588" lon="-123.09576" />
      <trkpt lat="38.40569" lon="-123.09575" />
      <trkpt lat="38.4054" lon="-123.09567" />
      <trkpt lat="38.40462" lon="-123.09533" />
      <trkpt lat="38.40432" lon="-123.09524" />
      <trkpt lat="38.40355" lon="-123.09507" />
      <trkpt lat="38.40322" lon="-123.09502" />
      <trkpt lat="38.40289" lon="-123.09502" />
      <trkpt lat="38.40239" lon="-123.09507" />
      <trkpt lat="38.40222" lon="-123.09507" />
      <trkpt lat="38.40202" lon="-123.09502" />
      <trkpt lat="38.40162" lon="-123.09483" />
      <trkpt lat="38.40134" lon="-123.09465" />
      <trkpt lat="38.40121" lon="-123.09453" />
      <trkpt lat="38.40111" lon="-123.09434" />
      <trkpt lat="38.40099" lon="-123.09398" />
      <trkpt lat="38.40074" lon="-123.09306" />
      <trkpt lat="38.40063" lon="-123.09289" />
      <trkpt lat="38.40047" lon="-123.09284" />
      <trkpt lat="38.4003" lon="-123.09292" />
      <trkpt lat="38.40014" lon="-123.09317" />
      <trkpt lat="38.4" lon="-123.09332" />
      <trkpt lat="38.39974" lon="-123.09346" />
      <trkpt lat="38.39958" lon="-123.09351" />
      <trkpt lat="38.39943" lon="-123.09353" />
      <trkpt lat="38.39875" lon="-123.09355" />
      <trkpt lat="38.39824" lon="-123.0936" />
      <trkpt lat="38.39789" lon="-123.09358" />
      <trkpt lat="38.39766" lon="-123.09354" />
      <trkpt lat="38.39675" lon="-123.0933" />
      <trkpt lat="38.39623" lon="-123.09319" />
      <trkpt lat="38.39581" lon="-123.09306" />
      <trkpt lat="38.39563" lon="-123.09297" />
      <trkpt lat="38.39553" lon="-123.0929" />
      <trkpt lat="38.39535" lon="-123.09273" />
      <trkpt lat="38.39518" lon="-123.0925" />
      <trkpt lat="38.39418" lon="-123.09101" />
      <trkpt lat="38.3941" lon="-123.09076" />
      <trkpt lat="38.39409" lon="-123.09063" />
      <trkpt lat="38.39411" lon="-123.09049" />
      <trkpt lat="38.39415" lon="-123.09036" />
      <trkpt lat="38.39438" lon="-123.08979" />
      <trkpt lat="38.39473" lon="-123.08915" />
      <trkpt lat="38.39477" lon="-123.08899" />
      <trkpt lat="38.39476" lon="-123.08881" />
      <trkpt lat="38.39468" lon="-123.08867" />
      <trkpt lat="38.39457" lon="-123.08861" />
      <trkpt lat="38.39445" lon="-123.0886" />
      <trkpt lat="38.39356" lon="-123.08865" />
      <trkpt lat="38.39305" lon="-123.08864" />
      <trkpt lat="38.39291" lon="-123.08863" />
      <trkpt lat="38.39278" lon="-123.08859" />
      <trkpt lat="38.39266" lon="-123.08853" />
      <trkpt lat="38.39255" lon="-123.08844" />
      <trkpt lat="38.39235" lon="-123.08821" />
      <trkpt lat="38.39227" lon="-123.08808" />
      <trkpt lat="38.39194" lon="-123.08738" />
      <trkpt lat="38.39128" lon="-123.08617" />
      <trkpt lat="38.39109" lon="-123.08578" />
      <trkpt lat="38.39096" lon="-123.08536" />
      <trkpt lat="38.3909" lon="-123.0852" />
      <trkpt lat="38.39082" lon="-123.08506" />
      <trkpt lat="38.3907" lon="-123.08493" />
      <trkpt lat="38.39044" lon="-123.08472" />
      <trkpt lat="38.38993" lon="-123.08447" />
      <trkpt lat="38.38966" lon="-123.08435" />
      <trkpt lat="38.38937" lon="-123.08425" />
      <trkpt lat="38.38907" lon="-123.08417" />
      <trkpt lat="38.38892" lon="-123.08415" />
      <trkpt lat="38.38819" lon="-123.08419" />
      <trkpt lat="38.38791" lon="-123.08418" />
      <trkpt lat="38.38697" lon="-123.08407" />
      <trkpt lat="38.38652" lon="-123.08406" />
      <trkpt lat="38.38633" lon="-123.08404" />
      <trkpt lat="38.38613" lon="-123.08399" />
      <trkpt lat="38.38594" lon="-123.08392" />
      <trkpt lat="38.38575" lon="-123.0838" />
      <trkpt lat="38.38558" lon="-123.08365" />
      <trkpt lat="38.38526" lon="-123.0833" />
      <trkpt lat="38.38464" lon="-123.08258" />
      <trkpt lat="38.38441" lon="-123.08236" />
      <trkpt lat="38.38425" lon="-123.08229" />
      <trkpt lat="38.3841" lon="-123.08229" />
      <trkpt lat="38.3838" lon="-123.08242" />
      <trkpt lat="38.38369" lon="-123.08241" />
      <trkpt lat="38.38341" lon="-123.08234" />
      <trkpt lat="38.38322" lon="-123.0822" />
      <trkpt lat="38.38302" lon="-123.08192" />
      <trkpt lat="38.38294" lon="-123.08183" />
      <trkpt lat="38.38275" lon="-123.08169" />
      <trkpt lat="38.38249" lon="-123.08146" />
      <trkpt lat="38.38116" lon="-123.08049" />
      <trkpt lat="38.38089" lon="-123.08035" />
      <trkpt lat="38.38075" lon="-123.0803" />
      <trkpt lat="38.38037" lon="-123.08021" />
      <trkpt lat="38.38018" lon="-123.08022" />
      <trkpt lat="38.38005" lon="-123.08015" />
      <trkpt lat="38.37961" lon="-123.08011" />
      <trkpt lat="38.3788" lon="-123.08012" />
      <trkpt lat="38.37852" lon="-123.0802" />
      <trkpt lat="38.37832" lon="-123.08023" />
      <trkpt lat="38.37814" lon="-123.08029" />
      <trkpt lat="38.37801" lon="-123.08024" />
      <trkpt lat="38.3779" lon="-123.08016" />
      <trkpt lat="38.37777" lon="-123.07996" />
      <trkpt lat="38.37763" lon="-123.07977" />
      <trkpt lat="38.37757" lon="-123.07965" />
      <trkpt lat="38.37746" lon="-123.07938" />
      <trkpt lat="38.37731" lon="-123.07874" />
      <trkpt lat="38.37726" lon="-123.07858" />
      <trkpt lat="38.37717" lon="-123.07844" />
      <trkpt lat="38.37706" lon="-123.07832" />
      <trkpt lat="38.37693" lon="-123.07823" />
      <trkpt lat="38.3767" lon="-123.07811" />
      <trkpt lat="38.37628" lon="-123.07796" />
      <trkpt lat="38.37607" lon="-123.0779" />
      <trkpt lat="38.37565" lon="-123.07785" />
      <trkpt lat="38.37474" lon="-123.07782" />
      <trkpt lat="38.37451" lon="-123.0778" />
      <trkpt lat="38.3744" lon="-123.07777" />
      <trkpt lat="38.37417" lon="-123.07766" />
      <trkpt lat="38.37267" lon="-123.07655" />
      <trkpt lat="38.37224" lon="-123.07619" />
      <trkpt lat="38.37206" lon="-123.07599" />
      <trkpt lat="38.3718" lon="-123.07567" />
      <trkpt lat="38.37136" lon="-123.07503" />
      <trkpt lat="38.37126" lon="-123.07492" />
      <trkpt lat="38.37115" lon="-123.07482" />
      <trkpt lat="38.37102" lon="-123.07477" />
      <trkpt lat="38.37061" lon="-123.07472" />
      <trkpt lat="38.37047" lon="-123.07468" />
      <trkpt lat="38.37035" lon="-123.07461" />
      <trkpt lat="38.37023" lon="-123.07451" />
      <trkpt lat="38.37014" lon="-123.07437" />
      <trkpt lat="38.37008" lon="-123.07421" />
      <trkpt lat="38.37007" lon="-123.07402" />
      <trkpt lat="38.37009" lon="-123.0738" />
      <trkpt lat="38.37019" lon="-123.07337" />
      <trkpt lat="38.37018" lon="-123.0732" />
      <trkpt lat="38.37009" lon="-123.07309" />
      <trkpt lat="38.36996" lon="-123.07307" />
      <trkpt lat="38.36952" lon="-123.07315" />
      <trkpt lat="38.36932" lon="-123.07316" />
      <trkpt lat="38.3691" lon="-123.07313" />
      <trkpt lat="38.36897" lon="-123.07308" />
      <trkpt lat="38.36831" lon="-123.07277" />
      <trkpt lat="38.36801" lon="-123.07261" />
      <trkpt lat="38.36783" lon="-123.07247" />
      <trkpt lat="38.36757" lon="-123.07218" />
      <trkpt lat="38.36746" lon="-123.07208" />
      <trkpt lat="38.36736" lon="-123.07202" />
      <trkpt lat="38.36686" lon="-123.0719" />
      <trkpt lat="38.36669" lon="-123.07183" />
      <trkpt lat="38.36603" lon="-123.07144" />
      <trkpt lat="38.3653" lon="-123.07104" />
      <trkpt lat="38.36513" lon="-123.07093" />
    </trkseg>
  </trk>
</gpx>